Company Name,Address 1,City,State,Zip,Phone,Google Link,Company Name Processed,Status
Chanellos Pizza,3200 High St,PORTSMOUTH,VA,23707-3318,7573972100.0,"https://www.google.com/maps/place/Chanello's+Pizza+%2332/@36.8347366,-76.3407489,17z/data=!3m1!4b1!4m5!3m4!1s0x89baa212cba80a53:0xd92219950172dd42!8m2!3d36.8347366!4d-76.3407489",chanellos_pizza,
Chanellos Pizza,8245 Hampton Blvd,NORFOLK,VA,23505-1025,7574405858.0,"https://www.google.com/maps/place/Chanello's+Pizza+%231/@36.928009,-76.318347,17z/data=!3m1!4b1!4m5!3m4!1s0x89ba997fe547e42f:0x90f52467e57e80a4!8m2!3d36.928009!4d-76.318347",chanellos_pizza,
Chanellos Pizza,2226 Pleasure House Rd,VIRGINIA BEACH,VA,23455-2005,7574642400.0,"https://www.google.com/maps/place/Chanello's+Pizza+%2319/@36.9056756,-76.1345604,17z/data=!3m1!4b1!4m5!3m4!1s0x89ba947f9f77bbcd:0xd8dd9da9595428aa!8m2!3d36.9056756!4d-76.1345604",chanellos_pizza,
Chanellos Pizza,1002 Aragona Blvd,VIRGINIA BEACH,VA,23455-5304,7574732600.0,"https://www.google.com/maps/place/Chanello's+Pizza+%236/@36.869404,-76.14669,17z/data=!3m1!4b1!4m5!3m4!1s0x89ba944c5105a23f:0x6aa1c914da96d44f!8m2!3d36.869404!4d-76.14669",chanellos_pizza,
Chanellos Pizza,1122 George Washington Hwy N,CHESAPEAKE,VA,23323-4908,7574851300.0,"https://www.google.com/maps/place/Chanello's+Pizza+%2333/@36.7819818,-76.3362102,17z/data=!3m1!4b1!4m5!3m4!1s0x89baa32fc8a20eb5:0x27c72a7bc0bad400!8m2!3d36.7819818!4d-76.3362102",chanellos_pizza,
Chanellos Pizza,3201 E Ocean View Ave,NORFOLK,VA,23518-1371,7575882200.0,"https://www.google.com/maps/place/Chanello's+Pizza+%232/@36.932126,-76.20243,17z/data=!3m1!4b1!4m5!3m4!1s0x89ba913f1495a0ff:0x73f9a08a74cc8edc!8m2!3d36.932126!4d-76.20243",chanellos_pizza,
Chanellos Pizza,1017 N King St,HAMPTON,VA,23669-2877,7577281500.0,"https://www.google.com/maps/place/Chanello's+Pizza+%2310/@37.042481,-76.348992,17z/data=!3m1!4b1!4m5!3m4!1s0x89ba8496d14f2e67:0xb475c703ef1b617f!8m2!3d37.042481!4d-76.348992",chanellos_pizza,
Chanellos Pizza,2803 W Broad St,RICHMOND,VA,23230-5112,8043583800.0,"https://www.google.com/maps/place/Chanello's+Pizza+-+Broad+and+Blvd/@37.5624926,-77.4707937,17z/data=!3m1!4b1!4m5!3m4!1s0x89b113fff84a41ed:0xd1f7c5b3f720459!8m2!3d37.5624926!4d-77.4707937",chanellos_pizza,
Chanellos Pizza,906 Crossings Blvd,HOPEWELL,VA,23860-6503,8044522400.0,"https://www.google.com/maps/place/Chanello's+Pizza+-+Hopewell/@37.2602881,-77.3296322,17z/data=!3m1!4b1!4m5!3m4!1s0x89b1074d6d1047f3:0xc296997ebd5269d0!8m2!3d37.2602881!4d-77.3296322",chanellos_pizza,
Chanellos Pizza,10166 W Broad St,GLEN ALLEN,VA,23060-3303,8047400700.0,"https://www.google.com/maps/place/Chanello's+Pizza/@37.6462227,-77.5744263,17z/data=!3m1!4b1!4m5!3m4!1s0x89b16aba96e32bdd:0x1df121753aa90a2a!8m2!3d37.6462227!4d-77.5744263",chanellos_pizza,
Chanellos Pizza,6657 Indian River Rd,VIRGINIA BEACH,VA,23464-3441,7573669600.0,"https://www.google.com/maps/place/Chanello's+Pizza+%2311/@36.819091,-76.221953,17z/data=!3m1!4b1!4m5!3m4!1s0x89babd9dace7bc81:0x26dac2e722fbf6b3!8m2!3d36.819091!4d-76.221953",chanellos_pizza,
Chanellos Pizza,2088 S Independence Blvd,VIRGINIA BEACH,VA,23453-4790,7574160085.0,"https://www.google.com/maps/place/Chanello's+Pizza+%234/@36.7899699,-76.1237053,17z/data=!3m1!4b1!4m5!3m4!1s0x89babfbd207c160d:0xf73c86e82b2298bb!8m2!3d36.7899699!4d-76.1237053",chanellos_pizza,
Chanellos Pizza,1077 Virginia Beach Blvd,VIRGINIA BEACH,VA,23451-5670,7574281700.0,"https://www.google.com/maps/place/Chanello's+Pizza+%233/@36.840979,-75.994648,17z/data=!3m1!4b1!4m5!3m4!1s0x89baea2998386b9d:0x549dc79761d1f91b!8m2!3d36.840979!4d-75.994648",chanellos_pizza,
Chanellos Pizza,3333 Virginia Beach Blvd,VIRGINIA BEACH,VA,23452-5619,7574862100.0,"https://www.google.com/maps/place/Chanello's+Pizza+%2312/@36.8403734,-76.0870315,17z/data=!3m1!4b1!4m5!3m4!1s0x89ba953521e0a167:0xe8eb7de14871d02b!8m2!3d36.8403734!4d-76.0870315",chanellos_pizza,
Chanellos Pizza,5300 Kempsriver Dr,VIRGINIA BEACH,VA,23464-5369,7575231000.0,"https://www.google.com/maps/place/Chanello's+Pizza+%237/@36.8031341,-76.174818,17z/data=!3m1!4b1!4m5!3m4!1s0x89babe7459902fe3:0x6a14b2c299a1c5df!8m2!3d36.8031341!4d-76.174818",chanellos_pizza,
Chanellos Pizza,1673 Richmond Rd,WILLIAMSBURG,VA,23185,7572291010.0,"https://www.google.com/maps/place/Chanello's+Pizza+-+Williamsburg/@37.286559,-76.721936,17z/data=!3m1!4b1!4m5!3m4!1s0x89b0895c59f83af9:0x594d7f75fe2025cb!8m2!3d37.286559!4d-76.721936",chanellos_pizza,
Chanellos Pizza,2129 General Booth Blvd,VIRGINIA BEACH,VA,23454-5872,7574408200.0,"https://www.google.com/maps/place/Chanello's+Pizza+%238/@36.768639,-76.0156442,17z/data=!3m1!4b1!4m5!3m4!1s0x89bac19fc5c918bf:0x48c98b40059a1d46!8m2!3d36.768639!4d-76.0156442",chanellos_pizza,
Chanellos Pizza,1818 Todds Ln,HAMPTON,VA,23666-3139,7578270004.0,"https://www.google.com/maps/place/Chanello's+Pizza+%2326/@37.040084,-76.406182,17z/data=!3m1!4b1!4m5!3m4!1s0x89ba83213dbbc08b:0x74b643140f5b60b5!8m2!3d37.040084!4d-76.406182",chanellos_pizza,
Chanellos Pizza,6213 Chesapeake Blvd,NORFOLK,VA,23513-2005,7578584000.0,"https://www.google.com/maps/place/Chanello's+Pizza+%239/@36.8920903,-76.238324,17z/data=!3m1!4b1!4m5!3m4!1s0x89ba9710c59fbbc9:0x4b7bd022c70b0edb!8m2!3d36.8920903!4d-76.238324",chanellos_pizza,
Chanellos Pizza,11525 Midlothian Tpke,NORTH CHESTERFIELD,VA,23235-4763,8048970057.0,"https://www.google.com/maps/place/Chanello's+Pizza+Midlothian/@37.5036236,-77.6097793,17z/data=!3m1!4b1!4m5!3m4!1s0x89b16d9d3e980bf3:0xa07dbdbfcac47982!8m2!3d37.5036236!4d-77.6097793",chanellos_pizza,
Chanellos Pizza,3608 Benson Rd,GARNER,NC,27529-9337,9197711000.0,"https://www.google.com/maps/place/Chanello's+Pizza+Garner/@35.6304566,-78.6111025,17z/data=!3m1!4b1!4m5!3m4!1s0x89ac622b44836b6d:0x61a08ebccb8a2095!8m2!3d35.6304566!4d-78.6111025",chanellos_pizza,
Chanellos Pizza,307 Johnstown Rd,CHESAPEAKE,VA,23322-5309,7575463331.0,"https://www.google.com/maps/place/Chanello's+Pizza+%2313/@36.711589,-76.23854,17z/data=!3m1!4b1!4m5!3m4!1s0x89babb1cf20fdcaf:0xbeff819008b620b4!8m2!3d36.711589!4d-76.23854",chanellos_pizza,
Chanellos Pizza,109 Volvo Pkwy,CHESAPEAKE,VA,23320-4609,7575491111.0,"https://www.google.com/maps/place/Chanello's+Pizza+%2318/@36.764196,-76.248649,17z/data=!3m1!4b1!4m5!3m4!1s0x89babcbd7820755d:0x20fdec310b1094e9!8m2!3d36.764196!4d-76.248649",chanellos_pizza,
Chanellos Pizza,2 Hidenwood Shopping Ctr,NEWPORT NEWS,VA,23606,7575952600.0,"https://www.google.com/maps/place/Chanello's+Pizza+-+CNU/@37.0695619,-76.4946783,17z/data=!3m1!4b1!4m5!3m4!1s0x89b07856d2b54555:0xc4d4527d7559b5f2!8m2!3d37.0695619!4d-76.4946783",chanellos_pizza,
Chanellos Pizza,901 W 21st St,NORFOLK,VA,23517-1515,7576288000.0,"https://www.google.com/maps/place/Chanello's+Pizza+%235/@36.87157,-76.298106,17z/data=!3m1!4b1!4m5!3m4!1s0x89ba984644f0319f:0xe26b261878364c00!8m2!3d36.87157!4d-76.298106",chanellos_pizza,
Chanellos Pizza,15482 Warwick Blvd,NEWPORT NEWS,VA,23608-1563,7578871300.0,"https://www.google.com/maps/place/Chanello's+Pizza+-+Fort+Eustis/@37.155643,-76.554821,17z/data=!3m1!4b1!4m5!3m4!1s0x89b079341445ed7b:0xb9ca900c2bd1dd1e!8m2!3d37.155643!4d-76.554821",chanellos_pizza,
Chanellos Pizza,5239 S Laburnum Ave,HENRICO,VA,23231-4437,8042360303.0,"https://www.google.com/maps/place/Chanello's+Pizza/@37.5145756,-77.349229,17z/data=!3m1!4b1!4m5!3m4!1s0x89b11a5b8a464efb:0xfa7efec161cfbdd1!8m2!3d37.5145756!4d-77.349229",chanellos_pizza,
Chanellos Pizza,3409 Boulevard,COLONIAL HEIGHTS,VA,23834-1417,8045266800.0,"https://www.google.com/maps/place/Chanello's+Pizza+-+Colonial+Heights/@37.275295,-77.411774,17z/data=!3m1!4b1!4m5!3m4!1s0x89b1a7bad8f3f27b:0x920b4b4a1999e6ea!8m2!3d37.275295!4d-77.411774",chanellos_pizza,
Chanellos Pizza,702 East Market St,HARRISONBURG,VA,22801,5405744700.0,"https://www.google.com/maps/place/Chanello's+Pizza/@38.449311,-78.855247,17z/data=!3m1!4b1!4m5!3m4!1s0x89b492cc61eecec7:0x37c543791c1d9cdb!8m2!3d38.449311!4d-78.855247",chanellos_pizza,
Chanello's Pizza,702 East Market St,HARRISONBURG,VA,22801,5405744700.0,"https://www.google.com/maps/place/Chanello's+Pizza/@38.449311,-78.855247,17z/data=!3m1!4b1!4m5!3m4!1s0x89b492cc61eecec7:0x37c543791c1d9cdb!8m2!3d38.449311!4d-78.855247",chanellos_pizza,
