Company Name,Address 1,City,State,Zip,Phone,Google Link,Status
CiCi's Pizza,8694 Skillman St,DALLAS,TX,75243-8265,2143438077.0,"https://www.google.com/maps/place/Cicis+Pizza/@32.8958739,-96.7208701,17z/data=!3m1!4b1!4m5!3m4!1s0x864c1fd85ea03b81:0x45c011321044e0d1!8m2!3d32.8958739!4d-96.7208701",
CiCi's Pizza,10151 W Colonial Dr,OCOEE,FL,34761-4209,4072921277.0,"https://www.google.com/maps/place/Cicis+Pizza/@28.4432505,-81.5596013,11z/data=!4m8!1m2!2m1!1sCiCi's+Pizza+10151+W+Colonial+Dr+OCOEE+FL+34761-4209!3m4!1s0x88e782888faa5e83:0xe77c20067cdf458b!8m2!3d28.5524011!4d-81.5270841?hl=en",
CiCi's Pizza,10707 Park Rd,CHARLOTTE,NC,28210-0107,7043419303.0,"https://www.google.com/maps/place/Cicis/@35.1379027,-81.1343409,10z/data=!4m8!1m2!2m1!1sCiCi's+Pizza+10707+Park+Rd+CHARLOTTE+NC+28210-0107!3m4!1s0x88569c58a2d1d915:0x6b46cad19ef1d1b0!8m2!3d35.0902612!4d-80.8691651?hl=en",
CiCi's Pizza,1072 Temple Ave,COLONIAL HEIGHTS,VA,23834-2981,8045240770.0,"https://www.google.com/maps/place/Cicis+Pizza/@37.2567253,-77.3897987,17z/data=!3m1!4b1!4m5!3m4!1s0x89b1a62d8acff403:0x3eb519efc4fd818!8m2!3d37.2567253!4d-77.3897987",
CiCi's Pizza,10823 John Price Rd,CHARLOTTE,NC,28273-4507,7045040004.0,"https://www.google.com/maps/place/Cicis/@35.1190102,-80.9574144,17z/data=!3m1!4b1!4m5!3m4!1s0x88569a38909a8641:0xbc769e3034305d8c!8m2!3d35.1190102!4d-80.9574144",
CiCi's Pizza,105 NE Wilshire Blvd,BURLESON,TX,76028-4115,8174472979.0,"https://www.google.com/maps/place/Cicis+Pizza/@32.5459902,-97.3277669,17z/data=!3m1!4b1!4m5!3m4!1s0x864e69a198d0a6bf:0xf17814bb960c0464!8m2!3d32.5459902!4d-97.3277669",
CiCi's Pizza,11227 Fuqua St,HOUSTON,TX,77089-2514,7139472646.0,"https://www.google.com/maps/place/Cicis+Pizza/@29.6137781,-95.2198134,17z/data=!3m1!4b1!4m5!3m4!1s0x864099e6f95f9c03:0x92f41bf49a390e03!8m2!3d29.6137781!4d-95.2198134",
CiCi's Pizza,1134 W Dallas St,CONROE,TX,77301-2208,9367562522.0,"https://www.google.com/maps/place/Cicis+Pizza/@30.3161035,-95.4706791,17z/data=!3m1!4b1!4m5!3m4!1s0x864739518e64ec07:0xbe4e4868749fb8f!8m2!3d30.3161035!4d-95.4706791",
CiCi's Pizza,10516 Alpharetta Hwy,ROSWELL,GA,30076-1429,7706451550.0,"https://www.google.com/maps/place/Cicis+Pizza/@34.0390025,-84.3445093,17z/data=!3m1!4b1!4m5!3m4!1s0x88f574bb31232e0b:0xb5db9a5142c6789f!8m2!3d34.0390025!4d-84.3445093",
CiCi's Pizza,11410 East Fwy,HOUSTON,TX,77029-1991,7134558845.0,"https://www.google.com/maps/place/Cicis+Pizza/@29.7340729,-95.3337057,12z/data=!4m8!1m2!2m1!1sCiCi's+Pizza+11410+East+Fwy+HOUSTON+TX+77029-1991!3m4!1s0x8640bcac7df18baf:0xfce42380cc5dcde0!8m2!3d29.771634!4d-95.230011?hl=en",
CiCi's Pizza,11830 S Route 59,PLAINFIELD,IL,60585-5895,8157828366.0,"https://www.google.com/maps/place/CiCis+Pizza+Buffet+-+Dine-In+Open/@41.6674165,-88.2060311,17z/data=!3m1!4b1!4m5!3m4!1s0x880ef67fed5ad677:0x579aaa74738a76ee!8m2!3d41.6674165!4d-88.2060311",
CiCi's Pizza,1107 Clements,BROWNWOOD,TX,76801-1827,3256463700.0,"https://www.google.com/maps/place/Cicis+Pizza/@31.7290477,-98.9805132,17z/data=!3m1!4b1!4m5!3m4!1s0x8650c64e25a5b201:0x4c8cb99ae0b036e6!8m2!3d31.7290477!4d-98.9805132",
CiCi's Pizza,325 Adams Dr,WEATHERFORD,TX,76086-6740,8173418300.0,"https://www.google.com/maps/place/Cicis+Pizza/@32.7332783,-97.7862434,17z/data=!3m1!4b1!4m5!3m4!1s0x8651fde4c7b54801:0xb8b814255c03b31f!8m2!3d32.7332783!4d-97.7862434",
CiCi's Pizza,12100 Bermuda Crossroad Ln,CHESTER,VA,23831-2345,8047967833.0,"https://www.google.com/maps/place/Cicis+Pizza/@37.360738,-77.4179466,17z/data=!3m1!4b1!4m5!3m4!1s0x89b108e4f5ccd6e7:0x1b875bab9403efbc!8m2!3d37.360738!4d-77.4179466",
CiCi's Pizza,1250 Old Morrilton Hwy,CONWAY,AR,72032-9121,5017640600.0,"https://www.google.com/maps/place/Cicis/@35.1109174,-92.4433275,17z/data=!4m5!3m4!1s0x87d281f325125c8d:0x3eb41c54b379b2dd!8m2!3d35.110913!4d-92.4411388?hl=en",
CiCi's Pizza,120 Highway 332 W,LAKE JACKSON,TX,77566-4017,9792996969.0,"https://www.google.com/maps/place/Cicis+Pizza/@29.0489151,-95.4627478,17z/data=!3m1!4b1!4m5!3m4!1s0x86404394ab318191:0xc98106b5a8cd8a21!8m2!3d29.0489151!4d-95.4627478",
CiCi's Pizza,1222 NW Sheridan Rd,LAWTON,OK,73505-5210,5803553248.0,"https://www.google.com/maps/place/Cicis+Pizza/@34.6225894,-98.4252602,17z/data=!4m8!1m2!2m1!1sCiCi's+Pizza+1222+NW+Sheridan+Rd+LAWTON+OK+73505-5210!3m4!1s0x87ad1ee1359d8725:0xf44ede1ec4f3dba8!8m2!3d34.620616!4d-98.423421?hl=en",
CiCi's Pizza,127 E Irving Park Rd,STREAMWOOD,IL,60107-2950,6308556499.0,"https://www.google.com/maps/place/Cici's+Pizza+Buffet/@42.0115654,-88.1792165,17z/data=!3m1!4b1!4m5!3m4!1s0x880f076f0c0e5a79:0x32105bc92ba7b031!8m2!3d42.0115654!4d-88.1792165",
CiCi's Pizza,1345 W Walnut Ave,DALTON,GA,30720-3986,7062782424.0,"https://www.google.com/maps/place/Cicis+Pizza/@34.7581607,-84.9938285,17z/data=!3m1!4b1!4m5!3m4!1s0x886074cd2968f955:0xf342ab4da6f96b95!8m2!3d34.7581607!4d-84.9938285",
CiCi's Pizza,4400 Little Rd,ARLINGTON,TX,76016-5631,8175616011.0,"https://www.google.com/maps/place/Cicis+Pizza/@32.6760113,-97.1999069,17z/data=!3m1!4b1!4m5!3m4!1s0x864e64b8e5dc7ded:0x13c144e2d220be0!8m2!3d32.6760113!4d-97.1999069",
CiCi's Pizza,12516 Capital Blvd,WAKE FOREST,NC,27587-4658,9195561911.0,"https://www.google.com/maps/place/Cicis/@35.9857216,-78.5360389,17z/data=!3m1!5s0x89ac53c50a77273f:0x8fafb64f109802d0!4m5!3m4!1s0x89ac53c6080f001f:0x3a2b48f09d3a33ce!8m2!3d35.9857173!4d-78.5338502?hl=en",
CiCi's Pizza,12777 Atlantic Blvd,JACKSONVILLE,FL,32225-7119,9042201000.0,"https://www.google.com/maps/place/Cicis+Pizza/@30.3202422,-81.4704265,17z/data=!3m1!4b1!4m5!3m4!1s0x88e44b9fb846069b:0xb61addb61e8c1f93!8m2!3d30.3202422!4d-81.4704265",
CiCi's Pizza,12822 W Interstate 10,SAN ANTONIO,TX,78249-2272,2105581006.0,"https://www.google.com/maps/place/Cicis+Pizza/@29.4610894,-98.6709445,11z/data=!4m8!1m2!2m1!1sCiCi's+Pizza+1455+Austin+Hwy+SAN+ANTONIO+TX+78209-4456!3m4!1s0x865cec7d3cf6ee75:0x39a5ebcd92e4f438!8m2!3d29.564616!4d-98.592972?hl=en",
CiCi's Pizza,1304 Junction Hwy,KERRVILLE,TX,78028-4845,8308951339.0,"https://www.google.com/maps/place/Cicis+Pizza/@30.0629707,-99.1694994,17z/data=!3m1!4b1!4m5!3m4!1s0x865be28c837ce7b7:0xbb2f8c69a6296cae!8m2!3d30.0629707!4d-99.1694994",
CiCi's Pizza,1315 Western Blvd,JACKSONVILLE,NC,28546-6663,9104780606.0,"https://www.google.com/maps/place/Cicis+Pizza/@34.784775,-77.403257,17z/data=!3m1!4b1!4m5!3m4!1s0x89a9108d29647819:0x43c42bdd2129fcd!8m2!3d34.784775!4d-77.403257",
CiCi's Pizza,1502 Airline Rd,CORPUS CHRISTI,TX,78412-4431,3618558008.0,"https://www.google.com/maps/place/Cicis+Pizza/@27.7025526,-97.3620402,17z/data=!3m1!4b1!4m5!3m4!1s0x8668f5dcd5032651:0xc8523701847d8f65!8m2!3d27.7025526!4d-97.3620402",
CiCi's Pizza,13600 Foulger Sq,WOODBRIDGE,VA,22192-4246,7035809383.0,"https://www.google.com/maps/place/Cicis+Pizza/@38.6554219,-77.3041506,17z/data=!3m1!4b1!4m5!3m4!1s0x89b64e2673bbc395:0x31a96ed15e23885e!8m2!3d38.6554219!4d-77.3041506",
CiCi's Pizza,14000 E Mississippi Ave,AURORA,CO,80012-3693,3035970080.0,"https://www.google.com/maps/place/Cicis+Pizza/@39.69504,-104.8248911,17z/data=!3m1!4b1!4m5!3m4!1s0x876c62be5f5a0779:0x5349e191dc483071!8m2!3d39.69504!4d-104.8248911",
CiCi's Pizza,1413 Towne Square Blvd NW,ROANOKE,VA,24012-1611,5405638181.0,"https://www.google.com/maps/place/Cicis+Pizza/@37.3200788,-79.9634865,17z/data=!3m1!4b1!4m5!3m4!1s0x884d0e5ffc097a4d:0xa37da5e56b6390d2!8m2!3d37.3200788!4d-79.9634865",
CiCi's Pizza,1425 N Germantown Pkwy,CORDOVA,TN,38016-5971,9017525554.0,"https://www.google.com/maps/place/Cicis+Pizza/@35.1642758,-89.7950065,17z/data=!3m1!4b1!4m5!3m4!1s0x887f9c49e04978e5:0x68b03ed011dae794!8m2!3d35.1642758!4d-89.7950065",
CiCi's Pizza,1430 Del Prado Blvd S,CAPE CORAL,FL,33990-3789,2395737225.0,"https://www.google.com/maps/place/Cicis/@26.6253452,-81.9423581,17z/data=!3m1!4b1!4m5!3m4!1s0x88db41250c29613b:0xb565c94da686db18!8m2!3d26.6253452!4d-81.9423581",
CiCi's Pizza,1440 N Highway 77,WAXAHACHIE,TX,75165-7847,9729371222.0,"https://www.google.com/maps/place/Cicis+Pizza/@32.4241634,-96.8385128,17z/data=!3m1!4b1!4m5!3m4!1s0x864eeeb5ab046f67:0x19d3632ca0295ec1!8m2!3d32.4241634!4d-96.8385128",
CiCi's Pizza,1453 N Saginaw Blvd,SAGINAW,TX,76179-8156,8172320909.0,"https://www.google.com/maps/place/Cicis+Pizza/@32.8840922,-97.385897,17z/data=!3m1!4b1!4m5!3m4!1s0x864ddf0d28cf228f:0x716fbb086a92d036!8m2!3d32.8840922!4d-97.385897",
CiCi's Pizza,148 S Tunnel Rd,ASHEVILLE,NC,28805-2252,8282980010.0,"https://www.google.com/maps/place/Cicis/@35.5809086,-82.5211094,17z/data=!3m1!4b1!4m5!3m4!1s0x8859f375bc35df0f:0xf82a2e2e9f81dd38!8m2!3d35.5809086!4d-82.5211094",
CiCi's Pizza,150 E Blackstock Rd,SPARTANBURG,SC,29301-2618,8645762277.0,"https://www.google.com/maps/place/Cicis+Pizza/@34.9314765,-81.9902114,17z/data=!3m1!4b1!4m5!3m4!1s0x88579d990475cbeb:0xc9a78b17db30edaf!8m2!3d34.9314765!4d-81.9902114",
CiCi's Pizza,1503 Highway 138 SE,CONYERS,GA,30013-1278,7709293350.0,"https://www.google.com/maps/place/Cicis+Pizza/@33.6511477,-84.0106809,17z/data=!3m1!4b1!4m5!3m4!1s0x88f5b58a017cbe8b:0x80149aae535c9ab0!8m2!3d33.6511477!4d-84.0106809",
CiCi's Pizza,1515 S Buckner Blvd,DALLAS,TX,75217-1782,2143914242.0,"https://www.google.com/maps/place/Cicis+Pizza/@37.6946904,-97.4392656,17z/data=!3m1!4b1!4m5!3m4!1s0x87bade29c0f75e7b:0x95942fbf876504ba!8m2!3d37.6946904!4d-97.4392656",
CiCi's Pizza,1708 E 2nd St,EDMOND,OK,73034-6341,4053411112.0,"https://www.google.com/maps/place/Cicis+Pizza/@35.6521432,-97.4577559,17z/data=!3m1!4b1!4m5!3m4!1s0x87b21fbd5da84feb:0x55807d1e78df7a63!8m2!3d35.6521432!4d-97.4577559",
CiCi's Pizza,1550 Opelika Rd,AUBURN,AL,36830-3356,3348212600.0,"https://www.google.com/maps/place/Cicis+Pizza/@32.6232642,-85.4478041,17z/data=!3m1!4b1!4m5!3m4!1s0x888cf2a543bc3d5f:0x3b4fda0277bddcf7!8m2!3d32.6232642!4d-85.4478041",
CiCi's Pizza,1580 Wesel Blvd,HAGERSTOWN,MD,21740-2503,3017910911.0,"https://www.google.com/maps/place/Cicis+Pizza/@39.6331685,-77.76288,17z/data=!3m1!4b1!4m5!3m4!1s0x89c9f293cce58ae7:0x89570c24250953ac!8m2!3d39.6331685!4d-77.76288",
CiCi's Pizza,157 Cox Creek Pkwy S,FLORENCE,AL,35630-3264,2567652424.0,"https://www.google.com/maps/place/Cicis+Pizza/@34.8267684,-87.6257354,17z/data=!3m1!4b1!4m5!3m4!1s0x887d49f014918a23:0x87128f82f449a73!8m2!3d34.8267684!4d-87.6257354",
CiCi's Pizza,1717 Norman Dr,VALDOSTA,GA,31601-3575,2294697288.0,"https://www.google.com/maps/place/Cicis+Pizza/@30.841774,-83.317522,17z/data=!3m1!4b1!4m5!3m4!1s0x88ee669677a8b5e5:0x49c5f2213416fa9e!8m2!3d30.841774!4d-83.317522",
CiCi's Pizza,1765 Gallatin Pike N,MADISON,TN,37115-2122,6158604227.0,"https://www.google.com/maps/place/Cicis+Pizza/@36.2953468,-86.7022979,17z/data=!3m1!4b1!4m5!3m4!1s0x88644382f6180377:0xd189949cc81d4336!8m2!3d36.2953468!4d-86.7022979",
CiCi's Pizza,1807 Cherry Rd,ROCK HILL,SC,29732-2657,8033243433.0,"https://www.google.com/maps/place/Cicis+Pizza/@34.9609763,-81.0061366,17z/data=!3m1!4b1!4m5!3m4!1s0x885688b7a20074bb:0xcb5509670c5c00fb!8m2!3d34.9609763!4d-81.0061366",
CiCi's Pizza,1617 Azalea Dr,TEMPLE,TX,76502-2726,2547712424.0,"https://www.google.com/maps/place/Cicis/@31.06877,-97.3730483,17z/data=!4m8!1m2!2m1!1sCiCi's+Pizza+1617+Azalea+Dr+TEMPLE+TX+76502-2726!3m4!1s0x86456b472c21221d:0xfa36aef6bee60158!8m2!3d31.0687819!4d-97.3708599?hl=en",
CiCi's Pizza,1830 Rieth Blvd,GOSHEN,IN,46526-5860,5748750888.0,"https://www.google.com/maps/place/Cicis+Pizza/@41.6159201,-85.8934347,17z/data=!3m1!4b1!4m5!3m4!1s0x8816e9830d434a87:0xe5e23fdc05ec9a56!8m2!3d41.6159201!4d-85.8934347",
CiCi's Pizza,1901 Long Prairie Rd,FLOWER MOUND,TX,75022-4229,9726919900.0,"https://www.google.com/maps/place/Cicis+Pizza/@33.0121125,-97.0723642,17z/data=!3m1!4b1!4m5!3m4!1s0x864c2cdfdd387859:0x750cb1cae2473a7e!8m2!3d33.0121125!4d-97.0723642",
CiCi's Pizza,1951 Dickerson Blvd,MONROE,NC,28110-3092,7042250829.0,"https://www.google.com/maps/place/Cicis+Pizza/@35.0073182,-80.5654529,17z/data=!4m8!1m2!2m1!1sCiCi's+Pizza+1951+Dickerson+Blvd+MONROE+NC+28110-3092!3m4!1s0x885430bc0a3e3387:0xa7c40d290e466b8a!8m2!3d35.007281!4d-80.5627099?hl=en",
CiCi's Pizza,1859 Carl D Silver Pkwy,FREDERICKSBURG,VA,22401-4969,5405483977.0,"https://www.google.com/maps/place/Cicis+Pizza/@38.3088349,-77.5098096,17z/data=!3m1!4b1!4m5!3m4!1s0x89b6c1cd8c921069:0x9404fd1f79b84d7d!8m2!3d38.3088349!4d-77.5098096",
CiCi's Pizza,1900 N Grand Ave,SHERMAN,TX,75090-2610,9038700222.0,"https://www.google.com/maps/place/Cicis+Pizza/@33.6560586,-96.6022369,17z/data=!3m1!4b1!4m5!3m4!1s0x864c885cfe06c2f3:0xfde68f751c5d0e2d!8m2!3d33.6560586!4d-96.6022369",
CiCi's Pizza,1901 W William Cannon Dr,AUSTIN,TX,78745-5322,5124623100.0,"https://www.google.com/maps/place/Cicis+Pizza/@30.2018158,-97.8073034,17z/data=!3m1!5s0x865b4ca04247716f:0x90a97f6b87ae0dc7!4m5!3m4!1s0x865b4ca03e75eea1:0x9cc62ee095726aed!8m2!3d30.2018112!4d-97.8051147?hl=en",
CiCi's Pizza,1905 Texas Ave S,COLLEGE STATION,TX,77840-3913,9796942424.0,"https://www.google.com/maps/place/Cicis+Pizza/@30.6335508,-96.3733045,13z/data=!4m8!1m2!2m1!1sCiCi's+Pizza+1905+Texas+Ave+S+COLLEGE+STATION+TX+77840-3913!3m4!1s0x8646847a4028e93f:0xb25775615152c5bf!8m2!3d30.6150923!4d-96.3159531?hl=en",
CiCi's Pizza,2025 US Highway 70 SE,HICKORY,NC,28602-5161,8283451444.0,"https://www.google.com/maps/place/Cicis/@35.7041693,-81.3022965,18z/data=!4m8!1m2!2m1!1sCiCi's+Pizza+2025+US+Highway+70+SE+HICKORY+NC+28602-5161!3m4!1s0x885131993e6142d9:0xf24cee4e72e759a2!8m2!3d35.7057235!4d-81.3013103?hl=en",
CiCi's Pizza,1945 W Palmetto St,FLORENCE,SC,29501-4027,8434130600.0,"https://www.google.com/maps/place/Cicis+Pizza/@34.1901966,-79.8076228,17z/data=!3m1!4b1!4m5!3m4!1s0x885566b8bc9b68e3:0x37347843909f8a59!8m2!3d34.1901966!4d-79.8076228",
CiCi's Pizza,211 N Northwest Loop 323,TYLER,TX,75702-8727,9035269494.0,"https://www.google.com/maps/place/Cicis+Pizza/@32.3554864,-95.3427384,17z/data=!3m1!4b1!4m5!3m4!1s0x8649c972ebc3d4a1:0xb06741993dbfb5a5!8m2!3d32.3554864!4d-95.3427384",
CiCi's Pizza,2020 W 23rd St,LAWRENCE,KS,66046-2758,7858321110.0,"https://www.google.com/maps/place/Cicis/@37.2023873,-98.673306,7z/data=!4m8!1m2!2m1!1sCiCi's+Pizza+2020+W+23rd+St+LAWRENCE+KS+66046-2758!3m4!1s0x87bf68cff931d0dd:0x78ab3c42d8b826a2!8m2!3d38.9438501!4d-95.2599876?hl=en",
CiCi's Pizza,2321 S Air Depot Blvd,OKLAHOMA CITY,OK,73110-5500,4057412424.0,"https://www.google.com/maps/place/Cicis+Pizza/@35.4407977,-97.4063797,17z/data=!3m1!4b1!4m5!3m4!1s0x87b23dc58ddcd9f1:0xdf45c8585da44f37!8m2!3d35.4407977!4d-97.4063797",
CiCi's Pizza,2116 S Caraway Rd,JONESBORO,AR,72401-6201,8702756500.0,"https://www.google.com/maps/place/Cicis+Pizza/@35.8185823,-90.6761001,17z/data=!3m1!4b1!4m5!3m4!1s0x87d42ea9db331f87:0x41b61128cda47236!8m2!3d35.8185823!4d-90.6761001",
CiCi's Pizza,2130 SW Wanamaker Rd,TOPEKA,KS,66614-5265,7852739300.0,"https://www.google.com/maps/place/Cicis+Pizza/@39.0278292,-95.7596894,17z/data=!3m1!4b1!4m5!3m4!1s0x87befd3b42125099:0x1ce71b6c92e49f90!8m2!3d39.0278292!4d-95.7596894",
CiCi's Pizza,2356 SE Green Oaks Blvd,ARLINGTON,TX,76018-0918,8174196101.0,"https://www.google.com/maps/place/Cicis+Pizza/@32.6632551,-97.2722484,11z/data=!3m1!5s0x864e884bf5b5f805:0x8b6a8d734bbb4d14!4m8!1m2!2m1!1sCiCi's+Pizza+5904+S+Cooper+St+ARLINGTON+TX+76017-4495!3m4!1s0x864e884bdfd42a63:0xc38256f4529c362d!8m2!3d32.6596348!4d-97.0652148?hl=en",
CiCi's Pizza,240 Cherokee Pl,CARTERSVILLE,GA,30121-2965,7703879797.0,"https://www.google.com/maps/place/Cici's/@34.1728856,-84.7843641,17z/data=!3m1!4b1!4m5!3m4!1s0x88f54f79da4f2fe9:0xcf1995bccd1e93!8m2!3d34.1728856!4d-84.7843641",
CiCi's Pizza,2220 Coit Rd,PLANO,TX,75075-3729,9729640061.0,"https://www.google.com/maps/place/Cicis+Pizza/@33.0284012,-96.7688235,17z/data=!3m1!4b1!4m5!3m4!1s0x864c2260462fc0e5:0x6450afe1cf4043fc!8m2!3d33.0284012!4d-96.7688235",
CiCi's Pizza,22513 Tomball Pkwy,HOUSTON,TX,77070-1541,2812571650.0,"https://www.google.com/maps/place/Cicis+Pizza/@29.8354635,-95.7918873,10z/data=!3m1!5s0x8640d2eed94f2e3b:0xdb78b1ee7fb6670!4m8!1m2!2m1!1sCiCi's+Pizza+10922+Cypress+Creek+Pkwy+HOUSTON+TX+77070-6316!3m4!1s0x8640d2ee90e6b369:0xcd1f2dbf73f99b68!8m2!3d30.0105071!4d-95.5908836?hl=en",
CiCi's Pizza,2260 Gunbarrel Rd,CHATTANOOGA,TN,37421-7605,4234850900.0,"https://www.google.com/maps/place/Cicis+Pizza/@35.0366488,-85.1502255,17z/data=!3m1!4b1!4m5!3m4!1s0x88606382343de305:0xa8a980d12998cf79!8m2!3d35.0366488!4d-85.1502255",
CiCi's Pizza,23741 Highway 59,PORTER,TX,77365-5389,2813543901.0,"https://www.google.com/maps/place/Cicis+Pizza/@30.1016069,-95.2353702,17z/data=!3m1!4b1!4m5!3m4!1s0x86474d82eee0fbdd:0xd3536c9d7408f96a!8m2!3d30.1016069!4d-95.2353702",
CiCi's Pizza,2405 Covered Bridge Dr,LANCASTER,PA,17602,7179457695.0,"https://www.google.com/maps/place/Cicis+Pizza/@40.0257303,-76.2022121,17z/data=!3m1!4b1!4m5!3m4!1s0x89c63bbf5c41b577:0x2a1997f85b9ecf49!8m2!3d40.0257303!4d-76.2022121",
CiCi's Pizza,2441 Gus Thomasson Rd,DALLAS,TX,75228-3006,2143202424.0,"https://www.google.com/maps/place/Cicis+Pizza/@32.8360152,-96.6733891,17z/data=!3m1!4b1!4m5!3m4!1s0x864ea137ed65d9db:0xb2f72075439e19eb!8m2!3d32.8360152!4d-96.6733891",
CiCi's Pizza,2503 Judson Rd,LONGVIEW,TX,75605-4643,9032366804.0,"https://www.google.com/maps/place/Cicis+Pizza/@32.538938,-94.746033,17z/data=!3m1!4b1!4m5!3m4!1s0x86363f4a56948ced:0x11c6a2ea3c015445!8m2!3d32.538938!4d-94.746033",
CiCi's Pizza,2535 Richmond Rd,TEXARKANA,TX,75503-2324,9032239000.0,"https://www.google.com/maps/place/Cicis+Pizza/@33.4575657,-94.0893665,17z/data=!3m1!4b1!4m5!3m4!1s0x863441f4fb410733:0x2b7b2e6ece09a376!8m2!3d33.4575657!4d-94.0893665",
CiCi's Pizza,2609 E Broadway,COLUMBIA,MO,65201-6398,5738141230.0,"https://www.google.com/maps/place/Cicis+Pizza/@38.9477815,-92.2973885,17z/data=!3m1!4b1!4m5!3m4!1s0x87dcb8192e4d792f:0xc317b5b2001760cf!8m2!3d38.9477815!4d-92.2973885",
CiCi's Pizza,2650 Immokalee Rd,NAPLES,FL,34110-1440,2395970306.0,"https://www.google.com/maps/place/Cicis+Pizza/@26.2710579,-81.7676237,17z/data=!3m1!4b1!4m5!3m4!1s0x88db1c08ba5a8d07:0xde856179e7a94fc4!8m2!3d26.2710579!4d-81.7676237",
CiCi's Pizza,2705 N Main St,HIGH POINT,NC,27265-2820,3368853333.0,"https://www.google.com/maps/place/Cicis+Pizza/@35.9929132,-80.0322146,17z/data=!3m1!4b1!4m5!3m4!1s0x885308e9eec2c691:0xc0ffe4299ca046ae!8m2!3d35.9929132!4d-80.0322146",
CiCi's Pizza,28145 State Highway 249,TOMBALL,TX,77375-6572,2812554244.0,"https://www.google.com/maps/place/Cicis/@30.0838258,-95.6321843,17z/data=!3m1!4b1!4m5!3m4!1s0x86472c899ad54a09:0x1bccc983697b60c7!8m2!3d30.0838258!4d-95.6321843",
CiCi's Pizza,1000 Cloverleaf Plz,KANNAPOLIS,NC,28083-6983,7047957400.0,"https://www.google.com/maps/place/Cicis+Pizza/@35.4514664,-80.6060115,17z/data=!3m1!4b1!4m5!3m4!1s0x88540f377bf0c1e5:0x910180c408ce783e!8m2!3d35.4514664!4d-80.6060115",
CiCi's Pizza,2885 W 68th St,HIALEAH,FL,33018-1800,3058220000.0,"https://www.google.com/maps/place/Cicis+Pizza/@25.884643,-80.341483,17z/data=!3m1!4b1!4m5!3m4!1s0x88d9bb3e2847ed81:0x7c9357089ce9354e!8m2!3d25.884643!4d-80.341483",
CiCi's Pizza,2936 Lavon Dr,GARLAND,TX,75040-8796,9724952424.0,"https://www.google.com/maps/place/Cicis+Pizza/@32.9422271,-96.6209075,17z/data=!3m1!4b1!4m5!3m4!1s0x864c1d07580145dd:0x9afcdee9409f4f7f!8m2!3d32.9422271!4d-96.6209075",
CiCi's Pizza,101 N Green River Rd,EVANSVILLE,IN,47715,8124772424.0,"https://www.google.com/maps/place/Cicis+Pizza/@37.9781048,-87.4904599,17z/data=!3m1!4b1!4m5!3m4!1s0x886e2b1982433a59:0x2690a8eb65ceb49d!8m2!3d37.9781048!4d-87.4904599",
CiCi's Pizza,10180 Lakeridge Pkwy,ASHLAND,VA,23005-8180,8045500671.0,"https://www.google.com/maps/place/Cicis+Pizza/@37.6853242,-77.4562754,17z/data=!3m1!4b1!4m5!3m4!1s0x89b13dcdd261de07:0x1c32abf7bc5b02aa!8m2!3d37.6853242!4d-77.4562754",
CiCi's Pizza,1025 W Hebron Pkwy,CARROLLTON,TX,75010-1121,9729394888.0,"https://www.google.com/maps/place/Cicis/@32.9874504,-96.9506084,12z/data=!4m8!1m2!2m1!1sCiCi's+Pizza+1025+W+Hebron+Pkwy+CARROLLTON+TX+75010-1121!3m4!1s0x864c25810c865a9d:0x13b41c730362d232!8m2!3d33.0194555!4d-96.9172431?hl=en",
CiCi's Pizza,1044 W Vandament Ave,YUKON,OK,73099-3877,4053502322.0,"https://www.google.com/maps/place/Cicis+Pizza/@35.4931094,-97.7593715,17z/data=!3m1!4b1!4m5!3m4!1s0x87b207df227c1e49:0x6b48af99367a9214!8m2!3d35.4931094!4d-97.7593715",
CiCi's Pizza,1055 Goodman Rd E,SOUTHAVEN,MS,38671-9510,6623499296.0,"https://www.google.com/maps/place/Cicis+Pizza/@34.9614926,-89.9717481,17z/data=!3m1!4b1!4m5!3m4!1s0x887f899ab97ada6f:0x5de1b384ae67cb74!8m2!3d34.9614926!4d-89.9717481",
CiCi's Pizza,10900 University City Blvd,CHARLOTTE,NC,28213,7045105595.0,"https://www.google.com/maps/place/Cicis+Pizza/@35.3143508,-80.7021786,17z/data=!3m1!4b1!4m5!3m4!1s0x88541bea4d9bf5f7:0xf56454c80e8f39d4!8m2!3d35.3143508!4d-80.7021786",
CiCi's Pizza,10922 Cypress Creek Pkwy,HOUSTON,TX,77070-6316,2819550399.0,"https://www.google.com/maps/place/Cicis/@29.8354635,-95.7918873,10z/data=!3m1!5s0x8640d192ce97ae0b:0x3333a57025a50d30!4m8!1m2!2m1!1sCiCi's+Pizza+10922+Cypress+Creek+Pkwy+HOUSTON+TX+77070-6316!3m4!1s0x8640d19310f9a07d:0xb77041e96d765377!8m2!3d29.9345981!4d-95.5843479?hl=en",
CiCi's Pizza,3024 S Jog Rd,GREENACRES,FL,33467-2004,5616415888.0,"https://www.google.com/maps/place/Cicis+Pizza/@26.6312493,-80.1465123,17z/data=!4m5!3m4!1s0x88dee890d8f60237:0x906e544f502557d0!8m2!3d26.6312445!4d-80.1443236?hl=en",
CiCi's Pizza,303 Beltline Pl SW,DECATUR,AL,35603-1716,2563015524.0,"https://www.google.com/maps/place/Cicis+Pizza/@34.5589233,-86.9898815,17z/data=!3m1!4b1!4m5!3m4!1s0x886283ff5f4d1729:0xa9776fc244093c26!8m2!3d34.5589233!4d-86.9898815",
CiCi's Pizza,3061 S McKenzie St,FOLEY,AL,36535-3411,2519703242.0,"https://www.google.com/maps/place/Cicis+Pizza/@30.3689898,-87.6823944,17z/data=!3m1!4b1!4m5!3m4!1s0x889a0fcc84ab36af:0xf29f365b89c1f475!8m2!3d30.3689898!4d-87.6823944",
CiCi's Pizza,3128 Forest Ln,DALLAS,TX,75234-7764,9724060404.0,"https://www.google.com/maps/place/Cicis+Pizza/@32.9085931,-96.8717497,17z/data=!3m1!4b1!4m5!3m4!1s0x864c2773af0a9999:0x490fafbfce762a6d!8m2!3d32.9085931!4d-96.8717497",
CiCi's Pizza,11521 US Highway 431,GUNTERSVILLE,AL,35976-5669,2564863721.0,"https://www.google.com/maps/place/Cicis+Pizza/@34.2992405,-86.2753907,17z/data=!3m1!4b1!4m5!3m4!1s0x8889f90a26137cfd:0xfb5760617b9a6381!8m2!3d34.2992405!4d-86.2753907",
CiCi's Pizza,11803 Wilcrest Dr,HOUSTON,TX,77031-1915,2814982525.0,"https://www.google.com/maps/place/Cicis+Pizza/@29.8034364,-96.0301747,9z/data=!4m8!1m2!2m1!1sCiCi's+Pizza+935+N+Shepherd+Dr+HOUSTON+TX+77008-6526!3m4!1s0x8640e7e0bead2523:0xa9332b56dc8241e8!8m2!3d29.6510225!4d-95.5669758?hl=en",
CiCi's Pizza,3154 N Fry Rd,KATY,TX,77449-3389,2815791223.0,"https://www.google.com/maps/place/Cicis+Pizza/@29.8164562,-95.7196578,17z/data=!3m1!4b1!4m5!3m4!1s0x8640d8700fb340a9:0x7188eb469c911f30!8m2!3d29.8164562!4d-95.7196578",
CiCi's Pizza,3415 S Cooper St,ARLINGTON,TX,76015-3434,8174656666.0,"https://www.google.com/maps/place/Cicis+Pizza/@32.6905929,-97.1276352,17z/data=!3m1!4b1!4m5!3m4!1s0x864e62d16659de49:0xcc978ddc8680b79b!8m2!3d32.6905929!4d-97.1276352",
CiCi's Pizza,11549 Busy St,NORTH CHESTERFIELD,VA,23236-4073,8043792424.0,"https://www.google.com/maps/place/Cicis+Pizza/@37.5022733,-77.6091553,17z/data=!3m1!4b1!4m5!3m4!1s0x89b16d82956a7c73:0xf7bba027b9815351!8m2!3d37.5022733!4d-77.6091553",
CiCi's Pizza,120 S Denton Tap Rd,COPPELL,TX,75019-5041,9723932424.0,"https://www.google.com/maps/place/Cici's+Pizza+Coppell/@32.9687996,-96.9922714,17z/data=!3m1!4b1!4m5!3m4!1s0x864c294c3f020f27:0x7aca5e6ca8101390!8m2!3d32.9687996!4d-96.9922714",
CiCi's Pizza,3128 N Main St,ANDERSON,SC,29621-2763,8642222595.0,"https://www.google.com/maps/place/Cicis/@34.6940294,-82.7838599,10z/data=!3m1!5s0x88586eb91000b56b:0x6a010471ca6b30f0!4m8!1m2!2m1!1sCiCi's+Pizza+3128+N+Main+St+ANDERSON+SC+29621-2763!3m4!1s0x88586eb8def368eb:0xdc69314e868e9acf!8m2!3d34.5393201!4d-82.6662854?hl=en",
CiCi's Pizza,320 N Central Expy,MCKINNEY,TX,75070-3520,9725402442.0,"https://www.google.com/maps/place/Cicis+Pizza/@33.2005518,-96.6379255,17z/data=!3m1!4b1!4m5!3m4!1s0x864c13bc1a1a9cb1:0x728d2ffdc5b5fdec!8m2!3d33.2005518!4d-96.6379255",
CiCi's Pizza,121 S Interstate 35,NEW BRAUNFELS,TX,78130-4824,8306292424.0,"https://www.google.com/maps/place/Cicis+Pizza/@29.689207,-98.109373,17z/data=!3m1!4b1!4m5!3m4!1s0x865cbd6d25ea7677:0x37500d3233350640!8m2!3d29.689207!4d-98.109373",
CiCi's Pizza,12109 Cortez Blvd,BROOKSVILLE,FL,34613-5551,3525969544.0,"https://www.google.com/maps/place/Cicis+Pizza/@28.5342952,-82.5260923,17z/data=!3m1!4b1!4m5!3m4!1s0x88e81f191c9cc0c3:0x18cbfa06e38a0cbc!8m2!3d28.5342952!4d-82.5260923",
CiCi's Pizza,12111 Rockville Pike,ROCKVILLE,MD,20852-1605,3018811982.0,"https://www.google.com/maps/place/Cicis/@38.9241099,-77.5494948,10z/data=!4m8!1m2!2m1!1sCiCi's+Pizza+12111+Rockville+Pike+ROCKVILLE+MD+20852-1605!3m4!1s0x89b7cc3035d452f9:0xd566625d5a1f4742!8m2!3d39.0572328!4d-77.1182265?hl=en",
CiCi's Pizza,3221 Fayetteville Rd,LUMBERTON,NC,28358-2773,9106086400.0,"https://www.google.com/maps/place/Cicis+Pizza/@34.6404927,-78.9998464,17z/data=!3m1!4b1!4m5!3m4!1s0x89aae0b9c1481b4f:0xa2abf30e073578fa!8m2!3d34.6404927!4d-78.9998464",
CiCi's Pizza,3250 W Pleasant Run Rd,LANCASTER,TX,75146-1090,9722740555.0,"https://www.google.com/maps/place/Cicis+Pizza/@32.603766,-96.8200239,17z/data=!3m1!4b1!4m5!3m4!1s0x864e941310683641:0x54f398e4d17666ee!8m2!3d32.603766!4d-96.8200239",
CiCi's Pizza,1200 E Davis St,MESQUITE,TX,75149-8730,9722160099.0,"https://www.google.com/maps/place/Cicis+Pizza/@32.7636919,-96.584225,17z/data=!3m1!4b1!4m5!3m4!1s0x864ea57c75a38f07:0x99d80f56d63bd827!8m2!3d32.7636919!4d-96.584225",
CiCi's Pizza,3321 Central Ave,HOT SPRINGS NATIONAL PARK,AR,71913-6138,5013212400.0,"https://www.google.com/maps/place/Cicis+Pizza/@34.47494,-93.0593772,17z/data=!3m1!4b1!4m5!3m4!1s0x87cd2ad5c69e1601:0xef5a14af28115a96!8m2!3d34.47494!4d-93.0593772",
CiCi's Pizza,3366 Turner Plz,ABILENE,TX,79606-2746,3256921660.0,"https://www.google.com/maps/place/Cicis+Pizza/@32.4046665,-99.7653383,17z/data=!3m1!4b1!4m5!3m4!1s0x86568db509f5f20f:0x7ec9f61c222e290a!8m2!3d32.4046665!4d-99.7653383",
CiCi's Pizza,3379 Battleground Ave,GREENSBORO,NC,27410-2401,3365456440.0,"https://www.google.com/maps/place/Cicis+Pizza/@36.1216436,-79.8459758,17z/data=!3m1!4b1!4m5!3m4!1s0x88531c3a003c0587:0xec24f6260cb18447!8m2!3d36.1216436!4d-79.8459758",
CiCi's Pizza,3474 Plaza Ave,MEMPHIS,TN,38111-4614,9013430202.0,"https://www.google.com/maps/place/Cicis+Pizza/@35.1312273,-89.9460259,17z/data=!3m1!4b1!4m5!3m4!1s0x887f813508d07e7b:0xda708401ea6234d2!8m2!3d35.1312273!4d-89.9460259",
CiCi's Pizza,3520 Lakeview Pkwy,ROWLETT,TX,75088-4005,9724634444.0,"https://www.google.com/maps/place/Cicis+Pizza/@32.9062065,-96.567748,17z/data=!3m1!4b1!4m5!3m4!1s0x864c02a8092b8e7d:0xe0c3f1d6f1bc7bff!8m2!3d32.9062065!4d-96.567748",
CiCi's Pizza,3533 Ryan St,LAKE CHARLES,LA,70605-1607,3375622223.0,"https://www.google.com/maps/place/Cicis+Pizza/@30.1926287,-93.2178904,17z/data=!3m1!4b1!4m5!3m4!1s0x863b868a7627fa5d:0x64583fc590414eca!8m2!3d30.1926287!4d-93.2178904",
CiCi's Pizza,1220 N Town East Blvd,MESQUITE,TX,75150-4682,9726861700.0,"https://www.google.com/maps/place/Cicis+Pizza/@32.786956,-96.6154363,14z/data=!4m8!1m2!2m1!1sCiCi's+Pizza+1220+N+Town+East+Blvd+MESQUITE+TX+75150-4682!3m4!1s0x864ea5d6e36f3397:0xc432ad9feacc9368!8m2!3d32.8101503!4d-96.6116284?hl=en",
CiCi's Pizza,3435 N Belt Line Rd,IRVING,TX,75062-7826,9725704226.0,"https://www.google.com/maps/place/Cicis+Pizza/@32.8532668,-96.9939743,17z/data=!3m1!4b1!4m5!3m4!1s0x864e823bb94f16b9:0x7845f1118355fff9!8m2!3d32.8532668!4d-96.9939743",
CiCi's Pizza,3506 Palmer Hwy,TEXAS CITY,TX,77590-6514,4099452021.0,"https://www.google.com/maps/place/Cicis/@29.4684477,-95.312066,10z/data=!4m8!1m2!2m1!1sCiCi's+Pizza+3506+Palmer+Hwy+TEXAS+CITY+TX+77590-6514!3m4!1s0x863f791328c0f145:0x2837f80e56cf76c9!8m2!3d29.3962907!4d-94.9503252?hl=en",
CiCi's Pizza,1240 Shaver St,PASADENA,TX,77506-4408,7134722424.0,"https://www.google.com/maps/place/Cicis/@29.6768405,-95.2377917,12z/data=!3m1!5s0x8640a2a69a07017f:0x177e931fd45aa65f!4m8!1m2!2m1!1sCiCi's+Pizza+1240+Shaver+St+PASADENA+TX+77506-4408!3m4!1s0x8640a2a6b1ebd9a7:0x5ccffb56e87c7d!8m2!3d29.6912555!4d-95.2121437?hl=en",
CiCi's Pizza,3720 Hardy St,HATTIESBURG,MS,39402-1596,6012642393.0,"https://www.google.com/maps/place/Cicis+Pizza/@31.3232748,-89.3446796,17z/data=!3m1!4b1!4m5!3m4!1s0x889cdeeb9b973b75:0x119ee7d47934f076!8m2!3d31.3232748!4d-89.3446796",
CiCi's Pizza,3830 S Nova Rd,PORT ORANGE,FL,32127-4245,3863339034.0,"https://www.google.com/maps/place/Cicis+Pizza/@29.1247661,-81.0053257,17z/data=!3m1!4b1!4m5!3m4!1s0x88e6d80db815bfd9:0x194d924c5e00b748!8m2!3d29.1247661!4d-81.0053257",
CiCi's Pizza,355 Paul Huff Pkwy NW,CLEVELAND,TN,37312-2967,4234739550.0,"https://www.google.com/maps/place/Cicis+Pizza/@35.2064776,-84.8531457,17z/data=!3m1!4b1!4m5!3m4!1s0x885e2eae2811afa5:0x52d4bf3bda222911!8m2!3d35.2064776!4d-84.8531457",
CiCi's Pizza,3652 S East St,INDIANAPOLIS,IN,46227-1239,3177868799.0,"https://www.google.com/maps/place/Cici's+Pizza/@39.7139504,-86.1507136,17z/data=!3m1!4b1!4m5!3m4!1s0x886b5a4c8863df11:0x1c0bd23b0dbb2dd5!8m2!3d39.7139504!4d-86.1507136",
CiCi's Pizza,1301 W Henderson St,CLEBURNE,TX,76033-5117,8176412424.0,"https://www.google.com/maps/place/Cicis+Pizza/@32.3403531,-97.4025281,17z/data=!3m1!4b1!4m5!3m4!1s0x864e47c83df7c55d:0x3ebabbc95ea6ed74!8m2!3d32.3403531!4d-97.4025281",
CiCi's Pizza,1337 E Dixie Dr,ASHEBORO,NC,27203-8889,3366365666.0,"https://www.google.com/maps/place/Cicis/@35.9099933,-80.3315599,9z/data=!3m1!5s0x88536901dbbc1fd3:0x3333a570a2149de0!4m8!1m2!2m1!1sCiCi's+Pizza+1337+E+Dixie+Dr+ASHEBORO+NC+27203-8889!3m4!1s0x885368fe2f720e41:0x72084e357ce3d9d2!8m2!3d35.698722!4d-79.7887386?hl=en",
CiCi's Pizza,3695 S Orlando Dr,SANFORD,FL,32773-5611,4073307676.0,"https://www.google.com/maps/place/Cicis+Pizza/@28.758986,-81.2838399,17z/data=!3m1!4b1!4m5!3m4!1s0x88e76cd1f58eee23:0x3a05ba854aac965a!8m2!3d28.758986!4d-81.2838399",
CiCi's Pizza,3746 E Franklin Blvd,GASTONIA,NC,28056-5210,7048238636.0,"https://www.google.com/maps/place/Cicis/@35.2593655,-81.1154371,17z/data=!4m8!1m2!2m1!1sCiCi's+Pizza+3746+E+Franklin+Blvd+GASTONIA+NC+28056-5210!3m4!1s0x8856be368d92a229:0x6b05b8114cfe8158!8m2!3d35.2593786!4d-81.1130198?hl=en",
CiCi's Pizza,4001 Widewaters Pkwy,KNIGHTDALE,NC,27545-7315,9198612442.0,"https://www.google.com/maps/place/Cicis/@35.7948336,-78.5056508,17z/data=!3m1!4b1!4m5!3m4!1s0x89ac5c9db64e1187:0xb17ef88b042d6a72!8m2!3d35.7948336!4d-78.5056508",
CiCi's Pizza,4081 University Town Centre Dr,MORGANTOWN,WV,26501-2453,3045998399.0,"https://www.google.com/maps/place/Cicis+Pizza/@39.6509547,-80.0014725,17z/data=!3m1!4b1!4m5!3m4!1s0x88357be72c81d4ab:0x628fa572828856bc!8m2!3d39.6509547!4d-80.0014725",
CiCi's Pizza,3912 N Druid Hills Rd,DECATUR,GA,30033-3105,4043291535.0,"https://www.google.com/maps/place/Cicis+Pizza/@33.8116505,-84.2736045,17z/data=!3m1!4b1!4m5!3m4!1s0x88f50788ea0f077f:0x2a09524a18936846!8m2!3d33.8116505!4d-84.2736045",
CiCi's Pizza,13605 State Road 535,ORLANDO,FL,32821-6343,4072394450.0,"https://www.google.com/maps/place/Cicis+Pizza/@28.3677015,-81.5017761,17z/data=!3m1!4b1!4m5!3m4!1s0x88dd80317c529f15:0x9b289d5123d3c982!8m2!3d28.3677015!4d-81.5017761",
CiCi's Pizza,140 Gause Blvd W,SLIDELL,LA,70460-2625,9856398100.0,"https://www.google.com/maps/place/Cicis+Pizza/@30.2885009,-89.780838,17z/data=!3m1!4b1!4m5!3m4!1s0x889de42f27a2063f:0xe49e6e5201684bf7!8m2!3d30.2885009!4d-89.780838",
CiCi's Pizza,140 W FM 1382,CEDAR HILL,TX,75104-2165,9722917888.0,"https://www.google.com/maps/place/Cicis+Pizza/@32.599219,-96.9439902,17z/data=!3m1!4b1!4m5!3m4!1s0x864e8dc18cf35bff:0x2101c20c448bc9b0!8m2!3d32.599219!4d-96.9439902",
CiCi's Pizza,1420 MacArthur Dr,ALEXANDRIA,LA,71301-4022,3184426969.0,"https://www.google.com/maps/place/Cicis+Pizza/@31.2843228,-92.4754938,17z/data=!3m1!4b1!4m5!3m4!1s0x863ab52740120369:0x5346a4b64f5ec74f!8m2!3d31.2843228!4d-92.4754938",
CiCi's Pizza,4127 Highway 6,SUGAR LAND,TX,77478-4057,2812650099.0,"https://www.google.com/maps/place/Cicis+Pizza/@29.5865011,-95.5896083,17z/data=!3m1!4b1!4m5!3m4!1s0x8640e67113f1c8cb:0x139b36d364ebe3d8!8m2!3d29.5865011!4d-95.5896083",
CiCi's Pizza,4515 FM 1960 Rd W,HOUSTON,TX,77069-4601,2815870299.0,"https://www.google.com/maps/place/Cicis+Pizza/@29.9862027,-95.4980623,17z/data=!3m1!4b1!4m5!3m4!1s0x8640cc44e314d47d:0xd91ee29700d6c12c!8m2!3d29.9862027!4d-95.4980623",
CiCi's Pizza,4750 N Jupiter Rd,GARLAND,TX,75044-5860,9724145600.0,"https://www.google.com/maps/place/Cicis+Pizza/@32.9592557,-96.6819915,17z/data=!3m1!4b1!4m5!3m4!1s0x864c1e93ad072f99:0xd8834e72092f41b9!8m2!3d32.9592557!4d-96.6819915",
CiCi's Pizza,4770 Montgomery Blvd NE,ALBUQUERQUE,NM,87109-1253,5058812424.0,"https://www.google.com/maps/place/Cicis+Pizza/@35.1293341,-106.5892536,17z/data=!3m1!4b1!4m5!3m4!1s0x872274dd8d659a51:0xe136cbd4446caad4!8m2!3d35.1293341!4d-106.5892536",
CiCi's Pizza,479 E Interstate 30,ROCKWALL,TX,75087-5406,9727714400.0,"https://www.google.com/maps/place/Cicis+Pizza/@32.8938289,-96.471935,17z/data=!3m1!4b1!4m5!3m4!1s0x864c01d0a5da5a67:0x79af778a0ec2985c!8m2!3d32.8938289!4d-96.471935",
CiCi's Pizza,4508 Garth Rd,BAYTOWN,TX,77521-2160,2814200181.0,"https://www.google.com/maps/place/Cicis+Pizza/@29.7708103,-94.9766338,17z/data=!3m1!4b1!4m5!3m4!1s0x863f5c1dfbf22675:0x432e51b8a84d2344!8m2!3d29.7708103!4d-94.9766338",
CiCi's Pizza,1400 E Vine St,KISSIMMEE,FL,34744-3663,4078707711.0,"https://www.google.com/maps/place/Cicis+Pizza/@28.3034715,-81.3884407,17z/data=!3m1!4b1!4m5!3m4!1s0x88dd842bc3a1f4ff:0xbc199f47c1d30e9c!8m2!3d28.3034715!4d-81.3884407",
CiCi's Pizza,1455 Austin Hwy,SAN ANTONIO,TX,78209-4456,2109306666.0,"https://www.google.com/maps/place/Cicis/@29.4610894,-98.6709445,11z/data=!4m8!1m2!2m1!1sCiCi's+Pizza+1455+Austin+Hwy+SAN+ANTONIO+TX+78209-4456!3m4!1s0x865cf4e147b3bfff:0x2854453a26c2bcd3!8m2!3d29.4937215!4d-98.4356741?hl=en",
CiCi's Pizza,5035 W Irlo Bronson Memorial Hwy,KISSIMMEE,FL,34746-5345,4073909001.0,"https://www.google.com/maps/place/Cicis+Pizza/@28.3336395,-81.4858726,17z/data=!3m1!4b1!4m5!3m4!1s0x88dd81971da60e01:0xdf8772ed09445f4e!8m2!3d28.3336395!4d-81.4858726",
CiCi's Pizza,1037 Northwest Hwy,GARLAND,TX,75041-5831,9726138080.0,"https://www.google.com/maps/place/Cicis+Pizza/@32.8629527,-96.6434683,17z/data=!3m1!4b1!4m5!3m4!1s0x864ea7218d86f411:0x344c7c08deeb779!8m2!3d32.8629527!4d-96.6434683",
CiCi's Pizza,469 Uvalde Rd,HOUSTON,TX,77015-3717,7134504400.0,"https://www.google.com/maps/place/Cicis/@29.8084754,-95.6137028,10z/data=!3m1!5s0x8640a487a4fae515:0x7edf0a3abfe53475!4m8!1m2!2m1!1sCiCi's+Pizza+469+Uvalde+Rd+HOUSTON+TX+77015-3717!3m4!1s0x8640a487b77b4d17:0xdd3bf03ec1519a6d!8m2!3d29.7893147!4d-95.1866879?hl=en",
CiCi's Pizza,4800 Columbia Ave,DALLAS,TX,75226-1009,2143703404.0,"https://www.google.com/maps/place/Cicis+Pizza/@32.7942336,-96.7632605,17z/data=!3m1!4b1!4m5!3m4!1s0x864e98ba6f74a88f:0x8c4b46d8b0c23166!8m2!3d32.7942336!4d-96.7632605",
CiCi's Pizza,5145 Avenue H,ROSENBERG,TX,77471-2013,2812398800.0,"https://www.google.com/maps/place/Cicis/@29.5798962,-95.8224204,11z/data=!4m8!1m2!2m1!1sCiCi's+Pizza+5145+Avenue+H+ROSENBERG+TX+77471-2013!3m4!1s0x86411e81b4b77191:0x427eefae527acb43!8m2!3d29.5728412!4d-95.7750642?hl=en",
CiCi's Pizza,4918 Ayers St,CORPUS CHRISTI,TX,78415-1431,3618142424.0,"https://www.google.com/maps/place/Cicis+Pizza/@27.7200894,-97.463747,12z/data=!4m8!1m2!2m1!1sCiCi's+Pizza+4918+Ayers+St+CORPUS+CHRISTI+TX+78415-1431!3m4!1s0x86685fefc5ce38a7:0xbf3c6ccddf78c221!8m2!3d27.7373575!4d-97.4253738?hl=en",
CiCi's Pizza,4949 S Peoria Ave,TULSA,OK,74105-4629,9187448338.0,"https://www.google.com/maps/place/Cicis+Pizza/@36.0912171,-95.9749599,17z/data=!3m1!4b1!4m5!3m4!1s0x87b6936709330ecb:0x6d36ba75ad101ff4!8m2!3d36.0912171!4d-95.9749599",
CiCi's Pizza,4989 Houston Rd,FLORENCE,KY,41042-1365,8595256380.0,"https://www.google.com/maps/place/Cicis+Pizza/@39.0153898,-84.6401374,17z/data=!3m1!4b1!4m5!3m4!1s0x8841c7c8ee86d87b:0xda122529c9165a56!8m2!3d39.0153898!4d-84.6401374",
CiCi's Pizza,155 Legends Dr,LEBANON,TN,37087-5309,6154442221.0,"https://www.google.com/maps/place/Cicis+Pizza/@36.1895373,-86.2934421,17z/data=!3m1!4b1!4m5!3m4!1s0x88641f9ebd3c8fc7:0x9f95302bcca5659a!8m2!3d36.1895373!4d-86.2934421",
CiCi's Pizza,1601 S Interstate 35,ROUND ROCK,TX,78664-6618,5123887844.0,"https://www.google.com/maps/place/Cicis+Pizza/@30.4947098,-97.6766699,17z/data=!3m1!4b1!4m5!3m4!1s0x8644d1851f8837b1:0x5517342fdceeac0!8m2!3d30.4947098!4d-97.6766699",
CiCi's Pizza,1609 N Valley Mills Dr,WACO,TX,76710-2552,2547767762.0,"https://www.google.com/maps/place/Cicis+Pizza/@31.5323788,-97.1957056,17z/data=!3m1!4b1!4m5!3m4!1s0x864f8416d13b6e01:0x4f1a8916cf2f606c!8m2!3d31.5323788!4d-97.1957056",
CiCi's Pizza,161 Industrial Park Dr,SMITHFIELD,NC,27577-5075,9199382424.0,"https://www.google.com/maps/place/Cicis+Pizza/@35.5060824,-78.3239465,17z/data=!3m1!4b1!4m5!3m4!1s0x89ac729172b09b21:0x5505c288bc04e6fa!8m2!3d35.5060824!4d-78.3239465",
CiCi's Pizza,5100 N 27th St,LINCOLN,NE,68521-4715,4024768888.0,"https://www.google.com/maps/place/Cicis+Pizza/@40.8633787,-96.6780966,17z/data=!3m1!4b1!4m5!3m4!1s0x8796b943a541fa75:0xa423eff1bf4ccd9f!8m2!3d40.8633787!4d-96.6780966",
CiCi's Pizza,5300 Rufe Snow Dr,NORTH RICHLAND HILLS,TX,76180-6653,8174854647.0,"https://www.google.com/maps/place/Cicis+Pizza/@32.8458904,-97.2381905,17z/data=!3m1!4b1!4m5!3m4!1s0x864e7841f5245a1b:0x7ad992340070a184!8m2!3d32.8458904!4d-97.2381905",
CiCi's Pizza,5425 Highway 153,HIXSON,TN,37343-6700,4238761000.0,"https://www.google.com/maps/place/Cicis+Pizza/@35.1378374,-85.2485257,17z/data=!3m1!4b1!4m5!3m4!1s0x88608a967f94333f:0x21ff22e926dd16ea!8m2!3d35.1378374!4d-85.2485257",
CiCi's Pizza,5735 Nolensville Pike,NASHVILLE,TN,37211-6423,6158332350.0,"https://www.google.com/maps/place/Cicis+Pizza/@36.04777,-86.714994,17z/data=!3m1!4b1!4m5!3m4!1s0x88646fd850366f29:0xed7272d2d2d0004a!8m2!3d36.04777!4d-86.714994",
CiCi's Pizza,1635 Broadway St,PEARLAND,TX,77581-5663,2814820784.0,"https://www.google.com/maps/place/Cicis+Pizza/@29.5483369,-95.2324721,17z/data=!3m1!4b1!4m5!3m4!1s0x864090874f490a19:0x89e51fc5668cd3a!8m2!3d29.5483369!4d-95.2324721",
CiCi's Pizza,1660 Whittlesey Rd,COLUMBUS,GA,31904-9218,7063173332.0,"https://www.google.com/maps/place/Cicis+Pizza/@32.5367275,-84.9703981,17z/data=!4m5!3m4!1s0x888ccb6889ffb149:0x2600b6f4311500dc!8m2!3d32.536723!4d-84.9682094?hl=en",
CiCi's Pizza,583 Haywood Rd,GREENVILLE,SC,29607-2710,8646759277.0,"https://www.google.com/maps/place/Cicis+Pizza/@34.8482506,-82.3410675,17z/data=!3m1!4b1!4m5!3m4!1s0x88582efbfe34d945:0xb2404590a3553a16!8m2!3d34.8482506!4d-82.3410675",
CiCi's Pizza,5900 E Virginia Beach Blvd,NORFOLK,VA,23502-2492,7574617022.0,"https://www.google.com/maps/place/Cicis+Pizza/@36.8568896,-76.202389,17z/data=!3m1!4b1!4m5!3m4!1s0x89ba96421bb8db6b:0x1f2fb798005f20dd!8m2!3d36.8568896!4d-76.202389",
CiCi's Pizza,5904 S Cooper St,ARLINGTON,TX,76017-4495,8174652345.0,"https://www.google.com/maps/place/Cicis/@32.6632551,-97.2722484,11z/data=!4m8!1m2!2m1!1sCiCi's+Pizza+5904+S+Cooper+St+ARLINGTON+TX+76017-4495!3m4!1s0x864e62fff1e4ecd1:0x98720b6ec816785a!8m2!3d32.651219!4d-97.1360882?hl=en",
CiCi's Pizza,601 Trenton Rd,MCALLEN,TX,78504-2147,9566642299.0,"https://www.google.com/maps/place/Cicis+Pizza/@26.2668617,-98.2150939,17z/data=!3m1!4b1!4m5!3m4!1s0x8665a151e33da983:0xac43b309157c8352!8m2!3d26.2668617!4d-98.2150939",
CiCi's Pizza,6050 Peachtree Pkwy,NORCROSS,GA,30092-3337,7703000535.0,"https://www.google.com/maps/place/Cicis+Pizza/@33.9541526,-84.2322421,17z/data=!3m1!4b1!4m5!3m4!1s0x88f5a0e0dd9ee91b:0x9314c59f7b4c854b!8m2!3d33.9541526!4d-84.2322421",
CiCi's Pizza,6120 Saint Andrews Rd,COLUMBIA,SC,29212-3122,8037505900.0,"https://www.google.com/maps/place/Cicis+Pizza/@34.0555483,-81.1604798,17z/data=!3m1!4b1!4m5!3m4!1s0x88f8a280f2e36c45:0xf734eba56fb6a556!8m2!3d34.0555483!4d-81.1604798",
CiCi's Pizza,6506 Wesley St,GREENVILLE,TX,75402-7367,9034542166.0,"https://www.google.com/maps/place/Cicis+Pizza/@33.1034125,-96.1102787,17z/data=!3m1!4b1!4m5!3m4!1s0x864be7d4af1a9287:0x4f52770b7077a2be!8m2!3d33.1034125!4d-96.1102787",
CiCi's Pizza,6511 W Loop 1604 N,SAN ANTONIO,TX,78254-5439,2106882370.0,"https://www.google.com/maps/place/Cicis+Pizza/@29.4980105,-98.7052387,17z/data=!3m1!4b1!4m5!3m4!1s0x865c42631a2b57d5:0xbd1b36bd5dbc15a9!8m2!3d29.4980105!4d-98.7052387",
CiCi's Pizza,657 Snow St,OXFORD,AL,36203-1212,2568353595.0,"https://www.google.com/maps/place/Cicis+Pizza/@33.6161158,-85.8245347,17z/data=!3m1!4b1!4m5!3m4!1s0x888bb16b3bf6c37d:0xf971e1b8da382941!8m2!3d33.6161158!4d-85.8245347",
CiCi's Pizza,660 W 23rd St,PANAMA CITY,FL,32405-3921,8504818419.0,"https://www.google.com/maps/place/Cicis/@30.1915818,-85.6723804,17z/data=!3m1!5s0x889383e60549b50d:0x3333a570dcf23d30!4m5!3m4!1s0x889383e5f5e164b1:0x572ea5d2119a5e42!8m2!3d30.1915772!4d-85.6701917?hl=en",
CiCi's Pizza,666 S Jefferson Ave,MOUNT PLEASANT,TX,75455-4842,9035721414.0,"https://www.google.com/maps/place/Cicis+Pizza/@33.149353,-94.9708495,17z/data=!3m1!4b1!4m5!3m4!1s0x8635fa051baa421f:0xc71a34dbde2ce69f!8m2!3d33.149353!4d-94.9708495",
CiCi's Pizza,6182 Highway 6 N,HOUSTON,TX,77084-1304,2818560299.0,"https://www.google.com/maps/place/Cicis+Pizza/@29.8708294,-95.6448532,17z/data=!3m1!4b1!4m5!3m4!1s0x8640d0b32f8b0959:0x7b3b7664150d2205!8m2!3d29.8708294!4d-95.6448532",
CiCi's Pizza,6311 Airline Park Shopping Center,METAIRIE,LA,70003,5048182422.0,"https://www.google.com/maps/place/Cicis+Pizza/@29.9780757,-90.2033758,17z/data=!3m1!4b1!4m5!3m4!1s0x8620b09ef3b0e1a3:0x653b43091daa1e08!8m2!3d29.9780757!4d-90.2033758",
CiCi's Pizza,6342 Lake Worth Blvd,FORT WORTH,TX,76135-3610,8172388878.0,"https://www.google.com/maps/place/Cicis+Pizza/@32.8110335,-97.4238482,17z/data=!3m1!4b1!4m5!3m4!1s0x864e74d9161804e1:0xb45d9ddae1fa4de3!8m2!3d32.8110335!4d-97.4238482",
CiCi's Pizza,637 E Joyce Blvd,FAYETTEVILLE,AR,72703-6140,4795829292.0,"https://www.google.com/maps/place/Cicis+Pizza/@36.1227875,-94.1485801,17z/data=!3m1!4b1!4m5!3m4!1s0x87c96bf4519263bf:0xd93406eb3bd4b4d8!8m2!3d36.1227875!4d-94.1485801",
CiCi's Pizza,168 Norman Station Blvd,MOORESVILLE,NC,28117-6351,7047998789.0,"https://www.google.com/maps/place/Cicis+Pizza/@35.5902653,-80.8581298,17z/data=!3m1!4b1!4m5!3m4!1s0x885154e09baeaa4f:0xbb83eefef1f34a01!8m2!3d35.5902653!4d-80.8581298",
CiCi's Pizza,1700 N Zaragoza Rd,EL PASO,TX,79936-7964,9158573355.0,"https://www.google.com/maps/place/Cicis+Pizza/@31.7500709,-106.279023,17z/data=!3m1!4b1!4m5!3m4!1s0x86e744757a3264cb:0x2259d385412a3120!8m2!3d31.7500709!4d-106.279023",
CiCi's Pizza,1700 Tamiami Trl,PORT CHARLOTTE,FL,33948-1063,9416273303.0,"https://www.google.com/maps/place/Cicis+Pizza/@27.0091044,-82.1356183,17z/data=!3m1!4b1!4m5!3m4!1s0x88dcabd05455b401:0xa8c04ed3fe24afbd!8m2!3d27.0091044!4d-82.1356183",
CiCi's Pizza,1701 Fairway Dr,ALVIN,TX,77511-4671,2815852526.0,"https://www.google.com/maps/place/Cicis+Pizza/@29.4373045,-95.3009444,11z/data=!4m8!1m2!2m1!1sCiCi's+Pizza+1701+Fairway+Dr+ALVIN+TX+77511-4671!3m4!1s0x864088acc314d373:0x8d290d54123d6fad!8m2!3d29.4059111!4d-95.2321529?hl=en",
CiCi's Pizza,6750 Airport Blvd,MOBILE,AL,36608-3792,2513410880.0,"https://www.google.com/maps/place/Cicis+Pizza/@30.6826842,-88.198721,17z/data=!3m1!4b1!4m5!3m4!1s0x889bb28dde3c5a37:0x27ad62324f0733a!8m2!3d30.6826842!4d-88.198721",
CiCi's Pizza,723 Battlefield Pkwy,FORT OGLETHORPE,GA,30742-3923,7068587401.0,"https://www.google.com/maps/place/Cicis/@34.98256,-85.3333152,10z/data=!4m8!1m2!2m1!1sCiCi's+Pizza+723+Battlefield+Pkwy+FORT+OGLETHORPE+GA+30742-3923!3m4!1s0x886067dbf51d33bd:0x2621b51ba7097bab!8m2!3d34.9556423!4d-85.2531179?hl=en",
CiCi's Pizza,6900 San Pedro Ave,SAN ANTONIO,TX,78216-6207,2108211135.0,"https://www.google.com/maps/place/Cicis+Pizza/@29.5070751,-98.4983898,17z/data=!3m1!4b1!4m5!3m4!1s0x865c5fe585411cdd:0x8a0a862a61066bc3!8m2!3d29.5070751!4d-98.4983898",
CiCi's Pizza,7400 Abercorn St,SAVANNAH,GA,31406-2455,9126912777.0,"https://www.google.com/maps/place/Cicis+Pizza/@32.0081556,-81.110635,17z/data=!3m1!4b1!4m5!3m4!1s0x88fb75a8c9b03fd7:0x7db6d8c0cff76f05!8m2!3d32.0081556!4d-81.110635",
CiCi's Pizza,7437 International Dr,ORLANDO,FL,32819-8248,4072269822.0,"https://www.google.com/maps/place/Cicis+Pizza/@28.4541198,-81.4703024,17z/data=!3m1!4b1!4m5!3m4!1s0x88e77effb83b2577:0x66e1109287bb3a36!8m2!3d28.4541198!4d-81.4703024",
CiCi's Pizza,7438 Spencer Hwy,PASADENA,TX,77505-1837,2819308400.0,"https://www.google.com/maps/place/Cicis+Pizza/@29.662164,-95.1233599,17z/data=!3m1!4b1!4m5!3m4!1s0x86409f3e13e74a65:0x1dff19f8949f74c0!8m2!3d29.662164!4d-95.1233599",
CiCi's Pizza,7145 N 9th Ave,PENSACOLA,FL,32504-6686,8504766464.0,"https://www.google.com/maps/place/Cicis+Pizza/@30.4987427,-87.1880069,17z/data=!3m1!4b1!4m5!3m4!1s0x8890ea81ede93ff3:0x729d11c6558e336d!8m2!3d30.4987427!4d-87.1880069",
CiCi's Pizza,724 W Main St,LEWISVILLE,TX,75067-3551,9722215187.0,"https://www.google.com/maps/place/Cicis+Pizza/@33.0446849,-97.0129104,17z/data=!3m1!4b1!4m5!3m4!1s0x864c2de3e06d2e39:0xcc54f0195fd8e2e5!8m2!3d33.0446849!4d-97.0129104",
CiCi's Pizza,726 W Pioneer Pkwy,GRAND PRAIRIE,TX,75051-4857,9726427774.0,"https://www.google.com/maps/place/Cicis+Pizza/@32.7103671,-97.0144043,17z/data=!3m1!4b1!4m5!3m4!1s0x864e8604570d9a63:0x799ca7ef4a5451b1!8m2!3d32.7103671!4d-97.0144043",
CiCi's Pizza,7341 S Western Ave,OKLAHOMA CITY,OK,73139-2007,4056021900.0,"https://www.google.com/maps/place/Cicis+Pizza/@35.3930306,-97.5311735,17z/data=!3m1!4b1!4m5!3m4!1s0x87b2138b89dfeba7:0xa8a737809ccdab9!8m2!3d35.3930306!4d-97.5311735",
CiCi's Pizza,7425 S Lindbergh Blvd,SAINT LOUIS,MO,63125-4800,3144872465.0,"https://www.google.com/maps/place/Cicis+Pizza/@38.5053887,-90.3239009,17z/data=!3m1!4b1!4m5!3m4!1s0x87d8c869e521037f:0xb9b17f3432a0a91!8m2!3d38.5053887!4d-90.3239009",
CiCi's Pizza,7631 Troy Pike,DAYTON,OH,45424-2038,9372362424.0,"https://www.google.com/maps/place/Cicis/@39.8647538,-84.142832,17z/data=!4m5!3m4!1s0x883f7d05e2537bcd:0xdb6703080b213843!8m2!3d39.8647497!4d-84.1406433?hl=en",
CiCi's Pizza,7516 W Broad St,HENRICO,VA,23294-3608,8047557555.0,"https://www.google.com/maps/place/Cicis+Pizza/@37.6194365,-77.5230297,17z/data=!3m1!5s0x89b115060e32af43:0x7edf0a3a1e070955!4m8!1m2!2m1!1sCiCi's+Pizza+7516+W+Broad+St+HENRICO+VA+23294-3608!3m4!1s0x89b11505b4fa77a5:0xcd1852eb6845f952!8m2!3d37.6194388!4d-77.5208408?hl=en",
CiCi's Pizza,6120 Precinct Line Rd,HURST,TX,76054-2610,8174270123.0,"https://www.google.com/maps/place/Cicis+Pizza/@32.8604316,-97.1853697,17z/data=!3m1!4b1!4m5!3m4!1s0x864e78ce1d2e4df3:0x7713cfe3e22824ec!8m2!3d32.8604316!4d-97.1853697",
CiCi's Pizza,7760 Good Middling Dr,FAYETTEVILLE,NC,28304-6048,9108643040.0,"https://www.google.com/maps/place/Cicis+Pizza/@35.0286237,-79.0559381,17z/data=!3m1!4b1!4m5!3m4!1s0x89ab3fad022e122b:0x5aa15f75e6c08789!8m2!3d35.0286237!4d-79.0559381",
CiCi's Pizza,7879 Spring Valley Rd,DALLAS,TX,75254-2884,9722506242.0,"https://www.google.com/maps/place/Cicis+Pizza/@32.9412632,-96.7698714,17z/data=!3m1!4b1!4m5!3m4!1s0x864c20355ac22b09:0x2bab87642e1fe42e!8m2!3d32.9412632!4d-96.7698714",
CiCi's Pizza,790 Arlington Rdg,AKRON,OH,44312-5863,3306448733.0,"https://www.google.com/maps/place/Cicis+Pizza/@40.9826154,-81.4946857,17z/data=!3m1!4b1!4m5!3m4!1s0x88312abf46bb68b7:0xaabfdcc0bc7092b7!8m2!3d40.9826154!4d-81.4946857",
CiCi's Pizza,1804 Windsor Square Dr,MATTHEWS,NC,28105-4662,7048455002.0,"https://www.google.com/maps/place/Cicis+Pizza/@35.1337707,-80.7101718,17z/data=!3m1!4b1!4m5!3m4!1s0x885423ef8b05b685:0xc5ce32f559b850c!8m2!3d35.1337707!4d-80.7101718",
CiCi's Pizza,1896 W Moore Ave,TERRELL,TX,75160-2309,9725512222.0,"https://www.google.com/maps/place/Cicis+Pizza/@32.737821,-96.3059552,17z/data=!3m1!4b1!4m5!3m4!1s0x86494e1f0ec17b51:0x995bfb696c5ca4e2!8m2!3d32.737821!4d-96.3059552",
CiCi's Pizza,1842 Patriot Way,CULLMAN,AL,35055-7504,2567362662.0,"https://www.google.com/maps/place/Cicis+Pizza/@34.1522068,-86.8395837,17z/data=!3m1!4b1!4m5!3m4!1s0x8889cbd7e48e4775:0xec142726d7ce73a7!8m2!3d34.1522068!4d-86.8395837",
CiCi's Pizza,8320 W Central Ave,WICHITA,KS,67212-3652,3167731782.0,"https://www.google.com/maps/place/Cicis+Pizza/@37.6946904,-97.4392656,17z/data=!3m1!4b1!4m5!3m4!1s0x87bade29c0f75e7b:0x95942fbf876504ba!8m2!3d37.6946904!4d-97.4392656",
CiCi's Pizza,8327 Agora Pkwy,SELMA,TX,78154-1346,2106586100.0,"https://www.google.com/maps/place/Cicis+Pizza/@29.5727852,-98.32475,17z/data=!3m1!4b1!4m5!3m4!1s0x865c8d76129d6521:0x44b4ece0b4fc9adf!8m2!3d29.5727852!4d-98.32475",
CiCi's Pizza,1938 E Southeast Loop 323,TYLER,TX,75701-8337,9035339494.0,"https://www.google.com/maps/place/Cicis+Pizza/@32.3119186,-95.2758716,17z/data=!3m1!4b1!4m5!3m4!1s0x8649cc42e244f3e1:0x8cbc045916633c2d!8m2!3d32.3119186!4d-95.2758716",
CiCi's Pizza,2003 S Texas Ave,BRYAN,TX,77802-1834,9797752424.0,"https://www.google.com/maps/place/Cicis+Pizza/@30.651871,-96.360617,17z/data=!3m1!4b1!4m5!3m4!1s0x8646817efea7524f:0x3cc3833b8e72a494!8m2!3d30.651871!4d-96.360617",
CiCi's Pizza,1927 E Belt Line Rd,CARROLLTON,TX,75006-5896,9724162626.0,"https://www.google.com/maps/place/Cicis+Pizza/@32.9703964,-96.9016254,13z/data=!3m1!5s0x864c265d2ef30475:0x3333a5701ea662a0!4m8!1m2!2m1!1sCiCi's+Pizza+1927+E+Belt+Line+Rd+CARROLLTON+TX+75006-5896!3m4!1s0x864c265cd8733cbb:0x8fb990e28d66f0cc!8m2!3d32.9551965!4d-96.8893179?hl=en",
CiCi's Pizza,1931 Auburn Ave,COLUMBUS,GA,31906-1705,7065699096.0,"https://www.google.com/maps/place/Cicis+Pizza/@32.4809491,-84.9465884,17z/data=!3m1!4b1!4m5!3m4!1s0x888ccd29e71c4485:0x32c989244a307139!8m2!3d32.4809491!4d-84.9465884",
CiCi's Pizza,19705 Highway 59 N,HUMBLE,TX,77338-3513,2814464442.0,"https://www.google.com/maps/place/Cicis+Pizza/@30.0025719,-95.2708352,17z/data=!3m1!4b1!4m5!3m4!1s0x8640b3ac9de4b319:0xe9977f20d8d60c3e!8m2!3d30.0025719!4d-95.2708352",
CiCi's Pizza,1991 W Lumsden Rd,BRANDON,FL,33511-8821,8136578400.0,"https://www.google.com/maps/place/Cicis+Pizza/@27.9211061,-82.3178664,17z/data=!3m1!4b1!4m5!3m4!1s0x88c2ce6ceecda371:0xe60ce4ba60545637!8m2!3d27.9211061!4d-82.3178664",
CiCi's Pizza,2025 W Lincoln St,HARLINGEN,TX,78552-5915,9564254097.0,"https://www.google.com/maps/place/Cicis+Pizza/@26.1806339,-97.7183562,17z/data=!3m1!4b1!4m5!3m4!1s0x866f819614387311:0xf1a7a19961067273!8m2!3d26.1806339!4d-97.7183562",
CiCi's Pizza,2059 S Pleasant Valley Rd,WINCHESTER,VA,22601-7001,5405350002.0,"https://www.google.com/maps/place/Cicis+Pizza/@39.1624533,-78.169593,17z/data=!3m1!4b1!4m5!3m4!1s0x89b5eef0092665db:0xa0a09757be69a022!8m2!3d39.1624533!4d-78.169593",
CiCi's Pizza,2035 E Market St,HARRISONBURG,VA,22801-8881,5404329099.0,"https://www.google.com/maps/place/Cicis+Pizza/@38.424052,-78.841412,17z/data=!3m1!4b1!4m5!3m4!1s0x89b4929cfc9522e3:0x4a18497b6d6f8d0c!8m2!3d38.424052!4d-78.841412",
CiCi's Pizza,204 N Greenville Ave,ALLEN,TX,75002-9130,9727272424.0,"https://www.google.com/maps/place/Cicis+Pizza/@29.7477593,-101.2893729,6z/data=!4m8!1m2!2m1!1sCiCi's+Pizza+4415+North+Conway+Ave+PALMHURST+TX+78573!3m4!1s0x864c10b59308bcc1:0x28cbb6364451242c!8m2!3d33.1014419!4d-96.6600269?hl=en",
CiCi's Pizza,929 McFarland Blvd,NORTHPORT,AL,35476-3373,2053333920.0,"https://www.google.com/maps/place/Cicis+Pizza/@33.2365718,-87.5679143,17z/data=!3m1!4b1!4m5!3m4!1s0x88861d33129387fd:0xe7de0bc7147d8d35!8m2!3d33.2365718!4d-87.5679143",
CiCi's Pizza,9540 N Garnett Rd,OWASSO,OK,74055-4410,9186095566.0,"https://www.google.com/maps/place/Cicis+Pizza/@36.2921422,-95.8498108,17z/data=!3m1!4b1!4m5!3m4!1s0x87b6f08261009acb:0xdd373636c84916b6!8m2!3d36.2921422!4d-95.8498108",
CiCi's Pizza,202 N State Route 291,LIBERTY,MO,64068-1040,8167922428.0,"https://www.google.com/maps/place/Cicis+Pizza/@39.2458995,-94.4458069,17z/data=!3m1!4b1!4m5!3m4!1s0x87c05584c8aeeb97:0xf0b7b3352b36dca1!8m2!3d39.2458995!4d-94.4458069",
CiCi's Pizza,920 E Highway 82,GAINESVILLE,TX,76240-2720,9406655565.0,"https://www.google.com/maps/place/Cicis+Pizza/@33.6404905,-97.1362189,17z/data=!3m1!4b1!4m5!3m4!1s0x864d011930cc4fef:0x34ff20cda03be8e2!8m2!3d33.6404905!4d-97.1362189",
CiCi's Pizza,9324 Clifford St,FORT WORTH,TX,76108-4439,8172466888.0,"https://www.google.com/maps/place/Cicis+Pizza/@32.7658775,-97.4796939,17z/data=!3m1!4b1!4m5!3m4!1s0x864e0b7e28123723:0x35ed553fef9ffd19!8m2!3d32.7658775!4d-97.4796939",
CiCi's Pizza,960 N Walnut Creek Dr,MANSFIELD,TX,76063-8023,8174738880.0,"https://www.google.com/maps/place/Cicis+Pizza/@32.5783414,-97.1315217,17z/data=!3m1!4b1!4m5!3m4!1s0x864e61a14da9ee1b:0x42efaa0c51980619!8m2!3d32.5783414!4d-97.1315217",
CiCi's Pizza,2150 W Northwest Hwy,GRAPEVINE,TX,76051-6994,8174219868.0,"https://www.google.com/maps/place/Cicis/@32.8586343,-97.3872897,10z/data=!3m1!5s0x864dd4c9a01431e9:0x3333a570743bb8c0!4m8!1m2!2m1!1sCiCi's+Pizza+2150+W+Northwest+Hwy+GRAPEVINE+TX+76051-6994!3m4!1s0x864dd4c965bdc921:0x7fd2870cf78ff77c!8m2!3d32.9418642!4d-97.100054?hl=en",
CiCi's Pizza,2101 Harwood Rd,BEDFORD,TX,76021-4700,8175457575.0,"https://www.google.com/maps/place/Cicis+Pizza/@32.8524217,-97.1341932,17z/data=!3m1!4b1!4m5!3m4!1s0x864e7fa1ef9dc603:0x7c2088282639529e!8m2!3d32.8524217!4d-97.1341932",
CiCi's Pizza,655 W Illinois Ave,DALLAS,TX,75224-1814,2149437700.0,"https://www.google.com/maps/place/Cicis+Pizza/@32.7225038,-96.831813,17z/data=!3m1!4b1!4m5!3m4!1s0x864e99f990c84617:0xd98a7000b2c91fe5!8m2!3d32.7225038!4d-96.831813",
CiCi's Pizza,221 S Broadview St,CAPE GIRARDEAU,MO,63703-5756,5733394555.0,"https://www.google.com/maps/place/Cicis+Pizza/@37.3017155,-89.5581731,17z/data=!3m1!4b1!4m5!3m4!1s0x887788048af53065:0xafa00071ead7c32b!8m2!3d37.3017155!4d-89.5581731",
CiCi's Pizza,2156 Walker Lake Rd,ONTARIO,OH,44903-6521,4197472424.0,"https://www.google.com/maps/place/Cicis/@40.7879146,-82.5918473,17z/data=!3m1!4b1!4m5!3m4!1s0x8839949168e82359:0x176917dad14d6008!8m2!3d40.7879146!4d-82.5918473",
CiCi's Pizza,2219 S Loop 288,DENTON,TX,76205-4982,9408910861.0,"https://www.google.com/maps/place/Cicis+Pizza/@33.1870139,-97.1060005,17z/data=!3m1!4b1!4m5!3m4!1s0x864dcb27b574485f:0xeeac948931e6d0d1!8m2!3d33.1870139!4d-97.1060005",
CiCi's Pizza,2304 W Shady Grove Rd,IRVING,TX,75060-5058,9723137726.0,"https://www.google.com/maps/place/Cicis+Pizza/@32.7994445,-96.9760206,17z/data=!3m1!4b1!4m5!3m4!1s0x864e838f2d1f0783:0xe9d5fe95a76a164f!8m2!3d32.7994445!4d-96.9760206",
CiCi's Pizza,237 Skyland Plz,SPRING LAKE,NC,28390-3415,9104962000.0,"https://www.google.com/maps/place/Cicis/@35.1706774,-78.9725804,17z/data=!3m1!4b1!4m5!3m4!1s0x89ab697556352de5:0x3a18706dd2dc4a8f!8m2!3d35.1706774!4d-78.9725804",
CiCi's Pizza,2448 S Volusia Ave,ORANGE CITY,FL,32763-7618,3869600073.0,"https://www.google.com/maps/place/Cicis+Pizza/@28.9201846,-81.2988117,17z/data=!3m1!4b1!4m5!3m4!1s0x88e7105985058909:0x5f87ca064ec6997c!8m2!3d28.9201846!4d-81.2988117",
CiCi's Pizza,2500 N Meridian Ave,OKLAHOMA CITY,OK,73107-1035,4059478900.0,"https://www.google.com/maps/place/Cicis+Pizza/@35.4944732,-97.6003088,17z/data=!3m1!4b1!4m5!3m4!1s0x87b21005f2377a89:0x22f2aca32b5e2e61!8m2!3d35.4944732!4d-97.6003088",
CiCi's Pizza,2519 Redmond Cir NW,ROME,GA,30165-1912,7062358800.0,"https://www.google.com/maps/place/Cicis/@34.2725172,-85.2277008,17z/data=!3m1!4b1!4m5!3m4!1s0x888aa302e353cc37:0x82cdb8905e887821!8m2!3d34.2725172!4d-85.2277008",
CiCi's Pizza,2710 Southwest Pkwy,WICHITA FALLS,TX,76308-3704,9406916060.0,"https://www.google.com/maps/place/Cicis+Pizza/@33.8582662,-98.5330443,17z/data=!3m1!4b1!4m5!3m4!1s0x865321d58b594a0f:0x24e674490a7d0d29!8m2!3d33.8582662!4d-98.5330443",
CiCi's Pizza,2720 N Mall Dr,VIRGINIA BEACH,VA,23452-7200,7574636700.0,"https://www.google.com/maps/place/Cicis/@36.8390383,-76.2781528,11z/data=!4m8!1m2!2m1!1sCiCi's+Pizza+2720+N+Mall+Dr+VIRGINIA+BEACH+VA+23452-7200!3m4!1s0x89baeaa422b2d76d:0x6a88be9129754b94!8m2!3d36.8208018!4d-76.0737495?hl=en",
CiCi's Pizza,2724 8th Ave,FORT WORTH,TX,76110-3040,8179267401.0,"https://www.google.com/maps/place/Cicis+Pizza/@32.7117113,-97.3442604,17z/data=!3m1!4b1!4m5!3m4!1s0x864e718c28353015:0x7e6e203a6b49c457!8m2!3d32.7117113!4d-97.3442604",
CiCi's Pizza,2782 Legends Pkwy,PRATTVILLE,AL,36066-7753,3343874640.0,"https://www.google.com/maps/place/Cicis+Pizza/@32.4584493,-86.3971274,17z/data=!3m1!4b1!4m5!3m4!1s0x888e85146f1629eb:0x75984cdf91e722a6!8m2!3d32.4584493!4d-86.3971274",
CiCi's Pizza,2815 Lakewood Village Dr,NORTH LITTLE ROCK,AR,72116-8032,5017531182.0,"https://www.google.com/maps/place/Cicis+Pizza/@34.7965809,-92.2305572,17z/data=!3m1!4b1!4m5!3m4!1s0x87d2bc2d22e22533:0x1d6ce542ece701a2!8m2!3d34.7965809!4d-92.2305572",
CiCi's Pizza,2900 W Washington St,STEPHENVILLE,TX,76401-3742,2549683600.0,"https://www.google.com/maps/place/Cicis+Pizza/@32.2014809,-98.2434261,17z/data=!3m1!4b1!4m5!3m4!1s0x8651b1155935ea6b:0x3a8aeb9630c04968!8m2!3d32.2014809!4d-98.2434261",
CiCi's Pizza,3063 E Main St,RUSSELLVILLE,AR,72802-9608,4798802424.0,"https://www.google.com/maps/place/Cicis+Pizza/@35.2828694,-93.1040422,17z/data=!3m1!4b1!4m5!3m4!1s0x87cdacb4adcdb10f:0xac08230ab91ef433!8m2!3d35.2828694!4d-93.1040422",
CiCi's Pizza,2857 Reynolda Rd,WINSTON SALEM,NC,27106-3110,3367237273.0,"https://www.google.com/maps/place/Cicis+Pizza/@36.1459018,-80.3000996,17z/data=!3m1!4b1!4m5!3m4!1s0x8853b23ded7ed265:0x590af575978a257e!8m2!3d36.1459018!4d-80.3000996",
CiCi's Pizza,3190 Atlanta Hwy,ATHENS,GA,30606-6994,7066132424.0,"https://www.google.com/maps/place/Cicis+Pizza/@33.9416455,-83.4511093,17z/data=!3m1!4b1!4m5!3m4!1s0x88f672f14fdf9afb:0xc89b02ab4404f39c!8m2!3d33.9416455!4d-83.4511093",
CiCi's Pizza,3053 S John Redditt Dr,LUFKIN,TX,75904-5603,9366342424.0,"https://www.google.com/maps/place/Cicis+Pizza/@31.3105834,-94.7288525,17z/data=!3m1!4b1!4m5!3m4!1s0x8638162be1da0c45:0xbb6e35e5e5beb3be!8m2!3d31.3105834!4d-94.7288525",
CiCi's Pizza,315 Sawdust Rd,SPRING,TX,77380-2240,2812922424.0,"https://www.google.com/maps/place/Cicis+Pizza/@30.1256618,-95.4465369,17z/data=!3m1!4b1!4m5!3m4!1s0x8647343acbd575a5:0x99fe4bdadc8432bc!8m2!3d30.1256618!4d-95.4465369",
CiCi's Pizza,3356 S Church St,BURLINGTON,NC,27215-9150,3365849596.0,"https://www.google.com/maps/place/Cicis+Pizza/@36.0797093,-79.5100468,17z/data=!3m1!4b1!4m5!3m4!1s0x88532923d692decb:0xcaefe9ef4d47381f!8m2!3d36.0797093!4d-79.5100468",
CiCi's Pizza,341 S College Rd,WILMINGTON,NC,28403-1622,9103320281.0,"https://www.google.com/maps/place/Cicis+Pizza/@34.2345367,-77.8714449,17z/data=!3m1!4b1!4m5!3m4!1s0x89a9f4e7c7fce4db:0xeec7229a806f2aa7!8m2!3d34.2345367!4d-77.8714449",
CiCi's Pizza,3411 SE 14th St,DES MOINES,IA,50320-1335,5152801640.0,"https://www.google.com/maps/place/Cicis/@41.5884572,-93.7152891,12z/data=!3m1!5s0x87ee980e18113e7f:0x881f1844b07e4e60!4m8!1m2!2m1!1sCiCi's+Pizza+3411+SE+14th+St+DES+MOINES+IA+50320-1335!3m4!1s0x87ee980dd744a21b:0xda0cdd05f7f2950c!8m2!3d41.5528154!4d-93.5948494?hl=en",
CiCi's Pizza,3421 Spencer Hwy,PASADENA,TX,77504-1159,7139413333.0,"https://www.google.com/maps/place/Cicis+Pizza/@29.6658279,-95.1907825,17z/data=!3m1!4b1!4m5!3m4!1s0x864098674b18503b:0x3825926b8a6847c!8m2!3d29.6658279!4d-95.1907825",
CiCi's Pizza,361 Ridge Way,FLOWOOD,MS,39232-3307,6019924550.0,"https://www.google.com/maps/place/Cicis+Pizza/@32.339926,-90.0657197,17z/data=!3m1!4b1!4m5!3m4!1s0x86282b5b3289318f:0xca55a7333f030ef6!8m2!3d32.339926!4d-90.0657197",
CiCi's Pizza,3702 Ross Clark Cir,DOTHAN,AL,36303-2234,3346733500.0,"https://www.google.com/maps/place/Cicis+Pizza/@31.2515614,-85.4179676,17z/data=!3m1!4b1!4m5!3m4!1s0x889292153d69e6a5:0x33b5d75c67e82c8e!8m2!3d31.2515614!4d-85.4179676",
CiCi's Pizza,3731 W State Highway 31,CORSICANA,TX,75110-9701,9038740011.0,"https://www.google.com/maps/place/Cicis+Pizza/@32.0690283,-96.5055185,17z/data=!3m1!4b1!4m5!3m4!1s0x864f2e90cbfec459:0x4b3804cbd709040b!8m2!3d32.0690283!4d-96.5055185",
CiCi's Pizza,3801 North St,NACOGDOCHES,TX,75965-2467,9365603000.0,"https://www.google.com/maps/place/Cicis+Pizza/@31.6399826,-94.654436,17z/data=!3m1!4b1!4m5!3m4!1s0x86378c0669fa2739:0x700c03966c656672!8m2!3d31.6399826!4d-94.654436",
CiCi's Pizza,347 Cypress Gardens Blvd,WINTER HAVEN,FL,33880-4452,8632939292.0,"https://www.google.com/maps/place/Cicis+Pizza/@28.0063054,-81.7232434,17z/data=!3m1!4b1!4m5!3m4!1s0x88dd12f7f7471ad1:0x51ef0e75f583115a!8m2!3d28.0063054!4d-81.7232434",
CiCi's Pizza,3501 Capital Blvd,RALEIGH,NC,27604-3370,9198632424.0,"https://www.google.com/maps/place/Cicis/@35.8270535,-78.5872922,17z/data=!3m1!4b1!4m5!3m4!1s0x89ac596af0238985:0xfa24fcc8b4108469!8m2!3d35.8270535!4d-78.5872922",
CiCi's Pizza,3550 Northgate Dr,MYRTLE BEACH,SC,29588-6182,8432942121.0,"https://www.google.com/maps/place/Cicis+Pizza/@33.6841461,-78.9617001,17z/data=!3m1!4b1!4m5!3m4!1s0x89006a43465c41e5:0x840d50f5cdcdb574!8m2!3d33.6841461!4d-78.9617001",
CiCi's Pizza,3700 Candlers Mountain Rd,LYNCHBURG,VA,24502-2228,4348455339.0,"https://www.google.com/maps/place/Cicis+Pizza/@37.3611455,-79.1681763,17z/data=!3m1!4b1!4m5!3m4!1s0x89b2da5bdf54a051:0xa70ac9d1ea420544!8m2!3d37.3611455!4d-79.1681763",
CiCi's Pizza,3912 W Hillsboro Blvd,DEERFIELD BEACH,FL,33442-9414,9545709900.0,"https://www.google.com/maps/place/Cicis+Pizza/@26.3157631,-80.1581241,17z/data=!3m1!4b1!4m5!3m4!1s0x88d91c5840fdf87f:0xa0ac8e7ad36aa691!8m2!3d26.3157631!4d-80.1581241",
CiCi's Pizza,410 Blanding Blvd,ORANGE PARK,FL,32073-5065,9042723733.0,"https://www.google.com/maps/place/Cicis+Pizza/@30.1631245,-81.7484844,17z/data=!3m1!4b1!4m5!3m4!1s0x88e5c43b20bc8365:0xe52ce5f1abe7b650!8m2!3d30.1631245!4d-81.7484844",
CiCi's Pizza,410 W 49th St,HIALEAH,FL,33012-3643,3058225151.0,"https://www.google.com/maps/place/Cicis+Pizza/@25.8652909,-80.2916889,17z/data=!3m1!4b1!4m5!3m4!1s0x88d9ba8e5bd17355:0xc333919d2f1d812!8m2!3d25.8652909!4d-80.2916889",
CiCi's Pizza,4101 Interstate Highway 69 Access Rd,CORPUS CHRISTI,TX,78410-4545,3612412354.0,"https://www.google.com/maps/place/Cicis+Pizza/@29.7477593,-101.2893729,6z/data=!3m1!5s0x86687adfae8005c5:0xb825fcec8bea0bf0!4m8!1m2!2m1!1sCiCi's+Pizza+4415+North+Conway+Ave+PALMHURST+TX+78573!3m4!1s0x86687ade493d4e3b:0x5e8193473d40c18b!8m2!3d27.8573051!4d-97.6307027?hl=en",
CiCi's Pizza,417 Mary Esther Cut Off NW,FORT WALTON BEACH,FL,32548-4019,8502434000.0,"https://www.google.com/maps/place/Cicis+Pizza/@30.4268426,-86.6433257,17z/data=!3m1!4b1!4m5!3m4!1s0x88913e985a1a91df:0xbe5514fb51fa0c25!8m2!3d30.4268426!4d-86.6433257",
CiCi's Pizza,425 Greenville Blvd SE,GREENVILLE,NC,27858-6751,2527564333.0,"https://www.google.com/maps/place/Cicis/@35.5828137,-77.3772268,17z/data=!3m1!4b1!4m5!3m4!1s0x89aedd4c56dcffd1:0xa220e62eedcffc08!8m2!3d35.5828094!4d-77.3750381?hl=en",
CiCi's Pizza,4320 Grape Rd,MISHAWAKA,IN,46545-8274,5742723000.0,"https://www.google.com/maps/place/Cicis+Pizza/@41.65802,-86.3184625,10z/data=!3m1!5s0x8816d207ae7a8e4b:0x18d4d1e616cfec1d!4m8!1m2!2m1!1sCiCi's+Pizza+4320+Grape+Rd+MISHAWAKA+IN+46545-8274!3m4!1s0x8816d207cce70e79:0x1eb93dd81f1f80bd!8m2!3d41.6997741!4d-86.183129?hl=en",
CiCi's Pizza,4365 N Expressway,BROWNSVILLE,TX,78520-4859,9563505100.0,"https://www.google.com/maps/place/Cicis+Pizza/@25.9690453,-97.5154599,17z/data=!3m1!4b1!4m5!3m4!1s0x866f96b868561771:0x2a32bfbc958048cc!8m2!3d25.9690453!4d-97.5154599",
CiCi's Pizza,4415 Sunset Dr,SAN ANGELO,TX,76901-5612,3259478040.0,"https://www.google.com/maps/place/Cicis+Pizza/@31.4354008,-100.5032945,17z/data=!3m1!4b1!4m5!3m4!1s0x8657e45b5952d0bd:0x3a9481cb2f92ccd5!8m2!3d31.4354008!4d-100.5032945",
CiCi's Pizza,4451 Lebanon Pike,HERMITAGE,TN,37076-1311,6152320950.0,"https://www.google.com/maps/place/Cicis+Pizza/@36.2144152,-86.6004174,17z/data=!3m1!4b1!4m5!3m4!1s0x8864401fdefa2c29:0x5e1f018001d3478f!8m2!3d36.2144152!4d-86.6004174",
CiCi's Pizza,4654 Woodrow Bean Transmountain Dr,EL PASO,TX,79924,9157517788.0,"https://www.google.com/maps/place/Cicis+Pizza/@31.896932,-106.436058,17z/data=!3m1!4b1!4m5!3m4!1s0x86e75167d3086483:0xdf94e437f4697ef0!8m2!3d31.896932!4d-106.436058",
CiCi's Pizza,4743 66th St N,KENNETH CITY,FL,33709-3113,7275488888.0,"https://www.google.com/maps/place/Cicis+Pizza/@27.815218,-82.727241,17z/data=!3m1!4b1!4m5!3m4!1s0x88c2e351e254c9ad:0x1941a449095afbea!8m2!3d27.815218!4d-82.727241",
CiCi's Pizza,4824 Ridge Rd,CLEVELAND,OH,44144-3329,2166613870.0,"https://www.google.com/maps/place/Cicis+Pizza/@41.1393498,-81.8631532,10z/data=!3m1!5s0x8830ee5573fdf071:0xb6e254c4d88976d0!4m8!1m2!2m1!1sCiCi's+Pizza+4824+Ridge+Rd+CLEVELAND+OH+44144-3329!3m4!1s0x8830eefffd098579:0x314ea253225044cb!8m2!3d41.4234189!4d-81.7352927?hl=en",
CiCi's Pizza,4900 Commonwealth Centre Pkwy,MIDLOTHIAN,VA,23112-8690,8047634764.0,"https://www.google.com/maps/place/Cicis+Pizza/@37.4172728,-77.631079,17z/data=!3m1!4b1!4m5!3m4!1s0x89b173f3a9fc094f:0xa1bef6e6625c480a!8m2!3d37.4172728!4d-77.631079",
CiCi's Pizza,4398 Dfw Tpke,DALLAS,TX,75211-1352,2143376624.0,"https://www.google.com/maps/place/Cicis+Pizza/@32.7629596,-96.8986857,17z/data=!3m1!4b1!4m5!3m4!1s0x864e9b1870a72d39:0xfb791b022c57ed1c!8m2!3d32.7629596!4d-96.8986857",
CiCi's Pizza,4925 University Dr NW,HUNTSVILLE,AL,35816-1880,2568642224.0,"https://www.google.com/maps/place/Cicis+Pizza/@34.7365701,-86.65644,17z/data=!3m1!4b1!4m5!3m4!1s0x88626bfb7f4af9a1:0x35d65b0e995b43e8!8m2!3d34.7365701!4d-86.65644",
CiCi's Pizza,4950 Centre Pointe Dr,NORTH CHARLESTON,SC,29418-6925,8437477227.0,"https://www.google.com/maps/place/Cicis+Pizza/@32.8759943,-80.0217064,17z/data=!3m1!4b1!4m5!3m4!1s0x88fe6344a3d5c1ad:0x762fb881e7e60e9e!8m2!3d32.8759943!4d-80.0217064",
CiCi's Pizza,4990 Roe Blvd,ROELAND PARK,KS,66205-1110,9136779605.0,"https://www.google.com/maps/place/Cicis+Pizza/@39.038003,-94.6403074,17z/data=!3m1!4b1!4m5!3m4!1s0x87c0ee747af1579f:0x9cb135090cf70b9e!8m2!3d39.038003!4d-94.6403074",
CiCi's Pizza,4400 North Fwy,HOUSTON,TX,77022-3610,7136912444.0,"https://www.google.com/maps/place/Cicis+Pizza/@29.8328123,-95.3830594,17z/data=!3m1!4b1!4m5!3m4!1s0x8640b86e53625115:0x285151eae9ab4554!8m2!3d29.8328123!4d-95.3830594",
CiCi's Pizza,4404 Belden Village St NW,CANTON,OH,44718-2516,3304911919.0,"https://www.google.com/maps/place/Cicis+Pizza/@40.8549252,-81.430652,17z/data=!3m1!4b1!4m5!3m4!1s0x8836d6cc64a38423:0x14e1355ef4e133ef!8m2!3d40.8549252!4d-81.430652",
CiCi's Pizza,4538 S Semoran Blvd,ORLANDO,FL,32822-2408,4072493939.0,"https://www.google.com/maps/place/Cicis+Pizza/@28.4975175,-81.3119501,17z/data=!3m1!4b1!4m5!3m4!1s0x88e7649a434beb3f:0x88632ad4473d5a43!8m2!3d28.4975175!4d-81.3119501",
CiCi's Pizza,540 W Main St,NORMAN,OK,73069-7061,4053601114.0,"https://www.google.com/maps/place/Cicis+Pizza/@35.2177881,-97.4508601,17z/data=!3m1!4b1!4m5!3m4!1s0x87b269c511966b55:0x67a65876b9be305e!8m2!3d35.2177881!4d-97.4508601",
CiCi's Pizza,541 S Willow Ave,COOKEVILLE,TN,38501-5970,9315282424.0,"https://www.google.com/maps/place/Cicis/@36.1537109,-85.5153291,17z/data=!3m1!4b1!4m5!3m4!1s0x88672221677f0e7b:0xd8849efe394d983c!8m2!3d36.1537109!4d-85.5153291",
CiCi's Pizza,5478 Dixie Hwy,FAIRFIELD,OH,45014-4108,5138291572.0,"https://www.google.com/maps/place/Cicis+Pizza/@39.3349281,-84.5233959,17z/data=!3m1!4b1!4m5!3m4!1s0x884048cb06d80547:0x30bd0fe616d8f377!8m2!3d39.3349281!4d-84.5233959",
CiCi's Pizza,50 Dunn Dr,STAFFORD,VA,22556-1500,5406593434.0,"https://www.google.com/maps/place/Cicis+Pizza/@38.4761694,-77.4203995,17z/data=!3m1!4b1!4m5!3m4!1s0x89b6f02a5ac3db45:0xbdfd12b45cf03432!8m2!3d38.4761694!4d-77.4203995",
CiCi's Pizza,5102 60th St,LUBBOCK,TX,79414-4320,8067881010.0,"https://www.google.com/maps/place/Cicis+Pizza/@33.5402599,-101.9213703,17z/data=!3m1!4b1!4m5!3m4!1s0x86fe72f04f8f6193:0x9117d5bac8ae0c79!8m2!3d33.5402599!4d-101.9213703",
CiCi's Pizza,5740 W 88th Ave,WESTMINSTER,CO,80031-3030,3039960853.0,"https://www.google.com/maps/place/Cicis+Pizza/@39.855391,-105.0606653,17z/data=!3m1!4b1!4m5!3m4!1s0x876b89b12a6e17e3:0x7643423e172ff226!8m2!3d39.855391!4d-105.0606653",
CiCi's Pizza,5771 E Fowler Ave,TEMPLE TERRACE,FL,33617-2398,8139147788.0,"https://www.google.com/maps/place/Cicis+Pizza/@28.0531921,-82.3917619,17z/data=!3m1!4b1!4m5!3m4!1s0x88c2c7d9cfd86c8b:0x6c3b4fbe57104aa4!8m2!3d28.0531921!4d-82.3917619",
CiCi's Pizza,5365 N Interstate 35,AUSTIN,TX,78741,5124534488.0,"https://www.google.com/maps/place/Cicis+Pizza/@30.3130308,-97.7082637,17z/data=!3m1!5s0x8644ca1b97768ced:0xb7a0bbbaf783c750!4m5!3m4!1s0x8644ca1ac06d4ad7:0xcbc5ebfe3e74b8b6!8m2!3d30.3130262!4d-97.706075?hl=en",
CiCi's Pizza,5379 W Atlantic Blvd,MARGATE,FL,33063-5208,9549797747.0,"https://www.google.com/maps/place/Cicis/@26.23675,-80.1994932,17z/data=!3m1!4b1!4m5!3m4!1s0x88d9048f922a03ab:0x77f8fc5b01438c89!8m2!3d26.23675!4d-80.1994932",
CiCi's Pizza,5901 Bellaire Blvd,HOUSTON,TX,77081-5515,7136679700.0,"https://www.google.com/maps/place/Cicis+Pizza/@29.7047945,-95.4849739,17z/data=!3m1!4b1!4m5!3m4!1s0x8640c2247a343b7d:0x883622fc5959f663!8m2!3d29.7047945!4d-95.4849739",
CiCi's Pizza,6028 Central Ave,PORTAGE,IN,46368-3501,2197648045.0,"https://www.google.com/maps/place/Cicis+Pizza/@41.5773487,-87.1820709,17z/data=!3m1!4b1!4m5!3m4!1s0x8811be32ae1ede55:0xce266ce25828831b!8m2!3d41.5773487!4d-87.1820709",
CiCi's Pizza,6105 Stewart Rd,GALVESTON,TX,77551-1884,4097403300.0,"https://www.google.com/maps/place/Cicis/@29.2741225,-94.8316086,17z/data=!3m1!4b1!4m5!3m4!1s0x863f9c486e8d2cfb:0x9e6251feacdc4a5d!8m2!3d29.2741225!4d-94.8316086",
CiCi's Pizza,615 N Zaragoza Rd,EL PASO,TX,79907-4772,9158608500.0,"https://www.google.com/maps/place/Cicis+Pizza/@31.7041242,-106.3212673,17z/data=!3m1!4b1!4m5!3m4!1s0x86e742c88324ddf3:0x76080c2f373c7671!8m2!3d31.7041242!4d-106.3212673",
CiCi's Pizza,5882 Eastex Fwy,BEAUMONT,TX,77708-4824,4098926866.0,"https://www.google.com/maps/place/Cicis+Pizza/@30.1273875,-94.1548041,17z/data=!3m1!4b1!4m5!3m4!1s0x863933636981a333:0xf4d076bd81d04654!8m2!3d30.1273875!4d-94.1548041",
CiCi's Pizza,6550 Camp Bowie Blvd,FORT WORTH,TX,76116-4353,8173770900.0,"https://www.google.com/maps/place/Cicis+Pizza/@32.7236975,-97.4286474,17z/data=!3m1!4b1!4m5!3m4!1s0x864e732826c48ff3:0x27e6a1d5649ab74d!8m2!3d32.7236975!4d-97.4286474",
CiCi's Pizza,6570 Youree Dr,SHREVEPORT,LA,71105-4633,3187986151.0,"https://www.google.com/maps/place/Cicis+Pizza/@32.4475536,-93.7218976,17z/data=!3m1!4b1!4m5!3m4!1s0x86312d1819dd1947:0x5e7be1d2cb808168!8m2!3d32.4475536!4d-93.7218976",
CiCi's Pizza,6605 W Interstate 40,AMARILLO,TX,79106-2646,8063598000.0,"https://www.google.com/maps/place/Cicis+Pizza/@35.1867121,-101.9158621,17z/data=!4m5!3m4!1s0x87014e20f1f8f265:0xdf8b791cf1ff6034!8m2!3d35.1867077!4d-101.9136734?hl=en",
CiCi's Pizza,635 W Campbell Rd,RICHARDSON,TX,75080-3327,9724373482.0,"https://www.google.com/maps/place/Cicis/@32.9776596,-96.7415321,17z/data=!3m1!4b1!4m5!3m4!1s0x864c1f50625c11c9:0xe07e8b4776e75700!8m2!3d32.9776596!4d-96.7415321",
CiCi's Pizza,636 NC 24 27 Byp E,ALBEMARLE,NC,28001-4366,7049822424.0,"https://www.google.com/maps/place/Cicis+Pizza/@35.3424158,-80.1740796,17z/data=!3m1!4b1!4m5!3m4!1s0x88547cb30fe41d3b:0x206eed2ee4b78f4a!8m2!3d35.3424158!4d-80.1740796",
CiCi's Pizza,6730 Pines Rd,SHREVEPORT,LA,71129-3940,3186874500.0,"https://www.google.com/maps/place/Cicis+Pizza/@32.4466992,-93.8647453,17z/data=!3m1!4b1!4m5!3m4!1s0x8636d1b331dcd4f7:0xffafe47235864f28!8m2!3d32.4466992!4d-93.8647453",
CiCi's Pizza,6600 Stage Rd,BARTLETT,TN,38134-3838,9013870999.0,"https://www.google.com/maps/place/Cicis+Pizza/@35.2065264,-89.8426957,17z/data=!3m1!4b1!4m5!3m4!1s0x887f9d506057b4c7:0x3771b1839f0dea4d!8m2!3d35.2065264!4d-89.8426957",
CiCi's Pizza,6619 Forest Hill Dr,FOREST HILL,TX,76140-1260,8174833950.0,"https://www.google.com/maps/place/Cicis+Pizza/@32.6586533,-97.269104,17z/data=!3m1!4b1!4m5!3m4!1s0x864e6f894689e95d:0x6333efd4bfba6664!8m2!3d32.6586533!4d-97.269104",
CiCi's Pizza,7060 Siegen Ln,BATON ROUGE,LA,70809-4531,2252912424.0,"https://www.google.com/maps/place/Cicis+Pizza/@30.3857568,-91.0658602,17z/data=!3m1!4b1!4m5!3m4!1s0x8626a529dd842e49:0x985d37e4f949b19c!8m2!3d30.3857568!4d-91.0658602",
CiCi's Pizza,7084 Bandera Rd,SAN ANTONIO,TX,78238-1201,2105200299.0,"https://www.google.com/maps/place/Cicis+Pizza/@29.5006028,-98.6263449,17z/data=!3m1!4b1!4m5!3m4!1s0x865c5d7b42c7e291:0xe4b74511351ac34f!8m2!3d29.5006028!4d-98.6263449",
CiCi's Pizza,2435 W. Kenosha Ave,BROKEN ARROW,OK,74011-1845,9184498908.0,"https://www.google.com/maps/place/Cicis+Pizza/@36.0604283,-95.8205782,17z/data=!3m1!4b1!4m5!3m4!1s0x87b68946ede01f29:0x22e0ac3fc031a2fe!8m2!3d36.0604283!4d-95.8205782",
CiCi's Pizza,7500 N Mesa St,EL PASO,TX,79912-3507,9158334900.0,"https://www.google.com/maps/place/Cicis+Pizza/@31.838837,-106.5634131,17z/data=!3m1!4b1!4m5!3m4!1s0x86ddf85c0dc9b4af:0x11fb6eb1630e6e27!8m2!3d31.838837!4d-106.5634131",
CiCi's Pizza,760 Campbell Ln,BOWLING GREEN,KY,42104-1085,2708439299.0,"https://www.google.com/maps/place/Cicis+Pizza/@36.9623251,-86.4634989,17z/data=!3m1!4b1!4m5!3m4!1s0x8865e880c4f686bf:0x2bb5e6a9eb62ff44!8m2!3d36.9623251!4d-86.4634989",
CiCi's Pizza,710 Memorial Blvd,MURFREESBORO,TN,37129-2792,6158674424.0,"https://www.google.com/maps/place/Cicis+Pizza/@35.8526135,-86.3949126,17z/data=!3m1!4b1!4m5!3m4!1s0x8863f872e2df92bf:0xd84c79aa0f816eda!8m2!3d35.8526135!4d-86.3949126",
CiCi's Pizza,715 Fashion Dr,COLUMBIA,SC,29229-4225,8034198982.0,"https://www.google.com/maps/place/Cicis+Pizza/@34.1233582,-80.8760503,17z/data=!3m1!4b1!4m5!3m4!1s0x88f8aa354eeacff5:0x1496cb4dc595cff6!8m2!3d34.1233582!4d-80.8760503",
CiCi's Pizza,798 Market St,FARMINGTON,MO,63640-1951,5737569998.0,"https://www.google.com/maps/place/Cicis+Pizza/@37.7910574,-90.4381979,17z/data=!3m1!4b1!4m5!3m4!1s0x87d845438420a97f:0x1626ffe3808434f!8m2!3d37.7910574!4d-90.4381979",
CiCi's Pizza,21931 Katy Fwy,KATY,TX,77450-1738,2814922227.0,"https://www.google.com/maps/place/Cicis+Pizza/@29.7289666,-95.8479995,10z/data=!4m8!1m2!2m1!1sCiCi's+Pizza+11978+Westheimer+Rd+HOUSTON+TX+77077-6669!3m4!1s0x864127387c06f283:0x8dcbe942ffc49944!8m2!3d29.7824624!4d-95.7525692?hl=en",
CiCi's Pizza,750 Gulfgate Center Mall,HOUSTON,TX,77087-3026,7139237707.0,"https://www.google.com/maps/place/Cicis+Pizza/@29.6962506,-95.2973206,17z/data=!3m1!4b1!4m5!3m4!1s0x8640bdc5c36ce161:0x185aa336d42146b6!8m2!3d29.6962506!4d-95.2973206",
CiCi's Pizza,826 N Collins St,ARLINGTON,TX,76011-6022,8172651994.0,"https://www.google.com/maps/place/Cicis+Pizza/@32.7477464,-97.097699,17z/data=!3m1!4b1!4m5!3m4!1s0x864e7d816973c2a5:0xc425ee4f50c11a86!8m2!3d32.7477464!4d-97.097699",
CiCi's Pizza,832 S Fort Hood St,KILLEEN,TX,76541-7433,2542423400.0,"https://www.google.com/maps/place/Cicis+Pizza/@31.113033,-97.7454317,17z/data=!3m1!4b1!4m5!3m4!1s0x86454b7972ebdea5:0x29f8b7a0d91864c8!8m2!3d31.113033!4d-97.7454317",
CiCi's Pizza,8323 Rogers Ave,FORT SMITH,AR,72903-5236,4794840909.0,"https://www.google.com/maps/place/Cicis+Pizza/@35.3497158,-94.337246,17z/data=!3m1!4b1!4m5!3m4!1s0x87cbb249c6a902bf:0xdb77adec01afd1ea!8m2!3d35.3497158!4d-94.337246",
CiCi's Pizza,8366 Westheimer Rd,HOUSTON,TX,77063-2715,7137890004.0,"https://www.google.com/maps/place/Cicis/@29.7380798,-95.5129869,17z/data=!3m1!4b1!4m5!3m4!1s0x8640c3a475dfa59f:0x7d677d0354e46540!8m2!3d29.7380798!4d-95.5129869",
CiCi's Pizza,832 W Spring Creek Pkwy,PLANO,TX,75023-4633,9725095522.0,"https://www.google.com/maps/place/Cicis+Pizza/@33.0553212,-96.7110975,17z/data=!3m1!5s0x864c184a9b46c85b:0xfbcb6b624ac108d2!4m5!3m4!1s0x864c183566b8f781:0xba332e0877a8c8f8!8m2!3d33.0553167!4d-96.7089088?hl=en",
CiCi's Pizza,8855 Viscount Blvd,EL PASO,TX,79925-5812,9155980700.0,"https://www.google.com/maps/place/Cicis+Pizza/@31.7755332,-106.3728341,17z/data=!3m1!4b1!4m5!3m4!1s0x86e75b1921b59b47:0xe2ad58d3c59ba11e!8m2!3d31.7755332!4d-106.3728341",
CiCi's Pizza,900 E End Blvd N,MARSHALL,TX,75670-2129,9039357788.0,"https://www.google.com/maps/place/Cicis+Pizza/@32.5525966,-94.349222,17z/data=!3m1!4b1!4m5!3m4!1s0x8636f68c20462477:0xde8f1e7fab63d271!8m2!3d32.5525966!4d-94.349222",
CiCi's Pizza,901 N Loop 340,BELLMEAD,TX,76705-2595,2548670003.0,"https://www.google.com/maps/place/Cicis/@31.6026749,-97.1032026,17z/data=!3m1!4b1!4m5!3m4!1s0x864f82afe4808471:0xd3c7bc9eda930bdc!8m2!3d31.6026749!4d-97.1032026",
CiCi's Pizza,850 Statler Blvd,STAUNTON,VA,24401-4884,5408854646.0,"https://www.google.com/maps/place/Cicis/@38.1400459,-79.0668333,17z/data=!3m1!4b1!4m5!3m4!1s0x89b4a07fff726255:0xae175cc9e2494b4c!8m2!3d38.1400459!4d-79.0668333",
CiCi's Pizza,8955 S Memorial Dr,TULSA,OK,74133-4306,9182544775.0,"https://www.google.com/maps/place/Cicis+Pizza/@36.032694,-95.8857,17z/data=!3m1!4b1!4m5!3m4!1s0x87b68de2815b4745:0x8498e6a5c5aa9a84!8m2!3d36.032694!4d-95.8857",
CiCi's Pizza,9717 N Lamar Blvd,AUSTIN,TX,78753-4143,5128738800.0,"https://www.google.com/maps/place/Cicis+Pizza/@30.3657175,-97.6946936,17z/data=!3m1!4b1!4m5!3m4!1s0x8644c96122b1643b:0x7f78262ea42776ea!8m2!3d30.3657175!4d-97.6946936",
CiCi's Pizza,9745 Manchester Rd,SAINT LOUIS,MO,63119-1346,3149637200.0,"https://www.google.com/maps/place/Cicis+Pizza/@38.6081727,-90.3717864,17z/data=!3m1!4b1!4m5!3m4!1s0x87d8cb81080e6ca5:0xeb0534f67c8bfebc!8m2!3d38.6081727!4d-90.3717864",
CiCi's Pizza,950 N Beach St,FORT WORTH,TX,76111-6042,8177590033.0,"https://www.google.com/maps/place/Cicis+Pizza/@32.7767142,-97.2885168,17z/data=!3m1!4b1!4m5!3m4!1s0x864e70cacfa9b521:0xdd25cad9d424fb85!8m2!3d32.7767142!4d-97.2885168",
CiCi's Pizza,981 Ann St,MONTGOMERY,AL,36107-2901,3343863086.0,"https://www.google.com/maps/place/Cicis+Pizza/@32.3682453,-86.269522,17z/data=!3m1!4b1!4m5!3m4!1s0x888e81e9e2623abf:0xd8940abdcb35fece!8m2!3d32.3682453!4d-86.269522",
CiCi's Pizza,1604 Madison St,CLARKSVILLE,TN,37043-5099,9318028961.0,"https://www.google.com/maps/place/Cicis+Pizza/@36.5140294,-87.3183107,17z/data=!3m1!4b1!4m5!3m4!1s0x8864d93f7c28dc7d:0xcd975e690b6ba442!8m2!3d36.5140294!4d-87.3183107",
CiCi's Pizza,5580 Preston Rd,FRISCO,TX,75034,2144364529.0,"https://www.google.com/maps/place/Cicis+Pizza/@33.124081,-96.8034185,17z/data=!3m1!4b1!4m5!3m4!1s0x864c3c4705a3c201:0x19d75a6296aa61b1!8m2!3d33.124081!4d-96.8034185",
CiCi's Pizza,2106 Rankin Hwy,MIDLAND,TX,79701-1813,4326853020.0,"https://www.google.com/maps/place/Cicis+Pizza/@31.9759647,-102.0762344,17z/data=!3m1!4b1!4m5!3m4!1s0x86fbd80bddb24cdd:0x433eeeeaa0b32d6d!8m2!3d31.9759647!4d-102.0762344",
CiCi's Pizza,2270 N 75th Ave,PHOENIX,AZ,85035-4790,6232474992.0,"https://www.google.com/maps/place/Cicis/@33.4726192,-112.2237254,17z/data=!4m5!3m4!1s0x872b156e8157e097:0x7d0d716089e21a3c!8m2!3d33.4726147!4d-112.2215367?hl=en",
CiCi's Pizza,309 N Nellis Blvd,LAS VEGAS,NV,89110-5494,7024371748.0,"https://www.google.com/maps/place/Cicis+Pizza/@36.1669994,-115.063599,17z/data=!3m1!4b1!4m5!3m4!1s0x80c8dc9dbac607a5:0x34cf72a67a3a95c5!8m2!3d36.1669994!4d-115.063599",
CiCi's Pizza,2980 Gulf Fwy S,LEAGUE CITY,TX,77573-6751,2813372424.0,"https://www.google.com/maps/place/Cicis+Pizza/@29.4682464,-95.0895677,17z/data=!3m1!4b1!4m5!3m4!1s0x864082f0ed79ae07:0x17538ffef876fa72!8m2!3d29.4682464!4d-95.0895677",
CiCi's Pizza,3812 Easton Nazareth Hwy,EASTON,PA,18045-8350,6107462424.0,"https://www.google.com/maps/place/Cicis+Pizza/@40.7184609,-75.2889271,17z/data=!3m1!4b1!4m5!3m4!1s0x89c46bcbe7aced39:0x1cf9c95d0cd6ea18!8m2!3d40.7184609!4d-75.2889271",
CiCi's Pizza,1850 Victor Posner Blvd,DAVENPORT,FL,33837,8634243800.0,"https://www.google.com/maps/place/Cicis/@28.2280264,-81.6457531,17z/data=!3m1!4b1!4m5!3m4!1s0x88dd76cae20fb1cd:0xd3f10da1d8145e02!8m2!3d28.2280264!4d-81.6457531",
CiCi's Pizza,4045 Buffalo Rd,ERIE,PA,16510-2091,8148998060.0,"https://www.google.com/maps/place/Cicis+Pizza/@42.143268,-80.0067024,17z/data=!3m1!4b1!4m5!3m4!1s0x882d7dd81f4f652b:0xaec7ea551ab01278!8m2!3d42.143268!4d-80.0067024",
CiCi's Pizza,7763 W Irlo Bronson Memorial Hwy,KISSIMMEE,FL,34746,4073906171.0,"https://www.google.com/maps/place/Cicis+Pizza/@28.3392702,-81.5947748,17z/data=!3m1!4b1!4m5!3m4!1s0x88dd7ea3779d0eb1:0xc5a3fa271af926f!8m2!3d28.3392702!4d-81.5947748",
CiCi's Pizza,8000 S Gessner Rd,HOUSTON,TX,77036-7439,7137711174.0,"https://www.google.com/maps/place/Cicis+Pizza/@29.6899996,-95.5359795,17z/data=!3m1!4b1!4m5!3m4!1s0x8640c29407baa3e1:0xb0939952bde03ea0!8m2!3d29.6899996!4d-95.5359795",
CiCi's Pizza,5010 Buckeystown Pike,FREDERICK,MD,21704-8340,3018469099.0,"https://www.google.com/maps/place/Cicis+Pizza/@39.3716516,-77.4124662,17z/data=!3m1!4b1!4m5!3m4!1s0x89c9d98f7707bb2b:0x6bf6a997a48ca0f2!8m2!3d39.3716516!4d-77.4124662",
CiCi's Pizza,104 N Murphy Rd,MURPHY,TX,75094-3547,2145012546.0,"https://www.google.com/maps/place/Cicis/@33.0135488,-96.611727,17z/data=!3m1!4b1!4m5!3m4!1s0x864c1b724d961abf:0x978f4e009d5eedef!8m2!3d33.0135488!4d-96.611727",
CiCi's Pizza,7572 SW 117th Ave,MIAMI,FL,33183-3808,3052740530.0,"https://www.google.com/maps/place/Cicis+Pizza/@25.6975301,-80.3826821,17z/data=!3m1!4b1!4m5!3m4!1s0x88d9c0c733d1513d:0x77fd049ceda37b3d!8m2!3d25.6975301!4d-80.3826821",
CiCi's Pizza,11741 Eastex Fwy,HOUSTON,TX,77039-6205,2812278111.0,"https://www.google.com/maps/place/Cicis/@29.8922792,-95.3191638,17z/data=!3m1!4b1!4m5!3m4!1s0x8640b7364db07cfd:0x92d5a208965a62f8!8m2!3d29.8922792!4d-95.3191638",
CiCi's Pizza,591 N McKinley St,CORONA,CA,92879-8008,9512782424.0,"https://www.google.com/maps/place/Cicis/@33.8915987,-117.518236,17z/data=!3m1!4b1!4m5!3m4!1s0x80dcb79161fb80f9:0xc4bf64efd98f8c82!8m2!3d33.8915987!4d-117.518236",
CiCi's Pizza,6020 Calhoun Memorial Hwy,EASLEY,SC,29640-3812,8648551221.0,"https://www.google.com/maps/place/Cicis+Pizza/@34.8254038,-82.5752706,17z/data=!3m1!4b1!4m5!3m4!1s0x8858481053b3ea0d:0xe4cfbedd57144f8c!8m2!3d34.8254038!4d-82.5752706",
CiCi's Pizza,6186 Retail Rd,DALLAS,TX,75231-7806,2146912424.0,"https://www.google.com/maps/place/Cicis+Pizza/@32.8611661,-96.7538573,17z/data=!3m1!4b1!4m5!3m4!1s0x864ea02a0d4bb801:0xc52fbaa3fb0c7477!8m2!3d32.8611661!4d-96.7538573",
CiCi's Pizza,1408 Eastchase Pkwy,FORT WORTH,TX,76120-4440,8178602424.0,"https://www.google.com/maps/place/Cicis+Pizza/@32.7591275,-97.1690381,17z/data=!3m1!4b1!4m5!3m4!1s0x8644cbafa21699c7:0xd36fa749d97f8b20!8m2!3d32.7591275!4d-97.1690381",
CiCi's Pizza,15962 Eldorado Pkwy,FRISCO,TX,75035-5829,2145448002.0,"https://www.google.com/maps/place/Cicis/@33.1503129,-96.8392963,12z/data=!4m8!1m2!2m1!1sCiCi's+Pizza+15962+Eldorado+Pkwy+FRISCO+TX+75035-5829!3m4!1s0x864c15e69ceb0035:0xba1e367db21539e3!8m2!3d33.1762965!4d-96.7350944?hl=en",
CiCi's Pizza,10338 Festival Ln,MANASSAS,VA,20109-3548,5712929019.0,"https://www.google.com/maps/place/Cicis/@38.9707294,-78.2972954,9z/data=!4m8!1m2!2m1!1sCiCi's+Pizza+500+Fort+Evans+Rd+LEESBURG+VA+20176-4097!3m4!1s0x89b65cfa081085c5:0xca91bf26496d54f1!8m2!3d38.7783282!4d-77.5041642?hl=en",
CiCi's Pizza,2415 E Tropicana Ave,LAS VEGAS,NV,89121-5440,7028982424.0,"https://www.google.com/maps/place/Cicis/@36.0986833,-115.1186373,17z/data=!3m1!4b1!4m5!3m4!1s0x80c8c51608b508af:0xf65f3cbd00703956!8m2!3d36.0986833!4d-115.1186373",
CiCi's Pizza,10822 North Fwy,HOUSTON,TX,77037-1106,2818472424.0,"https://www.google.com/maps/place/Cicis+Pizza/@29.92194,-95.410552,17z/data=!3m1!4b1!4m5!3m4!1s0x8640c9c634fd5957:0x34acc9e9c9890bc8!8m2!3d29.92194!4d-95.410552",
CiCi's Pizza,3044 Richmond Rd,WILLIAMSBURG,VA,23185-2013,7572532279.0,"https://www.google.com/maps/place/Cicis+Pizza/@37.3087074,-76.7336107,17z/data=!4m8!1m2!2m1!1sCiCi's+Pizza+3044+Richmond+Rd+WILLIAMSBURG+VA+23185-2013!3m4!1s0x89b08955cf57493f:0xf4121e4bdfa91f1b!8m2!3d37.30861!4d-76.7312662?hl=en",
CiCi's Pizza,3815 W Vine St,KISSIMMEE,FL,34741-4636,4075185067.0,"https://www.google.com/maps/place/Cicis/@28.304964,-81.4423095,17z/data=!3m1!4b1!4m5!3m4!1s0x88dd83e47a0a8de7:0xf489b1505b00ccd6!8m2!3d28.304964!4d-81.4423095",
CiCi's Pizza,16131 S Farrell Rd,LOCKPORT,IL,60441-8200,8158380202.0,"https://www.google.com/maps/place/Cicis/@41.5935574,-88.0235047,17z/data=!3m1!4b1!4m5!3m4!1s0x880e5d44c76c9993:0x61fb3fc3cc17be2a!8m2!3d41.5935574!4d-88.0235047",
CiCi's Pizza,3805 Main St,THE COLONY,TX,75056-2852,2144077295.0,"https://www.google.com/maps/place/Cicis+Pizza/@33.0690722,-96.8917602,17z/data=!3m1!4b1!4m5!3m4!1s0x864c3accd1b4275f:0x7efddcf0c25ffc9a!8m2!3d33.0690722!4d-96.8917602",
CiCi's Pizza,9609 W Flagler St,MIAMI,FL,33174-2014,7865588086.0,"https://www.google.com/maps/place/Cicis+Pizza/@25.7703916,-80.3546489,17z/data=!3m1!5s0x88d9b9270f3607d1:0xdb78b1e356124d0!4m5!3m4!1s0x88d9b92774c11f0d:0xec966f0078b153f8!8m2!3d25.7703868!4d-80.3524602?hl=en",
CiCi's Pizza,2920 Ronald Reagan Blvd,CUMMING,GA,30041-6206,7708867800.0,"https://www.google.com/maps/place/Cicis+Pizza/@34.1527936,-84.1699719,17z/data=!3m1!4b1!4m5!3m4!1s0x88f59b76a058f99b:0x26ffa0c79ea0c9d6!8m2!3d34.1527936!4d-84.1699719",
CiCi's Pizza,900 Grammer Ln,SMYRNA,TN,37167-6537,6154626157.0,"https://www.google.com/maps/place/Cicis+Pizza/@35.9809392,-86.5640433,17z/data=!3m1!4b1!4m5!3m4!1s0x88640cc3deacc7ff:0x682b03dda74868e0!8m2!3d35.9809392!4d-86.5640433",
CiCi's Pizza,500 Fort Evans Rd,LEESBURG,VA,20176-4097,7034438071.0,"https://www.google.com/maps/place/Cicis+Pizza/@38.9707294,-78.2972954,9z/data=!4m8!1m2!2m1!1sCiCi's+Pizza+500+Fort+Evans+Rd+LEESBURG+VA+20176-4097!3m4!1s0x89b63d0b7bbd4909:0x5500499bf5f7900f!8m2!3d39.1080437!4d-77.5309481?hl=en",
CiCi's Pizza,3189 Parkway,PIGEON FORGE,TN,37863-3387,8653661616.0,"https://www.google.com/maps/place/CiCi's+Pizza/@35.7931243,-83.5595249,17z/data=!3m1!4b1!4m5!3m4!1s0x885bff05e44bfb99:0x5c24493cba212e28!8m2!3d35.7931243!4d-83.5595249",
CiCi's Pizza,2065 W Mercury Blvd,HAMPTON,VA,23666-3132,7578252644.0,"https://www.google.com/maps/place/Cicis+Pizza/@37.0389735,-76.398966,17z/data=!3m1!4b1!4m5!3m4!1s0x89ba83235048a2eb:0x94b37262d5f59b39!8m2!3d37.0389735!4d-76.398966",
CiCi's Pizza,3460 W 76 Country Blvd,BRANSON,MO,65616-3546,4172390109.0,"https://www.google.com/maps/place/Cicis+Pizza/@36.6430522,-93.2855276,17z/data=!3m1!4b1!4m5!3m4!1s0x87cf1c9bb24ba27d:0xf65f2ac7e0d805f3!8m2!3d36.6430522!4d-93.2855276",
CiCi's Pizza,1251 Pin Oak Rd,KATY,TX,77494-5659,2816937992.0,"https://www.google.com/maps/place/Cicis+Pizza/@29.7724634,-95.8176336,17z/data=!3m1!4b1!4m5!3m4!1s0x8641241ebfe6f455:0xbf155ce5ba101f75!8m2!3d29.7724634!4d-95.8176336",
CiCi's Pizza,8225 W Golf Rd,NILES,IL,60714-1156,8479653911.0,"https://www.google.com/maps/place/Cici%E2%80%99s+Pizza+buffet/@42.0531234,-87.8317241,17z/data=!3m1!4b1!4m5!3m4!1s0x880fc8742ff3c1bf:0xf4fd3a4fe982be4a!8m2!3d42.0531234!4d-87.8317241",
CiCi's Pizza,1811 Parkway,SEVIERVILLE,TN,37862-7015,8657746696.0,"https://www.google.com/maps/place/Cicis+Pizza/@35.8287916,-83.5732099,17z/data=!3m1!4b1!4m5!3m4!1s0x885bff4ae49ee9af:0xdc1b38d0d5a55c84!8m2!3d35.8287916!4d-83.5732099",
CiCi's Pizza,1018 W Main St,GUN BARREL CITY,TX,75156,9038872828.0,"https://www.google.com/maps/place/Cicis+Pizza/@32.3322513,-96.1314708,17z/data=!3m1!4b1!4m5!3m4!1s0x864923bd43eb3ddf:0xef2abf7735ad471d!8m2!3d32.3322513!4d-96.1314708",
CiCi's Pizza,8540 International Dr,ORLANDO,FL,32819-9331,4073635559.0,"https://www.google.com/maps/place/Cicis+Pizza/@28.3939507,-81.5186518,13z/data=!4m8!1m2!2m1!1sCiCi's+Pizza+8586+Palm+Pkwy+ORLANDO+FL+32836-6432!3m4!1s0x88e77e52a5c94343:0xec4f2cf378da0465!8m2!3d28.4409934!4d-81.4715445?hl=en",
CiCi's Pizza,4445 W Charleston Blvd,LAS VEGAS,NV,89102-1617,7022932422.0,"https://www.google.com/maps/place/Cicis/@36.1580108,-115.2023269,17z/data=!3m2!4b1!5s0x80c8c167f98af679:0x7edf0a3a16f9030c!4m5!3m4!1s0x80c8c167dd8250ef:0xcdc6eff6034a351!8m2!3d36.1580065!4d-115.2001382?hl=en",
CiCi's Pizza,1560 N. Mcmullen Booth Rd,CLEARWATER,FL,33759,7274745419.0,"https://www.google.com/maps/place/Cicis+Pizza/@27.9816616,-82.7112009,17z/data=!3m1!4b1!4m5!3m4!1s0x88c2ee4710a358c1:0x105359e133371629!8m2!3d27.9816616!4d-82.7112009",
CiCi's Pizza,700 S. Main St,ANDREWS,TX,79714,4322233148.0,"https://www.google.com/maps/place/Cicis/@32.2034927,-104.2640428,6z/data=!4m8!1m2!2m1!1sCiCi's+Pizza+700+S.+Main+St+ANDREWS+TX+79714!3m4!1s0x86fb8e63ae07779f:0xb41d7d0c8ed41b37!8m2!3d32.3119636!4d-102.5448284?hl=en",
CiCi's Pizza,1333 N. Plaza Dr,GRANBURY,TX,76048,6829364970.0,"https://www.google.com/maps/place/Cicis+Pizza/@32.4360816,-97.7681011,17z/data=!3m1!4b1!4m5!3m4!1s0x864e20617900b6eb:0x92e6c9fc62f0963e!8m2!3d32.4360816!4d-97.7681011",
CiCi's Pizza,1100 S. Fm 51,DECATUR,TX,76234,9406270712.0,"https://www.google.com/maps/place/Cicis+Pizza/@33.2269655,-97.5944966,17z/data=!3m1!4b1!4m5!3m4!1s0x864d92bebce41e3d:0x797612803a92738b!8m2!3d33.2269655!4d-97.5944966",
CiCi's Pizza,3604 W. Walnut,ROGERS,AR,72756,4799037200.0,"https://www.google.com/maps/place/Cicis+Pizza/@36.334077,-94.1689688,17z/data=!3m1!4b1!4m5!3m4!1s0x87c910c30733d969:0x13d7899bfb1813cd!8m2!3d36.334077!4d-94.1689688",
CiCi's Pizza,5701 N. Tarrant Pkwy,FORT WORTH,TX,76244,8173372600.0,"https://www.google.com/maps/place/Cicis+Pizza/@32.8957155,-97.2634761,17z/data=!3m1!4b1!4m5!3m4!1s0x864dd7bc14a3f01b:0xeccee506523dfb0a!8m2!3d32.8957155!4d-97.2634761",
CiCi's Pizza,4415 North Conway Ave,PALMHURST,TX,78573,9565999815.0,"https://www.google.com/maps/place/Cicis/@33.6692543,-102.2637689,5z/data=!4m8!1m2!2m1!1sCiCi's+Pizza+4415+North+Conway+Ave+PALMHURST+TX+78573!3m4!1s0x8665a8aff6499759:0x7db96aa0499a9675!8m2!3d26.2608477!4d-98.3189135?hl=en",
CiCi's Pizza,1101 Thorpe Ln,SAN MARCOS,TX,78666,5126676688.0,"https://www.google.com/maps/place/Cicis+Pizza/@29.8873205,-97.9246018,17z/data=!3m1!4b1!4m5!3m4!1s0x865ca92e76a48a91:0xe2ff6173838e929d!8m2!3d29.8873205!4d-97.9246018",
CiCi's Pizza,1851 Montgomery Hwy,BIRMINGHAM,AL,35244,2053790100.0,"https://www.google.com/maps/place/Cicis/@33.3701408,-86.7983433,17z/data=!3m1!4b1!4m5!3m4!1s0x888923b2fd0d671d:0xb3248b1ec192178a!8m2!3d33.3701408!4d-86.7983433",
CiCi's Pizza,179 Turnersburg Hwy,STATESVILLE,NC,28625,7043809449.0,"https://www.google.com/maps/place/Cicis+Pizza/@35.6322746,-81.1891867,9z/data=!4m8!1m2!2m1!1sCiCi's+Pizza+179+Turnersburg+Hwy+STATESVILLE+NC+28625!3m4!1s0x885159755367c177:0x7095a1224b301ba!8m2!3d35.8122653!4d-80.8769744?hl=en",
CiCi's Pizza,431 Saint James Ave,GOOSE CREEK,SC,29445,8438008787.0,"https://www.google.com/maps/place/Cicis+Pizza/@33.0233226,-80.0559324,17z/data=!3m1!4b1!4m5!3m4!1s0x88fe60f0539dac1f:0x40def384ca05edd9!8m2!3d33.0233226!4d-80.0559324",
CiCi's Pizza,4510 Caffery Pkwy,LAFAYETTE,LA,70508,3377693834.0,"https://www.google.com/maps/place/Cicis+Pizza/@30.154522,-92.0485653,17z/data=!3m1!4b1!4m5!3m4!1s0x86249d1dac55b0f7:0x307d9a3429a52115!8m2!3d30.154522!4d-92.0485653",
CiCi's Pizza,57 Loop 150 W,BASTROP,TX,78602,5124126565.0,"https://www.google.com/maps/place/Cicis+Pizza/@30.1061728,-97.3275262,17z/data=!3m1!4b1!4m5!3m4!1s0x86449a47b59e1395:0x5e975fa99f073f2f!8m2!3d30.1061728!4d-97.3275262",
CiCi's Pizza,5504 San Bernardo Ave,LAREDO,TX,78041,9567128646.0,"https://www.google.com/maps/place/Cicis+Pizza/@27.5507825,-99.5049223,17z/data=!3m1!4b1!4m5!3m4!1s0x86612058bdefc603:0x990bb9b60c0d8021!8m2!3d27.5507825!4d-99.5049223",
CiCi's Pizza,1007 Beaver Creek Commons Dr,APEX,NC,27502-3918,9192496448.0,"https://www.google.com/maps/place/Cicis+Pizza/@35.784745,-78.870166,17z/data=!3m1!4b1!4m5!3m4!1s0x89ac92cd748aa907:0x31df9f9993321ebf!8m2!3d35.784745!4d-78.870166",
CiCi's Pizza,5695 Kyle Pkwy,KYLE,TX,78640-6342,5122681919.0,"https://www.google.com/maps/place/CiCi's+Pizza/@30.012225,-97.8582717,17z/data=!3m1!4b1!4m5!3m4!1s0x865b540893790369:0x8b8fd2a0dbbf33dc!8m2!3d30.012225!4d-97.8582717",
CiCi's Pizza,3255 E Platte Ave,COLORADO SPRINGS,CO,80909-6429,7194736311.0,"https://www.google.com/maps/place/Cicis+Pizza/@38.8390892,-104.7690904,17z/data=!3m1!4b1!4m5!3m4!1s0x871345cece2da311:0xfe70300e42c7ab0e!8m2!3d38.8390892!4d-104.7690904",
CiCi's Pizza,11701 International Dr,ORLANDO,FL,32821-7373,4077784900.0,"https://www.google.com/maps/place/Cicis+Pizza/@28.3933376,-81.4653115,17z/data=!3m1!4b1!4m5!3m4!1s0x88dd808593fdd387:0x4a7595a90491342d!8m2!3d28.3933376!4d-81.4653115",
CiCi's Pizza,618 S Route 59,NAPERVILLE,IL,60540-6100,6303571202.0,"https://www.google.com/maps/place/Cicis+Pizza/@41.761805,-88.2042074,17z/data=!3m1!4b1!4m5!3m4!1s0x880ef83367306029:0x733da50559f69739!8m2!3d41.761805!4d-88.2042074",
CiCi's Pizza,1686 US Highway 41,SCHERERVILLE,IN,46375-1318,2198658111.0,"https://www.google.com/maps/place/Cicis/@41.4915937,-87.4746459,17z/data=!4m5!3m4!1s0x8811e3e2b9efded5:0x239e2ced49e06758!8m2!3d41.4915897!4d-87.4724572?hl=en",
CiCi's Pizza,1602 S Range Line Rd,JOPLIN,MO,64804-3231,4175534540.0,"https://www.google.com/maps/place/Cicis+Pizza/@37.072778,-94.4785862,17z/data=!3m1!4b1!4m5!3m4!1s0x87c87c9d3ca36b2f:0x3b48d5d8492cdf4!8m2!3d37.072778!4d-94.4785862",
CiCi's Pizza,803 Jake Alexander Blvd S,SALISBURY,NC,28147,7046382424.0,"https://www.google.com/maps/place/Cicis/@35.6423816,-80.4862288,17z/data=!3m1!4b1!4m5!3m4!1s0x8853f374b29ad26d:0x20523730df8bdc2f!8m2!3d35.6423816!4d-80.4862288",
CiCi's Pizza,2431 US Highway 1,NORTH BRUNSWICK,NJ,08902-1140,7326402272.0,"https://www.google.com/maps/place/Cicis+Pizza/@40.4415256,-74.5063461,17z/data=!3m1!4b1!4m5!3m4!1s0x89c3c475f51b49af:0x381980ade5eadee8!8m2!3d40.4415256!4d-74.5063461",
CiCi's Pizza,11978 Westheimer Rd,HOUSTON,TX,77077-6669,2819203228.0,"https://www.google.com/maps/place/Cicis+Pizza/@29.7289666,-95.8479995,10z/data=!3m1!5s0x8640dcec57f2df97:0xe8c76fead65123d0!4m8!1m2!2m1!1sCiCi's+Pizza+11978+Westheimer+Rd+HOUSTON+TX+77077-6669!3m4!1s0x8640dcedb4bae34d:0x168583ec1eee5efb!8m2!3d29.7375301!4d-95.5909057?hl=en",
CiCi's Pizza,10086 Long Point Rd,HOUSTON,TX,77055-4264,7134633821.0,"https://www.google.com/maps/place/Cicis/@29.7949068,-95.5436754,17z/data=!3m1!4b1!4m5!3m4!1s0x8640c4c17dad71bd:0xee940950a7b44e2c!8m2!3d29.7949068!4d-95.5436754",
CiCi's Pizza,1435 E 8th St,ODESSA,TX,79761-4802,4323323010.0,"https://www.google.com/maps/place/Cicis+Pizza/@31.8599366,-102.3539371,17z/data=!3m1!4b1!4m5!3m4!1s0x86fbc9493651d333:0xd699affbef1102d2!8m2!3d31.8599366!4d-102.3539371",
CiCi's Pizza,2335 SW Military Dr,SAN ANTONIO,TX,78224-1406,2109329189.0,"https://www.google.com/maps/place/Cicis+Pizza/@29.3571115,-98.5312157,17z/data=!3m1!4b1!4m5!3m4!1s0x865c59b454355705:0xa283e04ade1b5db0!8m2!3d29.3571115!4d-98.5312157",
CiCi's Pizza,2661 Midway Rd,DALLAS,TX,75287,9726623454.0,"https://www.google.com/maps/place/Cicis+Pizza/@32.985462,-96.843894,17z/data=!3m1!4b1!4m5!3m4!1s0x864c2403ed1bf815:0x2712f999c9f25f09!8m2!3d32.985462!4d-96.843894",
CiCi's Pizza,935 N Shepherd Dr,HOUSTON,TX,77008-6526,7138681173.0,"https://www.google.com/maps/place/Cicis/@29.8034364,-96.0301747,9z/data=!3m1!5s0x8640c74135bf3d0d:0xad0170a72e4bc560!4m8!1m2!2m1!1sCiCi's+Pizza+935+N+Shepherd+Dr+HOUSTON+TX+77008-6526!3m4!1s0x8640c746adccd8d9:0x562e862eacdff640!8m2!3d29.7882253!4d-95.4108376?hl=en",
CiCi's Pizza,8414 Kingston Pike,KNOXVILLE,TN,37919-5351,8652008361.0,"https://www.google.com/maps/place/Cicis+Pizza/@35.922328,-84.0603957,17z/data=!3m1!4b1!4m5!3m4!1s0x885c252015156a6b:0xca34d87569d107e9!8m2!3d35.922328!4d-84.0603957",
CiCi's Pizza,8586 Palm Pkwy,ORLANDO,FL,32836-6432,4072387711.0,"https://www.google.com/maps/place/Cicis+Pizza/@28.3939507,-81.5186518,13z/data=!4m8!1m2!2m1!1sCiCi's+Pizza+8586+Palm+Pkwy+ORLANDO+FL+32836-6432!3m4!1s0x88dd80162b6621fd:0xf5d3e6f908934b38!8m2!3d28.3848476!4d-81.5019532?hl=en",
CiCi's Pizza,5503 S Hulen St,FORT WORTH,TX,76132-2200,6827075204.0,"https://www.google.com/maps/place/Cicis+Pizza/@32.6691963,-97.4012332,17z/data=!4m5!3m4!1s0x864e6d775ff6ce49:0x967d921c1f22c241!8m2!3d32.6691918!4d-97.3990445?hl=en",
CiCi's Pizza,1525 Old Trolley Rd,SUMMERVILLE,SC,29485,8436950230.0,"https://www.google.com/maps/place/Cicis+Pizza/@32.9680008,-80.1668192,17z/data=!3m1!4b1!4m5!3m4!1s0x88fe8be71864a8fb:0x167e4981a5089787!8m2!3d32.9680008!4d-80.1668192",
CiCi's Pizza,2347 Chestnut St,ORANGEBURG,SC,29115,8039375174.0,"https://www.google.com/maps/place/Cicis/@33.519137,-80.880611,17z/data=!3m1!4b1!4m5!3m4!1s0x88f8d4390cb96805:0xaf005c821ec8a0f5!8m2!3d33.519137!4d-80.880611",
CiCi's Pizza,808 Greensprings Hwy,HOMEWOOD,AL,35209,2055828098.0,"https://www.google.com/maps/place/Cicis/@33.4605833,-86.8193668,17z/data=!3m1!4b1!4m5!3m4!1s0x888919348b47b4b9:0xb4842e5e1d927431!8m2!3d33.4605833!4d-86.8193668",
CiCi's Pizza,5915 Trussville Crossing Pkwy,TRUSSVILLE,AL,35235,2052038661.0,"https://www.google.com/maps/place/Cici's+Pizza/@33.640438,-86.630667,17z/data=!3m1!4b1!4m5!3m4!1s0x88890c67de390569:0x3019496d6f706a8a!8m2!3d33.640438!4d-86.630667",
CiCi's Pizza,2521 E. Expressway 83,MISSION,TX,78572,9566007719.0,"https://www.google.com/maps/place/Cicis/@26.2189835,-98.5598994,9z/data=!3m1!5s0x8665a7916e59813d:0x1ab7659386bd5fe!4m8!1m2!2m1!1sCiCi's+Pizza+2521+E.+Expressway+83+MISSION+TX+78572!3m4!1s0x8665a7916e61ce43:0xda18c816caa29b49!8m2!3d26.1964711!4d-98.2805546?hl=en",
CiCi's Pizza,792 Eastgate South Dr,CINCINNATI,OH,45245,5138435485.0,"https://www.google.com/maps/place/Cicis+Pizza/@39.0954205,-84.2681523,17z/data=!3m1!4b1!4m5!3m4!1s0x8841075518c2d353:0xc200bc5320000387!8m2!3d39.0954205!4d-84.2681523",
CiCi's Pizza,849 River Rd,GATLINBURG,TN,37738,8652171102.0,"https://www.google.com/maps/place/Cicis+Pizza/@35.7069524,-83.5230151,17z/data=!3m1!4b1!4m5!3m4!1s0x885955cf352cd4e5:0xb8fb785f8872bc96!8m2!3d35.7069524!4d-83.5230151",
CiCi's Pizza,1818 West Montebello Avenue Suite 106,PHOENIX,AZ,85015,4807023644.0,"https://www.google.com/maps/place/Cicis/@33.5202185,-112.0986437,17z/data=!3m1!4b1!4m5!3m4!1s0x872b132a45e78af3:0x4aa4a0ff546f59dc!8m2!3d33.5202185!4d-112.0986437",
CiCi's Pizza,1411 South Power Rd,MESA,AZ,85206,4805824008.0,"https://www.google.com/maps/place/Cicis/@33.3899651,-111.6838699,17z/data=!3m1!4b1!4m5!3m4!1s0x872baf391957e1b7:0xec2741af849e5584!8m2!3d33.3899651!4d-111.6838699",
CiCi's Pizza,6633 Atlanta Hwy,MONTGOMERY,AL,36117,3342307990.0,"https://www.google.com/maps/place/Cicis+Pizza/@32.3825293,-86.180688,17z/data=!3m1!4b1!4m5!3m4!1s0x888c2b303ed1acf7:0x38a9c5f674b875a!8m2!3d32.3825293!4d-86.180688",
CiCi's Pizza,111 Fm 1960 Rd W,HOUSTON,TX,77090,2813978577.0,"https://www.google.com/maps/place/Cicis+Pizza/@30.0203567,-95.4326374,17z/data=!4m5!3m4!1s0x8640cae6cde03c65:0xe36caf48dfb3849f!8m2!3d30.0203521!4d-95.4304487?hl=en",
CiCi's Pizza,6882 Highway 90,DAPHNE,AL,36526,,"https://www.google.com/maps/place/Cicis+Pizza/@30.6527302,-87.9044543,17z/data=!3m1!4b1!4m5!3m4!1s0x889a43001631b3a9:0xe1ecaa0b7bd29a04!8m2!3d30.6527302!4d-87.9044543",
CiCi's Pizza,7444 West Tidwell,HOUSTON,TX,77040,7136902229.0,"https://www.google.com/maps/place/Cicis+Pizza/@29.8517872,-95.5031135,17z/data=!3m1!4b1!4m5!3m4!1s0x8640c58db344fb2f:0x277fd099da7fb759!8m2!3d29.8517872!4d-95.5031135",
CiCi's Pizza,3126 S GARNETT RD,TULSA,OK,74146,9184384242.0,"https://www.google.com/maps/place/Cicis+Pizza/@36.1174106,-95.8532151,17z/data=!3m1!4b1!4m5!3m4!1s0x87b6f3241d96f2a7:0x5fbd73390c6c71f6!8m2!3d36.1174106!4d-95.8532151",
