Company Name,Address 1,City,State,Zip,Phone,Google Link
California Pizza Kitchen,1 W Flatiron Crossing Dr,BROOMFIELD,CO,80021-8886,3034108895.0,"https://www.google.com/maps/place/California+Pizza+Kitchen+at+Flatiron/@39.93212,-105.13195,17z/data=!3m1!4b1!4m5!3m4!1s0x876b8c9ad0a298bd:0x6f6a96d0a003cb99!8m2!3d39.93212!4d-105.13195"
California Pizza Kitchen,100 Hillsdale Mall,SAN MATEO,CA,94403-3409,6502869018.0,"https://www.google.com/maps/place/California+Pizza+Kitchen+at+San+Mateo/@37.538008,-122.301336,17z/data=!3m1!4b1!4m5!3m4!1s0x808f9f02dcad8b75:0xe742da2830b87125!8m2!3d37.538008!4d-122.301336"
California Pizza Kitchen,101 N Brand Blvd,GLENDALE,CA,91203-4603,8185071558.0,"https://www.google.com/maps/place/California+Pizza+Kitchen+at+Glendale/@34.146952,-118.255287,17z/data=!3m1!4b1!4m5!3m4!1s0x80c2c05587ac2b1f:0x4202ee4ff7db31a3!8m2!3d34.146952!4d-118.255287"
California Pizza Kitchen,10150 Stockdale Hwy,BAKERSFIELD,CA,93311,6616644603.0,"https://www.google.com/maps/place/California+Pizza+Kitchen+at+River+Walk/@35.353634,-119.11572,17z/data=!3m1!4b1!4m5!3m4!1s0x80ea43dd8794150f:0xc0a9d44e985f9d8a!8m2!3d35.353634!4d-119.11572"
California Pizza Kitchen,10300 Forest Hill Blvd,WELLINGTON,FL,33414-3126,5617931601.0,"https://www.google.com/maps/place/California+Pizza+Kitchen+at+Wellington+Green/@26.6470242,-80.2093875,17z/data=!3m1!4b1!4m5!3m4!1s0x88d925f55def899f:0xc2fabc3dcb63570f!8m2!3d26.6470242!4d-80.2093875"
California Pizza Kitchen,1325 S Main St,WALNUT CREEK,CA,94596-5128,9259380720.0,"https://www.google.com/maps/place/California+Pizza+Kitchen+at+Walnut+Creek/@37.893973,-122.058893,17z/data=!3m1!4b1!4m5!3m4!1s0x808561c3007b2981:0xc8a81180351885a7!8m2!3d37.893973!4d-122.058893"
California Pizza Kitchen,10100 N Scottsdale Rd,SCOTTSDALE,AZ,85253-1423,4805968300.0,"https://www.google.com/maps/place/California+Pizza+Kitchen+at+Scottsdale/@33.578008,-111.926876,17z/data=!3m1!4b1!4m5!3m4!1s0x872b74ea9ee3f5c3:0x16ce1fd908c00c02!8m2!3d33.578008!4d-111.926876"
California Pizza Kitchen,1051 W State Highway 114,GRAPEVINE,TX,76051-3988,8174814255.0,"https://www.google.com/maps/place/California+Pizza+Kitchen+at+Grapevine/@32.91334,-97.0977374,13z/data=!4m8!1m2!2m1!1sCalifornia+Pizza+Kitchen+1051+W+State+Highway+114+GRAPEVINE+TX+76051-3988!3m4!1s0x864c2b2a6cde81e5:0xbc45d8d01c2ca8dd!8m2!3d32.9239526!4d-97.0887989?hl=en"
California Pizza Kitchen,10701 Lambert International Blvd,SAINT LOUIS,MO,63145-1000,3144266317.0,"https://www.google.com/maps/place/California+Pizza+Kitchen-+Lambert+International+Airport/@38.6891253,-90.3926304,13z/data=!4m8!1m2!2m1!1sCalifornia+Pizza+Kitchen+10701+Lambert+International+Blvd+SAINT+LOUIS+MO+63145-1000!3m4!1s0x87df375c6e926a41:0xa8cd1eea8d55d59a!8m2!3d38.7373098!4d-90.355387?hl=en"
California Pizza Kitchen,11602 Carmel Mountain Rd,SAN DIEGO,CA,92128-4621,8586754424.0,"https://www.google.com/maps/place/California+Pizza+Kitchen+at+Carmel+Mtn/@32.979796,-117.081694,17z/data=!3m1!4b1!4m5!3m4!1s0x80dbf9ff18c14a91:0xd0276be33b70c340!8m2!3d32.979796!4d-117.081694"
California Pizza Kitchen,11677 San Vicente Blvd,LOS ANGELES,CA,90049-5128,3108263573.0,"https://www.google.com/maps/place/California+Pizza+Kitchen+at+Brentwood/@34.053902,-118.465255,17z/data=!3m1!4b1!4m5!3m4!1s0x80c2bca07a64d083:0xef4095cfcfcde6d8!8m2!3d34.053902!4d-118.465255"
California Pizza Kitchen,1202 Commons Dr,GENEVA,IL,60134-3993,6308451731.0,"https://www.google.com/maps/place/California+Pizza+Kitchen+at+Geneva+Commons/@41.893837,-88.341481,17z/data=!3m1!4b1!4m5!3m4!1s0x880ee2bd163f65d5:0xe92939582ffccad0!8m2!3d41.893837!4d-88.341481"
California Pizza Kitchen,13345 Fiji Way,MARINA DEL REY,CA,90292-6906,3103011563.0,"https://www.google.com/maps/place/California+Pizza+Kitchen+at+Marina+Del+Rey/@33.977875,-118.437742,17z/data=!3m1!4b1!4m5!3m4!1s0x80c2b0802e3b81e3:0x5ca10d058c65eecf!8m2!3d33.977875!4d-118.437742"
California Pizza Kitchen,1555 Simi Town Center Way,SIMI VALLEY,CA,93063,8055220030.0,"https://www.google.com/maps/place/California+Pizza+Kitchen+at+Simi+Valley+Town+Center/@34.2843048,-118.76832,17z/data=!3m1!4b1!4m5!3m4!1s0x80e82eb509203877:0x7b97aeb25b6e1d99!8m2!3d34.2843048!4d-118.76832"
California Pizza Kitchen,160 Walt Whitman Rd,HUNTINGTON STATION,NY,11746-4125,6314237565.0,"https://www.google.com/maps/place/California+Pizza+Kitchen+at+Walt+Whitman/@40.823605,-73.410944,17z/data=!3m1!4b1!4m5!3m4!1s0x89e82906aa7dcf79:0x61ffa671459656a4!8m2!3d40.823605!4d-73.410944"
California Pizza Kitchen,1705 Post Oak Blvd,HOUSTON,TX,77056-3801,7139639262.0,"https://www.google.com/maps/place/California+Pizza+Kitchen+at+Post+Oak/@29.749961,-95.460992,17z/data=!3m1!4b1!4m5!3m4!1s0x8640c1416ec1966d:0xf564a003aa0442a4!8m2!3d29.749961!4d-95.460992"
California Pizza Kitchen,1328 Stoneridge Mall Rd,PLEASANTON,CA,94588-3214,9252519771.0,"https://www.google.com/maps/place/California+Pizza+Kitchen+at+Stoneridge+Mall/@37.69444,-121.929077,17z/data=!3m1!4b1!4m5!3m4!1s0x808fec7143dd54bf:0x100f5fb337711c3c!8m2!3d37.69444!4d-121.929077"
California Pizza Kitchen,2284 Kalakaua Ave,HONOLULU,HI,96815-2584,8089242000.0,"https://www.google.com/maps/place/California+Pizza+Kitchen+at+Center+of+Waikiki/@21.278479,-157.8278079,17z/data=!3m1!4b1!4m5!3m4!1s0x7c007275e7f052e9:0x3089e9bc17b18927!8m2!3d21.278479!4d-157.8278079"
California Pizza Kitchen,23181 Village Shops Way,ESTERO,FL,33928-5307,2394987667.0,"https://www.google.com/maps/place/California+Pizza+Kitchen+at+Coconut+Point/@26.40063,-81.808331,17z/data=!3m1!4b1!4m5!3m4!1s0x88db1713b0a39151:0x76d9ec48a867b67e!8m2!3d26.40063!4d-81.808331"
California Pizza Kitchen,238 Summit Blvd,VESTAVIA,AL,35243-3178,2052987931.0,"https://www.google.com/maps/place/California+Pizza+Kitchen+at+The+Summit/@33.448552,-86.73054,17z/data=!3m1!4b1!4m5!3m4!1s0x88891770a20bc223:0xb3de4cf7cda58b45!8m2!3d33.448552!4d-86.73054"
California Pizza Kitchen,2400 E. Camelback Rd.,PHOENIX,AZ,85016-9303,6025538382.0,"https://www.google.com/maps/place/California+Pizza+Kitchen+at+Biltmore/@33.510599,-112.029753,17z/data=!3m1!4b1!4m5!3m4!1s0x872b0d6ea1817b85:0x49562169e6950902!8m2!3d33.510599!4d-112.029753"
California Pizza Kitchen,1245 Worcester St,NATICK,MA,01760-1529,5086511506.0,"https://www.google.com/maps/place/California+Pizza+Kitchen+at+Natick/@42.300134,-71.385424,17z/data=!3m1!4b1!4m5!3m4!1s0x89e386284431d961:0x64caaa6cb34507a1!8m2!3d42.300134!4d-71.385424"
California Pizza Kitchen,1400 Willowbrook Mall,WAYNE,NJ,07470-6905,9738379501.0,"https://www.google.com/maps/place/California+Pizza+Kitchen+at+Willowbrook/@40.8885155,-74.2620825,17z/data=!3m1!5s0x89c301a15da418cb:0x7edf0a3ac17b4dec!4m8!1m2!2m1!1sCalifornia+Pizza+Kitchen+1400+Willowbrook+Mall+WAYNE+NJ+07470-6905!3m4!1s0x89c301a35e32d01b:0x4d173075b437d963!8m2!3d40.8887069!4d-74.2593816?hl=en"
California Pizza Kitchen,17350 Hall Rd,CLINTON TOWNSHIP,MI,48038-1207,5862635667.0,"https://www.google.com/maps/place/California+Pizza+Kitchen+at+Partridge+Creek/@42.625931,-82.948071,17z/data=!3m1!4b1!4m5!3m4!1s0x8824dfca9f03b683:0x60d9addaa8370671!8m2!3d42.625931!4d-82.948071"
California Pizza Kitchen,1870 Annapolis Mall,ANNAPOLIS,MD,21401-3117,4105732060.0,"https://www.google.com/maps/place/California+Pizza+Kitchen+at+Annapolis/@38.9904001,-76.5449197,17z/data=!3m1!5s0x89b7f6d67ce6c047:0x663c92cc1b5e4aab!4m5!3m4!1s0x89b7f6d30ad6144f:0xdd1e9dd1af7ee925!8m2!3d38.990396!4d-76.542731?hl=en"
California Pizza Kitchen,2000 E Rio Salado Pkwy,TEMPE,AZ,85281-5181,4809670498.0,"https://www.google.com/maps/place/California+Pizza+Kitchen+at+Tempe+Marketplace/@33.433006,-111.90313,17z/data=!3m1!4b1!4m5!3m4!1s0x872b08543eea7bab:0xe8708a40c1b4dede!8m2!3d33.433006!4d-111.90313"
California Pizza Kitchen,2200 E Thousand Oaks Blvd,THOUSAND OAKS,CA,91362-2958,8057771778.0,"https://www.google.com/maps/place/California+Pizza+Kitchen+at+Lakes+at+Thousand+Oaks/@34.174208,-118.845755,17z/data=!3m1!4b1!4m5!3m4!1s0x80e8253a4fad39dd:0x359b167bc422e88!8m2!3d34.174208!4d-118.845755"
California Pizza Kitchen,2241 Q St NE,ALBUQUERQUE,NM,87110,5058833005.0,"https://www.google.com/maps/place/California+Pizza+Kitchen+at+Albuquerque+Uptown/@35.102897,-106.567504,17z/data=!3m1!4b1!4m5!3m4!1s0x87220acf0a6542bb:0xedc2cdce00859940!8m2!3d35.102897!4d-106.567504"
California Pizza Kitchen,24061 Newhall Ranch Rd,VALENCIA,CA,91354,6612592082.0,"https://www.google.com/maps/place/California+Pizza+Kitchen+at+Valencia/@34.431177,-118.556485,17z/data=!3m1!4b1!4m5!3m4!1s0x80c2875dbec24a13:0x42329b8d56dc71a!8m2!3d34.431177!4d-118.556485"
California Pizza Kitchen,25304 Crenshaw Blvd,TORRANCE,CA,90505-6100,3105395410.0,"https://www.google.com/maps/place/California+Pizza+Kitchen+at+Rolling+Hills/@33.7941754,-118.3293436,17z/data=!3m1!4b1!4m5!3m4!1s0x80dd4a5bf0e5b77f:0xc3dcae49bdd20283!8m2!3d33.7941754!4d-118.3293436"
California Pizza Kitchen,264 19th St NW,ATLANTA,GA,30363-1137,4042497034.0,"https://www.google.com/maps/place/California+Pizza+Kitchen+at+Atlantic+Station/@33.7930185,-84.397095,17z/data=!3m1!4b1!4m5!3m4!1s0x88f504f81ed7d4bb:0xb244c076bcc423ab!8m2!3d33.7930185!4d-84.397095"
California Pizza Kitchen,2800 W Big Beaver Rd,TROY,MI,48084-3228,2488160900.0,"https://www.google.com/maps/place/California+Pizza+Kitchen+at+Somerset/@42.5631585,-83.183572,17z/data=!3m1!4b1!4m5!3m4!1s0x8824c6957351eefd:0x3c63ae5f6ddf20e!8m2!3d42.5631585!4d-83.183572"
California Pizza Kitchen,24155 Laguna Hills Mall,LAGUNA HILLS,CA,92653-7620,9494589600.0,"https://www.google.com/maps/place/California+Pizza+Kitchen+at+Laguna+Hills/@33.6321617,-117.8645716,11z/data=!3m1!5s0x80dce8ee890d78f9:0x7edf0a3a5718c5ac!4m8!1m2!2m1!1sCalifornia+Pizza+Kitchen+24155+Laguna+Hills+Mall+LAGUNA+HILLS+CA+92653-7620!3m4!1s0x80dce8ee816d9e6f:0xcf612986bc277463!8m2!3d33.611999!4d-117.708029?hl=en"
California Pizza Kitchen,2601 Preston Rd,FRISCO,TX,75034-9480,9727120884.0,"https://www.google.com/maps/place/California+Pizza+Kitchen+at+Stone+Briar/@33.0987596,-96.8136198,17z/data=!3m1!5s0x864c3ceb6835a37f:0x663c92cc5ae446c6!4m8!1m2!2m1!1sCalifornia+Pizza+Kitchen+2601+Preston+Rd+FRISCO+TX+75034-9480!3m4!1s0x864c3ceb07127b3b:0x85c8059a25a672c2!8m2!3d33.098319!4d-96.811346?hl=en"
California Pizza Kitchen,27500 Novi Rd,NOVI,MI,48377-3418,2484493280.0,"https://www.google.com/maps/place/California+Pizza+Kitchen+at+Twelve+Oaks/@42.4927891,-83.4714596,17z/data=!3m1!4b1!4m5!3m4!1s0x8824af089ffc2273:0xc7894d4626e84c68!8m2!3d42.4927891!4d-83.4714596"
California Pizza Kitchen,2855 Stevens Creek Blvd,SANTA CLARA,CA,95050-6738,4082430081.0,"https://www.google.com/maps/place/California+Pizza+Kitchen+at+Valley+Fair/@37.3261608,-121.9435709,17z/data=!3m1!4b1!4m5!3m4!1s0x808fcb1f954cec81:0x5a1e03f02cc177cb!8m2!3d37.3261608!4d-121.9435709"
California Pizza Kitchen,3001 El Camino Real,TUSTIN,CA,92782-8905,7148385083.0,"https://www.google.com/maps/place/California+Pizza+Kitchen+at+Tustin/@33.7242943,-117.7923528,17z/data=!3m1!4b1!4m5!3m4!1s0x80dcdc79ae176d85:0x8a9a0eae1bf8044b!8m2!3d33.7242943!4d-117.7923528"
California Pizza Kitchen,28258 Diehl Rd,WARRENVILLE,IL,60555-3854,6303930852.0,"https://www.google.com/maps/place/California+Pizza+Kitchen+at+Warrenville/@41.9805278,-88.6051002,9z/data=!4m8!1m2!2m1!1sCalifornia+Pizza+Kitchen+28258+Diehl+Rd+WARRENVILLE+IL+60555-3854!3m4!1s0x880ef89f6d8ba3ab:0x1a3d55487ea9356c!8m2!3d41.803172!4d-88.172539?hl=en"
California Pizza Kitchen,2901 S Capital of Texas Hwy,AUSTIN,TX,78746-8120,5123276905.0,"https://www.google.com/maps/place/California+Pizza+Kitchen+at+Barton+Creek/@30.258721,-97.807728,17z/data=!3m1!4b1!4m5!3m4!1s0x865b4ae791750157:0x1e42615ca1db15a7!8m2!3d30.258721!4d-97.807728"
California Pizza Kitchen,310 Los Cerritos Mall,CERRITOS,CA,90703-5425,5628654547.0,"https://www.google.com/maps/place/California+Pizza+Kitchen+at+Cerritos/@33.8624005,-118.0929859,17z/data=!3m1!4b1!4m5!3m4!1s0x80dd2d744fb22ae1:0x50088a9c760e12b2!8m2!3d33.8624005!4d-118.0929859"
California Pizza Kitchen,3200 Las Vegas Blvd S,LAS VEGAS,NV,89109-0766,7028931370.0,"https://www.google.com/maps/place/California+Pizza+Kitchen+at+Fashion+Show+Mall/@36.1275279,-115.173689,17z/data=!3m1!5s0x80c8c416a26be787:0x4392ab27a0ae83e0!4m5!3m4!1s0x80c8c415f0a42c77:0x172c4dd246aafbd4!8m2!3d36.1275236!4d-115.1715003?hl=en"
California Pizza Kitchen,3363 Nobel Dr,LA JOLLA,CA,92037-1812,8584574222.0,"https://www.google.com/maps/place/California+Pizza+Kitchen+at+La+Jolla+Village+Square/@32.867617,-117.231034,17z/data=!3m1!4b1!4m5!3m4!1s0x80dc06d2f44d8d01:0x15930b6f74a61c87!8m2!3d32.867617!4d-117.231034"
California Pizza Kitchen,3393 Peachtree Rd NE,ATLANTA,GA,30326-1109,4042629221.0,"https://www.google.com/maps/place/California+Pizza+Kitchen+at+Lenox/@33.845605,-84.361427,17z/data=!3m1!4b1!4m5!3m4!1s0x88f505f8819ce059:0x930529e6a48ff3e9!8m2!3d33.845605!4d-84.361427"
California Pizza Kitchen,3505 Grand Ave,CHINO HILLS,CA,91709-5412,9095903090.0,"https://www.google.com/maps/place/California+Pizza+Kitchen+at+Chino+Hills+Town+Center/@34.002075,-117.729991,17z/data=!3m1!4b1!4m5!3m4!1s0x80c332a4305aaa21:0x78b67b7bc19e3fa9!8m2!3d34.002075!4d-117.729991"
California Pizza Kitchen,4031 Hillsboro Pike,NASHVILLE,TN,37215-2786,6154600192.0,"https://www.google.com/maps/place/California+Pizza+Kitchen+at+Hill+Center/@36.102771,-86.817022,17z/data=!3m1!4b1!4m5!3m4!1s0x88646470c5d37641:0x88503657e3ce3723!8m2!3d36.102771!4d-86.817022"
California Pizza Kitchen,4250 Roswell Rd,MARIETTA,GA,30062-8110,7709717950.0,"https://www.google.com/maps/place/California+Pizza+Kitchen+at+Pine+Straw/@33.9202999,-84.4618103,11z/data=!4m8!1m2!2m1!1sCalifornia+Pizza+Kitchen+4250+Roswell+Rd+MARIETTA+GA+30062-8110!3m4!1s0x88f50d77b8ef4b77:0x24e07feb388697cd!8m2!3d33.982674!4d-84.426209?hl=en"
California Pizza Kitchen,4600 Ashford Dunwoody Rd NE,ATLANTA,GA,30346-1512,7703930390.0,"https://www.google.com/maps/place/California+Pizza+Kitchen+at+Perimeter/@33.9202999,-84.4472533,11z/data=!4m8!1m2!2m1!1sCalifornia+Pizza+Kitchen+4600+Ashford+Dunwoody+Rd+NE+ATLANTA+GA+30346-1512!3m4!1s0x88f5095c1cde1371:0x1407ff68e69ed926!8m2!3d33.928364!4d-84.33752?hl=en"
California Pizza Kitchen,470 Mall Blvd,KING OF PRUSSIA,PA,19406,6103371500.0,"https://www.google.com/maps/place/California+Pizza+Kitchen+at+King+of+Prussia/@40.0894427,-75.3847576,17z/data=!3m1!4b1!4m5!3m4!1s0x89c695b516280d45:0xfd0b96c3f849cb0c!8m2!3d40.0894427!4d-75.3847576"
California Pizza Kitchen,514 W Germantown Pike,PLYMOUTH MEETING,PA,19462,6108288232.0,"https://www.google.com/maps/place/California+Pizza+Kitchen+at+Plymouth+Meeting+Mall/@40.117321,-75.282309,17z/data=!3m1!4b1!4m5!3m4!1s0x89c6bc37d47b1f53:0xea8ce5d3590c955d!8m2!3d40.117321!4d-75.282309"
California Pizza Kitchen,53 3rd St,SAN FRANCISCO,CA,94103,4152780443.0,"https://www.google.com/maps/place/California+Pizza+Kitchen+at+53+Third+Street/@37.7870559,-122.4024734,17z/data=!3m1!4b1!4m5!3m4!1s0x808580880a734dad:0x35988aa341fe344!8m2!3d37.7870559!4d-122.4024734"
California Pizza Kitchen,5555 Tamiami Trl N,NAPLES,FL,34108-2879,2395661900.0,"https://www.google.com/maps/place/California+Pizza+Kitchen+at+Naples/@26.2137158,-81.8041637,17z/data=!3m1!5s0x88db1e41c03dad5b:0x7edf0a3afeb76f2c!4m5!3m4!1s0x88db1e41bb75bd81:0x67f7a337c755d7fe!8m2!3d26.213711!4d-81.801975?hl=en"
California Pizza Kitchen,5757 Wayne Newton Blvd,LAS VEGAS,NV,89111-8037,7022617317.0,"https://www.google.com/maps/place/California+Pizza+Kitchen/@36.081471,-115.137822,17z/data=!3m1!4b1!4m5!3m4!1s0x80c8c598fa10348d:0xa5a7cef118aa42f6!8m2!3d36.081471!4d-115.137822"
California Pizza Kitchen,6000 Glades Rd,BOCA RATON,FL,33431-7286,5613682805.0,"https://www.google.com/maps/place/California+Pizza+Kitchen+at+Boca+Raton/@26.3634341,-80.1311038,17z/data=!3m1!4b1!4m5!3m4!1s0x88d91e7bcdb33c35:0xa3b6df970599ab3f!8m2!3d26.3634341!4d-80.1311038"
California Pizza Kitchen,61 S Pine Ave,LONG BEACH,CA,90802-8155,5626281800.0,"https://www.google.com/maps/place/California+Pizza+Kitchen+at+The+Pike+Outlets/@33.765097,-118.192627,17z/data=!3m1!4b1!4m5!3m4!1s0x80dd313a40d0293b:0xbac6e3e985088dd3!8m2!3d33.765097!4d-118.192627"
California Pizza Kitchen,6659 Las Vegas Blvd S,LAS VEGAS,NV,89119-3272,7028965154.0,"https://www.google.com/maps/place/California+Pizza+Kitchen+at+Town+Square/@36.068141,-115.17486,17z/data=!3m1!4b1!4m5!3m4!1s0x80c8c5f1441e59e5:0x87e572beae62ea4!8m2!3d36.068141!4d-115.17486"
California Pizza Kitchen,6910 Fayetteville Rd,DURHAM,NC,27713-8258,9193614200.0,"https://www.google.com/maps/place/California+Pizza+Kitchen+at+The+Streets+at+Southpoint/@35.904407,-78.94283,17z/data=!3m1!4b1!4m5!3m4!1s0x89acf0f801421b99:0x4fcba6cea933b23b!8m2!3d35.904407!4d-78.94283"
California Pizza Kitchen,695 N Alafaya Trl,ORLANDO,FL,32828-7045,4073845689.0,"https://www.google.com/maps/place/California+Pizza+Kitchen+at+Waterford+Lakes/@28.5543607,-81.204186,17z/data=!3m1!4b1!4m5!3m4!1s0x88e767cb58fa411b:0xae9d76d2cbb4823d!8m2!3d28.5543607!4d-81.204186"
California Pizza Kitchen,7101 Democracy Blvd,BETHESDA,MD,20817-1052,3014695090.0,"https://www.google.com/maps/place/California+Pizza+Kitchen+at+Bethesda/@39.023615,-77.145122,17z/data=!3m1!4b1!4m5!3m4!1s0x89b7cc7e26d7fb45:0x61d05ffcf5a995bc!8m2!3d39.023615!4d-77.145122"
California Pizza Kitchen,7315 SW Bridgeport Rd,TIGARD,OR,97224-7710,5039680504.0,"https://www.google.com/maps/place/California+Pizza+Kitchen+at+Bridgeport/@45.3958503,-122.7521216,17z/data=!3m1!4b1!4m5!3m4!1s0x549572ebdb07ae89:0x356e20cb2845317d!8m2!3d45.3958503!4d-122.7521216"
California Pizza Kitchen,7900 Shelbyville Rd,LOUISVILLE,KY,40222-5458,5024255125.0,"https://www.google.com/maps/place/California+Pizza+Kitchen+at+Oxmoor/@38.2476887,-85.6105994,17z/data=!3m1!4b1!4m5!3m4!1s0x8869755af7594947:0x70f17c68a4117ee7!8m2!3d38.2476887!4d-85.6105994"
California Pizza Kitchen,7939 Tysons Corner Ctr,MCLEAN,VA,22102,7037611473.0,"https://www.google.com/maps/place/California+Pizza+Kitchen+at+Tysons+Corner/@38.917345,-77.221172,17z/data=!3m1!4b1!4m5!3m4!1s0x89b64aefbbe5efeb:0xe711db8ce44a21f1!8m2!3d38.917345!4d-77.221172"
California Pizza Kitchen,8343 Park Meadows Center Dr,LITTLETON,CO,80124-5132,7208730400.0,"https://www.google.com/maps/place/California+Pizza+Kitchen+at+Park+Meadows/@39.5643769,-104.8732369,17z/data=!3m1!4b1!4m5!3m4!1s0x876c85a50d8808af:0x63a22a0f113c04f8!8m2!3d39.5643769!4d-104.8732369"
California Pizza Kitchen,876 Marsh St,SAN LUIS OBISPO,CA,93401-3612,8057840790.0,"https://www.google.com/maps/place/California+Pizza+Kitchen+at+San+Luis+Obispo/@34.8490616,-120.7416853,9z/data=!4m8!1m2!2m1!1sCalifornia+Pizza+Kitchen+876+Marsh+St+SAN+LUIS+OBISPO+CA+93401-3612!3m4!1s0x80ecf1030b08a063:0x2d6d514cb0318cc3!8m2!3d35.2796373!4d-120.6619235?hl=en"
California Pizza Kitchen,98-1005 Moanalua Road,AIEA,HI,96701-4718,8084877741.0,"https://www.google.com/maps/place/California+Pizza+Kitchen/@21.383607,-157.939989,17z/data=!3m1!4b1!4m5!3m4!1s0x7c006f4d57b24cd5:0xbc8164c887e6b245!8m2!3d21.383607!4d-157.939989"
California Pizza Kitchen,39 Norwich Westerly Rd,LEDYARD,CT,6338,8608592912.0,"https://www.google.com/maps/place/California+Pizza+Kitchen+at+Foxwoods+Casino/@41.4729043,-71.9601161,17z/data=!3m1!4b1!4m5!3m4!1s0x89e675845275a815:0xb3e8963a5bca155f!8m2!3d41.4729043!4d-71.9601161"
California Pizza Kitchen,3320 N Sepulveda Blvd,MANHATTAN BEACH,CA,90266-2454,3107961233.0,"https://www.google.com/maps/place/California+Pizza+Kitchen+at+Manhattan+Beach/@33.8992614,-118.3951034,17z/data=!3m1!4b1!4m5!3m4!1s0x80c2b3f9acc8f14d:0xf57980814e37cb22!8m2!3d33.8992614!4d-118.3951034"
California Pizza Kitchen,4040 City Ave,PHILADELPHIA,PA,19131-1738,2154737010.0,"https://www.google.com/maps/place/California+Pizza+Kitchen+at+City+Line/@40.0074349,-75.2124437,17z/data=!3m1!4b1!4m5!3m4!1s0x89c6c762e7f6e3ef:0x25b2d073fbbe0341!8m2!3d40.0074349!4d-75.2124437"
California Pizza Kitchen,4200 Conroy Rd,ORLANDO,FL,32839-2449,4072487887.0,"https://www.google.com/maps/place/California+Pizza+Kitchen+at+Millenia+Mall/@28.485466,-81.432003,17z/data=!3m1!4b1!4m5!3m4!1s0x88e77ea893b83cbf:0xa880a791437e9d4f!8m2!3d28.485466!4d-81.432003"
California Pizza Kitchen,500center Mall,LAKEWOOD,CA,90712-2407,5626330854.0,"https://www.google.com/maps/place/California+Pizza+Kitchen+at+Lakewood/@33.851722,-118.141033,17z/data=!3m1!4b1!4m5!3m4!1s0x80dd32f3f667e57d:0x7aca508ff0d56df8!8m2!3d33.851722!4d-118.141033"
California Pizza Kitchen,5173 Peachtree Pkwy,NORCROSS,GA,30092-2505,7706620929.0,"https://www.google.com/maps/place/California+Pizza+Kitchen+at+Peachtree/@33.979996,-84.217244,17z/data=!3m1!4b1!4m5!3m4!1s0x88f5a1a5fe6a99e9:0x8214a1c832bf525c!8m2!3d33.979996!4d-84.217244"
California Pizza Kitchen,551 Oakbrook Ctr,OAK BROOK,IL,60521,6305717800.0,"https://www.google.com/maps/place/California+Pizza+Kitchen+at+Oakbrook/@41.852247,-87.951706,17z/data=!3m1!4b1!4m5!3m4!1s0x880e4c4217dcf887:0x664597b3d7c491a4!8m2!3d41.852247!4d-87.951706"
California Pizza Kitchen,6301 N Point Pkwy,ALPHARETTA,GA,30022-3064,7706648246.0,"https://www.google.com/maps/place/California+Pizza+Kitchen+at+Northpoint/@34.04717,-84.291365,17z/data=!3m1!4b1!4m5!3m4!1s0x88f59e233672e77f:0xf64b060d3dec64bd!8m2!3d34.04717!4d-84.291365"
California Pizza Kitchen,6801 Hollywood Blvd,HOLLYWOOD,CA,90028-6163,3234602080.0,"https://www.google.com/maps/place/California+Pizza+Kitchen+at+Hollywood/@34.10279,-118.339309,17z/data=!3m1!4b1!4m5!3m4!1s0x80c2bf23c3bb14c7:0xab35798f366a47b0!8m2!3d34.10279!4d-118.339309"
California Pizza Kitchen,719 Paseo Nuevo,SANTA BARBARA,CA,93101-3394,8059624648.0,"https://www.google.com/maps/place/California+Pizza+Kitchen+at+Santa+Barbara/@34.418802,-119.700585,17z/data=!3m1!4b1!4m5!3m4!1s0x80e91499eec498bd:0x892af3fd88d54fa6!8m2!3d34.418802!4d-119.700585"
California Pizza Kitchen,73080 El Paseo,PALM DESERT,CA,92260-4292,7607765036.0,"https://www.google.com/maps/place/California+Pizza+Kitchen+at+The+Shops+on+El+Paseo/@33.719923,-116.389722,17z/data=!3m1!4b1!4m5!3m4!1s0x80dafe717cd5318d:0x47e0c663b2f09535!8m2!3d33.719923!4d-116.389722"
California Pizza Kitchen,7985 N Blackstone Ave,FRESNO,CA,93720-4307,5594480801.0,"https://www.google.com/maps/place/California+Pizza+Kitchen+at+Fresno/@36.8514625,-119.7937458,17z/data=!4m8!1m2!2m1!1sCalifornia+Pizza+Kitchen+7985+N+Blackstone+Ave+FRESNO+CA+93720-4307!3m4!1s0x8094681e42dbff0d:0x64fe1f47f07ddaf7!8m2!3d36.851417!4d-119.791521?hl=en"
California Pizza Kitchen,8411 Preston Rd,DALLAS,TX,75225-5527,2147507067.0,"https://www.google.com/maps/place/California+Pizza+Kitchen+at+Berkshire/@32.9475365,-97.0606178,11z/data=!4m8!1m2!2m1!1sCalifornia+Pizza+Kitchen+8411+Preston+Rd+DALLAS+TX+75225-5527!3m4!1s0x864c2121e517a8e3:0xbda6f52958b17fba!8m2!3d32.864612!4d-96.804431?hl=en"
California Pizza Kitchen,99 N Los Robles Ave,PASADENA,CA,91101-1736,6265859020.0,"https://www.google.com/maps/place/California+Pizza+Kitchen+at+Pasadena/@34.147541,-118.141743,17z/data=!3m1!4b1!4m5!3m4!1s0x80c2c36ed314d92b:0xa131fceb6a302b3a!8m2!3d34.147541!4d-118.141743"
California Pizza Kitchen,325 Christiana Mall,NEWARK,DE,19702-3205,3025332541.0,"https://www.google.com/maps/place/California+Pizza+Kitchen+at+Christiana/@39.6341674,-75.778008,11z/data=!3m1!5s0x89c7013d89725bdf:0x634d9f5eead3d950!4m8!1m2!2m1!1sCalifornia+Pizza+Kitchen+325+Christiana+Mall+NEWARK+DE+19702-3205!3m4!1s0x89c7013d91b1d747:0xb582678108bab5f7!8m2!3d39.6790287!4d-75.653272?hl=en"
California Pizza Kitchen,1515 Lake Cook Rd,NORTHBROOK,IL,60062-1441,8478975106.0,"https://www.google.com/maps/place/California+Pizza+Kitchen+at+Northbrook+Court/@42.1501539,-87.8169003,17z/data=!3m1!4b1!4m5!3m4!1s0x880fc0df2339fbcb:0xfeb25d8e0656e23!8m2!3d42.1501539!4d-87.8169003"
California Pizza Kitchen,1 Keolani Pl,KAHULUI,HI,96732,8088775858.0,"https://www.google.com/maps/place/California+Pizza+Kitchen/@20.8931401,-156.4371815,17z/data=!3m1!4b1!4m5!3m4!1s0x7954d2c0b019e56f:0x894488d1e9d91c4a!8m2!3d20.8931401!4d-156.4371815"
California Pizza Kitchen,255 E Basse Rd,SAN ANTONIO,TX,78209-8337,2104242014.0,"https://www.google.com/maps/place/California+Pizza+Kitchen+at+Alamo+Quarry+Market/@29.497705,-98.48149,17z/data=!3m1!4b1!4m5!3m4!1s0x865cf560fb9e27ed:0x4172beb576e5793!8m2!3d29.497705!4d-98.48149"
California Pizza Kitchen,1000 Ross Park Mall Dr,PITTSBURGH,PA,15237-3837,4125481399.0,"https://www.google.com/maps/place/California+Pizza+Kitchen+at+Ross+Park/@40.5434064,-80.0102743,17z/data=!3m1!5s0x88348ca08afde1e1:0x9ed59be44cdb0480!4m8!1m2!2m1!1sCalifornia+Pizza+Kitchen+1000+Ross+Park+Mall+Dr+PITTSBURGH+PA+15237-3837!3m4!1s0x88348b5f792c851f:0x7a3a266e7c765f28!8m2!3d40.542813!4d-80.008753?hl=en"
California Pizza Kitchen,400 Commons Way,BRIDGEWATER,NJ,8807,9085661225.0,"https://www.google.com/maps/place/California+Pizza+Kitchen+at+Bridgewater+Commons/@40.58542,-74.619462,17z/data=!3m1!4b1!4m5!3m4!1s0x89c3951567d84e97:0x4cacbc1c9c697ddd!8m2!3d40.58542!4d-74.619462"
California Pizza Kitchen,2610 Sawgrass Mills Cir,SUNRISE,FL,33323,9544652041.0,"https://www.google.com/maps/place/California+Pizza+Kitchen+at+Sawgrass+Mills+Mall/@26.153427,-80.321944,17z/data=!3m1!4b1!4m5!3m4!1s0x88d9091d83f24fab:0xc311774e11f4657a!8m2!3d26.153427!4d-80.321944"
California Pizza Kitchen,56 Rome Cir,KANSAS CITY,MO,64153-1119,8165612420.0,"https://www.google.com/maps/place/California+Pizza+Kitchen/@39.2949445,-94.7208705,17z/data=!3m1!4b1!4m5!3m4!1s0x87c05e1ba70cfccb:0x86cde6c8005cef38!8m2!3d39.2949445!4d-94.7208705"
California Pizza Kitchen,5465 Alton Pkwy,IRVINE,CA,92604-3716,9493961120.0,"https://www.google.com/maps/place/California+Pizza+Kitchen/@33.670339,-117.788647,17z/data=!3m1!4b1!4m5!3m4!1s0x80dcdda1479cbdb5:0x3fe9537df198cea1!8m2!3d33.670339!4d-117.788647"
California Pizza Kitchen,10945 Oval Park Dr,LAS VEGAS,NV,89135-1447,7029785759.0,"https://www.google.com/maps/place/California+Pizza+Kitchen+at+Summerlin/@36.151547,-115.331923,17z/data=!3m1!4b1!4m5!3m4!1s0x80c8bf210cb81b9d:0xdfee9280bf845b8d!8m2!3d36.151547!4d-115.331923"
California Pizza Kitchen,521 Spectrum Center Dr,IRVINE,CA,92618-4955,9495859531.0,"https://www.google.com/maps/place/California+Pizza+Kitchen+at+Irvine+Spectrum/@33.6522905,-117.7457813,17z/data=!3m1!4b1!4m5!3m4!1s0x80dce7fbc716de07:0x45d46c5e3ea94179!8m2!3d33.6522905!4d-117.7457813"
California Pizza Kitchen,10001 Perkins Rowe,BATON ROUGE,LA,70810-2092,2257663840.0,"https://www.google.com/maps/place/California+Pizza+Kitchen+at+Perkins+Rowe/@30.37957,-91.094985,17z/data=!3m1!4b1!4m5!3m4!1s0x8626a507473214af:0xdea10a3c6ebc7199!8m2!3d30.37957!4d-91.094985"
California Pizza Kitchen,1001 Broxton Ave,LOS ANGELES,CA,90024-2803,3102099197.0,"https://www.google.com/maps/place/California+Pizza+Kitchen+at+Westwood/@34.062305,-118.447162,17z/data=!3m1!4b1!4m5!3m4!1s0x80c2bc83938679e7:0xc414921b7849fd9!8m2!3d34.062305!4d-118.447162"
California Pizza Kitchen,10590 Old Olive Street Rd,CREVE COEUR,MO,63141-5954,3145677835.0,"https://www.google.com/maps/place/California+Pizza+Kitchen+at+Creve+Coeur/@38.67387,-90.412793,17z/data=!3m1!4b1!4m5!3m4!1s0x87d8cb3d0a50effd:0x1cd4df1a55d36f9e!8m2!3d38.67387!4d-90.412793"
California Pizza Kitchen,1100 Del Monte Ctr,MONTEREY,CA,93940-6148,8313754975.0,"https://www.google.com/maps/place/California+Pizza+Kitchen+at+Monterey/@36.584902,-121.898824,17z/data=!3m1!4b1!4m5!3m4!1s0x808de42c900a7569:0xd0a97af4f3598932!8m2!3d36.584902!4d-121.898824"
California Pizza Kitchen,11401 Pines Blvd,PEMBROKE PINES,FL,33026-4104,9544321498.0,"https://www.google.com/maps/place/California+Pizza+Kitchen+at+Pembroke+Pines/@26.009992,-80.304813,17z/data=!3m1!4b1!4m5!3m4!1s0x88d9a66d63e8aad1:0x993394ba6527aa6d!8m2!3d26.009992!4d-80.304813"
California Pizza Kitchen,11800 W Broad St,RICHMOND,VA,23233-7901,8043649047.0,"https://www.google.com/maps/place/California+Pizza+Kitchen+at+Short+Pump/@37.6561411,-77.619383,17z/data=!3m1!4b1!4m5!3m4!1s0x89b16a70984ab453:0x64b0323f908bf0d!8m2!3d37.6561411!4d-77.619383"
California Pizza Kitchen,11840 SE 82nd Ave,HAPPY VALLEY,OR,97086-7768,5036590760.0,"https://www.google.com/maps/place/California+Pizza+Kitchen+at+Clackamas+Town+Center/@45.4349492,-122.5757012,17z/data=!3m1!4b1!4m5!3m4!1s0x54957577559abd49:0xbc3d174c940c227c!8m2!3d45.4349492!4d-122.5757012"
California Pizza Kitchen,12171 Seal Beach Blvd,SEAL BEACH,CA,90740-2633,5624302695.0,"https://www.google.com/maps/place/California+Pizza+Kitchen+at+Rossmoor+Center/@33.7855851,-118.0724287,17z/data=!3m1!4b1!4m5!3m4!1s0x80dd2e53947d9e27:0xe66d4c11c0ef31c6!8m2!3d33.7855851!4d-118.0724287"
California Pizza Kitchen,12517 N Mainstreet,RANCHO CUCAMONGA,CA,91739-8889,9098998611.0,"https://www.google.com/maps/place/California+Pizza+Kitchen+at+Victoria+Gardens/@34.111983,-117.532402,17z/data=!3m1!4b1!4m5!3m4!1s0x80c34a1bd449261f:0x17a6b5c5ef46c87f!8m2!3d34.111983!4d-117.532402"
California Pizza Kitchen,1 Garden State Plz,PARAMUS,NJ,7652,2015870005.0,"https://www.google.com/maps/place/California+Pizza+Kitchen/@40.9165249,-74.0773064,17z/data=!3m1!4b1!4m5!3m4!1s0x89c2fa52cfea137d:0x60b55f5298d41393!8m2!3d40.9165249!4d-74.0773064"
California Pizza Kitchen,1065 Brea Mall,BREA,CA,92821-5718,7146720407.0,"https://www.google.com/maps/place/California+Pizza+Kitchen+at+Brea+Mall/@33.9153422,-117.8864509,17z/data=!3m1!4b1!4m5!3m4!1s0x80dcd506487ec8af:0x8443adc086b1507c!8m2!3d33.9153422!4d-117.8864509"
California Pizza Kitchen,109 W County Center,DES PERES,MO,63131-3702,3149090333.0,"https://www.google.com/maps/place/California+Pizza+Kitchen+at+West+County+Mall/@38.6019391,-90.4465149,17z/data=!3m1!4b1!4m5!3m4!1s0x87d8cd8669666825:0xf879e664e77a6b32!8m2!3d38.6019391!4d-90.4465149"
California Pizza Kitchen,1151 Newport Center Dr,NEWPORT BEACH,CA,92660-6950,9497595543.0,"https://www.google.com/maps/place/California+Pizza+Kitchen+at+Newport+Beach/@33.615006,-117.876945,17z/data=!3m1!4b1!4m5!3m4!1s0x80dcdeedec1a53fb:0x35b53bb3b0acfbb8!8m2!3d33.615006!4d-117.876945"
California Pizza Kitchen,11745 W Interstate 10,SAN ANTONIO,TX,78230-1068,2106994275.0,"https://www.google.com/maps/place/California+Pizza+Kitchen+at+San+Antonio/@29.5496688,-98.5845925,17z/data=!3m2!4b1!5s0x865c672f7508bdfd:0x7edf0a3ad503cda5!4m5!3m4!1s0x865c672f5eee355d:0xa5f8b5452155a7ec!8m2!3d29.5496642!4d-98.5824038?hl=en"
California Pizza Kitchen,118 Shawan Rd,HUNT VALLEY,MD,21030-1368,4107853336.0,"https://www.google.com/maps/place/California+Pizza+Kitchen+at+Hunt+Valley+Town+Center/@39.4989178,-76.6547897,17z/data=!3m1!4b1!4m5!3m4!1s0x89c81262654104f1:0xaf7d6b1a640e2e24!8m2!3d39.4989178!4d-76.6547897"
California Pizza Kitchen,1190 Roseville Pkwy,ROSEVILLE,CA,95678-6653,9167814950.0,"https://www.google.com/maps/place/California+Pizza+Kitchen+at+Fountains+at+Roseville/@38.7692068,-121.2685826,17z/data=!3m1!4b1!4m5!3m4!1s0x809b21d3f48afc79:0xb62a594b1eec6136!8m2!3d38.7692068!4d-121.2685826"
California Pizza Kitchen,1200 Morris Tpke,SHORT HILLS,NJ,07078-0427,9733793700.0,"https://www.google.com/maps/place/California+Pizza+Kitchen+at+Short+Hills+Mall/@40.740227,-74.363723,17z/data=!3m1!4b1!4m5!3m4!1s0x89c3af1cb94e1007:0xcdd346b8d92d9ba5!8m2!3d40.740227!4d-74.363723"
California Pizza Kitchen,1201 S Hayes St,ARLINGTON,VA,22202-2700,7034124900.0,"https://www.google.com/maps/place/California+Pizza+Kitchen+at+Pentagon/@38.8629366,-77.0591838,17z/data=!3m1!4b1!4m5!3m4!1s0x89b7b6df29ed2eef:0xedcfa8b4be00255!8m2!3d38.8629366!4d-77.0591838"
California Pizza Kitchen,12265 Ventura Blvd,STUDIO CITY,CA,91604-2531,8185056437.0,"https://www.google.com/maps/place/California+Pizza+Kitchen+at+Studio+City/@34.14332,-118.400382,17z/data=!3m1!4b1!4m5!3m4!1s0x80c2bdfb0c7430cd:0x56fd30a1b618a5ff!8m2!3d34.14332!4d-118.400382"
California Pizza Kitchen,1493 Saint Louis Galleria,RICHMOND HEIGHTS,MO,63117-1112,3148634500.0,"https://www.google.com/maps/place/California+Pizza+Kitchen+at+St.+Louis/@38.6342588,-90.3478041,17z/data=!3m1!4b1!4m5!3m4!1s0x87d8cb3d0a50effd:0x1ec4f01801fc4fbf!8m2!3d38.6342588!4d-90.3478041"
California Pizza Kitchen,1500 Polaris Pkwy,COLUMBUS,OH,43240-2130,6149856304.0,"https://www.google.com/maps/place/California+Pizza+Kitchen+at+Polaris/@40.144549,-82.983115,17z/data=!3m1!4b1!4m5!3m4!1s0x8838f46528e27405:0x7e6479a0a9e7dc39!8m2!3d40.144549!4d-82.983115"
California Pizza Kitchen,200 Central Park Ave,VIRGINIA BEACH,VA,23462-3021,7574562630.0,"https://www.google.com/maps/place/California+Pizza+Kitchen+at+Virginia+Beach/@36.842345,-76.133679,17z/data=!3m1!4b1!4m5!3m4!1s0x89ba959fbc1f4937:0xc288a071218aa86e!8m2!3d36.842345!4d-76.133679"
California Pizza Kitchen,20502 N Rand Rd,DEER PARK,IL,60010-7234,8475500273.0,"https://www.google.com/maps/place/California+Pizza+Kitchen+at+Deer+Park/@42.160958,-88.051708,17z/data=!3m1!4b1!4m5!3m4!1s0x880fa3a01bbb5ae5:0xe88e33762a7bb91d!8m2!3d42.160958!4d-88.051708"
California Pizza Kitchen,210 Wilshire Blvd,SANTA MONICA,CA,90401-1202,3103939335.0,"https://www.google.com/maps/place/California+Pizza+Kitchen+at+Santa+Monica/@34.017802,-118.499689,17z/data=!3m1!4b1!4m5!3m4!1s0x80c2a4c5bf9d3323:0x1b38b15b70f04aef!8m2!3d34.017802!4d-118.499689"
California Pizza Kitchen,25365 Cedar Rd,LYNDHURST,OH,44124-3785,2163824907.0,"https://www.google.com/maps/place/California+Pizza+Kitchen+at+Legacy+Village/@41.503361,-81.501605,17z/data=!3m1!4b1!4m5!3m4!1s0x8831026c27b27389:0x6bcfef4da8565945!8m2!3d41.503361!4d-81.501605"
California Pizza Kitchen,2800 N Main St,SANTA ANA,CA,92701,7144790604.0,"https://www.google.com/maps/place/California+Pizza+Kitchen+at+Santa+Ana/@33.7749224,-117.8693239,17z/data=!3m1!4b1!4m5!3m4!1s0x80dcd9cedff677f1:0x2e9387a7134e8338!8m2!3d33.7749224!4d-117.8693239"
California Pizza Kitchen,3 Westfarms Mall,FARMINGTON,CT,06032-2631,8605611027.0,"https://www.google.com/maps/place/California+Pizza+Kitchen+at+WestFarms/@41.7240004,-72.7632128,17z/data=!3m1!4b1!4m5!3m4!1s0x89e7ad9bfb587e17:0x36a9d4f3d7bb0708!8m2!3d41.7240004!4d-72.7632128"
California Pizza Kitchen,300 Monticello Ave,NORFOLK,VA,23510-4400,7576227190.0,"https://www.google.com/maps/place/California+Pizza+Kitchen+at+MacArthur+Center/@36.84927,-76.289533,17z/data=!3m1!4b1!4m5!3m4!1s0x89ba980dc43f6a07:0x2dd6495390900e82!8m2!3d36.84927!4d-76.289533"
California Pizza Kitchen,3000 E 1st Ave,DENVER,CO,80206-5640,3033885686.0,"https://www.google.com/maps/place/California+Pizza+Kitchen+at+Cherry+Creek/@39.7173963,-104.9526207,17z/data=!3m1!4b1!4m5!3m4!1s0x876c7e908f66825f:0x93a7f30e4c48a7cc!8m2!3d39.7173963!4d-104.9526207"
California Pizza Kitchen,303 Memorial City,HOUSTON,TX,77024-2679,7133659473.0,"https://www.google.com/maps/place/California+Pizza+Kitchen+at+Memorial+City/@29.7806752,-95.5401808,17z/data=!3m1!5s0x8640c496398b473d:0x7edf0a3a4a24f79c!4m5!3m4!1s0x8640c49723231f99:0xf8d6b1489f1fe536!8m2!3d29.7806706!4d-95.5379921?hl=en"
California Pizza Kitchen,3163 W Chandler Blvd,CHANDLER,AZ,85226-4964,4808553301.0,"https://www.google.com/maps/place/California+Pizza+Kitchen+at+Chandler+Fashion+Center/@33.4390799,-112.1044152,11z/data=!3m1!5s0x872b00d6b2e39865:0xf16df7f7e623092b!4m8!1m2!2m1!1sCalifornia+Pizza+Kitchen+3163+W+Chandler+Blvd+CHANDLER+AZ+85226-4964!3m4!1s0x872b00d5294e107d:0x17390974ccd01903!8m2!3d33.2997363!4d-111.8989098?hl=en"
California Pizza Kitchen,321 W Katella Ave,ANAHEIM,CA,92802-3614,7149910305.0,"https://www.google.com/maps/place/California+Pizza+Kitchen+at+Anaheim+Garden+Walk/@33.8036256,-117.9106411,17z/data=!3m1!4b1!4m5!3m4!1s0x80dcd7c31e793301:0x1f7c7c039dfd0618!8m2!3d33.8036256!4d-117.9106411"
California Pizza Kitchen,3301 E Main St,VENTURA,CA,93003-5092,8056395060.0,"https://www.google.com/maps/place/California+Pizza+Kitchen+at+Ventura/@34.267025,-119.248708,17z/data=!3m1!4b1!4m5!3m4!1s0x80e9ad4f26498b5f:0xf2430d602c638030!8m2!3d34.267025!4d-119.248708"
California Pizza Kitchen,3540 Riverside Plaza Dr,RIVERSIDE,CA,92506-2709,9516809362.0,"https://www.google.com/maps/place/California+Pizza+Kitchen+at+Riverside+Plaza/@33.9550066,-117.3905633,17z/data=!3m1!4b1!4m5!3m4!1s0x80dcb1b6de905543:0x32c94d3837cce035!8m2!3d33.9550066!4d-117.3905633"
California Pizza Kitchen,365 Central Park Ave,SCARSDALE,NY,10583-1319,9147220600.0,"https://www.google.com/maps/place/California+Pizza+Kitchen+at+Scarsdale/@40.8580643,-74.1186335,9z/data=!4m8!1m2!2m1!1sCalifornia+Pizza+Kitchen+365+Central+Park+Ave+SCARSDALE+NY+10583-1319!3m4!1s0x89c2949cfe4a7867:0xf24f20ae8f4440c3!8m2!3d41.008775!4d-73.809732?hl=en"
California Pizza Kitchen,40820 Winchester Rd,TEMECULA,CA,92591-5526,9512960575.0,"https://www.google.com/maps/place/California+Pizza+Kitchen+at+Temecula/@33.5248125,-117.1530258,17z/data=!3m1!4b1!4m5!3m4!1s0x80db7e3dec73fea5:0x3dfb94019c58a952!8m2!3d33.5248125!4d-117.1530258"
California Pizza Kitchen,136 Boardwalk Pl,GAITHERSBURG,MD,20878-7342,3013300681.0,"https://www.google.com/maps/place/California+Pizza+Kitchen+at+Gaithersburg/@39.117224,-77.198475,17z/data=!3m1!4b1!4m5!3m4!1s0x89b62d524a402095:0x3a4bce041686d614!8m2!3d39.117224!4d-77.198475"
California Pizza Kitchen,1450 Ala Moana Blvd,HONOLULU,HI,96814-4629,8089417715.0,"https://www.google.com/maps/place/California+Pizza+Kitchen/@21.2904511,-157.8428579,17z/data=!3m1!4b1!4m5!3m4!1s0x7c006df045a36271:0x7822352f3ac29e22!8m2!3d21.2904511!4d-157.8428579"
California Pizza Kitchen,1550 E Golf Rd,SCHAUMBURG,IL,60173-4904,8474139200.0,"https://www.google.com/maps/place/California+Pizza+Kitchen+at+Schaumburg/@42.051046,-88.040069,17z/data=!3m1!4b1!4m5!3m4!1s0x880faf900a115a77:0x1c6435907c70691e!8m2!3d42.051046!4d-88.040069"
California Pizza Kitchen,156 S 400 W,SALT LAKE CITY,UT,84101-1145,8014560075.0,"https://www.google.com/maps/place/California+Pizza+Kitchen+at+The+Gateway/@40.7006595,-111.9650292,12z/data=!3m1!5s0x8752f501c1ef742b:0x7edf0a3ad89a669c!4m8!1m2!2m1!1sCalifornia+Pizza+Kitchen+156+S+400+W+SALT+LAKE+CITY+UT+84101-1145!3m4!1s0x8752f3c08b414db9:0x467a4c8c69846e3a!8m2!3d40.765806!4d-111.902808?hl=en"
California Pizza Kitchen,16101 Ventura Blvd,ENCINO,CA,91436-2511,8189077783.0,"https://www.google.com/maps/place/California+Pizza+Kitchen+at+Encino/@34.15671,-118.484348,17z/data=!3m1!4b1!4m5!3m4!1s0x80c297899002478b:0x75f98939f10f2a81!8m2!3d34.15671!4d-118.484348"
California Pizza Kitchen,1645 Briargate Pkwy,COLORADO SPRINGS,CO,80920-7687,7192608054.0,"https://www.google.com/maps/place/California+Pizza+Kitchen+at+Briargate/@39.4475979,-105.5244167,9z/data=!3m1!5s0x87134c32f6953d21:0x7edf0a3aa5f799f5!4m8!1m2!2m1!1sCalifornia+Pizza+Kitchen+1645+Briargate+Pkwy+COLORADO+SPRINGS+CO+80920-7687!3m4!1s0x87134c33a60fbfe9:0xca14784ed5d50230!8m2!3d38.963644!4d-104.796038?hl=en"
California Pizza Kitchen,1711 29th St,BOULDER,CO,80301-1053,3034403390.0,"https://www.google.com/maps/place/California+Pizza+Kitchen+at+29th+Street/@39.9750048,-105.3346357,11z/data=!3m1!5s0x876bedd0bf3936b1:0xff95595e4ce0158b!4m8!1m2!2m1!1sCalifornia+Pizza+Kitchen+1711+29th+St+BOULDER+CO+80301-1053!3m4!1s0x876bedd0e8247935:0xee9324a5c662c3c!8m2!3d40.017532!4d-105.257155?hl=en"
California Pizza Kitchen,4211 Waialae Ave,HONOLULU,HI,96816-5331,8087379446.0,"https://www.google.com/maps/place/California+Pizza+Kitchen+at+Kahala+Mall/@21.277541,-157.78569,17z/data=!3m1!4b1!4m5!3m4!1s0x7c006d608472b023:0x476dd4eecdb4531b!8m2!3d21.277541!4d-157.78569"
California Pizza Kitchen,4400 Sharon Rd,CHARLOTTE,NC,28211-3672,7043646280.0,"https://www.google.com/maps/place/California+Pizza+Kitchen+at+South+Park/@34.885789,-90.4720585,5z/data=!3m1!5s0x88569e6adb97f02b:0x663c92cc23f7a9cb!4m8!1m2!2m1!1sCalifornia+Pizza+Kitchen+5501+Josh+Birmingham+Pkwy+CHARLOTTE+NC+28208!3m4!1s0x88569e15ed1421c7:0xf80241476659725c!8m2!3d35.1522311!4d-80.8318968?hl=en"
California Pizza Kitchen,5501 Josh Birmingham Pkwy,CHARLOTTE,NC,28208,7043594474.0,"https://www.google.com/maps/place/California+Pizza+Kitchen/@34.885789,-90.4720585,5z/data=!3m1!5s0x88569887545dbeb7:0x75fe5338f97dfe46!4m8!1m2!2m1!1sCalifornia+Pizza+Kitchen+5501+Josh+Birmingham+Pkwy+CHARLOTTE+NC+28208!3m4!1s0x8856987db0abe6f9:0xcb0ea6bae8f9880!8m2!3d35.2193678!4d-80.9449887?hl=en"
California Pizza Kitchen,5665 N Centerpark Way,GLENDALE,WI,53209,4149678088.0,"https://www.google.com/maps/place/California+Pizza+Kitchen+at+Bayshore+Town+Center/@43.1210892,-87.9158439,17z/data=!3m1!4b1!4m5!3m4!1s0x88051e60b896047f:0x8b42e701362cc5df!8m2!3d43.1210892!4d-87.9158439"
California Pizza Kitchen,1735 Arden Way,SACRAMENTO,CA,95815-5009,9165680932.0,"https://www.google.com/maps/place/California+Pizza+Kitchen+at+Sacramento/@38.598984,-121.423666,17z/data=!3m1!4b1!4m5!3m4!1s0x809ada193b953301:0x824ae4167c767a1d!8m2!3d38.598984!4d-121.423666"
California Pizza Kitchen,1815 Hawthorne Blvd,REDONDO BEACH,CA,90278-3432,3103709931.0,"https://www.google.com/maps/place/California+Pizza+Kitchen+at+Redondo+Beach/@33.871576,-118.354501,17z/data=!3m1!4b1!4m5!3m4!1s0x80c2b4f97a0167a3:0x5ca17c41b5397b42!8m2!3d33.871576!4d-118.354501"
California Pizza Kitchen,183 Linden St,WELLESLEY,MA,02482-7909,7814163690.0,"https://www.google.com/maps/place/California+Pizza+Kitchen+at+Linden+Square/@42.2997766,-71.2913335,17z/data=!3m1!4b1!4m5!3m4!1s0x89e386b435d21305:0x5629efcd325ee93!8m2!3d42.2997766!4d-71.2913335"
California Pizza Kitchen,18800 Ventura Blvd,TARZANA,CA,91356-3305,8183459925.0,"https://www.google.com/maps/place/California+Pizza+Kitchen+at+Tarzana/@34.171407,-118.543333,17z/data=!3m1!4b1!4m5!3m4!1s0x80c2990e0cdbcfe5:0x33dda6ab6d0ea6fb!8m2!3d34.171407!4d-118.543333"
California Pizza Kitchen,2015 Birch Rd,CHULA VISTA,CA,91915-2020,6195914630.0,"https://www.google.com/maps/place/California+Pizza+Kitchen+at+Otay+Ranch+Town+Center/@32.625508,-116.965865,17z/data=!3m1!4b1!4m5!3m4!1s0x80d9459752c948e9:0x1c8e3da298e21f96!8m2!3d32.625508!4d-116.965865"
California Pizza Kitchen,207 S Beverly Dr,BEVERLY HILLS,CA,90210,3102751101.0,"https://www.google.com/maps/place/California+Pizza+Kitchen+at+Beverly+Hills/@34.064726,-118.399307,17z/data=!3m1!4b1!4m5!3m4!1s0x80c2bbfbfc4f1ebf:0xbbeae7741e900f20!8m2!3d34.064726!4d-118.399307"
California Pizza Kitchen,21001 N Tatum Blvd,PHOENIX,AZ,85050-5221,4804733336.0,"https://www.google.com/maps/place/California+Pizza+Kitchen+at+Desert+Ridge/@33.676503,-111.974527,17z/data=!3m1!4b1!4m5!3m4!1s0x872b70e0a11e671f:0x3e3744adfd203acd!8m2!3d33.676503!4d-111.974527"
California Pizza Kitchen,2223 N West Shore Blvd,TAMPA,FL,33607-7221,8133538155.0,"https://www.google.com/maps/place/California+Pizza+Kitchen+at+International+Plaza/@27.9639832,-82.521861,17z/data=!3m1!4b1!4m5!3m4!1s0x88c2c2536e5ca5ad:0x804c4681286b2ba2!8m2!3d27.9639832!4d-82.521861"
California Pizza Kitchen,2301 N Federal Hwy,FORT LAUDERDALE,FL,33305-2538,9545651196.0,"https://www.google.com/maps/place/California+Pizza+Kitchen+at+Ft.+Lauderdale/@26.156046,-80.11837,17z/data=!3m1!4b1!4m5!3m4!1s0x88d901ec9ccdaf47:0xc9cb2ecf38e20b4d!8m2!3d26.156046!4d-80.11837"
California Pizza Kitchen,25513 Marguerite Pkwy,MISSION VIEJO,CA,92692-2904,9499515026.0,"https://www.google.com/maps/place/California+Pizza+Kitchen+at+Mission+Viejo/@33.592743,-117.660328,17z/data=!3m1!4b1!4m5!3m4!1s0x80dceeb3743699bd:0xbcb3f9a5cd3456ec!8m2!3d33.592743!4d-117.660328"
California Pizza Kitchen,300 Miracle Mile,CORAL GABLES,FL,33134-5820,3057749940.0,"https://www.google.com/maps/place/California+Pizza+Kitchen+at+Miracle+Mile/@25.749488,-80.2627425,17z/data=!4m8!1m2!2m1!1sCalifornia+Pizza+Kitchen+300+Miracle+Mile+CORAL+GABLES+FL+33134-5820!3m4!1s0x88d9b790a511cfdb:0x997a48265c7263b6!8m2!3d25.749233!4d-80.260816?hl=en"
California Pizza Kitchen,31005 Orchard Lake Rd,FARMINGTON HILLS,MI,48334-1384,2487375912.0,"https://www.google.com/maps/place/California+Pizza+Kitchen+at+Farmington/@42.5186776,-83.770182,9z/data=!4m8!1m2!2m1!1sCalifornia+Pizza+Kitchen+37546+W+Six+Mile+Rd+LIVONIA+MI+48152-3923!3m4!1s0x8824ba6d7e5ecbaf:0x3317ad7c9465d186!8m2!3d42.5254418!4d-83.3617268?hl=en"
California Pizza Kitchen,3101 Pga Blvd,PALM BEACH GARDENS,FL,33410-2834,5616254682.0,"https://www.google.com/maps/place/California+Pizza+Kitchen/@26.8491596,-80.0856407,17z/data=!3m1!4b1!4m5!3m4!1s0x88df2a97e5e9b855:0x79d47c9dfc7d0b6d!8m2!3d26.8491596!4d-80.0856407"
California Pizza Kitchen,3400 Las Vegas Blvd S,LAS VEGAS,NV,89109-8923,7027917111.0,"https://www.google.com/maps/place/California+Pizza+Kitchen/@36.1206937,-115.1759811,17z/data=!4m5!3m4!1s0x80c8c415f0a42c77:0x1473633662e2e8bb!8m2!3d36.1206894!4d-115.1737924?hl=en"
California Pizza Kitchen,3401 Esperanza Xing,AUSTIN,TX,78758-8705,5128364400.0,"https://www.google.com/maps/place/California+Pizza+Kitchen+at+The+Domain/@30.4003812,-97.7270762,17z/data=!3m1!4b1!4m5!3m4!1s0x8644cc71a32f4ad1:0x87685831e5798750!8m2!3d30.4003812!4d-97.7270762"
California Pizza Kitchen,37546 W Six Mile Rd,LIVONIA,MI,48152-3923,7345910476.0,"https://www.google.com/maps/place/California+Pizza+Kitchen+at+Livonia/@42.5186776,-83.770182,9z/data=!3m1!5s0x8824b276d3defc15:0xf07d58fb458a515b!4m8!1m2!2m1!1sCalifornia+Pizza+Kitchen+37546+W+Six+Mile+Rd+LIVONIA+MI+48152-3923!3m4!1s0x8824b27a754a7bf7:0x19feb9d73c16a54d!8m2!3d42.41469!4d-83.415237?hl=en"
California Pizza Kitchen,400 S Baldwin Ave,ARCADIA,CA,91007-1902,6264452610.0,"https://www.google.com/maps/place/California+Pizza+Kitchen+at+Santa+Anita/@34.134035,-118.051888,17z/data=!3m1!4b1!4m5!3m4!1s0x80c2dbbcefc689e1:0x979045ee6846c5db!8m2!3d34.134035!4d-118.051888"
California Pizza Kitchen,4200 Fairfax Corner West Ave,FAIRFAX,VA,22030,7032228097.0,"https://www.google.com/maps/place/California+Pizza+Kitchen+at+Fairfax+Corner/@38.858542,-77.357073,17z/data=!3m1!4b1!4m5!3m4!1s0x89b64f6ad77e30bd:0xb977c3bf589707b3!8m2!3d38.858542!4d-77.357073"
California Pizza Kitchen,437 S Highway 101,SOLANA BEACH,CA,92075-2221,8587930999.0,"https://www.google.com/maps/place/California+Pizza+Kitchen+at+Solana+Beach/@32.985788,-117.270592,17z/data=!3m1!4b1!4m5!3m4!1s0x80dc0ed47910c3b7:0xdf7b938c0c029432!8m2!3d32.985788!4d-117.270592"
California Pizza Kitchen,4999 Old Orchard Ctr,SKOKIE,IL,60077-1451,8476731144.0,"https://www.google.com/maps/place/California+Pizza+Kitchen+at+Old+Orchard/@42.0615688,-87.7478839,17z/data=!3m1!4b1!4m5!3m4!1s0x880fc58eda1e88fd:0x90ea83f8b840533b!8m2!3d42.0615688!4d-87.7478839"
California Pizza Kitchen,52 E Ohio St,CHICAGO,IL,60611-2702,3127876075.0,"https://www.google.com/maps/place/California+Pizza+Kitchen+at+Ohio+Street/@41.892635,-87.626097,17z/data=!3m1!4b1!4m5!3m4!1s0x880e2cadab2912ab:0xb922d2fc33269c48!8m2!3d41.892635!4d-87.626097"
California Pizza Kitchen,5614 Bay St,EMERYVILLE,CA,94608-2410,5106540750.0,"https://www.google.com/maps/place/California+Pizza+Kitchen+at+Bay+Street/@37.833561,-122.291963,17z/data=!3m1!4b1!4m5!3m4!1s0x808f8505ccc7d449:0x84ecd082272df472!8m2!3d37.833561!4d-122.291963"
California Pizza Kitchen,601 N San Fernando Blvd,BURBANK,CA,91502-1022,8189722589.0,"https://www.google.com/maps/place/California+Pizza+Kitchen+at+Burbank/@34.184591,-118.314149,17z/data=!3m1!4b1!4m5!3m4!1s0x80c29544dce957fd:0xb8a1bcab58a30253!8m2!3d34.184591!4d-118.314149"
California Pizza Kitchen,609 Kailua Rd,KAILUA,HI,96734-2839,8082632480.0,"https://www.google.com/maps/place/California+Pizza+Kitchen+at+Kailua+Town+Center/@21.393766,-157.741752,17z/data=!3m1!4b1!4m5!3m4!1s0x7c0014dceb3dcb3f:0x9fabe79e093108ef!8m2!3d21.393766!4d-157.741752"
California Pizza Kitchen,6121 W Park Blvd,PLANO,TX,75093-6232,4693660060.0,"https://www.google.com/maps/place/California+Pizza+Kitchen+at+Willow+Bend/@33.030041,-96.833363,17z/data=!3m1!4b1!4m5!3m4!1s0x864c237e5ce72057:0x9f474764bad661f7!8m2!3d33.030041!4d-96.833363"
California Pizza Kitchen,618 Smith Haven Mall,LAKE GROVE,NY,11755-1249,6313829610.0,"https://www.google.com/maps/place/California+Pizza+Kitchen+at+Smith+Haven+Mall/@40.864131,-73.132969,17z/data=!3m1!4b1!4m5!3m4!1s0x89e838541a483011:0x545b3dd35932121a!8m2!3d40.864131!4d-73.132969"
California Pizza Kitchen,6417 E Pacific Coast Hwy,LONG BEACH,CA,90803-4201,5625962775.0,"https://www.google.com/maps/place/California+Pizza+Kitchen+at+Long+Beach+Marketplace/@33.757347,-118.109924,17z/data=!3m1!4b1!4m5!3m4!1s0x80dd2fd8bed319b1:0xa1981dedd33d1a6d!8m2!3d33.757347!4d-118.109924"
California Pizza Kitchen,6600 Topanga Canyon Blvd,CANOGA PARK,CA,91306,8188848858.0,"https://www.google.com/maps/place/California+Pizza+Kitchen+at+Topanga/@34.1899743,-118.603277,17z/data=!3m1!4b1!4m5!3m4!1s0x80c29c22ebd4a073:0xd8d1824ecd958f76!8m2!3d34.1899743!4d-118.603277"
California Pizza Kitchen,7007 Friars Rd,SAN DIEGO,CA,92108-1146,6192984078.0,"https://www.google.com/maps/place/California+Pizza+Kitchen/@32.7675466,-117.1655318,17z/data=!3m1!4b1!4m5!3m4!1s0x80deab11488b6be5:0x74c18c396c7ac5d4!8m2!3d32.7675466!4d-117.1655318"
California Pizza Kitchen,7103 80th St,GLENDALE,NY,11385-7707,7188949400.0,"https://www.google.com/maps/place/California+Pizza+Kitchen+at+Atlas+Park/@40.707988,-73.869184,17z/data=!3m1!4b1!4m5!3m4!1s0x89c25e72880ceaf3:0x75feef4b9197f0b6!8m2!3d40.707988!4d-73.869184"
California Pizza Kitchen,735 S Figueroa St,LOS ANGELES,CA,90017-2563,2132288500.0,"https://www.google.com/maps/place/California+Pizza+Kitchen+at+7th+Street/@34.049038,-118.260675,17z/data=!3m1!4b1!4m5!3m4!1s0x80c2c7b11887a295:0xc65fedf33e6dfc3b!8m2!3d34.049038!4d-118.260675"
California Pizza Kitchen,7851 Edinger Ave,HUNTINGTON BEACH,CA,92647-7626,7143723157.0,"https://www.google.com/maps/place/California+Pizza+Kitchen+at+Huntington+Beach/@33.730636,-117.992063,17z/data=!3m1!4b1!4m5!3m4!1s0x80dd26432700860d:0x85f32d6fbf5b2228!8m2!3d33.730636!4d-117.992063"
California Pizza Kitchen,575 E University Pkwy,OREM,UT,84097-7410,8017651777.0,"https://www.google.com/maps/place/California+Pizza+Kitchen+at+University+Mall/@40.2750825,-111.6813901,17z/data=!3m1!4b1!4m5!3m4!1s0x874d9a88ce8472b7:0x72e7d01227cf554b!8m2!3d40.2750825!4d-111.6813901"
California Pizza Kitchen,800 Boylston St,BOSTON,MA,02199-8025,6172470888.0,"https://www.google.com/maps/place/California+Pizza+Kitchen+at+Prudential/@42.34731,-71.080086,17z/data=!3m1!4b1!4m5!3m4!1s0x89e37a0fb3130c95:0x184427fde83c1955!8m2!3d42.34731!4d-71.080086"
California Pizza Kitchen,870 Briarwood Cir,ANN ARBOR,MI,48108-1616,7342226320.0,"https://www.google.com/maps/place/California+Pizza+Kitchen+at+Briarwood/@42.24064,-83.744902,17z/data=!3m1!4b1!4m5!3m4!1s0x883cafea929a31f3:0xdfa7610733138db4!8m2!3d42.24064!4d-83.744902"
California Pizza Kitchen,925 Blossom Hill Rd,SAN JOSE,CA,95123-1253,4082257188.0,"https://www.google.com/maps/place/California+Pizza+Kitchen+at+Oakridge+Mall/@37.2874023,-121.9576988,12z/data=!3m1!5s0x808e33d66c49e96d:0x7edf0a3a4c189d1c!4m8!1m2!2m1!1sCalifornia+Pizza+Kitchen+925+Blossom+Hill+Rd+SAN+JOSE+CA+95123-1253!3m4!1s0x808e33d5e09d498d:0x2afc5004714a4da3!8m2!3d37.251167!4d-121.8619484?hl=en"
California Pizza Kitchen,9301 Tampa Ave,NORTHRIDGE,CA,91324-2504,8187015035.0,"https://www.google.com/maps/place/California+Pizza+Kitchen+at+Northridge/@34.2402011,-118.5553191,17z/data=!3m1!4b1!4m5!3m4!1s0x80c29b74b0f5b55f:0xd686cfea5a8a37d7!8m2!3d34.2402011!4d-118.5553191"
California Pizza Kitchen,1900 Hughes Landing Blvd,THE WOODLANDS,TX,77380-3794,8327914900.0,"https://www.google.com/maps/place/California+Pizza+Kitchen+at+Woodlands/@30.170721,-95.471274,17z/data=!3m1!4b1!4m5!3m4!1s0x864736cfd98ff8e9:0xb3146fd091b1105d!8m2!3d30.170721!4d-95.471274"
California Pizza Kitchen,192 N Cattlemen Rd,SARASOTA,FL,34243-4756,9412036966.0,"https://www.google.com/maps/place/California+Pizza+Kitchen+at+Sarasota/@27.3852087,-82.4558544,17z/data=!3m1!4b1!4m5!3m4!1s0x88c338dc54c87ff7:0x8518135c8928ea4e!8m2!3d27.3852087!4d-82.4558544"
California Pizza Kitchen,91-5431 Kapolei Pkwy,KAPOLEI,HI,96707-5004,8088922996.0,"https://www.google.com/maps/place/California+Pizza+Kitchen+at+Kapolei/@21.3334231,-158.0501581,17z/data=!3m1!4b1!4m5!3m4!1s0x7c0063611f2afc79:0xffccd0a56abaa19a!8m2!3d21.3334231!4d-158.0501581"
California Pizza Kitchen,95-1249 Meheula Pkwy,MILILANI,HI,96789-1779,8083793650.0,"https://www.google.com/maps/place/California+Pizza+Kitchen+at+Mililani/@21.453744,-158.006538,17z/data=!3m1!4b1!4m5!3m4!1s0x7c00670f28fbe079:0x4ef2f000bcd27fbc!8m2!3d21.453744!4d-158.006538"
California Pizza Kitchen,4712 River City Dr,JACKSONVILLE,FL,32246-7440,9044210179.0,"https://www.google.com/maps/place/California+Pizza+Kitchen+at+Jacksonville/@30.257838,-81.525781,17z/data=!3m1!4b1!4m5!3m4!1s0x88e5b550c8d15465:0x55b81d33255c6112!8m2!3d30.257838!4d-81.525781"
California Pizza Kitchen,250 Granite St,BRAINTREE,MA,02184-2806,7816026149.0,"https://www.google.com/maps/place/California+Pizza+Kitchen+at+South+Shore+Mall/@42.2217074,-71.0229915,17z/data=!3m1!4b1!4m5!3m4!1s0x89e37d3dfc14dd9d:0x695d43f1d354bf16!8m2!3d42.2217074!4d-71.0229915"
California Pizza Kitchen,6227 S State St,MURRAY,UT,84107-7698,8012901124.0,"https://www.google.com/maps/place/California+Pizza+Kitchen+at+Fashion+Place/@40.635295,-111.887171,17z/data=!3m1!4b1!4m5!3m4!1s0x875289bdaf10643f:0x142d2661b1a139a3!8m2!3d40.635295!4d-111.887171"
California Pizza Kitchen,18601 Airport Way,SANTA ANA,CA,92707-5209,9492526125.0,"https://www.google.com/maps/place/California+Pizza+Kitchen/@33.6807542,-117.8607761,17z/data=!3m1!4b1!4m5!3m4!1s0x80dcdeee74864531:0x4f71848e9ab55cca!8m2!3d33.6807542!4d-117.8607761"
California Pizza Kitchen,1800 Galleria Blvd,FRANKLIN,TN,37064,6156148115.0,"https://www.google.com/maps/place/California+Pizza+Kitchen+at+CoolSprings+Galleria/@35.957009,-86.814146,17z/data=!3m1!4b1!4m5!3m4!1s0x886479a49a25dd15:0xc7c826aabe57b26d!8m2!3d35.957009!4d-86.814146"
California Pizza Kitchen,2500 East 2Nd St,RENO,NV,89595,7756863904.0,"https://www.google.com/maps/place/California+Pizza+Kitchen/@39.5237233,-119.7798786,17z/data=!4m5!3m4!1s0x80993f4534a09705:0x97a12e051ff8176b!8m2!3d39.5237192!4d-119.7776899?hl=en"
California Pizza Kitchen,One Airport Dr,OAKLAND,CA,94621,5105633202.0,"https://www.google.com/maps/place/Oakland+International+Airport/@37.7125689,-122.2197428,17z/data=!3m1!4b1!4m5!3m4!1s0x808f845402c0a641:0xb0630c0f03017460!8m2!3d37.7125689!4d-122.2197428"
California Pizza Kitchen,300 Rodgers Blvd,HONOLULU,HI,96819,8088362566.0,"https://www.google.com/maps/place/California+Pizza+Kitchen/@21.3325784,-157.9216159,17z/data=!3m1!4b1!4m5!3m4!1s0x7c006fa66fe6a215:0xff85ae85c2aa9b71!8m2!3d21.3325784!4d-157.9216159"
California Pizza Kitchen,3786 Las Vegas Blvd S,LAS VEGAS,NV,89109-4375,7027490180.0,"https://www.google.com/maps/place/California+Pizza+Kitchen+at+The+Park/@36.1032363,-115.1774517,17z/data=!4m5!3m4!1s0x80c8c5cd2ba373a9:0x1b6c68ac0dfa704e!8m2!3d36.103232!4d-115.175263?hl=en"
California Pizza Kitchen,1150 Market St,LYNNFIELD,MA,01940-4050,7814064015.0,"https://www.google.com/maps/place/California+Pizza+Kitchen+at+MarketStreet+Lynnfield/@42.517451,-71.035305,17z/data=!3m1!4b1!4m5!3m4!1s0x89e30d3ebefb1fef:0xb256ae13ce185b4a!8m2!3d42.517451!4d-71.035305"
California Pizza Kitchen,200 E Via Rancho Pkwy,ESCONDIDO,CA,92025-8007,7605949490.0,"https://www.google.com/maps/place/California+Pizza+Kitchen+at+Escondido/@33.0705181,-117.0649188,17z/data=!3m1!4b1!4m5!3m4!1s0x80dbf158632589f1:0xcf80c3f585d060d4!8m2!3d33.0705181!4d-117.0649188"
California Pizza Kitchen,10250 Santa Monica Blvd,LOS ANGELES,CA,90067-6501,4243631235.0,"https://www.google.com/maps/place/California+Pizza+Kitchen+at+Westfield+Century+City/@34.0590031,-118.418866,17z/data=!3m1!4b1!4m5!3m4!1s0x80c2bb8c8aedd1cf:0x5acfc461f5c5eff7!8m2!3d34.0590031!4d-118.418866"
California Pizza Kitchen,3535 Monroe St,SANTA CLARA,CA,95051-7712,4087036070.0,"https://www.google.com/maps/place/California+Pizza+Kitchen+at+Santa+Clara/@37.367311,-121.99346,17z/data=!3m1!4b1!4m5!3m4!1s0x808fb60040949297:0x89b8e5e1acaf5acb!8m2!3d37.367311!4d-121.99346"
California Pizza Kitchen,1800 Galleria Boulevard Coolsprings Galleria,FRANKLIN,TN,37064,6156148115.0,"https://www.google.com/maps/place/California+Pizza+Kitchen+at+CoolSprings+Galleria/@35.957009,-86.814146,17z/data=!3m1!4b1!4m5!3m4!1s0x886479a49a25dd15:0xc7c826aabe57b26d!8m2!3d35.957009!4d-86.814146"
California Pizza Kitchen,3665 North Harbor Dr,SAN DIEGO,CA,92101,6192315100.0,"https://www.google.com/maps/place/California+Pizza+Kitchen/@32.7331938,-117.2012425,17z/data=!3m1!4b1!4m5!3m4!1s0x80deab0408c4e29b:0x356c4a1c4d620adf!8m2!3d32.7331938!4d-117.2012425"
