Company Name,Address 1,City,State,Zip,Phone,Google Link,Company Name Processed,Status
Fox's Pizza Den,100 S Market St,CARMICHAELS,PA,15320-1232,7249662908.0,"https://www.google.com/maps/place/Fox's+Pizza+Den/@39.8969444,-79.9747222,17z/data=!3m1!4b1!4m5!3m4!1s0x88350ce7e846cbeb:0xdf53772c54407592!8m2!3d39.8969444!4d-79.9747222",foxs_pizza_den,
Fox's Pizza Den,400 E Main St,KINGWOOD,WV,26537-1702,3043290987.0,"https://www.google.com/maps/place/Fox's+Pizza+Den+of+Kingwood/@39.4697669,-79.6742691,17z/data=!3m1!4b1!4m5!3m4!1s0x884aa105783076f9:0x71f3a729614d9a26!8m2!3d39.4697669!4d-79.6742691",foxs_pizza_den,
Fox's Pizza Den,555 Main St,RIMERSBURG,PA,16248,8144733399.0,"https://www.google.com/maps/place/Fox's+Pizza+Den/@41.0417713,-79.5029597,17z/data=!3m1!4b1!4m5!3m4!1s0x88334ed17526d015:0x81ace86929e73235!8m2!3d41.0417713!4d-79.5029597",foxs_pizza_den,
Fox's Pizza Den,104 University Pkwy,JOHNSON CITY,TN,37604-7349,4239260065.0,"https://www.google.com/maps/place/Fox's+Pizza+Den/@36.3073043,-82.343227,17z/data=!3m1!4b1!4m5!3m4!1s0x885a7c58f760d9fb:0x2b2552c8fd8871d1!8m2!3d36.3073043!4d-82.343227",foxs_pizza_den,
Fox's Pizza Den,309 South Main St,PHILIPPI,WV,26416,3044575000.0,"https://www.google.com/maps/place/Fox's+Pizza+Den/@39.1461876,-80.0352334,17z/data=!3m1!4b1!4m5!3m4!1s0x884af424836608c1:0x45345896ba1c7605!8m2!3d39.1461876!4d-80.0352334",foxs_pizza_den,
Fox's Pizza Den,11 Crothers Dr,TALLULAH,LA,71282-5509,3185746393.0,"https://www.google.com/maps/place/Fox's+Pizza+Den/@32.3936725,-91.1828411,17z/data=!3m1!4b1!4m5!3m4!1s0x86292afae830b413:0xc0f8ee19a246c3fc!8m2!3d32.3936725!4d-91.1828411",foxs_pizza_den,
Fox's Pizza Den,121 W Main St,BALTIC,OH,43804,3308973697.0,"https://www.google.com/maps/place/Fox's+Pizza+Den/@40.4399916,-81.7029782,17z/data=!3m1!4b1!4m5!3m4!1s0x88370f68706e55c9:0xaa1cd40d184f3785!8m2!3d40.4399916!4d-81.7029782",foxs_pizza_den,
Fox's Pizza Den,1000 2nd St,CRESSON,PA,16630-1177,8148862000.0,"https://www.google.com/maps/place/Fox's+Pizza+Den/@40.4607196,-78.5914783,17z/data=!3m1!4b1!4m5!3m4!1s0x89cb8e024cf384eb:0xe6f374ef9b5c62b3!8m2!3d40.4607196!4d-78.5914783",foxs_pizza_den,
Fox's Pizza Den,1233 Liberty St,FRANKLIN,PA,16323-1359,8144322625.0,"https://www.google.com/maps/place/Fox's+Pizza+Den/@41.3973579,-79.829551,17z/data=!3m1!4b1!4m5!3m4!1s0x88331ea82a3acfe7:0x2dbe610a511fdd39!8m2!3d41.3973579!4d-79.829551",foxs_pizza_den,
Fox's Pizza Den,1233 N Eastman Rd,KINGSPORT,TN,37664-3174,4232300070.0,"https://www.google.com/maps/place/Fox's+Pizza+Den/@36.531051,-82.527471,17z/data=!3m1!4b1!4m5!3m4!1s0x885a8d71f369720d:0xad02148d584137e0!8m2!3d36.531051!4d-82.527471",foxs_pizza_den,
Fox's Pizza Den,125 North Plz,APOLLO,PA,15613-1352,7244783603.0,"https://www.google.com/maps/place/Fox's+Pizza+Den/@40.582278,-79.5665559,17z/data=!3m1!4b1!4m5!3m4!1s0x8834ba0c030c1847:0x298983aad71eed7!8m2!3d40.582278!4d-79.5665559",foxs_pizza_den,
Fox's Pizza Den,12898 Beadle Lake Rd,BATTLE CREEK,MI,49014-7571,2699799869.0,"https://www.google.com/maps/place/Fox%E2%80%99s+Pizza+Den/@42.2595038,-85.1488101,17z/data=!3m1!4b1!4m5!3m4!1s0x8817ee531e0310e7:0xfd635282d1b7e5ec!8m2!3d42.2595038!4d-85.1488101",foxs_pizza_den,
Fox's Pizza Den,1140 Frances St,JOHNSTOWN,PA,15904-3023,8142629300.0,"https://www.google.com/maps/place/Fox's+Pizza+Den/@40.2723128,-78.8564892,17z/data=!3m1!4b1!4m5!3m4!1s0x89cb1041ccb60c65:0xd781decaf9dcc93c!8m2!3d40.2723128!4d-78.8564892",foxs_pizza_den,
Fox's Pizza Den,136 S Grant Ave,KITTANNING,PA,16201-1450,7245433697.0,"https://www.google.com/maps/place/Fox's+Pizza+Den/@40.8140447,-79.5159039,17z/data=!3m1!4b1!4m5!3m4!1s0x883357cdb6c9d79f:0x19ea98dc58e6db57!8m2!3d40.8140447!4d-79.5159039",foxs_pizza_den,
Fox's Pizza Den,15 Main St,RUTLAND,OH,45775,7407427405.0,"https://www.google.com/maps/place/Fox's+Pizza+Den/@39.0456589,-82.1308654,17z/data=!3m1!4b1!4m5!3m4!1s0x8848874a807e2e27:0xbb058f628ab2b10c!8m2!3d39.0456589!4d-82.1308654",foxs_pizza_den,
Fox's Pizza Den,1500 Radford Rd,PITTSBURGH,PA,15227-1519,4128816450.0,"https://www.google.com/maps/place/Fox's+Pizza+Den/@40.3642315,-79.9671586,17z/data=!3m1!4b1!4m5!3m4!1s0x8834f081196de64f:0x6444b36a23f0ce79!8m2!3d40.3642315!4d-79.9671586",foxs_pizza_den,
Fox's Pizza Den,104 Church St,TURTLE CREEK,PA,15145-1902,4128239960.0,"https://www.google.com/maps/place/Fox's+Pizza+Den/@40.4052608,-79.8261177,17z/data=!3m1!4b1!4m5!3m4!1s0x8834e94784d6aa71:0x1bdef87d3479200e!8m2!3d40.4052608!4d-79.8261177",foxs_pizza_den,
Fox's Pizza Den,182 Lincoln Ave,VANDERGRIFT,PA,15690-1210,7245683003.0,"https://www.google.com/maps/place/Fox's+Pizza+Den/@40.6034191,-79.5690287,17z/data=!4m5!3m4!1s0x8834ba7c3d95710d:0xb0adfd61a308861d!8m2!3d40.603415!4d-79.56684?hl=en",foxs_pizza_den,
Fox's Pizza Den,205 S Main St,DAVIDSVILLE,PA,15928-8320,8144794411.0,"https://www.google.com/maps/place/Fox's+Pizza+Den/@40.2255192,-78.9377529,17z/data=!3m1!4b1!4m5!3m4!1s0x89cb197860583573:0x37b67dd3b32f7e66!8m2!3d40.2255192!4d-78.9377529",foxs_pizza_den,
Fox's Pizza Den,206 E Main St,SYKESVILLE,PA,15865-1302,8148947777.0,"https://www.google.com/maps/place/Fox's+Pizza+Den/@41.0520185,-78.8184726,17z/data=!3m1!4b1!4m5!3m4!1s0x89cc8d4bd352f77f:0xe12c1962b7ba274a!8m2!3d41.0520185!4d-78.8184726",foxs_pizza_den,
Fox's Pizza Den,212 E Main St,SOMERSET,PA,15501-2052,8144852901.0,"https://www.google.com/maps/place/Fox's+Pizza+Den+Somerset/@40.0081361,-79.0759683,17z/data=!3m1!4b1!4m5!3m4!1s0x89cadc457dda5329:0xaea9eb3d6d09bb1e!8m2!3d40.0081361!4d-79.0759683",foxs_pizza_den,
Fox's Pizza Den,214 Market St,LEECHBURG,PA,15656-1370,7248455581.0,"https://www.google.com/maps/place/Fox's+Pizza+Den/@40.6262477,-79.6050538,17z/data=!3m1!4b1!4m5!3m4!1s0x8834bae1e2290227:0xc04485be024dded5!8m2!3d40.6262477!4d-79.6050538",foxs_pizza_den,
Fox's Pizza Den,224 Parkhill Dr,JOHNSTOWN,PA,15945-1142,8145352456.0,"https://www.google.com/maps/place/Fox's+Pizza+Den/@40.3601093,-78.8730519,17z/data=!4m5!3m4!1s0x89cb123141320f89:0xfa433fadb97c3bad!8m2!3d40.3601052!4d-78.8708632?hl=en",foxs_pizza_den,
Fox's Pizza Den,144 N Broad St,RIDGWAY,PA,15853-1047,8147762189.0,"https://www.google.com/maps/place/Fox's+Pizza+Den/@41.4246123,-78.7309541,17z/data=!3m1!4b1!4m5!3m4!1s0x89cd014037f22d63:0x10d83aaf3048215e!8m2!3d41.4246123!4d-78.7309541",foxs_pizza_den,
Fox's Pizza Den,567 S Mineral St,KEYSER,WV,26726-2924,3047881149.0,"https://www.google.com/maps/place/Fox's+Pizza+Den/@39.4320678,-78.986066,17z/data=!3m1!4b1!4m5!3m4!1s0x89b56045e1a72e79:0x8c0e473936afd96b!8m2!3d39.4320678!4d-78.986066",foxs_pizza_den,
Fox's Pizza Den,2374 Golden Mile Hwy,PITTSBURGH,PA,15239-2710,7243273697.0,"https://www.google.com/maps/place/Fox's+Pizza+Den+Plum+Boro/@40.4627817,-79.7046414,17z/data=!3m1!4b1!4m5!3m4!1s0x8834c05000aa8161:0x64b3765511db0dca!8m2!3d40.4627817!4d-79.7046414",foxs_pizza_den,
Fox's Pizza Den,237 Depot St,SAINT MARYS,PA,15857,8147811555.0,"https://www.google.com/maps/place/Fox's+Pizza+Den/@41.426881,-78.5601,17z/data=!3m1!4b1!4m5!3m4!1s0x89cdac021ebc840f:0xbd941d43e565f3d6!8m2!3d41.426881!4d-78.5601",foxs_pizza_den,
Fox's Pizza Den,259 N 3rd St,OAKLAND,MD,21550-1337,3013343212.0,"https://www.google.com/maps/place/Fox's+Pizza+Den/@39.4147511,-79.4029325,17z/data=!3m1!4b1!4m5!3m4!1s0x884aac9fffefc013:0x7ea6a6cb05321ae6!8m2!3d39.4147511!4d-79.4029325",foxs_pizza_den,
Fox's Pizza Den,1 Broadway St,REYNOLDSVILLE,PA,15851-1079,8146122720.0,"https://www.google.com/maps/place/Fox's+Pizza+Den+of+Reynoldsville/@41.1005595,-78.8938972,17z/data=!3m1!4b1!4m5!3m4!1s0x89ccecf9c449db45:0x226deaf7f8abab72!8m2!3d41.1005595!4d-78.8938972",foxs_pizza_den,
Fox's Pizza Den,102 Holt Collier Dr,VICKSBURG,MS,39183-4402,6016369999.0,"https://www.google.com/maps/place/Fox's+Pizza+Den/@32.3609595,-90.8325917,17z/data=!4m5!3m4!1s0x8628e027f1466223:0xebeedd573be2847!8m2!3d32.360955!4d-90.830403?hl=en",foxs_pizza_den,
Fox's Pizza Den,100 Main St,SMITHFIELD,PA,15478,7245691650.0,"https://www.google.com/maps/place/Fox's+Pizza+Den/@39.8018499,-79.8107976,17z/data=!3m1!4b1!4m5!3m4!1s0x88356b94575b8eb1:0x2c871d78e867a480!8m2!3d39.8018499!4d-79.8107976",foxs_pizza_den,
Fox's Pizza Den,2971 Monroe Hwy,BOGART,GA,30622-4500,6786610220.0,"https://www.google.com/maps/place/Fox's+Pizza+Den/@33.9179001,-83.5308939,17z/data=!3m1!4b1!4m5!3m4!1s0x88f674405ff0b873:0xb715e8aa5d6b7623!8m2!3d33.9179001!4d-83.5308939",foxs_pizza_den,
Fox's Pizza Den,2807 Leechburg Rd,LOWER BURRELL,PA,15068-2526,7243343697.0,"https://www.google.com/maps/place/Fox's+Pizza+Den/@40.5919347,-79.7302944,17z/data=!3m1!4b1!4m5!3m4!1s0x8834bdf075c12c53:0xf84550d0aa1548c5!8m2!3d40.5919347!4d-79.7302944",foxs_pizza_den,
Fox's Pizza Den,94 Fairmont Ave,FAIRMONT,WV,26554-2814,3043670000.0,"https://www.google.com/maps/place/Fox's+Pizza+Den/@39.4827036,-80.1459365,17z/data=!3m1!4b1!4m5!3m4!1s0x884a7c7def5df87d:0x93249c7c272c0525!8m2!3d39.4827036!4d-80.1459365",foxs_pizza_den,
Fox's Pizza Den,10040 Highway 63 S,BONO,AR,72416-8669,8702689797.0,"https://www.google.com/maps/place/Fox's+Pizza+Den/@35.8950742,-90.7949935,17z/data=!3m1!4b1!4m5!3m4!1s0x87d42774150beca1:0x49c1b97f1b82f633!8m2!3d35.8950742!4d-90.7949935",foxs_pizza_den,
Fox's Pizza Den,9221 Coors Blvd NW,ALBUQUERQUE,NM,87114-4003,5058998444.0,"https://www.google.com/maps/place/Fox's+Pizza+Den+Albuquerque/@35.182521,-106.668145,17z/data=!3m1!4b1!4m5!3m4!1s0x8722719fa6cf118f:0xe190d3953950dc07!8m2!3d35.182521!4d-106.668145",foxs_pizza_den,
Fox's Pizza Den,207 Hampton Ave,PUNXSUTAWNEY,PA,15767-2133,8146185653.0,"https://www.google.com/maps/place/Fox's+Pizza+Den/@40.9460552,-78.9688163,17z/data=!3m1!4b1!4m5!3m4!1s0x89cc970410948a39:0x7491bf1be518c336!8m2!3d40.9460552!4d-78.9688163",foxs_pizza_den,
Fox's Pizza Den,1121 Bigler Ave,CLEARFIELD,PA,16830-2739,8147656455.0,"https://www.google.com/maps/place/Fox's+Pizza+Den+-+Clearfield/@41.0267105,-78.4229507,17z/data=!3m1!4b1!4m5!3m4!1s0x89cc427b48d9f82b:0x5d3de7272f1f63e5!8m2!3d41.0267105!4d-78.4229507",foxs_pizza_den,
Fox's Pizza Den,307 S US Highway 287,ELKHART,TX,75839-6732,9037640300.0,"https://www.google.com/maps/place/Fox's+Pizza+Den/@31.6259885,-95.571795,17z/data=!3m1!4b1!4m5!3m4!1s0x864870bbf2d50303:0xcceba592e646cd9e!8m2!3d31.6259885!4d-95.571795",foxs_pizza_den,
Fox's Pizza Den,120 S Main St,MOOREFIELD,WV,26836-1102,3045382424.0,"https://www.google.com/maps/place/Fox's+Pizza+Den/@39.0614619,-78.96989,17z/data=!3m1!4b1!4m5!3m4!1s0x89b514340d26665d:0x81a2b6acd863c77a!8m2!3d39.0614619!4d-78.96989",foxs_pizza_den,
Fox's Pizza Den,3109 University Ave,MORGANTOWN,WV,26505-3205,3045983697.0,"https://www.google.com/maps/place/Fox's+Pizza+Den/@39.6541442,-79.9703793,17z/data=!3m1!4b1!4m5!3m4!1s0x88357ba3ef15fae5:0x14666e58e1ee8478!8m2!3d39.6541442!4d-79.9703793",foxs_pizza_den,
Fox's Pizza Den,119 Pedigo Rd,MADISONVILLE,TN,37354-4439,4234429511.0,"https://www.google.com/maps/place/Fox's+Pizza+Den/@35.5351695,-84.33995,17z/data=!4m5!3m4!1s0x885e63e9300c6013:0xe42fcae2712fa272!8m2!3d35.5351652!4d-84.3377613?hl=en",foxs_pizza_den,
Fox's Pizza Den,1204 Merchant St,AMBRIDGE,PA,15003-2252,7242663630.0,"https://www.google.com/maps/place/Fox's+Pizza+Den/@40.5948646,-80.2302847,17z/data=!3m1!4b1!4m5!3m4!1s0x883466f8268cbab1:0x9579de7fbdbeaada!8m2!3d40.5948646!4d-80.2302847",foxs_pizza_den,
Fox's Pizza Den,426 Keyser Ave,PETERSBURG,WV,26847-9547,3042574342.0,"https://www.google.com/maps/place/Fox's+Pizza+Den/@39.0010019,-79.1287445,17z/data=!3m1!4b1!4m5!3m4!1s0x89b53b6a1e911775:0xd3ddd990b9828100!8m2!3d39.0010019!4d-79.1287445",foxs_pizza_den,
Fox's Pizza Den,122 N Market St,LIGONIER,PA,15658-1292,7242383733.0,"https://www.google.com/maps/place/Fox's+Pizza+Den/@40.2437752,-79.2367344,17z/data=!3m1!4b1!4m5!3m4!1s0x89cb2f1b2c09ca43:0x675cf9b223a0ccf8!8m2!3d40.2437752!4d-79.2367344",foxs_pizza_den,
Fox's Pizza Den,106 Collinsburg Rd,WEST NEWTON,PA,15089-1112,7248724442.0,"https://www.google.com/maps/place/Fox's+Pizza+Den/@40.2117998,-79.7694479,17z/data=!3m1!4b1!4m5!3m4!1s0x8834e05cb1537057:0x858373a7ce809aee!8m2!3d40.2117998!4d-79.7694479",foxs_pizza_den,
Fox's Pizza Den,128 W Allegheny St,MARTINSBURG,PA,16662-1104,8147933366.0,"https://www.google.com/maps/place/Fox's+Pizza+Den/@40.3122827,-78.326699,17z/data=!3m1!4b1!4m5!3m4!1s0x89cbbf10a4d69ac3:0x36c1cd02f7ec4776!8m2!3d40.3122827!4d-78.326699",foxs_pizza_den,
Fox's Pizza Den,7782 State Route 417,ADDISON,NY,14801-9506,6073594201.0,"https://www.google.com/maps/place/Fox's+Pizza+Den/@42.0884202,-77.2445441,17z/data=!3m1!4b1!4m5!3m4!1s0x89d1cba130cdadab:0x7fdde8d998d934f1!8m2!3d42.0884202!4d-77.2445441",foxs_pizza_den,
Fox's Pizza Den,421 Main St,BENTLEYVILLE,PA,15314-1534,7242394466.0,"https://www.google.com/maps/place/Fox's+Pizza+Den/@40.116148,-80.008827,17z/data=!3m1!4b1!4m5!3m4!1s0x8835040200edb2b5:0xba7202cd1826df7b!8m2!3d40.116148!4d-80.008827",foxs_pizza_den,
Fox's Pizza Den,400 Locust St,STOCKDALE,PA,15483,7249383772.0,"https://www.google.com/maps/place/Fox's+Pizza+Den/@40.0832924,-79.84763,17z/data=!3m1!4b1!4m5!3m4!1s0x88351bc150dd638d:0x8999348a3800071d!8m2!3d40.0832924!4d-79.84763",foxs_pizza_den,
Fox's Pizza Den,407 E 6th Ave,TARENTUM,PA,15084-1903,7242246923.0,"https://www.google.com/maps/place/Fox's+Pizza+Den/@40.6032794,-79.7520639,17z/data=!3m1!4b1!4m5!3m4!1s0x88349617e4668b63:0xb23f36dc06fd1602!8m2!3d40.6032794!4d-79.7520639",foxs_pizza_den,
Fox's Pizza Den,140 Farm Mart Rd,SIDMAN,PA,15955-4919,8144877600.0,"https://www.google.com/maps/place/Fox's+Pizza+Den/@40.3142849,-78.7462758,17z/data=!3m1!4b1!4m5!3m4!1s0x89cb0ead5d2e5663:0xf94fe19a3256b77!8m2!3d40.3142849!4d-78.7462758",foxs_pizza_den,
Fox's Pizza Den,418 Market St,BROWNSVILLE,PA,15417-1755,7247855700.0,"https://www.google.com/maps/place/Fox's+Pizza+Den/@40.0216893,-79.8825416,17z/data=!4m5!3m4!1s0x8835107b86b29d3b:0x5c5d75cdd8c934ff!8m2!3d40.0216852!4d-79.8803529?hl=en",foxs_pizza_den,
Fox's Pizza Den,145 Pittsburgh St,SCOTTDALE,PA,15683-1732,7248873929.0,"https://www.google.com/maps/place/Fox's+Pizza+Den/@40.100908,-79.588115,17z/data=!3m1!4b1!4m5!3m4!1s0x8835266bdbebc08b:0x669a2d557b171661!8m2!3d40.100908!4d-79.588115",foxs_pizza_den,
Fox's Pizza Den,472 N High St,ROMNEY,WV,26757-1435,3048223831.0,"https://www.google.com/maps/place/Fox's+Pizza+Den/@39.3470781,-78.754019,17z/data=!3m1!4b1!4m5!3m4!1s0x89b57bfbebbb24c3:0x3d3349345f6d4fce!8m2!3d39.3470781!4d-78.754019",foxs_pizza_den,
Fox's Pizza Den,425 E Central Ave,TITUSVILLE,PA,16354-1908,8148270369.0,"https://www.google.com/maps/place/Fox's+Pizza+Den/@41.627304,-79.665771,17z/data=!3m1!4b1!4m5!3m4!1s0x8832c35cc9ec2415:0x264e5b43a24bf97e!8m2!3d41.627304!4d-79.665771",foxs_pizza_den,
Fox's Pizza Den,4326 Highway 17,MURRELLS INLET,SC,29576-5022,8433573697.0,"https://www.google.com/maps/place/Fox's+Pizza+Den/@33.556255,-79.0468752,17z/data=!4m5!3m4!1s0x890038c04ab36141:0x7ba5888974ad10cd!8m2!3d33.5562505!4d-79.0446865?hl=en",foxs_pizza_den,
Fox's Pizza Den,4400 Old William Penn Hwy,MONROEVILLE,PA,15146-1480,4126660400.0,"https://www.google.com/maps/place/Fox's+Pizza+Den/@40.4452406,-79.7648453,17z/data=!3m1!4b1!4m5!3m4!1s0x8834ea405bc37331:0x2ed09613589645c4!8m2!3d40.4452406!4d-79.7648453",foxs_pizza_den,
Fox's Pizza Den,1429 Newcastle St,BRUNSWICK,GA,31520-7019,9122654490.0,"https://www.google.com/maps/place/Fox's+Pizza+Downtown/@31.148835,-81.495479,17z/data=!3m1!4b1!4m5!3m4!1s0x88e4d81641cf16b9:0x4e348a1085f08cca!8m2!3d31.148835!4d-81.495479",foxs_pizza_den,
Fox's Pizza Den,2170 W Point Rd,LAGRANGE,GA,30240-4008,7068850005.0,"https://www.google.com/maps/place/Fox's+Pizza+Den/@33.0245149,-85.078139,17z/data=!3m1!4b1!4m5!3m4!1s0x888b56a07722938f:0xe7f3d5e89bb6be6!8m2!3d33.0245149!4d-85.078139",foxs_pizza_den,
Fox's Pizza Den,52 Main St,WESTERNPORT,MD,21562-1408,3013593029.0,"https://www.google.com/maps/place/Fox's+Pizza+Den/@39.4849888,-79.0448063,17z/data=!3m1!4b1!4m5!3m4!1s0x89caa041b2d60d01:0x5abaea726a02e1c8!8m2!3d39.4849888!4d-79.0448063",foxs_pizza_den,
Fox's Pizza Den,34 Sewickley Ave,HERMINIE,PA,15637-1358,7244465211.0,"https://www.google.com/maps/place/Fox's+Pizza+Den/@40.2631539,-79.7183144,17z/data=!3m1!4b1!4m5!3m4!1s0x8834dde752092641:0x7f1f5aa36591f3c5!8m2!3d40.2631539!4d-79.7183144",foxs_pizza_den,
Fox's Pizza Den,6 Bailey Ave,MT WASHINGTON,PA,15211-1702,4123819300.0,"https://www.google.com/maps/place/Fox's+Pizza+Den/@40.4269266,-80.0053046,17z/data=!3m1!4b1!4m5!3m4!1s0x8834f14a5280064b:0xe25e321ef76acb38!8m2!3d40.4269266!4d-80.0053046",foxs_pizza_den,
Fox's Pizza Den,6 Center St,CUBA,NY,14727-1002,5859684000.0,"https://www.google.com/maps/place/Fox's+Pizza+Den/@42.222275,-78.2792722,17z/data=!3m1!4b1!4m5!3m4!1s0x89d214d85f3c9a53:0x144f8a3d40fbaf6a!8m2!3d42.222275!4d-78.2792722",foxs_pizza_den,
Fox's Pizza Den,606 Cedar St,LATROBE,PA,15650-3078,7245397558.0,"https://www.google.com/maps/place/Fox's+Pizza+Den/@40.3093052,-79.3733703,17z/data=!3m1!4b1!4m5!3m4!1s0x89cb32a906fff1d7:0x2a7f20dd8647c8be!8m2!3d40.3093052!4d-79.3733703",foxs_pizza_den,
Fox's Pizza Den,616 E Main St,BERRYVILLE,VA,22611,5409553697.0,"https://www.google.com/maps/place/Fox's+Pizza+Den/@39.1473285,-77.9709833,17z/data=!3m1!4b1!4m5!3m4!1s0x89b5e3ab40535b37:0x22939b35a660eb8b!8m2!3d39.1473285!4d-77.9709833",foxs_pizza_den,
Fox's Pizza Den,6361 Highway 4,WINNSBORO,LA,71295-7176,3184352277.0,"https://www.google.com/maps/place/Fox's+Pizza+Den/@32.1639627,-91.7055292,17z/data=!3m1!4b1!4m5!3m4!1s0x862f057d48e20c03:0x5ee677d61451cb72!8m2!3d32.1639627!4d-91.7055292",foxs_pizza_den,
Fox's Pizza Den,616 S Pike Rd,SARVER,PA,16055-9539,7242953222.0,"https://www.google.com/maps/place/Fox's+Pizza+Den/@40.7022222,-79.7225,17z/data=!3m1!4b1!4m5!3m4!1s0x8834a261e3a02cc7:0x9d5867f041081aa6!8m2!3d40.7022222!4d-79.7225",foxs_pizza_den,
Fox's Pizza Den,616 Salt St,SALTSBURG,PA,15681-1128,7246390388.0,"https://www.google.com/maps/place/Fox's+Pizza+Den/@40.4847535,-79.4505788,17z/data=!3m1!4b1!4m5!3m4!1s0x8834b5f2885e5973:0xd8f8f86f73f84f2f!8m2!3d40.4847535!4d-79.4505788",foxs_pizza_den,
Fox's Pizza Den,662 Centreville Pike,SLIPPERY ROCK,PA,16057-3006,7247943266.0,"https://www.google.com/maps/place/Fox's+Pizza+Den/@41.0502544,-80.0449377,17z/data=!3m1!4b1!4m5!3m4!1s0x883377028099f203:0xb002f36fa952fb09!8m2!3d41.0502544!4d-80.0449377",foxs_pizza_den,
Fox's Pizza Den,716 5th Ave,NEW KENSINGTON,PA,15068-6302,7243393933.0,"https://www.google.com/maps/place/Fox's+Pizza+Den/@40.5630963,-79.764372,17z/data=!3m1!4b1!4m5!3m4!1s0x883495bfbc5c4fe7:0xaa9446173230395!8m2!3d40.5630963!4d-79.764372",foxs_pizza_den,
Fox's Pizza Den,7 S Park Ave,LISBON,OH,44432-1260,3304243820.0,"https://www.google.com/maps/place/Fox's+Pizza+Den/@40.771612,-80.7674591,17z/data=!3m1!4b1!4m5!3m4!1s0x883402e0433d2d4b:0xfb3181d87ca96f47!8m2!3d40.771612!4d-80.7674591",foxs_pizza_den,
Fox's Pizza Den,703 Gardenview Dr,PINE MOUNTAIN,GA,31822,7066632002.0,"https://www.google.com/maps/place/Fox's+Pizza/@32.8539004,-84.8472002,17z/data=!3m1!4b1!4m5!3m4!1s0x88f3515e08c97229:0x5f287d0ae563e4ae!8m2!3d32.8539004!4d-84.8472002",foxs_pizza_den,
Fox's Pizza Den,17601 Old National Pike SW,FROSTBURG,MD,21532-3429,3016871003.0,"https://www.google.com/maps/place/Fox's+Pizza+Den/@39.650738,-78.909981,17z/data=!3m1!4b1!4m5!3m4!1s0x89ca90de7ac46217:0x7b029817cd9ce3da!8m2!3d39.650738!4d-78.909981",foxs_pizza_den,
Fox's Pizza Den,18 N Main St,RITTMAN,OH,44270-1436,3309253000.0,"https://www.google.com/maps/place/Fox's+Pizza+Den/@40.973287,-81.781208,17z/data=!3m1!4b1!4m5!3m4!1s0x883734a728e09f43:0x52d9c2243c16ecd8!8m2!3d40.973287!4d-81.781208",foxs_pizza_den,
Fox's Pizza Den,76 Greensburg St,DELMONT,PA,15626-1416,7244683300.0,"https://www.google.com/maps/place/Fox's+Pizza+Den/@40.4107224,-79.5722484,17z/data=!3m1!4b1!4m5!3m4!1s0x8834c608bab72d9d:0x1299227ce9da88e5!8m2!3d40.4107224!4d-79.5722484",foxs_pizza_den,
Fox's Pizza Den,789 N Church St,MT PLEASANT,PA,15666-9147,7245472220.0,"https://www.google.com/maps/place/Fox's+Pizza+Den/@40.1660447,-79.5435576,17z/data=!3m1!4b1!4m5!3m4!1s0x8834d7e3fb190b7d:0x770d5883e628fb26!8m2!3d40.1660447!4d-79.5435576",foxs_pizza_den,
Fox's Pizza Den,19 N Miami St,WEST MILTON,OH,45383-1831,9376986000.0,"https://www.google.com/maps/place/Fox's+Pizza+Den/@39.9628151,-84.3280859,17z/data=!3m1!4b1!4m5!3m4!1s0x883f83a12ce91743:0x256d9c1a97a34607!8m2!3d39.9628151!4d-84.3280859",foxs_pizza_den,
Fox's Pizza Den,275 Main St,BROOKVILLE,PA,15825-1287,8148497777.0,"https://www.google.com/maps/place/Fox's+Pizza+Den/@41.1603427,-79.0814082,17z/data=!3m1!4b1!4m5!3m4!1s0x89ccc16245d3dfd3:0x19044a8ae5ded0d3!8m2!3d41.1603427!4d-79.0814082",foxs_pizza_den,
Fox's Pizza Den,8011 Mission Gorge Rd,SANTEE,CA,92071-3466,6197494165.0,"https://www.google.com/maps/place/Fox's+Giant+Pizza/@32.8361061,-117.0218246,17z/data=!3m1!4b1!4m5!3m4!1s0x80dbfd7b5e442bb7:0x2db1822d24ffd7c4!8m2!3d32.8361061!4d-117.0218246",foxs_pizza_den,
Fox's Pizza Den,819 Broad Ave,BELLE VERNON,PA,15012-1608,7249294121.0,"https://www.google.com/maps/place/Fox's+Pizza+Den+Belle+Vernon/@40.1323161,-79.8621187,17z/data=!4m5!3m4!1s0x88351c43a30bbd95:0xa1cad7bef56482a8!8m2!3d40.132312!4d-79.85993?hl=en",foxs_pizza_den,
Fox's Pizza Den,2 West St,GALETON,PA,16922-1225,8144358874.0,"https://www.google.com/maps/place/Fox's+Pizza+Den/@41.7714499,-78.6061513,9z/data=!4m8!1m2!2m1!1sFox's+Pizza+Den+2+West+St+GALETON+PA+16922-1225!3m4!1s0x89ce19f9f732de0f:0x8523f59cfdbaf2d7!8m2!3d41.7355069!4d-77.6485564?hl=en",foxs_pizza_den,
Fox's Pizza Den,1 E Dubois Ave,DU BOIS,PA,15801-3111,8143710444.0,"https://www.google.com/maps/place/Fox's+Pizza+Den/@41.1283361,-78.7573889,17z/data=!3m1!4b1!4m5!3m4!1s0x89ccf3fd183d7d0b:0x831b00e199645866!8m2!3d41.1283361!4d-78.7573889",foxs_pizza_den,
Fox's Pizza Den,659 Woodward Ave,MC KEES ROCKS,PA,15136-3117,4123313131.0,"https://www.google.com/maps/place/Fox's+Pizza+Den+of+Stowe+Twp./@40.472714,-80.072728,17z/data=!3m1!4b1!4m5!3m4!1s0x8834f5bf0608a89d:0x95b500a7aa9bfaae!8m2!3d40.472714!4d-80.072728",foxs_pizza_den,
Fox's Pizza Den,8824 State Route 415,CAMPBELL,NY,14821-9308,6075273697.0,"https://www.google.com/maps/place/Fox's+Pizza+Den/@42.2274315,-77.1766349,17z/data=!3m1!4b1!4m5!3m4!1s0x89d04ca37cf9f8cf:0xa187d2791a18d7fb!8m2!3d42.2274315!4d-77.1766349",foxs_pizza_den,
Fox's Pizza Den,200 Swiss Way,ELIZABETH,PA,15037-2073,4127510551.0,"https://www.google.com/maps/place/Fox's+Pizza+Den/@40.2809567,-79.8349969,17z/data=!3m1!4b1!4m5!3m4!1s0x8834e41b7c18c187:0x86bde65e08e9fc9e!8m2!3d40.2809567!4d-79.8349969",foxs_pizza_den,
Fox's Pizza Den,908 Deer Creed Rd,RUSSELLTON,PA,15076,7242653697.0,"https://www.google.com/maps/place/Fox's+Pizza+Den/@40.6082302,-79.8331458,17z/data=!3m1!4b1!4m5!3m4!1s0x8834914a1087c9e5:0xae5e17660935286c!8m2!3d40.6082302!4d-79.8331458",foxs_pizza_den,
Fox's Pizza Den,11600 Blue Gray Trail,BRANDYWINE,WV,26802,3042495136.0,"https://www.google.com/maps/place/Fox's+Pizza+Den/@38.6264022,-79.244361,17z/data=!3m1!4b1!4m5!3m4!1s0x89b4daa5463f4a4f:0xd6c43abe60d7746!8m2!3d38.6264022!4d-79.244361",foxs_pizza_den,
Fox's Pizza Den,1803 Butchershop Rd,MIFFLINTOWN,PA,17059-7282,7174368248.0,"https://www.google.com/maps/place/Fox's+Pizza+Den/@40.585779,-77.3704209,17z/data=!3m1!4b1!4m5!3m4!1s0x89c932aad6f2c82b:0x1a717013816fcfd0!8m2!3d40.585779!4d-77.3704209",foxs_pizza_den,
Fox's Pizza Den,2150 Palomino Rd,DOVER,PA,17315-3669,7173081515.0,"https://www.google.com/maps/place/Fox's+Pizza+Den/@39.9939994,-76.839302,17z/data=!3m1!4b1!4m5!3m4!1s0x89c8f324cd97d585:0xa20bf39be200812f!8m2!3d39.9939994!4d-76.839302",foxs_pizza_den,
Fox's Pizza Den,231 Route 6 W,COUDERSPORT,PA,16915-8465,8142748160.0,"https://www.google.com/maps/place/Fox's+Pizza+Den/@41.7665374,-78.0304689,17z/data=!3m1!4b1!4m5!3m4!1s0x89cdfca8eaafea6b:0x9650a85a31cf2650!8m2!3d41.7665374!4d-78.0304689",foxs_pizza_den,
Fox's Pizza Den,240 Retreat Vlg,SAINT SIMONS ISLAND,GA,31522-2403,9126349806.0,"https://www.google.com/maps/place/Fox's+Pizza+Den/@31.1592718,-81.3912222,17z/data=!3m1!4b1!4m5!3m4!1s0x88e4d082415547d5:0x17929f90c1d59517!8m2!3d31.1592718!4d-81.3912222",foxs_pizza_den,
Fox's Pizza Den,2608 Portage St,WILMORE,PA,15962,8144953030.0,"https://www.google.com/maps/place/Fox's+Pizza+Den/@40.3908371,-78.7136984,17z/data=!3m1!4b1!4m5!3m4!1s0x89cb0b3c999b804b:0x6ea4b4dc77e9f6c4!8m2!3d40.3908371!4d-78.7136984",foxs_pizza_den,
Fox's Pizza Den,26 E Fayette St,UNIONTOWN,PA,15401-4271,7244376500.0,"https://www.google.com/maps/place/Fox's+Pizza,+Subs+%26+More/@39.8977931,-79.7272463,17z/data=!4m5!3m4!1s0x88353e33d9f5bead:0x66e9ee77c60c8840!8m2!3d39.897789!4d-79.7250576?hl=en",foxs_pizza_den,
Fox's Pizza Den,289 N Massanutten St,STRASBURG,VA,22657-2309,5404653332.0,"https://www.google.com/maps/place/Fox's+Pizza+Den/@38.9906283,-78.3581796,17z/data=!3m1!4b1!4m5!3m4!1s0x89b5becbd7fcdc87:0x1df44da83946fa1b!8m2!3d38.9906283!4d-78.3581796",foxs_pizza_den,
Fox's Pizza Den,2828 Elm Hill Pike,NASHVILLE,TN,37214-3772,6152310080.0,"https://www.google.com/maps/place/Fox's+Pizza+Den/@36.1487441,-86.6639947,17z/data=!3m1!4b1!4m5!3m4!1s0x8864695ef9da0dd1:0x8c941e0e70bd5ae7!8m2!3d36.1487441!4d-86.6639947",foxs_pizza_den,
Fox's Pizza Den,301 N Main St,LANCASTER,SC,29720-2131,8032865559.0,"https://www.google.com/maps/place/Fox's+Pizza+Den/@34.7227234,-80.7739377,17z/data=!4m5!3m4!1s0x8855d7af494f54a5:0x7910c82cfa302f0f!8m2!3d34.722719!4d-80.771749?hl=en",foxs_pizza_den,
Fox's Pizza Den,3346 State Route 257,SENECA,PA,16346-2534,8146771233.0,"https://www.google.com/maps/place/Fox's+Pizza+Den/@41.383537,-79.702114,17z/data=!3m1!4b1!4m5!3m4!1s0x8833218433d1e9f7:0x9fc0d12297a96d6d!8m2!3d41.383537!4d-79.702114",foxs_pizza_den,
Fox's Pizza Den,3356 Route 130,HARRISON CITY,PA,15636-1261,7243924907.0,"https://www.google.com/maps/place/Fox's+Pizza+Den/@40.3555148,-79.6514069,17z/data=!3m1!4b1!4m5!3m4!1s0x8834c361caf5cb07:0x83dc5110690f57f3!8m2!3d40.3555148!4d-79.6514069",foxs_pizza_den,
Fox's Pizza Den,41 E 4th St,EMPORIUM,PA,15834-1463,8144863637.0,"https://www.google.com/maps/place/Fox's+Pizza+Den/@41.5115188,-78.2360275,17z/data=!3m1!4b1!4m5!3m4!1s0x89cdc65827eb39cb:0x8e8d79827dc7e81c!8m2!3d41.5115188!4d-78.2360275",foxs_pizza_den,
Fox's Pizza Den,42 N Grant St,MILLERSBURG,OH,44654-1127,3306741369.0,"https://www.google.com/maps/place/Fox's+Pizza+Den/@40.5548403,-81.9210408,17z/data=!3m1!4b1!4m5!3m4!1s0x88376db2a81e4cc1:0x52732099a428674e!8m2!3d40.5548403!4d-81.9210408",foxs_pizza_den,
Fox's Pizza Den,421 the Pkwy,GREER,SC,29650-4522,8648019060.0,"https://www.google.com/maps/place/Fox's+Pizza+Den+Greer/@34.8719742,-82.2563295,17z/data=!3m1!4b1!4m5!3m4!1s0x885787266e2c9a83:0xc8875dfa9f4a1dc6!8m2!3d34.8719742!4d-82.2563295",foxs_pizza_den,
Fox's Pizza Den,133 W Main St,SMETHPORT,PA,16749-1282,8148874188.0,"https://www.google.com/maps/place/Fox's+Pizza+Den/@41.8094167,-78.4429004,17z/data=!3m1!4b1!4m5!3m4!1s0x89cd90274ba5c331:0xf51820c7ce28f744!8m2!3d41.8094167!4d-78.4429004",foxs_pizza_den,
Fox's Pizza Den,407 E South Main St,WAXHAW,NC,28173-6000,7048431439.0,"https://www.google.com/maps/place/Fox's+Pizza+Den/@34.924275,-80.740343,17z/data=!3m1!4b1!4m5!3m4!1s0x88542b945401dca7:0x5cfb6091b31e5214!8m2!3d34.924275!4d-80.740343",foxs_pizza_den,
Fox's Pizza Den,430 Willowbrook Plaza,BELLE VERNON,PA,15012-4039,7243795001.0,"https://www.google.com/maps/place/Fox's+Pizza+Den+Rostraver/@40.1852668,-79.8092901,17z/data=!3m1!4b1!4m5!3m4!1s0x8834e1d13386416d:0xea6658abd062f525!8m2!3d40.1852668!4d-79.8092901",foxs_pizza_den,
Fox's Pizza Den,500 E Main St,POMEROY,OH,45769-1113,7409929040.0,"https://www.google.com/maps/place/Fox's+Pizza+Den/@39.0301415,-82.0241634,17z/data=!3m1!4b1!4m5!3m4!1s0x88488814506fc2a1:0x149994f4e9556a94!8m2!3d39.0301415!4d-82.0241634",foxs_pizza_den,
Fox's Pizza Den,5266 Old Highway 11,HATTIESBURG,MS,39402-7818,6012643690.0,"https://www.google.com/maps/place/Fox's+Pizza+Den/@31.3118867,-89.4112216,17z/data=!4m5!3m4!1s0x889d2088c4f2ebcf:0xabfee7a065fc0619!8m2!3d31.3118821!4d-89.4090329?hl=en",foxs_pizza_den,
Fox's Pizza Den,125 N Main St,CHICORA,PA,16025,7246071117.0,"https://www.google.com/maps/place/Fox's+Pizza+Den/@40.9490234,-79.7423407,17z/data=!3m1!4b1!4m5!3m4!1s0x88335d62e423bb0d:0xa32a78f177fca888!8m2!3d40.9490234!4d-79.7423407",foxs_pizza_den,
Fox's Pizza Den,580 Philadelphia St,INDIANA,PA,15701-3959,7244638500.0,"https://www.google.com/maps/place/Fox's+Pizza+Den/@40.622662,-79.15056,17z/data=!3m1!4b1!4m5!3m4!1s0x89cb5b26b8e2d8d5:0x32a655ca08d5a789!8m2!3d40.622662!4d-79.15056",foxs_pizza_den,
Fox's Pizza Den,620 First St,DELHI,LA,71232-2504,3188788888.0,"https://www.google.com/maps/place/Fox's+Pizza+Den/@32.4572287,-91.4931559,17z/data=!3m1!4b1!4m5!3m4!1s0x862eddc631a7e2c9:0x180202971d20c7!8m2!3d32.4572287!4d-91.4931559",foxs_pizza_den,
Fox's Pizza Den,756 N Main St,FRANKLIN,WV,26807,3043582118.0,"https://www.google.com/maps/place/Fox's+Pizza+Den/@38.6393736,-79.3572021,12z/data=!4m8!1m2!2m1!1sFox's+Pizza+Den+756+N+Main+St+FRANKLIN+WV+26807!3m4!1s0x89b4cd9f4b1a1e65:0xd4fcf5e80fa635c5!8m2!3d38.6521186!4d-79.3299636?hl=en",foxs_pizza_den,
Fox's Pizza Den,750 US Highway 11,TRUSSVILLE,AL,35173-4392,2054673444.0,"https://www.google.com/maps/place/Fox's+Pizza+Den+-+Argo/@33.7025596,-86.5218086,17z/data=!4m5!3m4!1s0x88890d001edcc5b5:0xa0b73f63f4f0ef0f!8m2!3d33.7025552!4d-86.5196199?hl=en",foxs_pizza_den,
Fox's Pizza Den,710 Broadway,PITCAIRN,PA,15140-1508,4123726996.0,"https://www.google.com/maps/place/Foxs+pizza+den/@40.4023365,-79.7770559,17z/data=!4m5!3m4!1s0x8834e9f1b8beefc3:0xda43e07353cd719c!8m2!3d40.4023324!4d-79.7748672?hl=en",foxs_pizza_den,
Fox's Pizza Den,902 Brookline Blvd,BROOKLINE,PA,15226-2106,4128929130.0,"https://www.google.com/maps/place/Fox's+Pizza+Den+of+Brookline/@40.392821,-80.019119,17z/data=!3m1!4b1!4m5!3m4!1s0x8834f7308895ed0f:0xb8deef0453f58b62!8m2!3d40.392821!4d-80.019119",foxs_pizza_den,
Fox's Pizza Den,147 E Church St,SANDERSVILLE,GA,31082-2400,4785521099.0,"https://www.google.com/maps/place/Fox's+Pizza+Den/@32.9816667,-82.8091667,17z/data=!3m1!4b1!4m5!3m4!1s0x88f72eb9d399675f:0xb8457d5dbdb41617!8m2!3d32.9816667!4d-82.8091667",foxs_pizza_den,
Fox's Pizza Den,Rte 36,TYLERSBURG,PA,16361,8147443697.0,"https://www.google.com/maps/place/Fox's+Pizza/@41.3843446,-79.3216819,17z/data=!3m1!4b1!4m5!3m4!1s0x89ccd5b2e7868bd1:0x215a202ffd6d43a!8m2!3d41.3843446!4d-79.3216819",foxs_pizza_den,
Fox's Pizza Den,539 Greenville Rd,MERCER,PA,16137-5019,7246624414.0,"https://www.google.com/maps/place/Lettieri's+~+Fox's+Pizza+of+Mercer/@41.2345201,-80.2448415,17z/data=!4m5!3m4!1s0x8833a30382b98d71:0xf7e180d02df17602!8m2!3d41.2345161!4d-80.2426528?hl=en",foxs_pizza_den,
Fox's Pizza Den,2590 Maplewood Dr,SULPHUR,LA,70663-6106,3375331181.0,"https://www.google.com/maps/place/Fox's+Pizza+Den/@30.2277841,-93.3481288,17z/data=!3m1!4b1!4m5!3m4!1s0x863b8c19c447184b:0xfaca3cad95819864!8m2!3d30.2277841!4d-93.3481288",foxs_pizza_den,
Fox's Pizza Den,52 Main St,PORT ALLEGANY,PA,16743,8146422623.0,"https://www.google.com/maps/place/Fox's+Pizza+Den/@41.812177,-78.280998,17z/data=!3m1!4b1!4m5!3m4!1s0x89cdf2b8175cfc01:0xfc0c64ef250c9b34!8m2!3d41.812177!4d-78.280998",foxs_pizza_den,
Fox's Pizza Den,10858 US Route 422,SHELOCTA,PA,15774-2235,7243543698.0,"https://www.google.com/maps/place/Fox's+Pizza+Den/@40.6731571,-79.3220877,17z/data=!3m1!4b1!4m5!3m4!1s0x89cb524a7b9cfb45:0x6d46a4b8cdf6abb2!8m2!3d40.6731571!4d-79.3220877",foxs_pizza_den,
Fox's Pizza Den,119 White Oak Rd,RURAL VALLEY,PA,16249-3619,7247832369.0,"https://www.google.com/maps/place/Fox's+Pizza+Den/@40.7951327,-79.292576,17z/data=!3m1!4b1!4m5!3m4!1s0x89ccaa1da9581b25:0xb4998c788829b330!8m2!3d40.7951327!4d-79.292576",foxs_pizza_den,
Fox's Pizza Den,6091 Steubenville Pike,MC KEES ROCKS,PA,15136-1336,4127881616.0,"https://www.google.com/maps/place/Fox's+Pizza+Den/@40.4439064,-80.1462165,17z/data=!3m1!4b1!4m5!3m4!1s0x88345926f839727b:0x2e876b9d6115bf34!8m2!3d40.4439064!4d-80.1462165",foxs_pizza_den,
Fox's Pizza Den,200 Fort Pierpont Dr,MORGANTOWN,WV,26508-1326,3047772173.0,"https://www.google.com/maps/place/Fox's+Pizza+Den+-+Cheatlake/@39.6532722,-79.891218,17z/data=!3m1!4b1!4m5!3m4!1s0x883564eebffb0673:0xd9a051b9436c8840!8m2!3d39.6532722!4d-79.891218",foxs_pizza_den,
Fox's Pizza Den,1762 S 5th St,LEESVILLE,LA,71446-5306,3373924949.0,"https://www.google.com/maps/place/Fox's+Pizza+Den/@31.1466283,-93.2645106,17z/data=!3m1!4b1!4m5!3m4!1s0x863a44a8603eee71:0x45b47ddc18fc50b0!8m2!3d31.1466283!4d-93.2645106",foxs_pizza_den,
Fox's Pizza Den,603 South Front Street,ELLISVILLE,MS,39437,6014778881.0,"https://www.google.com/maps/place/Fox's+Pizza+Den/@31.6002988,-89.199849,17z/data=!3m1!4b1!4m5!3m4!1s0x889ccce7d6158557:0x8f1994e70ead13eb!8m2!3d31.6002988!4d-89.199849",foxs_pizza_den,
Fox's Pizza Den,4620 Dick Pond Rd,MYRTLE BEACH,SC,29588-6862,8432943697.0,"https://www.google.com/maps/place/Foxs+Pizza+Den+of+Socastee%2FSurfside+Beach/@33.6707656,-78.9975328,17z/data=!3m1!4b1!4m5!3m4!1s0x89006aa296256a51:0xee91ce0acfc5bbfa!8m2!3d33.6707656!4d-78.9975328",foxs_pizza_den,
Fox's Pizza Den,15808 McMullen Hwy SW,CUMBERLAND,MD,21502-6282,2403627101.0,"https://www.google.com/maps/place/Fox's+Pizza+Den/@39.5784427,-78.8470537,17z/data=!3m1!4b1!4m5!3m4!1s0x89ca9acfb7bbdd27:0x5d281cf1a5fe63c9!8m2!3d39.5784427!4d-78.8470537",foxs_pizza_den,
Fox's Pizza Den,106 W Monticello St,BROOKHAVEN,MS,39601-3305,6018335996.0,"https://www.google.com/maps/place/1905+Featuring+Southern+Ground+Coffee+Bar+%26+Fox's+Pizza+Den/@31.57995,-90.443018,17z/data=!3m1!4b1!4m5!3m4!1s0x8627d9d2e2bcc6b7:0x6fce07e013e4c2b4!8m2!3d31.57995!4d-90.443018",foxs_pizza_den,
Fox's Pizza Den,713 Clinton Pkwy,CLINTON,MS,39056-5245,6017084135.0,"https://www.google.com/maps/place/Fox's+Pizza+Den/@32.347268,-90.3249867,17z/data=!3m1!4b1!4m5!3m4!1s0x86284ac3563a535f:0x6b40ed776caddf8d!8m2!3d32.347268!4d-90.3249867",foxs_pizza_den,
Fox's Pizza Den,1458 Delaware Ave,MCCOMB,MS,39648-3606,6016840600.0,"https://www.google.com/maps/place/Fox's+Pizza+Den/@31.2486698,-90.4719615,17z/data=!3m1!4b1!4m5!3m4!1s0x8627b7c31c12ad6b:0x8e43d3dd5230aa37!8m2!3d31.2486698!4d-90.4719615",foxs_pizza_den,
Fox's Pizza Den,235 E Main St,HENDERSONVILLE,TN,37075-2541,6158223697.0,"https://www.google.com/maps/place/Fox's+Pizza+Den/@36.3065169,-86.6025773,17z/data=!3m1!4b1!4m5!3m4!1s0x88644736b1beff71:0x4dfb94195f1ab57a!8m2!3d36.3065169!4d-86.6025773",foxs_pizza_den,
Fox's Pizza Den,1039 Highway 42,SUMRALL,MS,39482-4478,6017580003.0,"https://www.google.com/maps/place/Fox's+Pizza+Den/@31.4133856,-89.5547523,17z/data=!3m1!4b1!4m5!3m4!1s0x889d3ace88169ecb:0x51831c2773ca6842!8m2!3d31.4133856!4d-89.5547523",foxs_pizza_den,
Fox's Pizza Den,345 Scarlet Rd,KENNETT SQUARE,PA,19348-2230,6104446060.0,"https://www.google.com/maps/place/Fox's+Pizza+Den/@39.8401642,-75.7292702,17z/data=!3m1!4b1!4m5!3m4!1s0x89c6560fd6003a65:0x2957e243e0409ac0!8m2!3d39.8401642!4d-75.7292702",foxs_pizza_den,
Fox's Pizza Den,12244 Frankstown Rd,PITTSBURGH,PA,15235-3404,4127952300.0,"https://www.google.com/maps/place/Fox's+Pizza+Den/@40.4722645,-79.819125,17z/data=!3m1!4b1!4m5!3m4!1s0x8834eb79c3666881:0xd1371168bed78dfe!8m2!3d40.4722645!4d-79.819125",foxs_pizza_den,
Fox's Pizza Den,147 Elmhurst,KYLE,TX,78640-6117,5122683697.0,"https://www.google.com/maps/place/Fox's+Pizza+Den/@30.0002784,-97.8611264,17z/data=!3m1!4b1!4m5!3m4!1s0x865b541a099bab31:0x2e4b417cf4edaea8!8m2!3d30.0002784!4d-97.8611264",foxs_pizza_den,
Fox's Pizza Den,2889 State Route 821,MARIETTA,OH,45750-5321,7403733697.0,"https://www.google.com/maps/place/Fox's+Pizza+Den+And+Gas+Station./@39.482156,-81.4438528,17z/data=!3m1!4b1!4m5!3m4!1s0x8849cde9ed5f52f5:0x2b404781222a12b1!8m2!3d39.482156!4d-81.4438528",foxs_pizza_den,
Fox's Pizza Den,239 South St,FRONT ROYAL,VA,22630-2196,5406352800.0,"https://www.google.com/maps/place/Front+Royal+Fox's+Pizza+Den/@38.911293,-78.190646,17z/data=!3m1!4b1!4m5!3m4!1s0x89b5c42e9925c2a7:0xfb6f51e7771cdbb!8m2!3d38.911293!4d-78.190646",foxs_pizza_den,
Fox's Pizza Den,119 High St,WRIGHTSTOWN,WI,54180-1125,9205320866.0,"https://www.google.com/maps/place/Fox's+Pizza+Den/@44.325963,-88.163222,17z/data=!3m1!4b1!4m5!3m4!1s0x880300a232f1bdc5:0x8e2adca414c312df!8m2!3d44.325963!4d-88.163222",foxs_pizza_den,
Fox's Pizza Den,166 W Main St,PRATTVILLE,AL,36067-3034,3344913690.0,"https://www.google.com/maps/place/Fox's+Pizza+Den/@32.4599993,-86.4751006,17z/data=!3m1!4b1!4m5!3m4!1s0x888e8e41586e6ef1:0x60ed50e94641c918!8m2!3d32.4599993!4d-86.4751006",foxs_pizza_den,
Fox's Pizza Den,4921 State Road 26 E,LAFAYETTE,IN,47905-4608,7658380564.0,"https://www.google.com/maps/place/Fox's+Pizza+Den/@40.4169,-86.811065,17z/data=!3m1!4b1!4m5!3m4!1s0x88131b45505e0037:0x328be5f7b5882e01!8m2!3d40.4169!4d-86.811065",foxs_pizza_den,
Fox's Pizza Den,173 Highway 171,MOSS BLUFF,LA,70611,3379053697.0,"https://www.google.com/maps/place/Fox's+Pizza+Den+of+Moss+Bluff/@30.302093,-93.195817,17z/data=!3m1!4b1!4m5!3m4!1s0x863b84b68123e0e7:0x604c918cce74d2b9!8m2!3d30.302093!4d-93.195817",foxs_pizza_den,
Fox's Pizza Den,3357 Pittsburgh Rd,PERRYOPOLIS,PA,15473,7247368300.0,"https://www.google.com/maps/place/Fox's+Pizza+Den/@40.0813261,-79.7603561,17z/data=!3m1!4b1!4m5!3m4!1s0x883518bf988c491d:0x459a84908216e4cf!8m2!3d40.0813261!4d-79.7603561",foxs_pizza_den,
Fox's Pizza Den,1070 W Main St,PLAINFIELD,IN,46168-9704,3172688558.0,"https://www.google.com/maps/place/Fox's+Pizza+Den/@39.698277,-86.418041,17z/data=!3m1!4b1!4m5!3m4!1s0x886ca4f03b2b8d17:0x84ba23545311bd37!8m2!3d39.698277!4d-86.418041",foxs_pizza_den,
Fox's Pizza Den,2944 National Pike Route 40 East,CHALK HILL,PA,15421,7244374992.0,"https://www.google.com/maps/place/Fox's+Pizza+Den/@39.8439929,-79.619398,17z/data=!3m1!4b1!4m5!3m4!1s0x8835389d9eee3ee5:0x4a50013a8c17b0f9!8m2!3d39.8439929!4d-79.619398",foxs_pizza_den,
Fox's Pizza Den,8 E Main St,CORRY,PA,16407-1924,8146650369.0,"https://www.google.com/maps/place/Fox's+Pizza+Den/@41.920226,-79.639883,17z/data=!3m1!4b1!4m5!3m4!1s0x8832bb521d8aa89f:0x6854b18634a1a4cc!8m2!3d41.920226!4d-79.639883",foxs_pizza_den,
Fox's Pizza Den,2991 Appalachian Highway,PINEVILLE,WV,24874,3047327000.0,"https://www.google.com/maps/place/Cow+Shed+Motel+%26+Restaurant+-+Fox%E2%80%99s+Pizza/@37.6161383,-81.5397443,17z/data=!3m1!4b1!4m8!3m7!1s0x884e572a4dd7c5b3:0xd2089c6012855c3e!5m2!4m1!1i2!8m2!3d37.6161383!4d-81.5397443",foxs_pizza_den,
Fox's Pizza Den,314 Allegheny River Blvd,OAKMONT,PA,15139-1724,4127948317.0,"https://www.google.com/maps/place/Fox's+Pizza+Den/@40.5157702,-79.8428651,17z/data=!3m1!4b1!4m5!3m4!1s0x8834934dda561cd1:0x4674157842bb46d5!8m2!3d40.5157702!4d-79.8428651",foxs_pizza_den,
Fox's Pizza Den,322 Main St,MEYERSDALE,PA,15552-1036,8146347189.0,"https://www.google.com/maps/place/Fox's+Pizza+Den+of+Meyersdale/@39.8149676,-79.0246688,17z/data=!3m1!4b1!4m5!3m4!1s0x89cac0269dae0465:0x24aefd37bf9a0f37!8m2!3d39.8149676!4d-79.0246688",foxs_pizza_den,
Fox's Pizza Den,3589 Brodhead Rd,MONACA,PA,15061-3138,7243710030.0,"https://www.google.com/maps/place/Fox's+Pizza+Den+Center%2FMonaca/@40.6590564,-80.3166047,17z/data=!3m1!4b1!4m5!3m4!1s0x88346f1c145c2a9b:0x30cec14577807fb3!8m2!3d40.6590564!4d-80.3166047",foxs_pizza_den,
Fox's Pizza Den,464 3rd St,BEAVER,PA,15009-2275,7248882535.0,"https://www.google.com/maps/place/Fox's+Pizza/@40.6963123,-80.3028897,17z/data=!3m1!4b1!4m5!3m4!1s0x88346fc165fa0d81:0x58f0811dab132c7a!8m2!3d40.6963123!4d-80.3028897",foxs_pizza_den,
Fox's Pizza Den,1574 Smith Township Road,ATLASBURG,PA,15004,7247016430.0,"https://www.google.com/maps/place/Fox's+Pizza+Den+Burgettstown/@40.3391894,-80.3816394,17z/data=!3m1!4b1!4m5!3m4!1s0x88344939394defff:0x1f07ba450b63ac74!8m2!3d40.3391894!4d-80.3816394",foxs_pizza_den,
Fox's Pizza Den,21 Center Ave N,MADELIA,MN,56062-1427,5076423690.0,"https://www.google.com/maps/place/Fox's+Pizza+Den/@44.0515707,-94.4171048,17z/data=!3m1!4b1!4m5!3m4!1s0x87f4f59f9f439b19:0x266cca95281a10bb!8m2!3d44.0515707!4d-94.4171048",foxs_pizza_den,
Fox's Pizza Den,199 Beechnut St,TRUSSVILLE,AL,35173-1843,2056552851.0,"https://www.google.com/maps/place/Fox's+Pizza+Den+-+Trussville/@33.6155351,-86.6087356,17z/data=!4m5!3m4!1s0x88890d1df3a0de01:0x94c3ceadfb0fbd24!8m2!3d33.6155307!4d-86.6065469?hl=en",foxs_pizza_den,
Fox's Pizza Den,101 E Main St,NEW ALEXANDRIA,PA,15670-3116,7246685241.0,"https://www.google.com/maps/place/Fox's+Pizza/@40.3976107,-79.4210951,17z/data=!3m1!4b1!4m5!3m4!1s0x8834cb794a8e8a0f:0x63a514cbecd6a627!8m2!3d40.3976107!4d-79.4210951",foxs_pizza_den,
Fox's Pizza Den,7 Charleston St,WELLSBORO,PA,16901-1603,5709489180.0,"https://www.google.com/maps/place/Fox's+Pizza+Den+%26+Terry's+Hoagies/@41.7510902,-77.2973369,17z/data=!3m1!4b1!4m5!3m4!1s0x89ce2ea3574c6783:0xb8aeaaad00d8ebd5!8m2!3d41.7510902!4d-77.2973369",foxs_pizza_den,
Fox's Pizza Den,100 Eastbrook Dr,PETAL,MS,39465-6008,6013019369.0,"https://www.google.com/maps/place/Fox's+Pizza+Den/@31.3512241,-89.2306989,17z/data=!3m1!4b1!4m5!3m4!1s0x889cc35f66487af1:0x4c1b35d8ad34eeb4!8m2!3d31.3512241!4d-89.2306989",foxs_pizza_den,
Fox's Pizza Den,1927 S Highway 65 82,LAKE VILLAGE,AR,71653-1684,8702653691.0,"https://www.google.com/maps/place/Fox's+Pizza+Den/@33.3128067,-91.2917489,17z/data=!3m1!4b1!4m5!3m4!1s0x862c0ecd986a2d8b:0x431666a898a1e08!8m2!3d33.3128067!4d-91.2917489",foxs_pizza_den,
Fox's Pizza Den,6565 Whitestown Pkwy,ZIONSVILLE,IN,46077-7621,3177692336.0,"https://www.google.com/maps/place/Fox%E2%80%99s+Pizza/@39.9474529,-86.3442098,17z/data=!3m1!4b1!4m5!3m4!1s0x8814aa84a88b7027:0x334e6851d9e46a97!8m2!3d39.9474529!4d-86.3442098",foxs_pizza_den,
Fox's Pizza Den,1250 Highway 15,WEST MONROE,LA,71291-8569,3186544752.0,"https://www.google.com/maps/place/Fox's+Pizza+Den/@32.5466527,-92.2480349,17z/data=!3m1!4b1!4m5!3m4!1s0x862e480fa1ee43d5:0x2a9e9c325153f3e7!8m2!3d32.5466527!4d-92.2480349",foxs_pizza_den,
Fox's Pizza Den,1644 Valley Rd,BERKELEY SPRINGS,WV,25411-4803,3042588000.0,"https://www.google.com/maps/place/Fox's+Pizza+Den/@39.6051433,-78.2391151,17z/data=!3m1!4b1!4m5!3m4!1s0x89ca12ff94c5291d:0xaf0fae14e2957d82!8m2!3d39.6051433!4d-78.2391151",foxs_pizza_den,
Fox's Pizza Den,114 NE Central Ave,AMITE,LA,70422-2547,9852472405.0,"https://www.google.com/maps/place/Fox's+Pizza+Den/@30.727135,-90.5081003,17z/data=!3m1!4b1!4m5!3m4!1s0x862704bbdcd8c29f:0x821837baf55e4414!8m2!3d30.727135!4d-90.5081003",foxs_pizza_den,
Fox's Pizza Den,316 N Pine St,DERIDDER,LA,70634-3904,3372021895.0,"https://www.google.com/maps/place/Fox's+Pizza+Den+-+DeRidder/@30.8502237,-93.2888001,17z/data=!3m1!4b1!4m5!3m4!1s0x863a4d304c85878d:0x939f59be5d8eca2b!8m2!3d30.8502237!4d-93.2888001",foxs_pizza_den,
Fox's Pizza Den,119 Maxwell Dr,RAYVILLE,LA,71269-5558,3187283130.0,"https://www.google.com/maps/place/Fox's+Pizza+Den+of+Rayville/@32.4591718,-91.7577972,17z/data=!3m1!4b1!4m5!3m4!1s0x862ef960dd9fa505:0x8d0743a03ebc993!8m2!3d32.4591718!4d-91.7577972",foxs_pizza_den,
Fox's Pizza Den,1374 Troy Hawk Run Hwy,PHILIPSBURG,PA,16866-7926,8143420213.0,"https://www.google.com/maps/place/Philipsburg+Pizza+Den/@40.8963146,-78.2232661,17z/data=!3m1!4b1!4m5!3m4!1s0x89cc1407e095af1f:0x8e35c975f28717e7!8m2!3d40.8963146!4d-78.2232661",foxs_pizza_den,
Fox's Pizza Den,339 N Main St,LOGAN,UT,84321-3916,4357923697.0,"https://www.google.com/maps/place/Fox's+Pizza+Den/@41.738025,-111.83553,17z/data=!3m1!4b1!4m5!3m4!1s0x87547dcf428f633f:0xb5564a10dfbc5c42!8m2!3d41.738025!4d-111.83553",foxs_pizza_den,
Fox's Pizza Den,4 Traders Aly,BUCKHANNON,WV,26201-2786,3044727222.0,"https://www.google.com/maps/place/Fox's+Pizza+Den/@38.9930883,-80.2308262,17z/data=!4m5!3m4!1s0x884a53d58599dcaf:0x7bbd7c359600d8e0!8m2!3d38.9930842!4d-80.2286375?hl=en",foxs_pizza_den,
Fox's Pizza Den,300 Broad St,NEW BETHLEHEM,PA,16242,8144575176.0,"https://www.google.com/maps/place/Fox's+Pizza/@41.0013433,-79.3330572,17z/data=!3m1!4b1!4m5!3m4!1s0x89ccb3a0d21523a5:0x7e87b25d7259e039!8m2!3d41.0013433!4d-79.3330572",foxs_pizza_den,
Fox's Pizza Den,1685 N. Coley Rd,TUPELO,MS,38801,6628913697.0,"https://www.google.com/maps/place/Fox%E2%80%99s+Pizza+Den/@34.2813688,-88.7736834,17z/data=!3m1!4b1!4m5!3m4!1s0x88874d2347738263:0xf0ecf2dc53e5b68a!8m2!3d34.2813688!4d-88.7736834",foxs_pizza_den,
Fox's Pizza Den,505 Hansen Ave,BUTLER,PA,16001,7248410369.0,"https://www.google.com/maps/place/Fox's+Pizza+Butler/@40.8571387,-79.9111177,17z/data=!3m1!4b1!4m5!3m4!1s0x883362b64b8dce1f:0x2a1d241c946452b8!8m2!3d40.8571387!4d-79.9111177",foxs_pizza_den,
Fox's Pizza Den,126 East Academy St,SHINGLEHOUSE,PA,16748,8146975200.0,"https://www.google.com/maps/place/Fox's+Pizza/@41.964009,-78.1910185,17z/data=!3m1!4b1!4m5!3m4!1s0x89d2098d8c773611:0xc4d6052a020b5326!8m2!3d41.964009!4d-78.1910185",foxs_pizza_den,
Fox's Pizza Den,3529 State Route 156,SPRING CHURCH,PA,15686,7245964452.0,"https://www.google.com/maps/place/Fox's+Pizza+Den,+Spring+Church,+Pa/@40.607206,-79.442453,17z/data=!3m1!4b1!4m5!3m4!1s0x8834b3635112c9ed:0x7354f571ccd0fb05!8m2!3d40.607206!4d-79.442453",foxs_pizza_den,
Fox's Pizza Den,6858 Pa 711,SEWARD,PA,15954,8144468342.0,"https://www.google.com/maps/place/Fox's+Pizza+Den+of+Seward/@40.4054559,-79.0215958,17z/data=!3m1!4b1!4m5!3m4!1s0x89cb3f2462d3c89d:0xf268bec90bca1146!8m2!3d40.4054559!4d-79.0215958",foxs_pizza_den,
Fox's Pizza Den,300 W Main St,MANCHESTER,GA,31816,7068460200.0,"https://www.google.com/maps/place/Other+Side+Restaurant+Manchester/@32.8536238,-84.616944,17z/data=!3m1!4b1!4m5!3m4!1s0x88f35d33eaa620d7:0x6bd4813f471d9018!8m2!3d32.8536238!4d-84.616944",foxs_pizza_den,
Fox's Pizza Den,444 East Main St,BRADFORD,PA,16701,8143688555.0,"https://www.google.com/maps/place/Fox's+Pizza+Den/@41.9644718,-78.6255311,17z/data=!3m1!4b1!4m5!3m4!1s0x89cd8117c80fd1c5:0xdc13d1f12e5030c1!8m2!3d41.9644718!4d-78.6255311",foxs_pizza_den,
Fox's Pizza Den,538 Midland Ave,MIDLAND,PA,15059,7246604450.0,"https://www.google.com/maps/place/Fox's+Pizza+Midland/@40.6388887,-80.4559216,17z/data=!3m1!4b1!4m5!3m4!1s0x883415ff09216d13:0x8fe51bbe4aa7af74!8m2!3d40.6388887!4d-80.4559216",foxs_pizza_den,
Fox's Pizza Den,501 Market St,EAST LIVERPOOL,OH,43920,3309321122.0,"https://www.google.com/maps/place/Fox's+Pizza+Den/@40.6194872,-80.5799096,17z/data=!3m1!4b1!4m5!3m4!1s0x8834177874a8c71d:0xfe40d16078cba2dd!8m2!3d40.6194872!4d-80.5799096",foxs_pizza_den,
Fox's Pizza Den,418 Sumrall Rd,COLUMBIA,MS,39429-9572,6014440001.0,"https://www.google.com/maps/place/Fox's+Pizza+Den/@31.2459799,-89.8125781,17z/data=!3m1!4b1!4m5!3m4!1s0x889d69cd7ea3e129:0x77f24d576391eaa6!8m2!3d31.2459799!4d-89.8125781",foxs_pizza_den,
Fox's Pizza Den,6055 White Horse Rd,GREENVILLE,SC,29611-3854,8642950262.0,"https://www.google.com/maps/place/Fox's+Pizza+Den/@34.8503839,-82.4500991,17z/data=!3m1!4b1!4m5!3m4!1s0x8858311e4563b043:0x46bc5570a4f73e01!8m2!3d34.8503839!4d-82.4500991",foxs_pizza_den,
Fox's Pizza Den,200 Atlantic Ave,MILLVILLE,DE,19967-6728,3025396900.0,"https://www.google.com/maps/place/Fox's+Pizza+Den/@38.546653,-75.108211,17z/data=!3m1!4b1!4m5!3m4!1s0x89b8ce3529737c69:0x15d3a0828777451d!8m2!3d38.546653!4d-75.108211",foxs_pizza_den,
Fox's Pizza Den,31225 Americana Pkwy,SELBYVILLE,DE,19975-3793,3024363697.0,"https://www.google.com/maps/place/Fox's+Pizza+Restaurant+and+Bar/@38.4695016,-75.1159817,17z/data=!4m5!3m4!1s0x89b8d0e7343fb45f:0xe8a3a19cde1ae213!8m2!3d38.4694974!4d-75.113793?hl=en",foxs_pizza_den,
Fox's Pizza Den,302 W 4th St,DEQUINCY,LA,70633-3404,3377863697.0,"https://www.google.com/maps/place/Fox's+Pizza+Den/@30.3400488,-93.4642324,12z/data=!4m8!1m2!2m1!1sFox's+Pizza+Den+302+W+4th+St+DEQUINCY+LA+70633-3404!3m4!1s0x863beae9db168ccd:0x290adc69d83c8f7d!8m2!3d30.4520545!4d-93.4402561?hl=en",foxs_pizza_den,
Fox's Pizza Den,3931 Dunn Rd,EASTOVER,NC,28312-8533,9103233697.0,"https://www.google.com/maps/place/Fox's+Pizza+Den/@35.0997429,-78.782045,17z/data=!3m1!4b1!4m5!3m4!1s0x89ab73b00ae6d5b3:0x8321ef1d992ea362!8m2!3d35.0997429!4d-78.782045",foxs_pizza_den,
Fox's Pizza Den,5700 Homeville Rd,WEST MIFFLIN,PA,15122-3654,4128966944.0,"https://www.google.com/maps/place/Fox's+Pizza+Den+West+Mifflin/@40.366545,-79.8731785,18z/data=!4m8!1m2!2m1!1sFox's+Pizza+Den+5700+Homeville+Rd+WEST+MIFFLIN+PA+15122-3654!3m4!1s0x8834ef768ae1faf1:0x25d28aa60550086a!8m2!3d40.3663375!4d-79.8716458?hl=en",foxs_pizza_den,
Fox's Pizza Den,5646 Brook Rd,RICHMOND,VA,23227-2273,8045531137.0,"https://www.google.com/maps/place/Fox's+Pizza+Den/@37.6107192,-77.4596721,17z/data=!3m1!4b1!4m5!3m4!1s0x89b1166499f4a957:0x1817f358269b1557!8m2!3d37.6107192!4d-77.4596721",foxs_pizza_den,
Fox's Pizza Den,1104 W High St,EBENSBURG,PA,15931-1735,8144198299.0,"https://www.google.com/maps/place/Fox's+Pizza+Den/@40.4803617,-78.7389523,17z/data=!4m5!3m4!1s0x89cb74052e4e7aef:0xf7680c0301e9a641!8m2!3d40.4803576!4d-78.7367636?hl=en",foxs_pizza_den,
Fox's Pizza Den,1867 Highway 544,CONWAY,SC,29526-8478,8432349900.0,"https://www.google.com/maps/place/Fox's+Pizza+Den/@33.7663622,-79.019435,17z/data=!3m1!4b1!4m5!3m4!1s0x8900134cc982c5e7:0x1b2c274a024b3c11!8m2!3d33.7663622!4d-79.019435",foxs_pizza_den,
Fox's Pizza Den,120 N Broad St,GROVE CITY,PA,16127-1699,7242644995.0,"https://www.google.com/maps/place/Fox's+Pizza+Den/@41.1619222,-80.0853431,17z/data=!3m1!4b1!4m5!3m4!1s0x883375453dbe3f75:0x16143642648bca45!8m2!3d41.1619222!4d-80.0853431",foxs_pizza_den,
Fox's Pizza Den,2296 Brodhead Rd,ALIQUIPPA,PA,15001-4678,7242034762.0,"https://www.google.com/maps/place/Fox's+Pizza+Hopewell/@40.5866173,-80.2591017,17z/data=!3m1!4b1!4m5!3m4!1s0x883467cb5a0d0c81:0x386f0f4832f4ccb1!8m2!3d40.5866173!4d-80.2591017",foxs_pizza_den,
Fox's Pizza Den,7064 Will Clayton Pkwy,HUMBLE,TX,77338-8168,2818520371.0,"https://www.google.com/maps/place/Fox's+Pizza+Den/@29.9823457,-95.2819902,17z/data=!3m1!4b1!4m5!3m4!1s0x8640b3c70cacb957:0xde75c7d47d0a9d27!8m2!3d29.9823457!4d-95.2819902",foxs_pizza_den,
Fox's Pizza Den,517 N Centre St,CUMBERLAND,MD,21502-2102,2403627280.0,"https://www.google.com/maps/place/Fox's+Pizza+Den/@39.6578366,-78.7700598,17z/data=!3m1!4b1!4m5!3m4!1s0x89ca8ec1ddf3abcd:0x8cb5c631cbdbc113!8m2!3d39.6578366!4d-78.7700598",foxs_pizza_den,
Fox's Pizza Den,42303 State Route 7,TUPPERS PLAINS,OH,45783,7406673697.0,"https://www.google.com/maps/place/Fox's+Pizza+Den/@39.1736885,-81.8458053,17z/data=!3m1!4b1!4m5!3m4!1s0x88485d6cea514f09:0xd4daff0e11e1f900!8m2!3d39.1736885!4d-81.8458053",foxs_pizza_den,
Fox's Pizza Den,799 3rd Ave,FREEDOM,PA,15042-1501,7247097545.0,"https://www.google.com/maps/place/Fox's+Pizza+Den/@40.6855861,-80.2544083,17z/data=!3m1!4b1!4m5!3m4!1s0x883465152cb1b815:0x9ce4cb8eb3504e6a!8m2!3d40.6855861!4d-80.2544083",foxs_pizza_den,
Fox's Pizza Den,998 Brodhead Rd,MOON TOWNSHIP,PA,15108-2347,7244573697.0,"https://www.google.com/maps/place/Fox's+Pizza+Den+Moon+Twp./@40.5242154,-80.2238916,17z/data=!3m1!4b1!4m5!3m4!1s0x88345d9880f5bea7:0xc4a5eadfe460dc8b!8m2!3d40.5242154!4d-80.2238916",foxs_pizza_den,
Fox's Pizza Den,3846 State Route 31,DONEGAL,PA,15628,7245933697.0,"https://www.google.com/maps/place/Fox's+Pizza+Den/@40.0979553,-79.3594265,17z/data=!3m1!4b1!4m5!3m4!1s0x89cad4ddf098aa2f:0x6d136e5ca01fb5b0!8m2!3d40.0979553!4d-79.3594265",foxs_pizza_den,
Fox's Pizza Den,9503 Lincoln Hwy,BEDFORD,PA,15522-3763,8143102422.0,"https://www.google.com/maps/place/Fox's+Pizza+Den/@40.0184374,-78.4651973,17z/data=!3m1!4b1!4m5!3m4!1s0x89ca4d7814c5c0c1:0xb8dcbf9eda3f96a9!8m2!3d40.0184374!4d-78.4651973",foxs_pizza_den,
Fox's Pizza Den,641 E Pittsburgh St,GREENSBURG,PA,15601-2634,7242193503.0,"https://www.google.com/maps/place/Fox's+Pizza+Den+Greensburg/@40.3031688,-79.5302055,17z/data=!3m1!4b1!4m5!3m4!1s0x8834d038ee3e1613:0x5fefae2892fc6315!8m2!3d40.3031688!4d-79.5302055",foxs_pizza_den,
Fox's Pizza Den,511 Main St,CLARION,PA,16214-1105,8142267777.0,"https://www.google.com/maps/place/Fox's+Pizza+Den/@41.2147627,-79.3849914,17z/data=!3m1!4b1!4m5!3m4!1s0x89ccccadd0207ff7:0x6ba9b2a5baab64bc!8m2!3d41.2147627!4d-79.3849914",foxs_pizza_den,
Fox's Pizza Den,225 Margaret Ave,JEANNETTE,PA,15644-3081,7245225822.0,"https://www.google.com/maps/place/FOX'S+PIZZA+DEN/@40.3107704,-79.6208075,17z/data=!3m1!4b1!4m5!3m4!1s0x8834db3d94d40005:0x4d24746bb8422671!8m2!3d40.3107704!4d-79.6208075",foxs_pizza_den,
Fox's Pizza Den,779 Beverly Pike,ELKINS,WV,26241-9729,6812985026.0,"https://www.google.com/maps/place/Fox's+Pizza/@38.8908646,-79.8460857,17z/data=!3m1!4b1!4m5!3m4!1s0x884ae21178d901bd:0x24b24de2518d929f!8m2!3d38.8908646!4d-79.8460857",foxs_pizza_den,
Fox's Pizza Den,121 N Pittsburgh St,CONNELLSVILLE,PA,15425-3235,7246202803.0,"https://www.google.com/maps/place/Fox's+Pizza+Den/@40.0184368,-79.5890952,17z/data=!3m1!4b1!4m5!3m4!1s0x8835253c0900e771:0x1f4ef6f806774762!8m2!3d40.0184368!4d-79.5890952",foxs_pizza_den,
Fox's Pizza Den,120 W Allegheny Rd,IMPERIAL,PA,15126-9788,7246952211.0,"https://www.google.com/maps/place/Fox's+Pizza+Den+-+Imperial/@40.4427572,-80.2377509,17z/data=!3m1!4b1!4m5!3m4!1s0x88345b0c9d5ccce5:0x3fb513f2387f35c5!8m2!3d40.4427572!4d-80.2377509",foxs_pizza_den,
Fox's Pizza Den,4810 Old William Penn Hwy,MURRYSVILLE,PA,15632,7245199686.0,"https://www.google.com/maps/place/Fox's+Pizza/@40.4242378,-79.6646014,17z/data=!4m5!3m4!1s0x8834c15ab6ad2499:0xd1d0cfc66667365d!8m2!3d40.4242337!4d-79.6624127?hl=en",foxs_pizza_den,
Fox's Pizza Den,4065 Penn Ave,PITTSBURGH,PA,15224,4126831011.0,"https://www.google.com/maps/place/Fox's+Pizza+Den/@40.4187786,-80.0592055,11z/data=!4m8!1m2!2m1!1sFox's+Pizza+Den+4065+Penn+Ave+PITTSBURGH+PA+15224!3m4!1s0x8834f2492aeea82b:0xfb1a4c57f52ee8ec!8m2!3d40.4656962!4d-79.9555666?hl=en",foxs_pizza_den,
Fox's Pizza Den,207 N. Bay Dr,BAY,AR,72437,8707701996.0,"https://www.google.com/maps/place/Fox's+Pizza+Den/@35.7424187,-90.5671434,17z/data=!3m1!4b1!4m5!3m4!1s0x87d5d3a24d688881:0x305ddc103e68dfa!8m2!3d35.7424187!4d-90.5671434",foxs_pizza_den,
Fox's Pizza Den,10107 Frankfort Hwy,FORT ASHBY,WV,26719,3042984848.0,"https://www.google.com/maps/place/Fox's+Pizza+Den/@39.5047925,-78.7699258,17z/data=!3m1!4b1!4m5!3m4!1s0x89ca83ecc960512f:0xddbf562ee2442ecf!8m2!3d39.5047925!4d-78.7699258",foxs_pizza_den,
Fox's Pizza Den,929 Cook Pkwy,OCEANA,WV,24870,3046826600.0,"https://www.google.com/maps/place/Fox's+Pizza+Den/@37.6918879,-81.6269359,17z/data=!3m1!4b1!4m5!3m4!1s0x884f076f797524d7:0x7231cba9617cb25e!8m2!3d37.6918879!4d-81.6269359",foxs_pizza_den,
Fox's Pizza Den,117 Three Springs Dr,WEIRTON,WV,26062,3047233697.0,"https://www.google.com/maps/place/Fox's+Pizza+Den/@40.4043508,-80.5484459,17z/data=!3m1!4b1!4m5!3m4!1s0x883430abc836e93d:0x9727a58c5e7aa8a8!8m2!3d40.4043508!4d-80.5484459",foxs_pizza_den,
Fox's Pizza Den,11328 Samuel Bowen Blvd,BERLIN,MD,21811,4106001020.0,"https://www.google.com/maps/place/Fox's+Pizza+Restaurant+%26+Bar/@38.3435414,-75.1660566,17z/data=!3m1!4b1!4m5!3m4!1s0x89b927ad2fa75545:0xda738d546921b236!8m2!3d38.3435414!4d-75.1660566",foxs_pizza_den,
Fox's Pizza Den,187 Main St,ELDRED,PA,16731,8142250028.0,"https://www.google.com/maps/place/Fox's+Pizza+Den/@41.9577289,-78.3858398,17z/data=!3m1!4b1!4m5!3m4!1s0x89cd89ff139c9489:0x41374f131e8d54a1!8m2!3d41.9577289!4d-78.3858398",foxs_pizza_den,
Fox's Pizza Den,164 East Market St,BLAIRSVILLE,PA,15717,7244595250.0,"https://www.google.com/maps/place/Fox's+Pizza+Den/@40.4307944,-79.2615669,17z/data=!3m1!4b1!4m5!3m4!1s0x89cb37271f807fe7:0xe769373483bdcb0b!8m2!3d40.4307944!4d-79.2615669",foxs_pizza_den,
