Company Name,Address 1,City,State,Zip,Phone,Google Link,Company Name Processed,Status
Godfather's Pizza,2929 N 204th St,ELKHORN,NE,68022-1201,4022892038.0,"https://www.google.com/maps/place/Godfather's+Pizza/@41.2848648,-96.2338496,17z/data=!3m1!4b1!4m5!3m4!1s0x8793f00bd72587cf:0x36a01c7b5fa28e05!8m2!3d41.2848648!4d-96.2338496",godfathers_pizza,
Godfather's Pizza,100 E Lee Hwy,NEW MARKET,VA,22844-3101,5407408066.0,"https://www.google.com/maps/place/Godfather's+Pizza/@38.6513962,-78.6712729,17z/data=!4m5!3m4!1s0x89b4563262d57a89:0xa99f3b13783006d!8m2!3d38.651392!4d-78.6690842?hl=en",godfathers_pizza,
Godfather's Pizza,1004 Iowa Ave,ONAWA,IA,51040-1545,7124233265.0,"https://www.google.com/maps/place/Godfather's+Pizza/@42.0269525,-96.0975709,17z/data=!3m1!4b1!4m5!3m4!1s0x87923f0fb132b3b3:0x380e0bf870c40920!8m2!3d42.0269525!4d-96.0975709",godfathers_pizza,
Godfather's Pizza,102 E Lincoln Ave,CHANDLER,IN,47610-9525,8129256549.0,"https://www.google.com/maps/place/Godfather's+Pizza/@38.0433057,-87.369517,17z/data=!4m5!3m4!1s0x886e31f1eda36a71:0x5408cc17bd7ce463!8m2!3d38.0433015!4d-87.3673283?hl=en",godfathers_pizza,
Godfather's Pizza,102 W 5th St,BRIDGEPORT,NE,69336-4011,3082620827.0,"https://www.google.com/maps/place/Godfather's+Pizza/@41.6709764,-103.0999196,17z/data=!3m1!4b1!4m5!3m4!1s0x877072398c41511b:0xd9184fb7a5a43a11!8m2!3d41.6709764!4d-103.0999196",godfathers_pizza,
Godfather's Pizza,113 Grand Ave,SPENCER,IA,51301-4222,7122627742.0,"https://www.google.com/maps/place/Godfather's+Pizza/@43.1389693,-95.1447874,17z/data=!3m1!4b1!4m5!3m4!1s0x878cd1550952981d:0x22432c670f38f16d!8m2!3d43.1389693!4d-95.1447874",godfathers_pizza,
Godfather's Pizza,11 W Main St,AUSTIN,IN,47102-1303,8127946610.0,"https://www.google.com/maps/place/Godfather's+Pizza/@38.7417578,-85.804578,17z/data=!3m1!4b1!4m5!3m4!1s0x886bdad448fb30c7:0xefd167b9a6ee9799!8m2!3d38.7417578!4d-85.804578",godfathers_pizza,
Godfather's Pizza,1108 W Wyatt Earp Blvd,DODGE CITY,KS,67801-4143,6202250654.0,"https://www.google.com/maps/place/Godfather's+Pizza+Express/@37.7537079,-100.028862,17z/data=!3m1!4b1!4m5!3m4!1s0x87a71b04e5c80371:0x3f2a73053d9a6c4a!8m2!3d37.7537079!4d-100.028862",godfathers_pizza,
Godfather's Pizza,112 3rd Ave,WINDOM,MN,56101,5078314836.0,"https://www.google.com/maps/place/Godfather's+Pizza/@43.8568458,-95.1164932,17z/data=!3m1!4b1!4m5!3m4!1s0x878b4dba120548ef:0x6e2330c6b0caca5a!8m2!3d43.8568458!4d-95.1164932",godfathers_pizza,
Godfather's Pizza,1215 E 16th St,DUBUQUE,IA,52001-2255,5635575198.0,"https://www.google.com/maps/place/Godfather's+Pizza/@42.512248,-90.6578694,17z/data=!4m5!3m4!1s0x87e32b0afeb2bde3:0xd4ac277aa2852e1d!8m2!3d42.5122441!4d-90.6556807?hl=en",godfathers_pizza,
Godfather's Pizza,12561 Antioch Rd,OVERLAND PARK,KS,66213-1703,9138970505.0,"https://www.google.com/maps/place/Godfather's+Pizza/@38.9000497,-94.6845676,17z/data=!3m1!4b1!4m5!3m4!1s0x87c0ea7ddc775873:0xd047d06b2bb13058!8m2!3d38.9000497!4d-94.6845676",godfathers_pizza,
Godfather's Pizza,132 S 6th St,PLATTSMOUTH,NE,68048-1934,4022964466.0,"https://www.google.com/maps/place/Godfather's+Pizza/@41.010363,-95.886487,17z/data=!3m1!4b1!4m5!3m4!1s0x87947a629e8a53d9:0xb617261b8b5d02fd!8m2!3d41.010363!4d-95.886487",godfathers_pizza,
Godfather's Pizza,125 N Main St,TIMBERVILLE,VA,22853-9524,5408969058.0,"https://www.google.com/maps/place/Godfather's+Pizza/@38.6382893,-78.7735115,17z/data=!3m1!4b1!4m5!3m4!1s0x89b4fa40dfb4e44f:0xbf1388352fc428b1!8m2!3d38.6382893!4d-78.7735115",godfathers_pizza,
Godfather's Pizza,1458 Washington St,BLAIR,NE,68008-2409,4024269696.0,"https://www.google.com/maps/place/Godfather's+Pizza+Express/@41.5439942,-96.1339687,17z/data=!3m1!4b1!4m5!3m4!1s0x8793c6937361c615:0x63150771a241eb13!8m2!3d41.5439942!4d-96.1339687",godfathers_pizza,
Godfather's Pizza,1500 E Reelfoot Ave,UNION CITY,TN,38261-5850,7318851105.0,"https://www.google.com/maps/place/Godfather's+Pizza/@36.4135332,-89.040809,17z/data=!3m1!4b1!4m5!3m4!1s0x88796d4035b54cc1:0x7f59ed624ef1272b!8m2!3d36.4135332!4d-89.040809",godfathers_pizza,
Godfather's Pizza,13854 1st St,BECKER,MN,55308-5801,7632622233.0,"https://www.google.com/maps/place/Godfather's+Pizza/@45.3912171,-93.8735698,17z/data=!3m1!4b1!4m5!3m4!1s0x52b4834e566de60f:0x2bb27a574a297579!8m2!3d45.3912171!4d-93.8735698",godfathers_pizza,
Godfather's Pizza,1600 W Loop 254,RANGER,TX,76470-3211,2546473700.0,"https://www.google.com/maps/place/Godfather's+Pizza+Express/@32.4419061,-98.694945,17z/data=!3m1!4b1!4m5!3m4!1s0x86516d184380e10b:0x66584cf06ee29c3b!8m2!3d32.4419061!4d-98.694945",godfathers_pizza,
Godfather's Pizza,1611 16th St NW,ROCHESTER,MN,55901-0235,5072887515.0,"https://www.google.com/maps/place/Godfather's+Pizza/@44.038948,-92.4866732,17z/data=!3m1!4b1!4m5!3m4!1s0x87f75fa4eda56629:0x98f5ab17e04c9a02!8m2!3d44.038948!4d-92.4866732",godfathers_pizza,
Godfather's Pizza,1549 S Dirksen Pkwy,SPRINGFIELD,IL,62703-2128,2175224886.0,"https://www.google.com/maps/place/Godfather's+Pizza/@39.7860332,-89.6077122,17z/data=!3m1!4b1!4m5!3m4!1s0x88753a47f2265bdd:0xc50e2bec0c181577!8m2!3d39.7860332!4d-89.6077122",godfathers_pizza,
Godfather's Pizza,17 W Main St,PETERSBURG,IN,47567-1254,8123543739.0,"https://www.google.com/maps/place/Godfather's+Pizza/@38.4876157,-87.2845262,17z/data=!3m1!4b1!4m5!3m4!1s0x886e0dc8cfe435c5:0x8f87a9acfa9094dc!8m2!3d38.4876157!4d-87.2845262",godfathers_pizza,
Godfather's Pizza,1703 4th St SE,MASON CITY,IA,50401-4408,6414245133.0,"https://www.google.com/maps/place/Godfather's+Pizza/@43.1477587,-93.1685055,17z/data=!3m1!4b1!4m5!3m4!1s0x87f100b7776a2617:0xbd629d77d713737c!8m2!3d43.1477587!4d-93.1685055",godfathers_pizza,
Godfather's Pizza,15709 Pacific Ave S,TACOMA,WA,98444-4675,2535360173.0,"https://www.google.com/maps/place/Godfather's+Pizza/@47.114493,-122.4343099,17z/data=!3m1!4b1!4m5!3m4!1s0x549103ba8cdc7aa3:0xa9fe0022c9480be7!8m2!3d47.114493!4d-122.4343099",godfathers_pizza,
Godfather's Pizza,1621 W 1st St,CEDAR FALLS,IA,50613-1760,3192777777.0,"https://www.google.com/maps/place/Godfather's+Pizza/@42.5381241,-92.4652786,17z/data=!3m1!4b1!4m5!3m4!1s0x87f000094aa10e43:0xbd57a82d3f8420dc!8m2!3d42.5381241!4d-92.4652786",godfathers_pizza,
Godfather's Pizza,18940 S 68th St,HICKMAN,NE,68372-7086,4027923207.0,"https://www.google.com/maps/place/Godfather's+Pizza/@40.6263236,-96.628807,17z/data=!3m1!4b1!4m5!3m4!1s0x879691c9c887ecf9:0x7456560ce1921b9f!8m2!3d40.6263236!4d-96.628807",godfathers_pizza,
Godfather's Pizza,1900 Mountain Rd,TUCUMCARI,NM,88401-4361,5754611900.0,"https://www.google.com/maps/place/Godfather's+Pizza+Express/@35.1588383,-103.7011312,17z/data=!3m1!4b1!4m5!3m4!1s0x871b57be7e41beb1:0x905d1e5a85057c03!8m2!3d35.1588383!4d-103.7011312",godfathers_pizza,
Godfather's Pizza,195 21st St SW,HURON,SD,57350-3940,6053526925.0,"https://www.google.com/maps/place/Godfather's+Pizza/@44.3418884,-98.2170639,17z/data=!3m1!4b1!4m5!3m4!1s0x8787bea65f57e519:0x5a927a1944123726!8m2!3d44.3418884!4d-98.2170639",godfathers_pizza,
Godfather's Pizza,1890 N Deffer Dr,NIXA,MO,65714,4177254933.0,"https://www.google.com/maps/place/Godfather's+Pizza/@37.083481,-93.299958,17z/data=!3m1!4b1!4m5!3m4!1s0x87cf6581b395e47d:0xe3e672e3dd0254ac!8m2!3d37.083481!4d-93.299958",godfathers_pizza,
Godfather's Pizza,201 Main St,MOUNT VERNON,IL,62864-3622,6182419451.0,"https://www.google.com/maps/place/Godfather's+Pizza+Express/@38.3178838,-88.8914051,17z/data=!3m1!4b1!4m5!3m4!1s0x8876b625b373b01b:0xfc7efd0dc39c4f62!8m2!3d38.3178838!4d-88.8914051",godfathers_pizza,
Godfather's Pizza,204 E Highway 20,ONEILL,NE,68763-2114,4023362260.0,"https://www.google.com/maps/place/Godfather's+Pizza/@42.4566124,-98.6335269,17z/data=!3m1!4b1!4m5!3m4!1s0x8784db57b9a6742f:0x9817767097af7398!8m2!3d42.4566124!4d-98.6335269",godfathers_pizza,
Godfather's Pizza,206 Oak St,WAKEFIELD,NE,68784,4022879082.0,"https://www.google.com/maps/place/Godfather's+Pizza/@42.26948,-96.8626072,17z/data=!3m1!4b1!4m5!3m4!1s0x8790491bcbb6b501:0x1b474f1ad54b8ac7!8m2!3d42.26948!4d-96.8626072",godfathers_pizza,
Godfather's Pizza,2107 Court St,PEKIN,IL,61554,3093473135.0,"https://www.google.com/maps/place/Godfather's+Pizza/@40.5601348,-89.616188,17z/data=!3m1!4b1!4m5!3m4!1s0x880af6ae294adb53:0xcdf2416c7da704c7!8m2!3d40.5601348!4d-89.616188",godfathers_pizza,
Godfather's Pizza,2201 Houser St,MUSCATINE,IA,52761-2387,5632637214.0,"https://www.google.com/maps/place/Godfather's+Pizza/@41.436426,-91.0799059,17z/data=!3m1!4b1!4m5!3m4!1s0x87e3f0757e977fdd:0xaf104a833e3f6588!8m2!3d41.436426!4d-91.0799059",godfathers_pizza,
Godfather's Pizza,208 S State Road 145,FRENCH LICK,IN,47432-8318,8129369400.0,"https://www.google.com/maps/place/Godfather's+Pizza/@38.553241,-86.6164648,17z/data=!3m1!4b1!4m5!3m4!1s0x886e9f03682e37db:0xe6992fc21c08e07!8m2!3d38.553241!4d-86.6164648",godfathers_pizza,
Godfather's Pizza,110 E Randolph St.,MC LEANSBORO,IL,62859-1553,6186432308.0,"https://www.google.com/maps/place/Godfather's+Pizza/@38.0899798,-88.5354508,17z/data=!3m1!4b1!4m5!3m4!1s0x887123a26c574127:0x1fda76e8eeaaecd1!8m2!3d38.0899798!4d-88.5354508",godfathers_pizza,
Godfather's Pizza,2101 W Owen K Garriott Rd,ENID,OK,73703-5532,5802335766.0,"https://www.google.com/maps/place/Godfather's+Pizza/@36.3903328,-97.9042221,17z/data=!3m1!4b1!4m5!3m4!1s0x87afd30805246a07:0xbc9da1fa1a87fb74!8m2!3d36.3903328!4d-97.9042221",godfathers_pizza,
Godfather's Pizza,2310 17th St,SPIRIT LAKE,IA,51360,7123365000.0,"https://www.google.com/maps/place/Godfather's+Pizza/@43.4232313,-95.1260557,17z/data=!3m1!4b1!4m5!3m4!1s0x878cb43ed96c7b03:0x4cbf3ce7407af146!8m2!3d43.4232313!4d-95.1260557",godfathers_pizza,
Godfather's Pizza,2160 Highland Way,MITCHELL,SD,57301-6421,6059955003.0,"https://www.google.com/maps/place/Godfather's+Pizza+Express/@43.6897845,-98.0084966,17z/data=!3m1!4b1!4m5!3m4!1s0x878611b17ec63eab:0x5cb04ea37b4a97a3!8m2!3d43.6897845!4d-98.0084966",godfathers_pizza,
Godfather's Pizza,219 S Main St,GOODLETTSVILLE,TN,37072-1798,6158518273.0,"https://www.google.com/maps/place/Godfather's+Pizza/@36.3197637,-86.713691,17z/data=!3m1!4b1!4m5!3m4!1s0x88644491988d0bdb:0xb05afe5d48096045!8m2!3d36.3197637!4d-86.713691",godfathers_pizza,
Godfather's Pizza,23485 County Road E34,ANAMOSA,IA,52205-7850,3194626776.0,"https://www.google.com/maps/place/Godfather's+Pizza/@42.0720565,-91.3355886,17z/data=!4m5!3m4!1s0x87e49c80d9485c43:0x94718a6ac377623c!8m2!3d42.0720525!4d-91.3333999?hl=en",godfathers_pizza,
Godfather's Pizza,2405 N Broadway St,RED OAK,IA,51566-1074,7126236375.0,"https://www.google.com/maps/place/Godfather's+Pizza/@41.0274312,-95.2337217,17z/data=!3m1!4b1!4m5!3m4!1s0x8794a5641e939877:0x77e54debbb112d2!8m2!3d41.0274312!4d-95.2337217",godfathers_pizza,
Godfather's Pizza,2503 SW Cherry Park Rd,TROUTDALE,OR,97060-2931,5034923300.0,"https://www.google.com/maps/place/Godfather's+Pizza/@45.528485,-122.410823,17z/data=!3m1!4b1!4m5!3m4!1s0x54959809ffc688bb:0x3a9a9021afb5fc9a!8m2!3d45.528485!4d-122.410823",godfathers_pizza,
Godfather's Pizza,2611 Leitchfield Rd,ELIZABETHTOWN,KY,42701-8306,2707371951.0,"https://www.google.com/maps/place/Godfather's+Pizza/@37.675991,-85.8989028,17z/data=!3m1!4b1!4m5!3m4!1s0x8868e9bd231a66ed:0xe00a53bbdf521ee1!8m2!3d37.675991!4d-85.8989028",godfathers_pizza,
Godfather's Pizza,2801 Mall Rd,FLORENCE,AL,35630-1676,2567675504.0,"https://www.google.com/maps/place/Godfather's+Pizza/@34.8398145,-87.6397261,17z/data=!3m1!4b1!4m5!3m4!1s0x887d49df9c37060d:0x769f3ab6210b3823!8m2!3d34.8398145!4d-87.6397261",godfathers_pizza,
Godfather's Pizza,27600 SD Hwy,PARKER,SD,57053,6052972297.0,"https://www.google.com/maps/place/Godfather's+Pizza+Express/@43.3992763,-97.1209001,17z/data=!3m1!4b1!4m5!3m4!1s0x878f2786768afc87:0x1ee78fc0193ec015!8m2!3d43.3992763!4d-97.1209001",godfathers_pizza,
Godfather's Pizza,100 S 25 Mile Ave,HEREFORD,TX,79045-6014,8063645071.0,"https://www.google.com/maps/place/Godfather's+Pizza/@34.811973,-102.4053286,17z/data=!3m1!4b1!4m5!3m4!1s0x8703c7105a68b6a3:0x93d02195e03f2102!8m2!3d34.811973!4d-102.4053286",godfathers_pizza,
Godfather's Pizza,2917 S 168th St,OMAHA,NE,68130-2079,4027589200.0,"https://www.google.com/maps/place/Godfather's+Pizza/@41.2319193,-96.1761728,17z/data=!3m1!4b1!4m5!3m4!1s0x8793f10b0c30be79:0xf8337ea71c278a66!8m2!3d41.2319193!4d-96.1761728",godfathers_pizza,
Godfather's Pizza,1015 W Camp St,EAST PEORIA,IL,61611-2083,3096941910.0,"https://www.google.com/maps/place/Godfather's+Pizza/@40.6810773,-89.5887851,17z/data=!3m1!4b1!4m5!3m4!1s0x880a59ab43500823:0x1ef7208916b5530c!8m2!3d40.6810773!4d-89.5887851",godfathers_pizza,
Godfather's Pizza,101 E Broadway,STEELEVILLE,IL,62288-1502,6189659182.0,"https://www.google.com/maps/place/Godfather's+Pizza/@38.0065875,-89.6580274,17z/data=!3m1!4b1!4m5!3m4!1s0x88764b1c7fb1a65d:0xa9bed46d75e5bf99!8m2!3d38.0065875!4d-89.6580274",godfathers_pizza,
Godfather's Pizza,101 W Highland Dr,FULTON,KY,42041-1120,2704723034.0,"https://www.google.com/maps/place/Godfather's+Pizza/@36.502642,-88.892268,17z/data=!3m1!4b1!4m5!3m4!1s0x88797bc5ea3aca97:0xccbe7b73961d348c!8m2!3d36.502642!4d-88.892268",godfathers_pizza,
Godfather's Pizza,101 S State,BRONTE,TX,76933,3254736601.0,"https://www.google.com/maps/place/Godfather's+Pizza/@31.8870041,-100.2913644,17z/data=!3m1!4b1!4m5!3m4!1s0x8657ca5a233a4cb9:0xf4e1f157d1768efa!8m2!3d31.8870041!4d-100.2913644",godfathers_pizza,
Godfather's Pizza,101 W Main St,FAIRFIELD,IL,62837-2563,6188425353.0,"https://www.google.com/maps/place/Godfather's+Pizza/@38.3799293,-88.3623926,17z/data=!3m1!4b1!4m5!3m4!1s0x88716dd264c1a661:0x786c78b386d6ea42!8m2!3d38.3799251!4d-88.3602039?hl=en",godfathers_pizza,
Godfather's Pizza,106 S Main St,WAYNE,NE,68787-1949,4028335077.0,"https://www.google.com/maps/place/Godfather's+Pizza/@42.2288529,-97.0182017,17z/data=!3m1!4b1!4m5!3m4!1s0x8791d3c5518279c3:0xf39f28ecfa70c505!8m2!3d42.2288529!4d-97.0182017",godfathers_pizza,
Godfather's Pizza,1014 N Wenatchee Ave,WENATCHEE,WA,98801-1532,5096625255.0,"https://www.google.com/maps/place/Godfather's+Pizza/@47.4366667,-120.3216667,17z/data=!3m1!4b1!4m5!3m4!1s0x549bcc9c1ddeda61:0x35338eae11ce2ef2!8m2!3d47.4366667!4d-120.3216667",godfathers_pizza,
Godfather's Pizza,103 E. Main St,WHITE SULPHUR SPRINGS,WV,24986-3005,3045363114.0,"https://www.google.com/maps/place/Godfather's+Pizza/@37.7959836,-80.2997533,17z/data=!4m5!3m4!1s0x884c44e1d8d310ef:0x71d25b15bd44bd18!8m2!3d37.7959794!4d-80.2975646?hl=en",godfathers_pizza,
Godfather's Pizza,103 Hill St,STEWARTSVILLE,MO,64490-7123,8166693385.0,"https://www.google.com/maps/place/Godfather's+Pizza/@39.7608445,-94.4980563,17z/data=!3m1!4b1!4m5!3m4!1s0x87c02e67fab08e31:0x9d8cf71b08aeae81!8m2!3d39.7608445!4d-94.4980563",godfathers_pizza,
Godfather's Pizza,108 1/2 W Highway 30,TOLEDO,IA,52342-2242,6414845300.0,"https://www.google.com/maps/place/Godfather's+Pizza/@41.9868093,-92.5818248,17z/data=!4m5!3m4!1s0x87ef845f618ca3c5:0xd9377b07d3aa1bd0!8m2!3d41.9868053!4d-92.5796361?hl=en",godfathers_pizza,
Godfather's Pizza,103 Indian St,CHEROKEE,IA,51012-1831,7122255704.0,"https://www.google.com/maps/place/Godfather's+Pizza/@42.7639498,-95.5514216,17z/data=!3m1!4b1!4m5!3m4!1s0x878d12981d6e3701:0x25fbd742a7012643!8m2!3d42.7639498!4d-95.5514216",godfathers_pizza,
Godfather's Pizza,11 East St,SHELBY,IA,51570-3310,7125442942.0,"https://www.google.com/maps/place/Godfather's+Pizza/@41.5007992,-95.4541297,17z/data=!4m8!1m2!2m1!1sGodfather's+Pizza+11+East+St+SHELBY+IA+51570-3310!3m4!1s0x879314592769e543:0xd453341f97603df4!8m2!3d41.5007952!4d-95.451941?hl=en",godfathers_pizza,
Godfather's Pizza,1107 Oak St,CARMI,IL,62821-1343,6183824629.0,"https://www.google.com/maps/place/Godfather's+Pizza/@38.08433,-88.1769253,17z/data=!3m1!4b1!4m5!3m4!1s0x8871077a406a9efb:0xa725c868985367fb!8m2!3d38.08433!4d-88.1769253",godfathers_pizza,
Godfather's Pizza,1116 Harvey Rd,KNOXVILLE,TN,37922-5321,8652883400.0,"https://www.google.com/maps/place/Godfather's+Pizza+Express/@35.8410781,-84.1827289,17z/data=!3m1!4b1!4m5!3m4!1s0x885c295e3537131f:0x9232990e9c25b546!8m2!3d35.8410781!4d-84.1827289",godfathers_pizza,
Godfather's Pizza,3020 W Broadway,COUNCIL BLUFFS,IA,51501-3414,7123225577.0,"https://www.google.com/maps/place/Godfather's+Pizza/@41.2622867,-95.893085,17z/data=!3m1!4b1!4m5!3m4!1s0x87938564981adfe7:0x4bffc4f87abedf55!8m2!3d41.2622867!4d-95.893085",godfathers_pizza,
Godfather's Pizza,110 N 30th Rd,SYRACUSE,NE,68446-7845,4022693700.0,"https://www.google.com/maps/place/Godfather's+Pizza/@40.668751,-96.1784166,17z/data=!3m1!4b1!4m5!3m4!1s0x87943a4bf8d6c967:0xf8763677885508cf!8m2!3d40.668751!4d-96.1784166",godfathers_pizza,
Godfather's Pizza,11140 SW Barnes Rd,PORTLAND,OR,97225-5372,5036461100.0,"https://www.google.com/maps/place/Godfather's+Pizza/@45.5150035,-122.7912974,17z/data=!3m1!4b1!4m5!3m4!1s0x549509373cb066cb:0xb2e09b1c5bef265!8m2!3d45.5150035!4d-122.7912974",godfathers_pizza,
Godfather's Pizza,3070 Highway 22,RIVERSIDE,IA,52327-9693,3196482077.0,"https://www.google.com/maps/place/Godfather's+Pizza/@41.4890564,-91.5495672,17z/data=!4m8!1m2!2m1!1sGodfather's+Pizza+3070+Highway+22+RIVERSIDE+IA+52327-9693!3m4!1s0x87e43dbf92ae47d7:0xca1458d89484a806!8m2!3d41.4890727!4d-91.5473852?hl=en",godfathers_pizza,
Godfather's Pizza,322 E Broadway St,FORTVILLE,IN,46040-1505,3174857774.0,"https://www.google.com/maps/place/Godfather's+Pizza/@39.9323912,-85.8450241,17z/data=!3m1!4b1!4m5!3m4!1s0x8814cc9c20806ea3:0x890c297397f0924d!8m2!3d39.9323912!4d-85.8450241",godfathers_pizza,
Godfather's Pizza,3300 Asbury Rd,DUBUQUE,IA,52002-2801,5636902200.0,"https://www.google.com/maps/place/Godfather's+Pizza/@42.512844,-90.7209547,17z/data=!3m1!4b1!4m5!3m4!1s0x87e32d06c47334b1:0x55c874d6e92b0661!8m2!3d42.512844!4d-90.7209547",godfathers_pizza,
Godfather's Pizza,3308 NC 226 S,MARION,NC,28752-5934,8286523422.0,"https://www.google.com/maps/place/Godfather's+Pizza+Express/@35.6580788,-81.9634827,17z/data=!3m1!4b1!4m5!3m4!1s0x8850adf5914dd7cf:0xb90149c353a41e1e!8m2!3d35.6580788!4d-81.9634827",godfathers_pizza,
Godfather's Pizza,120 Saraland Loop,SARALAND,AL,36571-2419,2516790871.0,"https://www.google.com/maps/place/Godfather's+Pizza/@30.8257961,-88.0750392,17z/data=!3m1!4b1!4m5!3m4!1s0x889a568d8e05be2d:0xe4247bad9ee15229!8m2!3d30.8257961!4d-88.0750392",godfathers_pizza,
Godfather's Pizza,1206 Avenue E,OZONA,TX,76943,3253923231.0,"https://www.google.com/maps/place/Godfather's+Pizza/@30.7079573,-101.2020684,17z/data=!3m1!4b1!4m5!3m4!1s0x86f7a30b5452d1ed:0xc87f265f31f04bb3!8m2!3d30.7079573!4d-101.2020684",godfathers_pizza,
Godfather's Pizza,1211 9th St,LAKE VIEW,IA,51450-7790,7126572412.0,"https://www.google.com/maps/place/Godfather's+Pizza+Express/@42.3108012,-95.0402372,17z/data=!3m1!4b1!4m5!3m4!1s0x87ed52c4e0bb4b3f:0x2dbc8a4b24302158!8m2!3d42.3108012!4d-95.0402372",godfathers_pizza,
Godfather's Pizza,121 N Des Moines St,ODEBOLT,IA,51458-7743,7126682290.0,"https://www.google.com/maps/place/Godfather's+Pizza/@42.3116632,-95.244897,17z/data=!3m1!4b1!4m5!3m4!1s0x8792a59fb6857a0b:0xb121dc360555388b!8m2!3d42.3116632!4d-95.244897",godfathers_pizza,
Godfather's Pizza,122 N 5th St,SEWARD,NE,68434-2147,4026434524.0,"https://www.google.com/maps/place/Godfather's+Pizza/@40.9082743,-97.0976373,17z/data=!3m1!4b1!4m5!3m4!1s0x879728038c4c1ffb:0x8d270402c669be9b!8m2!3d40.9082743!4d-97.0976373",godfathers_pizza,
Godfather's Pizza,1347 Avenue of the Cities,EAST MOLINE,IL,61244-4114,3097923706.0,"https://www.google.com/maps/place/Godfather's+Pizza/@41.4906227,-90.4292456,17z/data=!3m1!4b1!4m5!3m4!1s0x87e23a42d285b06d:0xb87e2282f3023fb!8m2!3d41.4906227!4d-90.4292456",godfathers_pizza,
Godfather's Pizza,138 E Main St,FREDERICKSBURG,IA,50630-2014,5632375846.0,"https://www.google.com/maps/place/Godfather's+Pizza+Express/@42.9654879,-92.1980574,17z/data=!3m1!4b1!4m5!3m4!1s0x87fa924eb1b23ad5:0x478f853e84061ec2!8m2!3d42.9654879!4d-92.1980574",godfathers_pizza,
Godfather's Pizza,3811 University Ave,WATERLOO,IA,50701-5645,3192357104.0,"https://www.google.com/maps/place/Godfather's+Pizza/@42.504055,-92.4010315,17z/data=!3m1!4b1!4m5!3m4!1s0x87e554952d0fbd47:0x8e70a31418b6ec1b!8m2!3d42.504055!4d-92.4010315",godfathers_pizza,
Godfather's Pizza,413 W Highway 46,WAGNER,SD,57380,6053845577.0,"https://www.google.com/maps/place/Godfather's+Pizza/@43.0813784,-98.3000198,17z/data=!3m1!4b1!4m5!3m4!1s0x8785ba69e3a453dd:0x6651f5a59d63dd35!8m2!3d43.0813784!4d-98.3000198",godfathers_pizza,
Godfather's Pizza,1300 9th Ave SE,WATERTOWN,SD,57201-5399,6058821232.0,"https://www.google.com/maps/place/Godfather's+Pizza/@44.8883639,-97.0979758,17z/data=!3m1!5s0x52ccd64a6f2f7483:0xe8e1c9024823ff53!4m5!3m4!1s0x52ccd64b02cb1541:0x6e067d08985832e!8m2!3d44.8883601!4d-97.0957871?hl=en",godfathers_pizza,
Godfather's Pizza,4400 N Broadway,HINTON,OK,73047-9372,4055423836.0,"https://www.google.com/maps/place/Godfather's+Pizza+Express/@35.5264769,-98.3515453,17z/data=!3m1!4b1!4m5!3m4!1s0x87add0d7f8d1d413:0x7070b283b1e29603!8m2!3d35.5264769!4d-98.3515453",godfathers_pizza,
Godfather's Pizza,1415 W Alta Rd,PEORIA,IL,61615-1275,3092438573.0,"https://www.google.com/maps/place/Godfather's+Pizza/@40.8137613,-89.614013,17z/data=!3m1!4b1!4m5!3m4!1s0x880a590ac2184991:0xe06412c0984d3e4!8m2!3d40.8137613!4d-89.614013",godfathers_pizza,
Godfather's Pizza,14200 SW Barrows Rd,TIGARD,OR,97223-2062,5035900900.0,"https://www.google.com/maps/place/Godfather's+Pizza/@45.4325359,-122.8237047,17z/data=!3m1!4b1!4m5!3m4!1s0x54950d70c0f8b95f:0x1dcb4efe82f5138a!8m2!3d45.4325359!4d-122.8237047",godfathers_pizza,
Godfather's Pizza,1444 Church St,TIPTONVILLE,KY,38079-1243,7312538264.0,"https://www.google.com/maps/place/Godfather's+Pizza/@36.378488,-89.4665472,17z/data=!3m1!4b1!4m5!3m4!1s0x8878e38e55888df3:0x5d8de927b25d6519!8m2!3d36.378488!4d-89.4665472",godfathers_pizza,
Godfather's Pizza,15234 W Maple Rd,OMAHA,NE,68116-5183,4024967770.0,"https://www.google.com/maps/place/Godfather's+Pizza/@41.2927769,-96.1523639,17z/data=!3m1!4b1!4m5!3m4!1s0x8793ede1e2c1947d:0x47c3f74bbf2d661f!8m2!3d41.2927769!4d-96.1523639",godfathers_pizza,
Godfather's Pizza,515 W Main St,GREENTOWN,IN,46936-1022,7656283543.0,"https://www.google.com/maps/place/Godfather's+Pizza/@40.4777692,-85.9725048,17z/data=!3m1!4b1!4m5!3m4!1s0x88148c7ddb5fb5ef:0x9e29546aa4399e19!8m2!3d40.4777692!4d-85.9725048",godfathers_pizza,
Godfather's Pizza,4840 S Broadway Ave,WICHITA,KS,67216-3713,3165227111.0,"https://www.google.com/maps/place/Godfather's+Pizza/@37.6059832,-97.3322393,17z/data=!3m1!4b1!4m5!3m4!1s0x87bae5c0e22eb84b:0xb49da32372abbeac!8m2!3d37.6059832!4d-97.3322393",godfathers_pizza,
Godfather's Pizza,5453 S State Highway Ff,BATTLEFIELD,MO,65619-9779,4178778787.0,"https://www.google.com/maps/place/Godfather's+Pizza/@37.1159794,-93.3708767,17z/data=!3m1!4b1!4m5!3m4!1s0x87cf665733da395b:0xa4661ccc7668c17d!8m2!3d37.1159794!4d-93.3708767",godfathers_pizza,
Godfather's Pizza,5461 Peavine Rd,FAIRFIELD GLADE,TN,38558,9314562222.0,"https://www.google.com/maps/place/Godfather's+Pizza/@36.004543,-84.914312,17z/data=!3m1!4b1!4m5!3m4!1s0x885df7a744721101:0x5d7f5793c28c245e!8m2!3d36.004543!4d-84.914312",godfathers_pizza,
Godfather's Pizza,8650 N Sam Houston Pkwy E,HUMBLE,TX,77396-4380,2812196000.0,"https://www.google.com/maps/place/Godfather's+Pizza/@29.9350627,-95.2603658,17z/data=!3m1!4b1!4m5!3m4!1s0x8640b69635e2e18d:0x3b6d7483365b91bf!8m2!3d29.9350627!4d-95.2603658",godfathers_pizza,
Godfather's Pizza,509 W Main St,BLOOMFIELD,IN,47424-1133,8123844123.0,"https://www.google.com/maps/place/Godfather's+Pizza/@39.0264802,-86.9454514,17z/data=!3m1!4b1!4m5!3m4!1s0x886db47e856e43ef:0xf0fb505c3edb2513!8m2!3d39.0264802!4d-86.9454514",godfathers_pizza,
Godfather's Pizza,510 E South St,OZARK,MO,65721-8571,4175819292.0,"https://www.google.com/maps/place/Godfather's+Pizza/@37.0037168,-93.20278,17z/data=!3m1!4b1!4m5!3m4!1s0x87cf71669c5cf9a9:0xdee7f411a8ed5a30!8m2!3d37.0037168!4d-93.20278",godfathers_pizza,
Godfather's Pizza,557 S L Rogers Wells Blvd,GLASGOW,KY,42141-1047,2706590120.0,"https://www.google.com/maps/place/Godfather's+Pizza/@36.9858981,-85.9308139,17z/data=!3m1!4b1!4m5!3m4!1s0x8866161e75060905:0x1147652e859d6a84!8m2!3d36.9858981!4d-85.9308139",godfathers_pizza,
Godfather's Pizza,5442 Highway 90 W,MOBILE,AL,36619-4212,2516660106.0,"https://www.google.com/maps/place/Godfather's+Pizza/@30.5869404,-88.1703594,17z/data=!3m1!4b1!4m5!3m4!1s0x889a4b536ced9499:0x358441f6366872a1!8m2!3d30.5869404!4d-88.1703594",godfathers_pizza,
Godfather's Pizza,551 Cassat Ave,JACKSONVILLE,FL,32254-3774,9043885503.0,"https://www.google.com/maps/place/Godfather's+Pizza/@30.3183258,-81.7322799,17z/data=!4m5!3m4!1s0x88e5b9a95e5f8bb9:0xbeb898f7adf9d47b!8m2!3d30.3183212!4d-81.7300912?hl=en",godfathers_pizza,
Godfather's Pizza,5600 State Rte 10,SALT ROCK,WV,25559,3047366660.0,"https://www.google.com/maps/place/Godfather's+Pizza/@38.3240164,-82.2128415,17z/data=!3m1!4b1!4m5!3m4!1s0x884f55f651e08139:0xbf4e8a23a513c887!8m2!3d38.3240164!4d-82.2128415",godfathers_pizza,
Godfather's Pizza,5719 Yellowstone Rd,CHEYENNE,WY,82009-4132,3076345222.0,"https://www.google.com/maps/place/Godfather's+Pizza/@41.1720944,-104.8281328,17z/data=!3m1!4b1!4m5!3m4!1s0x876f3a6c82d70b77:0xe0d280cbc69ea448!8m2!3d41.1720944!4d-104.8281328",godfathers_pizza,
Godfather's Pizza,16250 N Ave,HOLLAND,IA,50642-8122,3198243702.0,"https://www.google.com/maps/place/Godfather's+Pizza/@42.4658129,-92.7671804,17z/data=!3m1!4b1!4m5!3m4!1s0x878db5406f8e57e1:0xffc8d22f0f372744!8m2!3d42.4658129!4d-92.7671804",godfathers_pizza,
Godfather's Pizza,5919 Ashworth Rd,WEST DES MOINES,IA,50266-7109,5152268880.0,"https://www.google.com/maps/place/Godfather's+Pizza/@41.585041,-93.7890854,17z/data=!3m1!4b1!4m5!3m4!1s0x87ec21038b3a809d:0x5e4b4cdd3501a81f!8m2!3d41.585041!4d-93.7890854",godfathers_pizza,
Godfather's Pizza,601 N Main St,HUNTINGBURG,IN,47542-1043,8126835566.0,"https://www.google.com/maps/place/Godfather's+Pizza/@38.2991912,-86.9570541,17z/data=!4m5!3m4!1s0x886e60ecd8e2dccd:0x4ee44c6c4d1f0db3!8m2!3d38.299187!4d-86.9548654?hl=en",godfathers_pizza,
Godfather's Pizza,631 W 4th St,MOUNT VERNON,IN,47620-1617,8128388460.0,"https://www.google.com/maps/place/Godfather's+Pizza/@37.930741,-87.9029564,17z/data=!3m1!4b1!4m5!3m4!1s0x88704b1a8b11d4ef:0xcbe54612c7f20847!8m2!3d37.930741!4d-87.9029564",godfathers_pizza,
Godfather's Pizza,6716 Madison Ave,FAIR OAKS,CA,95628-3152,9169651318.0,"https://www.google.com/maps/place/Godfather's+Pizza/@38.66271,-121.307896,17z/data=!3m1!4b1!4m5!3m4!1s0x809ade5f45c3e699:0xd6aae28b9a72d9ca!8m2!3d38.66271!4d-121.307896",godfathers_pizza,
Godfather's Pizza,608 S Kings Hwy,MYRTLE BEACH,NC,29577-4411,8436263300.0,"https://www.google.com/maps/place/Godfather's+Pizza/@33.681972,-78.896626,17z/data=!3m1!4b1!4m5!3m4!1s0x890069ba3881929d:0xa485a7b7a4d1c7ee!8m2!3d33.681972!4d-78.896626",godfathers_pizza,
Godfather's Pizza,609 Elm St,MARTIN,TN,38237-3401,7315875871.0,"https://www.google.com/maps/place/Godfather's+Pizza/@36.3346474,-88.8540897,17z/data=!3m1!4b1!4m5!3m4!1s0x8879615ac1947c7b:0x25cd32b676e065cc!8m2!3d36.3346474!4d-88.8540897",godfathers_pizza,
Godfather's Pizza,624 W US Highway 30,CARROLL,IA,51401-2250,7127925470.0,"https://www.google.com/maps/place/Godfather's+Pizza/@42.0691757,-94.8768647,17z/data=!4m5!3m4!1s0x87ed39eb633e825b:0xf6bc890b1abf992d!8m2!3d42.0691717!4d-94.874676?hl=en",godfathers_pizza,
Godfather's Pizza,625 Hawkeye Ave SW,LE MARS,IA,51031-1859,7125464159.0,"https://www.google.com/maps/place/Godfather's+Pizza/@42.7854751,-96.1765099,17z/data=!3m1!4b1!4m5!3m4!1s0x878dc46d6ed96e57:0x7d15be101f515afa!8m2!3d42.7854751!4d-96.1765099",godfathers_pizza,
Godfather's Pizza,6930 I 40 E,AMARILLO,TX,79118,8063737775.0,"https://www.google.com/maps/place/Godfather's+Pizza+Express/@35.1954675,-101.9831167,11z/data=!4m8!1m2!2m1!1sPizza+Pro+AMARILLO+TX!3m4!1s0x870148f416cc7a51:0x1f6829f0d60a9bb5!8m2!3d35.192023!4d-101.7605652?hl=en",godfathers_pizza,
Godfather's Pizza,7403 N 30th St,OMAHA,NE,68112-2721,4024535533.0,"https://www.google.com/maps/place/Godfather's+Pizza/@41.327133,-95.957482,17z/data=!3m1!4b1!4m5!3m4!1s0x879391a0a6427a97:0x4259993163efc6ba!8m2!3d41.327133!4d-95.957482",godfathers_pizza,
Godfather's Pizza,1754 Wabash Ave,SPRINGFIELD,IL,62704-5391,2177262000.0,"https://www.google.com/maps/place/Godfather's+Pizza/@39.7639054,-89.6858777,17z/data=!3m1!4b1!4m5!3m4!1s0x887538926da858cb:0x85b8c255184c4c5e!8m2!3d39.7639054!4d-89.6858777",godfathers_pizza,
Godfather's Pizza,7450 Unity Ave N,MINNEAPOLIS,MN,55443-3112,7635602667.0,"https://www.google.com/maps/place/Godfather's+Pizza/@45.090597,-93.351614,17z/data=!3m1!4b1!4m5!3m4!1s0x52b330b27a12101d:0x88b3bf0189ac40fd!8m2!3d45.090597!4d-93.351614",godfathers_pizza,
Godfather's Pizza,17691 SW Farmington Rd,BEAVERTON,OR,97007-3200,5036495600.0,"https://www.google.com/maps/place/Godfather's+Pizza/@45.4794279,-122.8591064,17z/data=!3m1!4b1!4m5!3m4!1s0x54950e720fb27811:0x5c99cf7c32529b1b!8m2!3d45.4794279!4d-122.8591064",godfathers_pizza,
Godfather's Pizza,17935 Welch Plz,OMAHA,NE,68135-3596,4028961177.0,"https://www.google.com/maps/place/Godfather's+Pizza/@41.2062276,-96.1957823,17z/data=!3m1!4b1!4m5!3m4!1s0x8793f0d873866f79:0x4cad03db42b67e5f!8m2!3d41.2062276!4d-96.1957823",godfathers_pizza,
Godfather's Pizza,791 N Westwood Blvd,POPLAR BLUFF,MO,63901-4724,5736861420.0,"https://www.google.com/maps/place/Godfather's+Pizza/@36.76378,-90.411933,17z/data=!3m1!4b1!4m5!3m4!1s0x87d7b0c1ccc387df:0xa8727c49502ef0fa!8m2!3d36.76378!4d-90.411933",godfathers_pizza,
Godfather's Pizza,1832 S Cedar Ave,OWATONNA,MN,55060-4204,5074551470.0,"https://www.google.com/maps/place/Godfather's+Pizza/@44.0650392,-93.2269026,17z/data=!3m1!4b1!4m5!3m4!1s0x87f6e7999964e6fb:0x309d670c8ae664e6!8m2!3d44.0650392!4d-93.2269026",godfathers_pizza,
Godfather's Pizza,806 Village Sq,GRETNA,NE,68028-7914,4029169898.0,"https://www.google.com/maps/place/Godfather's+Pizza/@41.145731,-96.2399138,17z/data=!3m1!4b1!4m5!3m4!1s0x8793f8299f1d75e3:0x33cd6e105fc0877b!8m2!3d41.145731!4d-96.2399138",godfathers_pizza,
Godfather's Pizza,806 W Main St,LE GRAND,IA,50142-7746,6414792242.0,"https://www.google.com/maps/place/Godfather's+Pizza+Express/@42.0070507,-92.7847111,17z/data=!3m1!4b1!4m5!3m4!1s0x87efa287173a0d53:0x2d7bbb1bfffd459f!8m2!3d42.0070507!4d-92.7847111",godfathers_pizza,
Godfather's Pizza,812 Cottage Ave,VERMILLION,SD,57069-1122,6056242624.0,"https://www.google.com/maps/place/Godfather's+Pizza/@42.7880482,-96.9333663,17z/data=!3m1!4b1!4m5!3m4!1s0x878e4f92880630fb:0x3f6bb1477c4664b1!8m2!3d42.7880482!4d-96.9333663",godfathers_pizza,
Godfather's Pizza,8303 White Bluff Rd,SAVANNAH,GA,31406-3453,9129259303.0,"https://www.google.com/maps/place/Godfather's+Pizza/@31.9986111,-81.1227778,17z/data=!3m1!4b1!4m5!3m4!1s0x88fb74fe34cd4fb1:0x213eaad6ea8aacba!8m2!3d31.9986111!4d-81.1227778",godfathers_pizza,
Godfather's Pizza,1851 E 23rd St,FREMONT,NE,68025-2437,4027276262.0,"https://www.google.com/maps/place/Godfather's+Pizza/@41.4507213,-96.473775,17z/data=!3m1!4b1!4m5!3m4!1s0x879160dcfd76638b:0x54f1983aa5b2adfa!8m2!3d41.4507213!4d-96.473775",godfathers_pizza,
Godfather's Pizza,1916 S Locust St,GRAND ISLAND,NE,68801-8253,3083849090.0,"https://www.google.com/maps/place/Godfather's+Pizza/@40.9023378,-98.3401706,17z/data=!3m1!4b1!4m5!3m4!1s0x879986773d786d13:0xfcf7e226dcc5267f!8m2!3d40.9023378!4d-98.3401706",godfathers_pizza,
Godfather's Pizza,850 County Road 42 W,BURNSVILLE,MN,55337-4426,9524359558.0,"https://www.google.com/maps/place/Godfather's+Pizza/@44.748523,-93.2907569,17z/data=!3m1!4b1!4m5!3m4!1s0x87f63a483592405b:0x78ea9a821ed8991e!8m2!3d44.748523!4d-93.2907569",godfathers_pizza,
Godfather's Pizza,200 E Main St,PROVIDENCE,KY,42450-1287,2706677177.0,"https://www.google.com/maps/place/Godfather's+Pizza/@37.3979277,-87.7606186,17z/data=!3m1!4b1!4m5!3m4!1s0x88700e8c1139d623:0x4ed5e0a112c22ce4!8m2!3d37.3979277!4d-87.7606186",godfathers_pizza,
Godfather's Pizza,2000 Old West Main St,RED WING,MN,55066-2061,6513881138.0,"https://www.google.com/maps/place/Godfather's+Pizza/@44.5641569,-92.5597748,17z/data=!3m1!4b1!4m5!3m4!1s0x87f78ede00c0b159:0xc0184981914c7725!8m2!3d44.5641569!4d-92.5597748",godfathers_pizza,
Godfather's Pizza,905 Main St,BILLINGS,MT,59105-3325,4062520865.0,"https://www.google.com/maps/place/Godfather's+Pizza/@45.8152146,-108.470276,17z/data=!3m1!4b1!4m5!3m4!1s0x53487a88ea6f496f:0x83db951bef7c8fa2!8m2!3d45.8152146!4d-108.470276",godfathers_pizza,
Godfather's Pizza,905 W Hwy 44,PARKSTON,SD,57366,6059287553.0,"https://www.google.com/maps/place/Godfather's+Pizza+Express/@43.3850042,-97.9973211,17z/data=!3m1!4b1!4m5!3m4!1s0x8785e5bab8ce52dd:0x82abfb655ff45ed4!8m2!3d43.3850042!4d-97.9973211",godfathers_pizza,
Godfather's Pizza,2050 Sea Level Dr,KETCHIKAN,AK,99901-6058,9072254444.0,"https://www.google.com/maps/place/Godfather's+Pizza+Express/@55.3485997,-131.6711906,17z/data=!3m1!4b1!4m5!3m4!1s0x540c25a5bc2cabc5:0x605b6a68e7bbf6d6!8m2!3d55.3485997!4d-131.6711906",godfathers_pizza,
Godfather's Pizza,928 Valley View Dr,COUNCIL BLUFFS,IA,51503-5288,7122569200.0,"https://www.google.com/maps/place/Godfather's+Pizza/@41.2500243,-95.813663,17z/data=!3m1!4b1!4m5!3m4!1s0x87938380f3180c87:0x526eaebc4294f9be!8m2!3d41.2500243!4d-95.813663",godfathers_pizza,
Godfather's Pizza,14967 US 219,LEWISBURG,WV,24901,3046459021.0,"https://www.google.com/maps/place/Godfather's+Pizza/@37.845062,-80.415105,17z/data=!3m1!4b1!4m5!3m4!1s0x89cade5ffcc3d9f7:0x6a6036c3e1706e77!8m2!3d37.845062!4d-80.415105",godfathers_pizza,
Godfather's Pizza,Route 16,LIZEMORES,WV,25125,3045874041.0,"https://www.google.com/maps/place/Godfather's+Pizza/@38.3067791,-81.1786018,17z/data=!3m1!4b1!4m5!3m4!1s0x88494a8ec29601f1:0xfb946d674f05ae82!8m2!3d38.3067791!4d-81.1786018",godfathers_pizza,
Godfather's Pizza,18251 Seneca Trl,MARLINTON,WV,24954-6842,3047994700.0,"https://www.google.com/maps/place/Godfather's+Pizza+Express/@38.2252824,-80.0968766,17z/data=!3m1!4b1!4m5!3m4!1s0x884c8007bae5dbd7:0xa4dba9b7e8ae6cf6!8m2!3d38.2252824!4d-80.0968766",godfathers_pizza,
Godfather's Pizza,7006 Harper Rd,GLEN DANIEL,WV,25844,3049345333.0,"https://www.google.com/maps/place/Godfather's+Pizza/@37.779358,-81.336381,17z/data=!3m1!4b1!4m5!3m4!1s0x884ef083a532cbdf:0xa684e9c00561479a!8m2!3d37.779358!4d-81.336381",godfathers_pizza,
Godfather's Pizza,603 Pollock Blvd,BEDFORD,IA,50833-9702,7125233130.0,"https://www.google.com/maps/place/Godfather's+Pizza/@40.676868,-94.7213433,17z/data=!3m1!4b1!4m5!3m4!1s0x87eb1873957426a5:0x685062e5a7183384!8m2!3d40.676868!4d-94.7213433",godfathers_pizza,
Godfather's Pizza,403 Midway Rd,ALUM CREEK,WV,25003-9585,3047563099.0,"https://www.google.com/maps/place/Godfather's+Pizza/@38.260346,-81.841561,17z/data=!3m1!4b1!4m5!3m4!1s0x884f36412007ff03:0x70f160371c025ad3!8m2!3d38.260346!4d-81.841561",godfathers_pizza,
Godfather's Pizza,2634 US 60,ONA,WV,25545,3047433693.0,"https://www.google.com/maps/place/Godfather's+Pizza+Express/@38.424625,-82.2127657,17z/data=!3m1!4b1!4m5!3m4!1s0x8848aa9d3bab0e53:0xdc309ded4090d284!8m2!3d38.424625!4d-82.2127657",godfathers_pizza,
Godfather's Pizza,78 E State Road 168,FORT BRANCH,IN,47648,8127534946.0,"https://www.google.com/maps/place/Godfather's+Pizza+Express/@38.2530679,-87.567224,17z/data=!3m1!4b1!4m5!3m4!1s0x8871dfa637cc433b:0x77270b7d254e2c0b!8m2!3d38.2530679!4d-87.567224",godfathers_pizza,
Godfather's Pizza,21 Cottonwood Dr,CHATHAM,IL,62629-1711,2174832776.0,"https://www.google.com/maps/place/Godfather's+Pizza/@39.6801469,-89.7057483,17z/data=!3m1!4b1!4m5!3m4!1s0x88754070da1e26ed:0x44f06d0f5ae99879!8m2!3d39.6801469!4d-89.7057483",godfathers_pizza,
Godfather's Pizza,21193 Coal River Rd,COMFORT,WV,25049,3048373165.0,"https://www.google.com/maps/place/Godfather's+Pizza/@38.1342306,-81.6177247,17z/data=!3m1!4b1!4m5!3m4!1s0x884f240a39d123bf:0x26dad73ebf1fda0d!8m2!3d38.1342306!4d-81.6177247",godfathers_pizza,
Godfather's Pizza,213 Vine St,WEST UNION,IA,52175,5634223328.0,"https://www.google.com/maps/place/Godfather's+Pizza+Express/@42.9594393,-91.8078281,17z/data=!3m1!4b1!4m5!3m4!1s0x87fb1da138578c13:0x3c91232be32588ad!8m2!3d42.9594393!4d-91.8078281",godfathers_pizza,
Godfather's Pizza,220 W 6th St,LAWSON,MO,64062-9394,8165807115.0,"https://www.google.com/maps/place/Godfather's+Pizza/@39.4403456,-94.2097278,17z/data=!4m8!1m2!2m1!1sGodfather's+Pizza+220+W+6th+St+LAWSON+MO+64062-9394!3m4!1s0x87c1baee47a06be5:0x12b801c5939f7401!8m2!3d39.4408923!4d-94.2070066?hl=en",godfathers_pizza,
Godfather's Pizza,2207 Broadway,SCOTTSBLUFF,NE,69361-1906,3086323644.0,"https://www.google.com/maps/place/Godfather's+Pizza./@41.8688573,-103.6622762,17z/data=!3m1!4b1!4m5!3m4!1s0x876551bf76e848e9:0x518af701c648b3bc!8m2!3d41.8688573!4d-103.6622762",godfathers_pizza,
Godfather's Pizza,2216 N Montana Ave,HELENA,MT,59601-0871,4064437050.0,"https://www.google.com/maps/place/Godfather's+Pizza/@46.6074535,-112.021403,17z/data=!3m1!4b1!4m5!3m4!1s0x53435457a616413b:0xf0d95f0ab5842276!8m2!3d46.6074535!4d-112.021403",godfathers_pizza,
Godfather's Pizza,225 S Minnesota Ave,SAINT PETER,MN,56082-2521,5079316140.0,"https://www.google.com/maps/place/Godfather's+Pizza/@44.3241269,-93.9567043,17z/data=!3m1!4b1!4m5!3m4!1s0x87f4332e2f46b36f:0x11b0b88d3082a306!8m2!3d44.3241269!4d-93.9567043",godfathers_pizza,
Godfather's Pizza,2305 1st Ave S,FORT DODGE,IA,50501-4327,5155767551.0,"https://www.google.com/maps/place/Godfather's+Pizza/@42.504358,-94.1652526,17z/data=!3m1!4b1!4m5!3m4!1s0x87f2766f633899e3:0xa447de01a54b71b0!8m2!3d42.504358!4d-94.1652526",godfathers_pizza,
Godfather's Pizza,247 Pine St,CLARKSON,NE,68629-4093,4028923857.0,"https://www.google.com/maps/place/Godfather's+Pizza+Express/@41.7261887,-97.1220025,17z/data=!3m1!4b1!4m5!3m4!1s0x879055110172e14d:0xf5bc2d3faf510ccc!8m2!3d41.7261887!4d-97.1220025",godfathers_pizza,
Godfather's Pizza,2510 Mondovi Rd,EAU CLAIRE,WI,54701-6188,7158309362.0,"https://www.google.com/maps/place/Godfather's+Pizza/@44.7924652,-91.5195922,17z/data=!3m1!4b1!4m5!3m4!1s0x87f8bd8847ecba31:0x964ad72fbda337f4!8m2!3d44.7924652!4d-91.5195922",godfathers_pizza,
Godfather's Pizza,2525 Elida Rd,LIMA,OH,45805-1205,4193311900.0,"https://www.google.com/maps/place/Godfather's+Pizza/@40.7639242,-84.1527617,17z/data=!3m1!4b1!4m5!3m4!1s0x883ef3af3dddd73f:0xe64dd9c56074f879!8m2!3d40.7639242!4d-84.1527617",godfathers_pizza,
Godfather's Pizza,2860 N Main St,DECATUR,IL,62526-3234,2178757000.0,"https://www.google.com/maps/place/Godfather's+Pizza/@39.8742062,-88.9561943,17z/data=!3m1!4b1!4m5!3m4!1s0x8874b1ea1164c777:0x255922893584e40f!8m2!3d39.8742062!4d-88.9561943",godfathers_pizza,
Godfather's Pizza,2834 Pacific Ave,FOREST GROVE,OR,97116-1858,5033595405.0,"https://www.google.com/maps/place/Godfather's+Pizza/@45.5188932,-123.0952987,17z/data=!3m1!4b1!4m5!3m4!1s0x54951bd4b193c58f:0x8e11497088dec47f!8m2!3d45.5188932!4d-123.0952987",godfathers_pizza,
Godfather's Pizza,3141 N 108th St,OMAHA,NE,68164-2952,4024933833.0,"https://www.google.com/maps/place/Godfather's+Pizza/@41.2867041,-96.0808181,17z/data=!3m1!4b1!4m5!3m4!1s0x8793ed596cee297d:0x217314adbc90285e!8m2!3d41.2867041!4d-96.0808181",godfathers_pizza,
Godfather's Pizza,309 S Mayes,ADAIR,OK,74330-2240,9187852630.0,"https://www.google.com/maps/place/Godfather's+Pizza/@36.4338947,-95.2735994,17z/data=!3m1!4b1!4m5!3m4!1s0x87b633b3b0cdbdd1:0x7ad98ed37197fb18!8m2!3d36.4338947!4d-95.2735994",godfathers_pizza,
Godfather's Pizza,3201 12th Ave NW,ARDMORE,OK,73401-9027,5802260973.0,"https://www.google.com/maps/place/Godfather's+Pizza+Express/@34.1882559,-97.1708186,17z/data=!3m1!4b1!4m5!3m4!1s0x864d2949d55f6b07:0x3db9053750c41d89!8m2!3d34.1882559!4d-97.1708186",godfathers_pizza,
Godfather's Pizza,322 S State Route 291,LIBERTY,MO,64068-1913,8167921000.0,"https://www.google.com/maps/place/Godfather's+Pizza/@39.2259621,-94.6991397,11z/data=!4m8!1m2!2m1!1sGodfather's+Pizza+322+S+State+Route+291+LIBERTY+MO+64068-1913!3m4!1s0x87c05583cb343e9d:0x387bfa77c3fdfbff!8m2!3d39.2417661!4d-94.442743?hl=en",godfathers_pizza,
Godfather's Pizza,3701 Gordon Dr,SIOUX CITY,IA,51106-1343,7122774240.0,"https://www.google.com/maps/place/Godfather's+Pizza/@42.4862603,-96.3604916,17z/data=!3m1!4b1!4m5!3m4!1s0x878dfc53e84757eb:0x41cf4a3aba7dd75e!8m2!3d42.4862603!4d-96.3604916",godfathers_pizza,
Godfather's Pizza,3740 Dickerson Pike,NASHVILLE,TN,37207-1327,6158656650.0,"https://www.google.com/maps/place/Godfather's+Pizza/@36.2628708,-86.7578279,17z/data=!3m1!4b1!4m5!3m4!1s0x88645cdf5ef5f79f:0x3d1346baffb8d1c7!8m2!3d36.2628708!4d-86.7578279",godfathers_pizza,
Godfather's Pizza,328 4th St NW,FARIBAULT,MN,55021-5152,5073341672.0,"https://www.google.com/maps/place/Godfather's+Pizza/@44.2950233,-93.2743465,17z/data=!3m1!4b1!4m5!3m4!1s0x87f6f741eda60281:0xa4c61c814367dc13!8m2!3d44.2950233!4d-93.2743465",godfathers_pizza,
Godfather's Pizza,3647 1/2 1st Ave SE,CEDAR RAPIDS,IA,52402-6149,3193632127.0,"https://www.google.com/maps/place/Godfather's+Pizza/@42.015484,-91.6353697,17z/data=!3m1!5s0x87e4f10504b12053:0xff03331eec6dff18!4m5!3m4!1s0x87e4f11d1c9378df:0xd417a04a334c4360!8m2!3d42.01548!4d-91.633181?hl=en",godfathers_pizza,
Godfather's Pizza,401 N Market St,OGDEN,IL,61859-9789,2175821913.0,"https://www.google.com/maps/place/Godfather's+Pizza/@40.117035,-87.959175,17z/data=!3m1!4b1!4m5!3m4!1s0x880d3090a022bf33:0x1e7ee68943ac3cfc!8m2!3d40.117035!4d-87.959175",godfathers_pizza,
Godfather's Pizza,3815 E Cork St,KALAMAZOO,MI,49001-4609,2693426500.0,"https://www.google.com/maps/place/Godfather's+Pizza/@42.263021,-85.532194,17z/data=!3m1!4b1!4m5!3m4!1s0x88179c649d37fd93:0x3fb00beb82f34e3e!8m2!3d42.263021!4d-85.532194",godfathers_pizza,
Godfather's Pizza,401 S Lake Dallas Dr,LAKE DALLAS,TX,75065-2757,9404975250.0,"https://www.google.com/maps/place/Godfather's+Pizza/@33.1187959,-97.0298374,17z/data=!3m1!4b1!4m5!3m4!1s0x864c33b84252fd67:0xb8057d3ed73e36d!8m2!3d33.1187959!4d-97.0298374",godfathers_pizza,
Godfather's Pizza,401 W Main St,LAKE MILLS,IA,50450-1423,6415928866.0,"https://www.google.com/maps/place/Godfather's+Pizza+Express/@43.4190664,-93.5365794,17z/data=!3m1!4b1!4m5!3m4!1s0x87f169cdf9e1c27b:0xa7892b53e4b096e!8m2!3d43.4190664!4d-93.5365794",godfathers_pizza,
Godfather's Pizza,409 Madison Square Dr,MADISONVILLE,KY,42431-2774,2708217575.0,"https://www.google.com/maps/place/Godfather's+Pizza/@37.3192775,-87.4769208,17z/data=!3m1!4b1!4m5!3m4!1s0x886ffee9d242d1bb:0x683aa72205acfe7d!8m2!3d37.3192775!4d-87.4769208",godfathers_pizza,
Godfather's Pizza,408 6th St,CORNING,IA,50841-1614,6413223488.0,"https://www.google.com/maps/place/Godfather's+Pizza/@40.9883245,-94.7339173,17z/data=!3m1!4b1!4m5!3m4!1s0x87eb428403e22c61:0x4109e3eacbef251e!8m2!3d40.9883245!4d-94.7339173",godfathers_pizza,
Godfather's Pizza,4119 University Ave,DES MOINES,IA,50311-3532,5152776344.0,"https://www.google.com/maps/place/Godfather's+Pizza/@41.6005248,-93.6736714,17z/data=!3m1!4b1!4m5!3m4!1s0x87ee9ec7c9cd9c9d:0x6ea6e9ea70670a33!8m2!3d41.6005248!4d-93.6736714",godfathers_pizza,
Godfather's Pizza,4628 Brandt Pike,HUBER HEIGHTS,OH,45424-6076,9372339900.0,"https://www.google.com/maps/place/Godfather's+Pizza/@39.8199155,-84.1253178,17z/data=!3m1!4b1!4m5!3m4!1s0x88408296dea38221:0x51153ef6278ddcec!8m2!3d39.8199155!4d-84.1253178",godfathers_pizza,
Godfather's Pizza,5010 Grover St,OMAHA,NE,68106-3831,4025581550.0,"https://www.google.com/maps/place/Godfather's+Pizza/@41.2273812,-95.9928512,17z/data=!4m5!3m4!1s0x87938c2242d92417:0x2d689b368feae139!8m2!3d41.2273772!4d-95.9906625?hl=en",godfathers_pizza,
Godfather's Pizza,5015 Moffett Rd,MOBILE,AL,36618-2207,2513421990.0,"https://www.google.com/maps/place/Godfather's+Pizza/@30.7199102,-88.158482,17z/data=!3m1!4b1!4m5!3m4!1s0x889a52b83cb0ab91:0x9aa0ff5639bdbe3a!8m2!3d30.7199102!4d-88.158482",godfathers_pizza,
Godfather's Pizza,509 E Main St,ALBERT LEA,MN,56007-2935,5073731447.0,"https://www.google.com/maps/place/Godfather's+Pizza/@43.6495822,-93.3649931,17z/data=!4m5!3m4!1s0x87f136946b075db5:0xf38e9fc84af91a2b!8m2!3d43.6495783!4d-93.3628044?hl=en",godfathers_pizza,
Godfather's Pizza,4501 Abbott Dr,OMAHA,NE,68110-2695,4024226376.0,"https://www.google.com/maps/place/Godfather's+Pizza/@41.3003846,-95.8994989,17z/data=!3m1!4b1!4m5!3m4!1s0x87939007d3080a35:0xd44a52871d795e78!8m2!3d41.3003846!4d-95.8994989",godfathers_pizza,
Godfather's Pizza,552 N Court Street,GRAYVILLE,IL,62844,6183757062.0,"https://www.google.com/maps/place/Godfather's+Pizza/@38.2621378,-87.9968133,17z/data=!3m1!4b1!4m5!3m4!1s0x8871bd2144890229:0x8aded8b711aee7ac!8m2!3d38.2621378!4d-87.9968133",godfathers_pizza,
Godfather's Pizza,5220 S 48th St,LINCOLN,NE,68516-2250,4024834129.0,"https://www.google.com/maps/place/Godfather's+Pizza/@40.7609668,-96.6533686,17z/data=!3m1!4b1!4m5!3m4!1s0x87969605285e0aa7:0xaf51cb346f545a4a!8m2!3d40.7609668!4d-96.6533686",godfathers_pizza,
Godfather's Pizza,5300 SW 17th St,TOPEKA,KS,66604-2459,7852730313.0,"https://www.google.com/maps/place/Godfather's+Pizza/@39.0377184,-95.7448213,17z/data=!3m1!4b1!4m5!3m4!1s0x87befd699ff564df:0xe202b17b206f62db!8m2!3d39.0377184!4d-95.7448213",godfathers_pizza,
Godfather's Pizza,5402 NE Antioch Rd,KANSAS CITY,MO,64119-2507,8164543200.0,"https://www.google.com/maps/place/Godfather's+Pizza/@39.1924666,-94.5496789,17z/data=!3m1!4b1!4m5!3m4!1s0x87c0f833d8a6cb8b:0x46eb1d60975bad7b!8m2!3d39.1924666!4d-94.5496789",godfathers_pizza,
Godfather's Pizza,5107 W 41st St,SIOUX FALLS,SD,57106-1463,6053618029.0,"https://www.google.com/maps/place/Godfather's+Pizza/@43.5145795,-96.7888313,17z/data=!3m1!4b1!4m5!3m4!1s0x878eca2a4561b7d1:0xb17abb9429e8bc25!8m2!3d43.5145795!4d-96.7888313",godfathers_pizza,
Godfather's Pizza,555 Hoffman Rd,JASPER,IN,47546-2674,8126341818.0,"https://www.google.com/maps/place/Godfather's+Pizza/@38.391216,-86.941971,17z/data=!3m1!4b1!4m5!3m4!1s0x886e624d3e612f87:0xbefb498d1487fca7!8m2!3d38.391216!4d-86.941971",godfathers_pizza,
Godfather's Pizza,14139 Q St,OMAHA,NE,68137-2600,4028960555.0,"https://www.google.com/maps/place/Godfather's+Pizza/@41.204856,-96.1354,17z/data=!3m1!4b1!4m5!3m4!1s0x8793f38c7c0ebfef:0x9782edd719b4cb2a!8m2!3d41.204856!4d-96.1354",godfathers_pizza,
Godfather's Pizza,5500 Highway 31 W,PORTLAND,TN,37148-4756,6153251159.0,"https://www.google.com/maps/place/Godfather's+Pizza/@36.5894171,-86.5920636,17z/data=!3m1!4b1!4m5!3m4!1s0x8865b56f09dd1acb:0x4051216c58ded950!8m2!3d36.5894171!4d-86.5920636",godfathers_pizza,
Godfather's Pizza,600 E Fort St,MORGANFIELD,KY,42437,2703899588.0,"https://www.google.com/maps/place/Godfather's+Pizza/@37.6890915,-87.9086299,17z/data=!3m1!4b1!4m5!3m4!1s0x88704168d56e4419:0x9597a3a5ef780c30!8m2!3d37.6890915!4d-87.9086299",godfathers_pizza,
Godfather's Pizza,600 W Oakland Ave,AUSTIN,MN,55912-2316,5074378269.0,"https://www.google.com/maps/place/Godfather's+Pizza/@43.666885,-92.9814719,17z/data=!3m1!4b1!4m5!3m4!1s0x87f0d179c342e357:0xc93c08cafa92c52e!8m2!3d43.666885!4d-92.9814719",godfathers_pizza,
Godfather's Pizza,603 S 13th St,TEKAMAH,NE,68061-1311,4023743920.0,"https://www.google.com/maps/place/Godfather's+Pizza/@41.7722844,-96.2208289,17z/data=!3m1!4b1!4m5!3m4!1s0x87923295ddda4313:0x76372274d1802216!8m2!3d41.7722844!4d-96.2208289",godfathers_pizza,
Godfather's Pizza,620 N Main St,STURGIS,KY,42459-1445,2703339245.0,"https://www.google.com/maps/place/Godfather's+Pizza/@37.5471811,-87.9852954,17z/data=!4m5!3m4!1s0x887068cff51dc047:0xc32f473932f7d14e!8m2!3d37.5471769!4d-87.9831067?hl=en",godfathers_pizza,
Godfather's Pizza,645 Booth St,RENO,NV,89509-1825,7757867191.0,"https://www.google.com/maps/place/Godfather's+Pizza/@39.515641,-119.827591,17z/data=!3m1!4b1!4m5!3m4!1s0x809940d055e23ec3:0x4deb5831c0325187!8m2!3d39.515641!4d-119.827591",godfathers_pizza,
Godfather's Pizza,6029 Nolensville Pike,NASHVILLE,TN,37211-6810,6158319233.0,"https://www.google.com/maps/place/Godfather's+Pizza/@36.0251645,-86.7133975,17z/data=!3m1!4b1!4m5!3m4!1s0x8864703851c08539:0x59a044e1ba82ac7!8m2!3d36.0251645!4d-86.7133975",godfathers_pizza,
Godfather's Pizza,606 E Highway 30,JEFFERSON,IA,50129-1224,5153864913.0,"https://www.google.com/maps/place/Godfather's+Pizza/@42.0352555,-94.3673712,17z/data=!3m1!4b1!4m5!3m4!1s0x87eda7ea0e9f74bd:0x7a1c158c2f7f5e34!8m2!3d42.0352555!4d-94.3673712",godfathers_pizza,
Godfather's Pizza,630 S 6th Ave,DE WITT,IA,52742-9445,5636592517.0,"https://www.google.com/maps/place/Godfather's+Pizza/@41.8087763,-90.5380779,17z/data=!3m1!4b1!4m5!3m4!1s0x87e253c5ebe62ca7:0x544f30d8a8e42df9!8m2!3d41.8087763!4d-90.5380779",godfathers_pizza,
Godfather's Pizza,685 Sweetwater Rd,SPRING VALLEY,CA,91977-5628,6194626580.0,"https://www.google.com/maps/place/Godfather's+Pizza/@32.7085991,-117.0110543,17z/data=!3m1!4b1!4m5!3m4!1s0x80d950f576971837:0xd91bf68fa4aa9a46!8m2!3d32.7085991!4d-117.0110543",godfathers_pizza,
Godfather's Pizza,701 W Cleveland St,HEYWORTH,IL,61745-9349,3094732023.0,"https://www.google.com/maps/place/Huck's+Food+and+Fuel/@40.3124807,-88.9875687,17z/data=!4m8!1m2!2m1!1sGodfather's+Pizza+701+W+Cleveland+St+HEYWORTH+IL+61745-9349!3m4!1s0x880b69d19f877bd5:0x6dc12c2c3e65ac46!8m2!3d40.3124668!4d-88.9854145?hl=en",godfathers_pizza,
Godfather's Pizza,702 S Broadway St,DECATUR,NE,68020-2245,4023495577.0,"https://www.google.com/maps/place/Godfather's+Pizza+Express/@42.0072087,-96.2492775,17z/data=!3m1!4b1!4m5!3m4!1s0x87922338743b5945:0x6d52b9bbd2b1f2e2!8m2!3d42.0072087!4d-96.2492775",godfathers_pizza,
Godfather's Pizza,711 N 2nd St,ABERDEEN,SD,57401-2769,6057253333.0,"https://www.google.com/maps/place/Godfather's+Pizza+Express/@45.4731923,-98.4913908,17z/data=!3m1!4b1!4m5!3m4!1s0x52d2451eff67dc1b:0x55cc430ddaf50dc5!8m2!3d45.4731923!4d-98.4913908",godfathers_pizza,
Godfather's Pizza,712 1/2 Washington Ave,DETROIT LAKES,MN,56501-3012,2188473999.0,"https://www.google.com/maps/place/Godfather's+Pizza/@46.8189344,-95.8476355,17z/data=!4m5!3m4!1s0x52c848bdaccc9d57:0xe3227373b5050b90!8m2!3d46.8189307!4d-95.8454468?hl=en",godfathers_pizza,
Godfather's Pizza,7440 W Baseline Rd,HILLSBORO,OR,97123-6421,5038480100.0,"https://www.google.com/maps/place/Godfather's+Pizza/@45.515471,-122.9037881,17z/data=!3m1!4b1!4m5!3m4!1s0x54950f961f5dac57:0x41bc30e9fd370712!8m2!3d45.515471!4d-122.9037881",godfathers_pizza,
Godfather's Pizza,6851 Broadway,MERRILLVILLE,IN,46410-3051,2197690002.0,"https://www.google.com/maps/place/Godfather's+Pizza/@41.4930457,-87.3354352,17z/data=!3m1!4b1!4m5!3m4!1s0x8811e92c5fe4ad6f:0xcd8783abcec55c39!8m2!3d41.4930457!4d-87.3354352",godfathers_pizza,
Godfather's Pizza,711 E Main St,LAKE CITY,IA,51449-1459,7124643617.0,"https://www.google.com/maps/place/Godfather's+Pizza/@42.2669901,-94.7280378,17z/data=!4m5!3m4!1s0x87ed68287a7132e5:0xd961c36d26243437!8m2!3d42.2669862!4d-94.7258491?hl=en",godfathers_pizza,
Godfather's Pizza,714 W Benjamin Ave,NORFOLK,NE,68701-2983,4023712000.0,"https://www.google.com/maps/place/Godfather's+Pizza/@42.0475874,-97.4161515,17z/data=!3m1!4b1!4m5!3m4!1s0x87903e47ec8d5c3d:0x18c6f4b390e3d740!8m2!3d42.0475874!4d-97.4161515",godfathers_pizza,
Godfather's Pizza,805 Central Ave W,HAMPTON,IA,50441-1930,6414563355.0,"https://www.google.com/maps/place/Godfather's+Pizza/@42.7420301,-93.2177159,17z/data=!3m1!4b1!4m5!3m4!1s0x87f1c92a9823e6f5:0xe741b2847252999!8m2!3d42.7420301!4d-93.2177159",godfathers_pizza,
Godfather's Pizza,818 N Kniss Ave,LUVERNE,MN,56156-1268,5074490335.0,"https://www.google.com/maps/place/Godfather's+Pizza+Express/@43.6628262,-96.2122004,17z/data=!3m1!4b1!4m5!3m4!1s0x878bf70a466eec4b:0x4e0c51b7ce9c39fd!8m2!3d43.6628262!4d-96.2122004",godfathers_pizza,
Godfather's Pizza,770 33rd Ave,COLUMBUS,NE,68601-6428,4025648515.0,"https://www.google.com/maps/place/Godfather's+Pizza/@41.423951,-97.368652,17z/data=!3m1!4b1!4m5!3m4!1s0x8790ebc1f36649d9:0xcd33a8e52c60586e!8m2!3d41.423951!4d-97.368652",godfathers_pizza,
Godfather's Pizza,7920 S 84th St,LA VISTA,NE,68128-2413,4025927880.0,"https://www.google.com/maps/place/Godfather's+Pizza/@41.180648,-96.043697,17z/data=!3m1!4b1!4m5!3m4!1s0x87938b14fc8f2d0b:0x7a2a8ec7d44b220!8m2!3d41.180648!4d-96.043697",godfathers_pizza,
Godfather's Pizza,900 W Motel Dr,LORDSBURG,NM,88045-1625,5755428462.0,"https://www.google.com/maps/place/Godfather's+Pizza+Express/@32.3538584,-108.735689,17z/data=!3m1!4b1!4m5!3m4!1s0x86d901ec0303ef77:0x8acf169cb5e16b33!8m2!3d32.3538584!4d-108.735689",godfathers_pizza,
Godfather's Pizza,2760 Mount Pleasant St,BURLINGTON,IA,52601-2136,3197535957.0,"https://www.google.com/maps/place/Godfather's+Pizza/@40.82626,-91.140878,17z/data=!3m1!4b1!4m5!3m4!1s0x87e1322ea45702c3:0x275322e3baf19b44!8m2!3d40.82626!4d-91.140878",godfathers_pizza,
Godfather's Pizza,9181 N Frederick Pike,CROSS JUNCTION,VA,22625-2159,5408884247.0,"https://www.google.com/maps/place/Godfather's+Pizza/@39.382301,-78.2990322,17z/data=!3m1!4b1!4m5!3m4!1s0x89b58aae7e7d684d:0x26cb9b010e72e9!8m2!3d39.382301!4d-78.2990322",godfathers_pizza,
Godfather's Pizza,904 1st Ave NE,LONG PRAIRIE,MN,56347-1241,3207326670.0,"https://www.google.com/maps/place/Godfather's+Pizza/@45.9753128,-94.8500773,17z/data=!3m1!4b1!4m5!3m4!1s0x52b5dce976587cdf:0x2a89f07aa9bcda54!8m2!3d45.9753128!4d-94.8500773",godfathers_pizza,
Godfather's Pizza,916 W Platt St,MAQUOKETA,IA,52060-2038,5636525200.0,"https://www.google.com/maps/place/Godfather's+Pizza/@42.0693664,-90.6773602,17z/data=!3m1!4b1!4m5!3m4!1s0x87e3035634156757:0x2676f1dd2460871f!8m2!3d42.0693664!4d-90.6773602",godfathers_pizza,
Godfather's Pizza,830 Athens Rd,PRINCETON,WV,24740-6262,3044256630.0,"https://www.google.com/maps/place/Godfather's+Pizza+Express/@37.3749072,-81.0669491,17z/data=!3m1!4b1!4m5!3m4!1s0x884e6c0a5177128d:0xdc0a29951ae16016!8m2!3d37.3749072!4d-81.0669491",godfathers_pizza,
Godfather's Pizza,Hwy 61 & Hwy 92,GRANDVIEW,IA,52752,3197299900.0,"https://www.google.com/maps/place/Godfather's+Pizza/@41.276227,-91.1982337,17z/data=!4m5!3m4!1s0x87e3ffdf49a1fcf5:0xba699363fc53aee3!8m2!3d41.276223!4d-91.196045?hl=en",godfathers_pizza,
Godfather's Pizza,1800 S Highway 25,SUTHERLAND,NE,69165,3083862583.0,"https://www.google.com/maps/place/Godfather's+Pizza+Express/@41.13711,-101.1284817,17z/data=!4m5!3m4!1s0x877643631a9ff2b5:0x22b42d4dd4a0abb0!8m2!3d41.137106!4d-101.126293?hl=en",godfathers_pizza,
Godfather's Pizza,4704 Legends Hwy,GLEN JEAN,WV,25846,3044651488.0,"https://www.google.com/maps/place/Godfather's+Pizza+Express/@37.9229191,-81.1587358,17z/data=!3m1!4b1!4m5!3m4!1s0x884e951172a7f6b9:0xd1727ea12a01a0ac!8m2!3d37.9229191!4d-81.1587358",godfathers_pizza,
Godfather's Pizza,105 N Caraway,JONESBORO,AR,72467-7421,8709722059.0,"https://www.google.com/maps/place/Godfather's+Pizza/@35.8427549,-90.6786807,17z/data=!3m1!4b1!4m5!3m4!1s0x87d42be021939f23:0x810f6e12acf8cd08!8m2!3d35.8427549!4d-90.6786807",godfathers_pizza,
Godfather's Pizza,620 2nd Street,MISSION,SD,57555,6058562166.0,"https://www.google.com/maps/place/Godfather's+Pizza/@43.3050442,-100.6492371,17z/data=!3m1!4b1!4m5!3m4!1s0x877f55243c6299e9:0xb86c28cd7f56bbab!8m2!3d43.3050442!4d-100.6492371",godfathers_pizza,
Godfather's Pizza,9823 N State Road 9,HOPE,IN,47246-8700,8125464449.0,"https://www.google.com/maps/place/Godfather's+Pizza/@39.2967149,-85.7730936,17z/data=!4m5!3m4!1s0x886b089c8766203b:0xe8648288665c1d5b!8m2!3d39.2967108!4d-85.7709049?hl=en",godfathers_pizza,
Godfather's Pizza,12225 N I-35 Truck Stop,EDMOND,OK,73131,4054785766.0,"https://www.google.com/maps/place/Godfather's+Pizza/@35.2730728,-99.5693003,7z/data=!4m8!1m2!2m1!1sGodfather's+Pizza+5317+South+East+44Th+St+NORMAN+OK+73072!3m4!1s0x87b22200d75ee1cd:0x9c5d82537f70490e!8m2!3d35.5940881!4d-97.4366645?hl=en",godfathers_pizza,
Godfather's Pizza,1601 Birkes Rd,EUFAULA,OK,74432,9186899444.0,"https://www.google.com/maps/place/Godfather's+Pizza+Express/@35.3058532,-95.5882223,17z/data=!3m1!4b1!4m5!3m4!1s0x87b5b05ae9b63801:0x894b7bda5478410c!8m2!3d35.3058532!4d-95.5882223",godfathers_pizza,
Godfather's Pizza,780 Jeff Gordon Blvd,PITTSBORO,IN,46167-8814,3178922938.0,"https://www.google.com/maps/place/Godfather's+Pizza+Express/@39.8773931,-86.4739611,17z/data=!3m1!4b1!4m5!3m4!1s0x886cb3ba1007002b:0x31dc2afba6665ac9!8m2!3d39.8773931!4d-86.4739611",godfathers_pizza,
Godfather's Pizza,1215 Friley Hall,AMES,IA,50012-0005,5152944934.0,"https://www.google.com/maps/place/Godfather's+Pizza/@42.0287668,-93.6559455,15z/data=!4m8!1m2!2m1!1sGodfather's+Pizza+1015+Frederiksen+Court+Community+Center+AMES+IA+50010!3m4!1s0x87ee7a739d958087:0x1136bbddacd7235a!8m2!3d42.02493!4d-93.6515515?hl=en",godfathers_pizza,
Godfather's Pizza,901 South St,BURLINGTON,IA,52601-5954,3197521151.0,"https://www.google.com/maps/place/Godfather's+Pizza/@40.7958913,-91.1079277,17z/data=!3m1!4b1!4m5!3m4!1s0x87e131d9f2d9d779:0xc0eafeae1a7d68c5!8m2!3d40.7958913!4d-91.1079277",godfathers_pizza,
Godfather's Pizza,290 Highway 28,MARTENSDALE,IA,50160-7741,6417642700.0,"https://www.google.com/maps/place/Godfather's+Pizza/@41.3735283,-93.7376292,17z/data=!3m1!4b1!4m5!3m4!1s0x87eea8046309b613:0xf50d55e3cb221e0!8m2!3d41.3735283!4d-93.7376292",godfathers_pizza,
Godfather's Pizza,500 State St,GUTHRIE CENTER,IA,50115-1432,6417473235.0,"https://www.google.com/maps/place/Godfather's+Pizza/@41.6769917,-94.504128,17z/data=!4m5!3m4!1s0x87ecfa749bb9700d:0x591d40006ad34d40!8m2!3d41.6769877!4d-94.5019393?hl=en",godfathers_pizza,
Godfather's Pizza,1806 S 12th Ave W,NEWTON,IA,50208-4393,6417912900.0,"https://www.google.com/maps/place/Godfather's+Pizza/@41.6887996,-93.076213,17z/data=!3m1!4b1!4m5!3m4!1s0x87ef1d0d6a64eb55:0xda4c63721f8f99a0!8m2!3d41.6887996!4d-93.076213",godfathers_pizza,
Godfather's Pizza,1221 Washington Ave S,MINNEAPOLIS,MN,55415-1247,6123338900.0,"https://www.google.com/maps/place/Godfather's+Pizza+Express/@44.9739246,-93.2510072,17z/data=!3m1!4b1!4m5!3m4!1s0x52b32d67dba52db1:0xe61d25f3a67d52a7!8m2!3d44.9739246!4d-93.2510072",godfathers_pizza,
Godfather's Pizza,417 N Saddle Creek Rd,OMAHA,NE,68131-2231,4023415353.0,"https://www.google.com/maps/place/Godfather's+Pizza/@41.263607,-95.9804153,17z/data=!3m1!4b1!4m5!3m4!1s0x87938e5b4d378c8b:0xe8eff1ddd3a150d8!8m2!3d41.263607!4d-95.9804153",godfathers_pizza,
Godfather's Pizza,546 County Road M,YUTAN,NE,68073-5034,4026259755.0,"https://www.google.com/maps/place/Godfather's+Pizza/@41.2341788,-96.3950392,17z/data=!3m1!4b1!4m5!3m4!1s0x8793fd70274ff00d:0xf364f3485bef48bb!8m2!3d41.2341788!4d-96.3950392",godfathers_pizza,
Godfather's Pizza,310 8th St S,ALBANY,MN,56307-8722,3208454663.0,"https://www.google.com/maps/place/Godfather's+Pizza+Express/@45.6290745,-94.5739482,17z/data=!3m1!4b1!4m5!3m4!1s0x52b5adcb927bae97:0xcc33c43e1370c13b!8m2!3d45.6290745!4d-94.5739482",godfathers_pizza,
Godfather's Pizza,1100 Pin Oak Dr,CARTERVILLE,IL,62918,6189859516.0,"https://www.google.com/maps/place/Godfather's+Pizza/@37.7460226,-89.0966112,17z/data=!3m1!4b1!4m5!3m4!1s0x88771623dfb3611b:0x21245077814c3bd!8m2!3d37.7460226!4d-89.0966112",godfathers_pizza,
Godfather's Pizza,47018 SD Highway 46,BERESFORD,SD,57004-6453,6059574141.0,"https://www.google.com/maps/place/Godfather's+Pizza+Express/@43.0842627,-96.8025701,17z/data=!3m1!4b1!4m5!3m4!1s0x878ef3b20738a735:0x5a72db95e028d8a9!8m2!3d43.0842627!4d-96.8025701",godfathers_pizza,
Godfather's Pizza,101 W 1st St,TEA,SD,57064-3300,6053689679.0,"https://www.google.com/maps/place/Godfather's+Pizza/@43.4463543,-96.836512,17z/data=!3m1!4b1!4m5!3m4!1s0x878ecf4ce941f795:0x48db7979defeec01!8m2!3d43.4463543!4d-96.836512",godfathers_pizza,
Godfather's Pizza,2117 S 67th St,OMAHA,NE,68106-2810,4025580110.0,"https://www.google.com/maps/place/Godfather's+Pizza/@41.2392452,-96.0143683,17z/data=!3m1!4b1!4m5!3m4!1s0x87938c4e06930f8d:0x4d136b51a0160406!8m2!3d41.2392452!4d-96.0143683",godfathers_pizza,
Godfather's Pizza,2501 210th Ave,PERCIVAL,IA,51648-6049,7123822811.0,"https://www.google.com/maps/place/Godfather's+Pizza/@40.688634,-95.7920463,17z/data=!3m1!4b1!4m5!3m4!1s0x87945ecdb5d37cf5:0xe86b8b7e008bafb3!8m2!3d40.688634!4d-95.7920463",godfathers_pizza,
Godfather's Pizza,200 E 1st St,UTE,IA,51060-1051,7128853356.0,"https://www.google.com/maps/place/Godfather's+Pizza+Express/@42.0518354,-95.7043834,17z/data=!3m1!4b1!4m5!3m4!1s0x8792f5a13da3e4e5:0x4a90e428117e9a26!8m2!3d42.0518354!4d-95.7043834",godfathers_pizza,
Godfather's Pizza,112 N Long St,BANCROFT,IA,50517,5158852169.0,"https://www.google.com/maps/place/Godfather's+Pizza+Express/@43.2939395,-94.2195892,17z/data=!3m1!4b1!4m5!3m4!1s0x87f3bb272b2360fd:0x2b6dcbfb1694c9d7!8m2!3d43.2939395!4d-94.2195892",godfathers_pizza,
Godfather's Pizza,343 W Main St,ARLINGTON,MN,55307-2080,5079642122.0,"https://www.google.com/maps/place/Godfather's+Pizza/@44.6073866,-94.0815225,17z/data=!3m1!4b1!4m5!3m4!1s0x87f5bf92f34ea685:0xfe04d736155659bc!8m2!3d44.6073866!4d-94.0815225",godfathers_pizza,
Godfather's Pizza,1838 N Main St,PRINCETON,IL,61356-9784,8158720630.0,"https://www.google.com/maps/place/Godfather's+Pizza/@41.3929646,-89.4676819,17z/data=!3m1!4b1!4m5!3m4!1s0x88098384f9d089cf:0xae2cdde96e31eece!8m2!3d41.3929646!4d-89.4676819",godfathers_pizza,
Godfather's Pizza,710 Washburn Ave,LAMONT,IA,50650,5639242497.0,"https://www.google.com/maps/place/Godfather's+Pizza/@42.6003968,-91.6474726,17z/data=!3m1!4b1!4m5!3m4!1s0x87fb323832ad1a2f:0x94be91b2b131ab2!8m2!3d42.6003968!4d-91.6474726",godfathers_pizza,
Godfather's Pizza,1586 Mountaineer Hwy,BRADSHAW,WV,24817,3049677217.0,"https://www.google.com/maps/place/Godfather's+Pizza+Express/@37.3701136,-81.7980066,17z/data=!3m1!4b1!4m5!3m4!1s0x884fc0a1a637e46d:0x1d741d020b55ae5!8m2!3d37.3701136!4d-81.7980066",godfathers_pizza,
Godfather's Pizza,925 E Clinton Ave,FARMER CITY,IL,61842-9229,3099289313.0,"https://www.google.com/maps/place/Godfather's+Pizza/@40.243561,-88.6318416,17z/data=!3m1!4b1!4m5!3m4!1s0x880cbccb0b8b332f:0x367d969524597d7a!8m2!3d40.243561!4d-88.6318416",godfathers_pizza,
Godfather's Pizza,200 Highway 151 E,WALFORD,IA,52351-5457,3198466278.0,"https://www.google.com/maps/place/Godfather's+Pizza/@41.8811643,-91.8299961,17z/data=!3m1!4b1!4m5!3m4!1s0x87e5aaccff6a64d1:0xef21980f44f01c73!8m2!3d41.8811643!4d-91.8299961",godfathers_pizza,
Godfather's Pizza,2722 120th St NE,SWISHER,IA,52338-9578,3198574140.0,"https://www.google.com/maps/place/Godfather's+Pizza/@41.8486258,-91.6643379,17z/data=!3m1!4b1!4m5!3m4!1s0x87e459c2901c9e81:0x2d3cd57711b4a0a4!8m2!3d41.8486258!4d-91.6643379",godfathers_pizza,
Godfather's Pizza,701 E Deyoung St,MARION,IL,62959-3330,6189935149.0,"https://www.google.com/maps/place/Godfather's+Pizza/@37.7402139,-88.9204862,17z/data=!4m5!3m4!1s0x887730ea0bdc24ed:0x547c6b158fbcfd01!8m2!3d37.7402097!4d-88.9182975?hl=en",godfathers_pizza,
Godfather's Pizza,402 6th St,NEW BOSTON,IL,61272-7613,3095878345.0,"https://www.google.com/maps/place/Godfather's+Pizza/@41.1712741,-90.9960536,17z/data=!3m1!4b1!4m5!3m4!1s0x87e15b94425a5a69:0xc543b2e1e0a991f9!8m2!3d41.1712741!4d-90.9960536",godfathers_pizza,
Godfather's Pizza,2974 Lenwood Rd,BARSTOW,CA,92311-9571,7602534080.0,"https://www.google.com/maps/place/Godfather's+Pizza+Express/@34.8569519,-117.0914978,17z/data=!3m1!4b1!4m5!3m4!1s0x80c47e9a114462f7:0x4a2af30bc0db93ec!8m2!3d34.8569519!4d-117.0914978",godfathers_pizza,
Godfather's Pizza,1800 3rd Street Nw,GREAT FALLS,MT,59405-4908,4067274992.0,"https://www.google.com/maps/place/Godfather's+Pizza/@47.5235864,-111.3076361,17z/data=!3m1!4b1!4m5!3m4!1s0x534237b8cb10de5d:0x5ff94994af98935d!8m2!3d47.5235864!4d-111.3076361",godfathers_pizza,
Godfather's Pizza,1414 N Burlington Ave,HASTINGS,NE,68901-3013,4023031040.0,"https://www.google.com/maps/place/Godfather's+Pizza/@40.6011312,-98.3913096,17z/data=!3m1!4b1!4m5!3m4!1s0x8799a3d99dd9a151:0x75176b2e363f5402!8m2!3d40.6011312!4d-98.3913096",godfathers_pizza,
Godfather's Pizza,2245 Ragu Dr,OWENSBORO,KY,42303-1437,2706886284.0,"https://www.google.com/maps/place/Godfather's+Pizza/@37.7596571,-87.0760365,17z/data=!4m5!3m4!1s0x886fbabae55aba53:0x303ed5b5c66db72e!8m2!3d37.7596529!4d-87.0738478?hl=en",godfathers_pizza,
Godfather's Pizza,300 E Parrish Ave,OWENSBORO,KY,42303-3051,2709264653.0,"https://www.google.com/maps/place/Godfather's+Pizza/@37.7641551,-87.1068394,17z/data=!3m1!4b1!4m5!3m4!1s0x886fba7b664a111d:0x57afa2762f57024d!8m2!3d37.7641551!4d-87.1068394",godfathers_pizza,
Godfather's Pizza,556 Sargent St,BEATRICE,NE,68310-1201,4028064406.0,"https://www.google.com/maps/place/Godfather's+Pizza/@40.2922594,-96.7497201,17z/data=!4m5!3m4!1s0x879667f4390a011f:0x45a24798df1d5d8d!8m2!3d40.2922553!4d-96.7475314?hl=en",godfathers_pizza,
Godfather's Pizza,15625 C W Hadan Dr,BENNINGTON,NE,68007-2016,4025755512.0,"https://www.google.com/maps/place/Godfather's+Pizza+Express/@41.3716306,-96.1599276,17z/data=!3m1!4b1!4m5!3m4!1s0x8793e95bf3383513:0x65f1b9256179355d!8m2!3d41.3716306!4d-96.1599276",godfathers_pizza,
Godfather's Pizza,1049 W 2nd St,OTTUMWA,IA,52501-1704,6416821206.0,"https://www.google.com/maps/place/Godfather's+Pizza/@41.0285202,-92.4269587,17z/data=!4m5!3m4!1s0x87e61dcc43d69f71:0xf827d3a991ae1df0!8m2!3d41.0285162!4d-92.42477?hl=en",godfathers_pizza,
Godfather's Pizza,1300 Nicolaus Dr,WILTON,IA,52778-7830,5637323714.0,"https://www.google.com/maps/place/Godfather's+Pizza/@41.5898733,-91.0347621,17z/data=!3m1!4b1!4m5!3m4!1s0x87e3ed36d2ee8a6f:0xbf4e53c64af6a0f5!8m2!3d41.5898733!4d-91.0347621",godfathers_pizza,
Godfather's Pizza,5800 Wilmington Pike,CENTERVILLE,OH,45459-7004,9374337777.0,"https://www.google.com/maps/place/Godfather's+Pizza/@39.6585898,-84.1087913,17z/data=!3m1!4b1!4m5!3m4!1s0x88408ffb2408743b:0xcb22072e8c6d2be1!8m2!3d39.6585898!4d-84.1087913",godfathers_pizza,
Godfather's Pizza,2402 Okoboji Ave,MILFORD,IA,51351,7123389000.0,"https://www.google.com/maps/place/Godfather's+Pizza/@43.338824,-95.1493367,17z/data=!3m1!4b1!4m5!3m4!1s0x878cc9859468f8bd:0x9f7a705917c2e869!8m2!3d43.338824!4d-95.1493367",godfathers_pizza,
Godfather's Pizza,23 Veterans Dr N,HUNTINGDON,TN,38344-6223,7315353550.0,"https://www.google.com/maps/place/Godfather's+Pizza/@35.9950941,-88.4396436,17z/data=!4m8!1m2!2m1!1sGodfather's+Pizza+23+Veterans+Dr+N+HUNTINGDON+TN+38344-6223!3m4!1s0x887b8c85bb64c7f5:0xb51f7bfcc9df1499!8m2!3d35.9949696!4d-88.4377094?hl=en",godfathers_pizza,
Godfather's Pizza,509 Main St W,BAUDETTE,MN,56623-2481,2186343317.0,"https://www.google.com/maps/place/Godfather's+Pizza/@48.7121511,-94.6074946,17z/data=!3m1!4b1!4m5!3m4!1s0x52becea4a3226887:0x7a46062474ad654!8m2!3d48.7121511!4d-94.6074946",godfathers_pizza,
Godfather's Pizza,103 E 5th St,MOUNTAIN VIEW,MO,65548-6721,4179345334.0,"https://www.google.com/maps/place/Godfather's+Pizza/@36.9994072,-91.7010781,17z/data=!3m1!4b1!4m5!3m4!1s0x87d08dbb9178985f:0x40a924f4e5239d2e!8m2!3d36.9994072!4d-91.7010781",godfathers_pizza,
Godfather's Pizza,13504 238th St,GREENWOOD,NE,68366-1604,4029442677.0,"https://www.google.com/maps/place/Godfather's+Pizza/@40.974585,-96.3869409,17z/data=!3m1!4b1!4m5!3m4!1s0x8794028d49029c47:0xa0b8a41f50b61a07!8m2!3d40.974585!4d-96.3869409",godfathers_pizza,
Godfather's Pizza,1501 1st Ave E,CASCADE,IA,52033-7718,5638523510.0,"https://www.google.com/maps/place/Godfather's+Pizza/@42.3069739,-90.99489,17z/data=!3m1!4b1!4m5!3m4!1s0x87e343f33142306f:0xdc439af088a3f07b!8m2!3d42.3069739!4d-90.99489",godfathers_pizza,
Godfather's Pizza,7215 Black Hawk Road,BLACK HAWK,SD,57718,6057914959.0,"https://www.google.com/maps/place/Godfather's+Pizza/@44.1538353,-103.3107756,17z/data=!3m1!4b1!4m5!3m4!1s0x877d5bd6f158489f:0xd1056eefe4cd1faa!8m2!3d44.1538353!4d-103.3107756",godfathers_pizza,
Godfather's Pizza,100 E 6th St,IRAAN,TX,79744,4326392095.0,"https://www.google.com/maps/place/Godfather's+Pizza/@30.9136861,-101.8976139,17z/data=!3m1!4b1!4m5!3m4!1s0x86f7500dab9bd1a1:0x797728c83e7c58ee!8m2!3d30.9136861!4d-101.8976139",godfathers_pizza,
Godfather's Pizza,200 Tower Rd,DAKOTA DUNES,SD,57049-5080,6052422020.0,"https://www.google.com/maps/place/Godfather's+Pizza/@42.5039926,-96.4945608,17z/data=!3m1!4b1!4m5!3m4!1s0x878e05de3fdd0c45:0x41b237a5daa73598!8m2!3d42.5039926!4d-96.4945608",godfathers_pizza,
Godfather's Pizza,2021 GA Highway 32 W,ALMA,GA,31510-4366,9126320099.0,"https://www.google.com/maps/place/Godfather's+Pizza/@31.543828,-82.525133,17z/data=!3m1!4b1!4m5!3m4!1s0x88f018f9209b4789:0xd4be948e6b87f874!8m2!3d31.543828!4d-82.525133",godfathers_pizza,
Godfather's Pizza,1020 Old Post Rd,SIDNEY,NE,69162,3082544155.0,"https://www.google.com/maps/place/Godfather's+Pizza/@41.1157834,-102.9718872,17z/data=!3m1!4b1!4m5!3m4!1s0x8771add02efc3339:0xf07934ae780c0195!8m2!3d41.1157834!4d-102.9718872",godfathers_pizza,
Godfather's Pizza,291 Springboro Pike,DAYTON,OH,45449-3642,9372911999.0,"https://www.google.com/maps/place/Godfather's+Pizza/@39.6433091,-84.2260168,17z/data=!3m1!4b1!4m5!3m4!1s0x884088f9d1e7dea1:0x606a4e1743da106e!8m2!3d39.6433091!4d-84.2260168",godfathers_pizza,
Godfather's Pizza,101 South State,BRONTE,TX,76933,3254736601.0,"https://www.google.com/maps/place/Godfather's+Pizza/@31.8870041,-100.2913644,17z/data=!3m1!4b1!4m5!3m4!1s0x8657ca5a233a4cb9:0xf4e1f157d1768efa!8m2!3d31.8870041!4d-100.2913644",godfathers_pizza,
Godfather's Pizza,1015 Frederiksen Court Community Center,AMES,IA,50010,5152942962.0,"https://www.google.com/maps/place/Godfather's+Pizza+Express/@42.0287668,-93.6559455,15z/data=!4m8!1m2!2m1!1sGodfather's+Pizza+1015+Frederiksen+Court+Community+Center+AMES+IA+50010!3m4!1s0x87ee70bd93b7ec79:0x99fe891310631297!8m2!3d42.033916!4d-93.642876?hl=en",godfathers_pizza,
Godfather's Pizza,3990 E Andrew Johnson Hwy,GREENEVILLE,TN,37745-0615,4237981999.0,"https://www.google.com/maps/place/Godfather's+Pizza+Express/@36.1831577,-82.7561528,17z/data=!3m1!4b1!4m5!3m4!1s0x885a4f9ae492f45b:0x59e07a22395358dc!8m2!3d36.1831577!4d-82.7561528",godfathers_pizza,
Godfather's Pizza,701 S 4th St,PENDER,NE,68047-4451,4023856120.0,"https://www.google.com/maps/place/Godfather's+Pizza/@42.1066679,-96.7077517,17z/data=!3m1!4b1!4m5!3m4!1s0x8791ea2d30d8ff2d:0x32f1d28b29205bd6!8m2!3d42.1066679!4d-96.7077517",godfathers_pizza,
Godfather's Pizza,2299 US Highway 62 W,KUTTAWA,KY,42055-6105,2703888196.0,"https://www.google.com/maps/place/Godfather's+Pizza+Express/@37.0716802,-88.1236061,17z/data=!3m1!4b1!4m5!3m4!1s0x887a88fc3b1df789:0x75252135138e12c1!8m2!3d37.0716802!4d-88.1236061",godfathers_pizza,
Godfather's Pizza,901 E Washington St,MOUNT PLEASANT,IA,52641-1948,3193854112.0,"https://www.google.com/maps/place/Godfather's+Pizza/@40.9645259,-91.5411534,17z/data=!3m1!4b1!4m5!3m4!1s0x87e6953f38113f75:0x5b4b3659d4f11bda!8m2!3d40.9645259!4d-91.5411534",godfathers_pizza,
Godfather's Pizza,7225 N Allen Rd,PEORIA,IL,61614-1107,3096922403.0,"https://www.google.com/maps/place/Godfather's+Pizza+Express/@40.77585,-89.631671,17z/data=!3m1!4b1!4m5!3m4!1s0x880a5c9883377181:0x8e84fecf0f6dbf37!8m2!3d40.77585!4d-89.631671",godfathers_pizza,
Godfather's Pizza,2950 S Main Avenue,SIOUX CENTER,IA,51250,7127222530.0,"https://www.google.com/maps/place/Godfather's+Pizza+Express/@43.0458274,-96.1743083,17z/data=!3m1!4b1!4m5!3m4!1s0x878c33a012b0eeb5:0x2f66df8b13ed8185!8m2!3d43.0458274!4d-96.1743083",godfathers_pizza,
Godfather's Pizza,2766 US Highway 17 S,BRUNSWICK,GA,31523-7775,9122642777.0,"https://www.google.com/maps/place/Godfather's+Pizza+Express/@31.1373946,-81.5718859,17z/data=!3m1!4b1!4m5!3m4!1s0x88e526456d393c3f:0xc612b482e4336761!8m2!3d31.1373946!4d-81.5718859",godfathers_pizza,
Godfather's Pizza,1808 Indianapolis Rd,CRAWFORDSVILLE,IN,47933-3133,7653623440.0,"https://www.google.com/maps/place/Godfather's+Pizza+Express/@40.038699,-86.872983,17z/data=!3m1!4b1!4m5!3m4!1s0x8813299770541489:0x407c2b34fa6b3b5a!8m2!3d40.038699!4d-86.872983",godfathers_pizza,
Godfather's Pizza,506 Highway 59 N,DENISON,IA,51442-2716,7122636752.0,"https://www.google.com/maps/place/Godfather's+Pizza+Express/@42.0237409,-95.3710527,17z/data=!3m1!4b1!4m5!3m4!1s0x8792c222e5644163:0x4f711136a5305b48!8m2!3d42.0237409!4d-95.3710527",godfathers_pizza,
Godfather's Pizza,1961 Highway 30,MISSOURI VALLEY,IA,51555-5072,7126428577.0,"https://www.google.com/maps/place/Godfather's+Pizza+Express/@41.5505141,-95.9233923,17z/data=!3m1!4b1!4m5!3m4!1s0x8793bb129258ffa9:0xc0751306b06bcb59!8m2!3d41.5505141!4d-95.9233923",godfathers_pizza,
Godfather's Pizza,2100 S Main St,MONTICELLO,IA,52310-4705,3194653212.0,"https://www.google.com/maps/place/Godfather's+Pizza/@42.2097837,-91.1905306,17z/data=!3m1!4b1!4m5!3m4!1s0x87e360742fd000f9:0x79f26c449786fc81!8m2!3d42.2097837!4d-91.1905306",godfathers_pizza,
Godfather's Pizza,620 Meade Dr,NORTH LIBERTY,IA,52317-8804,3196652529.0,"https://www.google.com/maps/place/Godfather's+Pizza+Express/@41.7527847,-91.6081397,17z/data=!3m1!4b1!4m5!3m4!1s0x87e45b4d88670997:0xfe4b8c01320c20a7!8m2!3d41.7527847!4d-91.6081397",godfathers_pizza,
Godfather's Pizza,814 C Ave,VINTON,IA,52349-1353,3194723873.0,"https://www.google.com/maps/place/Godfather's+Pizza+Express/@42.163117,-92.027544,17z/data=!3m1!4b1!4m5!3m4!1s0x87e516e1e16a6791:0x31df914303cfc74b!8m2!3d42.163117!4d-92.027544",godfathers_pizza,
Godfather's Pizza,100 N Highway 81,ARLINGTON,SD,57212-2065,6059835771.0,"https://www.google.com/maps/place/Godfather's+Pizza+Express/@44.361899,-97.129276,17z/data=!3m1!4b1!4m5!3m4!1s0x87884d03eac3389d:0x941644f4fd8f054d!8m2!3d44.361899!4d-97.129276",godfathers_pizza,
Godfather's Pizza,107 8th Ave SE,WATFORD CITY,ND,58854-6846,7018423704.0,"https://www.google.com/maps/place/Godfather's+Pizza/@47.792957,-103.2819181,17z/data=!3m1!4b1!4m5!3m4!1s0x5326b776d903f2c3:0x67bdcc45c538f828!8m2!3d47.792957!4d-103.2819181",godfathers_pizza,
Godfather's Pizza,1801 Benton Rd,MOUNT VERNON,IL,62864-6129,6182420254.0,"https://www.google.com/maps/place/Godfather's+Pizza/@38.2993806,-88.9057284,17z/data=!4m8!1m2!2m1!1sGodfather's+Pizza+1801+Benton+Rd+MOUNT+VERNON+IL+62864-6129!3m4!1s0x8876c832b56ff2db:0x33c3bdbcdbc4add6!8m2!3d38.2994121!4d-88.9035317?hl=en",godfathers_pizza,
Godfather's Pizza,1415 W 11th St,QUANAH,TX,79252-6109,9406632567.0,"https://www.google.com/maps/place/Godfather's+Pizza+Express/@34.2920523,-99.7579521,17z/data=!3m1!4b1!4m5!3m4!1s0x87ab2f88974a58db:0x688bfffbc4044d64!8m2!3d34.2920523!4d-99.7579521",godfathers_pizza,
Godfather's Pizza,900 N 12th St,MURRAY,KY,42071-1695,2709784552.0,"https://www.google.com/maps/place/Huck's+Food+and+Fuel/@36.6134304,-88.3251012,15z/data=!4m8!1m2!2m1!1sGodfather's+Pizza+900+N+12th+St+MURRAY+KY+42071-1695!3m4!1s0x887a529a776c0a57:0x3273e276869a34e6!8m2!3d36.6275477!4d-88.3132994?hl=en",godfathers_pizza,
Godfather's Pizza,2935 N Mitthoeffer Rd,INDIANAPOLIS,IN,46229-1341,3178947995.0,"https://www.google.com/maps/place/Godfather's+Pizza+Express/@39.7396895,-86.0742494,12z/data=!4m8!1m2!2m1!1sGodfather's+Pizza+INDIANAPOLIS+IN!3m4!1s0x886b496aed98d5e7:0x1a2305249491ff82!8m2!3d39.811264!4d-85.990287?hl=en",godfathers_pizza,
Godfather's Pizza,708 Main St,GRISWOLD,IA,51535,7127782660.0,"https://www.google.com/maps/place/Godfather's+Pizza+Express/@41.2344546,-95.1394692,17z/data=!3m1!4b1!4m5!3m4!1s0x8793541c8d6d646b:0xc7d531e12e9a97a8!8m2!3d41.2344546!4d-95.1394692",godfathers_pizza,
Godfather's Pizza,110 S Market St,SOLON,IA,52333-8830,3196242413.0,"https://www.google.com/maps/place/Godfather's+Pizza+Express/@41.8069151,-91.4927873,17z/data=!3m1!4b1!4m5!3m4!1s0x87e4671769da154b:0x515cd92da776f499!8m2!3d41.8069151!4d-91.4927873",godfathers_pizza,
Godfather's Pizza,191 40th St W,DICKINSON,ND,58601-8594,7014833834.0,"https://www.google.com/maps/place/Godfather's+Pizza+Express/@46.9186895,-102.7885285,17z/data=!3m1!4b1!4m5!3m4!1s0x532619cfd56f211f:0x96d7191b7c44970a!8m2!3d46.9186895!4d-102.7885285",godfathers_pizza,
Godfather's Pizza,701 Avenue A,FARWELL,TX,79325-5674,8064812253.0,"https://www.google.com/maps/place/Godfather's+Pizza/@34.3884511,-103.0347794,17z/data=!3m1!4b1!4m5!3m4!1s0x8702e4f8afe6cff3:0xf653157747a40a47!8m2!3d34.3884511!4d-103.0347794",godfathers_pizza,
Godfather's Pizza,5200 Cholla Rd,MIDLAND,TX,79706-3399,4326992449.0,"https://www.google.com/maps/place/Godfather's+Pizza/@31.9471786,-102.140594,17z/data=!3m1!4b1!4m5!3m4!1s0x86fbd75e773254f1:0xe5fb8d88125afb36!8m2!3d31.9471786!4d-102.140594",godfathers_pizza,
Godfather's Pizza,3070 Lake Rd,DYERSBURG,TN,38024-1693,7312870941.0,"https://www.google.com/maps/place/Godfather's+Pizza+Express/@36.0710759,-89.3959044,17z/data=!3m1!4b1!4m5!3m4!1s0x8879281f9ff64aad:0x5fb66c0844cf73f6!8m2!3d36.0710759!4d-89.3959044",godfathers_pizza,
Godfather's Pizza,135 US Highway 319 S,MOULTRIE,GA,31768-7952,8004568347.0,"https://www.google.com/maps/place/Godfather's+Pizza+Express/@31.1143429,-83.7852419,17z/data=!3m1!4b1!4m5!3m4!1s0x88ede82042a46345:0x19c4c75d1e9eab0!8m2!3d31.1143429!4d-83.7852419",godfathers_pizza,
Godfather's Pizza,432 S Grand St,CRESCENT,OK,73028-9118,4059693639.0,"https://www.google.com/maps/place/Godfather's+Pizza+Express/@35.9464189,-97.5946072,17z/data=!3m1!4b1!4m5!3m4!1s0x87b1e8b750e55555:0x5a0a2f0fd5ef21b6!8m2!3d35.9464189!4d-97.5946072",godfathers_pizza,
Godfather's Pizza,301 W Walnut St,HERINGTON,KS,67449-2441,7852583202.0,"https://www.google.com/maps/place/Godfather's+Pizza+Express/@38.669976,-96.9473973,17z/data=!3m1!4b1!4m5!3m4!1s0x87bc65bc7228fb7b:0xe4fb05e1036515c4!8m2!3d38.669976!4d-96.9473973",godfathers_pizza,
Godfather's Pizza,1217 Trollingwood Hawfieldsrd,MEBANE,NC,27302,9195631814.0,"https://www.google.com/maps/place/Godfather's+Pizza+Express/@36.0680951,-79.3131336,17z/data=!3m1!4b1!4m5!3m4!1s0x89acd4407740a847:0xe1dbfc283127eb97!8m2!3d36.0680951!4d-79.3131336",godfathers_pizza,
Godfather's Pizza,1001 Highway 76,WHITE HOUSE,TN,37188-9214,6156720261.0,"https://www.google.com/maps/place/Godfather's+Pizza+Express/@36.4678163,-86.6874668,17z/data=!3m1!4b1!4m5!3m4!1s0x88644e9a50cf4dbd:0xe66dc3b073597c79!8m2!3d36.4678163!4d-86.6874668",godfathers_pizza,
Godfather's Pizza,1190 Frank Amerson Pkwy,MACON,GA,31216-4941,4787858715.0,"https://www.google.com/maps/place/Godfather's+Pizza+Express/@32.7175548,-83.7335108,17z/data=!3m1!4b1!4m5!3m4!1s0x88f3e52f4baceb2d:0xad304ba8de453dea!8m2!3d32.7175548!4d-83.7335108",godfathers_pizza,
Godfather's Pizza,10125 Dixie Beeline Hwy,GUTHRIE,KY,42234-9204,2704839046.0,"https://www.google.com/maps/place/Godfather's+Pizza+Express/@36.6462918,-87.1991313,17z/data=!4m5!3m4!1s0x88651f3c0706b569:0x818950db789ee341!8m2!3d36.6462875!4d-87.1969426?hl=en",godfathers_pizza,
Godfather's Pizza,100 Monroe St,FLOYD,IA,50435,6413982440.0,"https://www.google.com/maps/place/Godfather's+Pizza+Express/@43.1228948,-92.7350112,17z/data=!3m1!4b1!4m5!3m4!1s0x87f061ca93749473:0x38b8be5a04d107!8m2!3d43.1228948!4d-92.7350112",godfathers_pizza,
Godfather's Pizza,150 Spitler Park Dr,MT ZION,IL,62549-1287,2178642334.0,"https://www.google.com/maps/place/Godfather's+Pizza+Express/@39.78142,-88.8718012,17z/data=!4m5!3m4!1s0x8874a5da1c886791:0xf1caedf739befa50!8m2!3d39.7814159!4d-88.8696125?hl=en",godfathers_pizza,
Godfather's Pizza,1712 N Summit St,ARKANSAS CITY,KS,67005-3919,6204429302.0,"https://www.google.com/maps/place/Godfather's+Pizza+Express/@37.082766,-97.039646,17z/data=!3m1!4b1!4m5!3m4!1s0x87b081d0add8545f:0xfd5fa3d30bbc0c41!8m2!3d37.082766!4d-97.039646",godfathers_pizza,
Godfather's Pizza,1221 10th St,GREAT BEND,KS,67530-5610,6207926731.0,"https://www.google.com/maps/place/Godfather's+Pizza+Express/@38.3612654,-98.7542743,17z/data=!3m1!4b1!4m5!3m4!1s0x87a38a2eb4d091d5:0xa5d0f1c0f9e4ac3!8m2!3d38.3612654!4d-98.7542743",godfathers_pizza,
Godfather's Pizza,265 W 4th St,COLBY,KS,67701-2240,7854627339.0,"https://www.google.com/maps/place/Godfather's+Pizza+Express/@39.3974005,-101.0500893,17z/data=!4m5!3m4!1s0x870acbbe1a96599f:0xed87e95d20605b5f!8m2!3d39.3973964!4d-101.0479006?hl=en",godfathers_pizza,
Godfather's Pizza,1326 S 4th St,CHICKASHA,OK,73018-4636,4052222355.0,"https://www.google.com/maps/place/Godfather's+Pizza+Express/@35.2730728,-99.5693003,7z/data=!4m8!1m2!2m1!1sGodfather's+Pizza+5317+South+East+44Th+St+NORMAN+OK+73072!3m4!1s0x87ad83675474e3bf:0x274cd32d075b3d46!8m2!3d35.0372208!4d-97.937092?hl=en",godfathers_pizza,
Godfather's Pizza,10875 N Pennsylvania Ave,OKLAHOMA CITY,OK,73120-4105,4057524224.0,"https://www.google.com/maps/place/Godfather's+Pizza+Express/@35.5796816,-97.5497515,17z/data=!3m1!4b1!4m5!3m4!1s0x87b21b9265fdd149:0xc763dd8579980776!8m2!3d35.5796816!4d-97.5497515",godfathers_pizza,
Godfather's Pizza,619 N Main St,ALTUS,OK,73521-3111,5804826167.0,"https://www.google.com/maps/place/Godfather's+Pizza+Express/@34.6441006,-99.3344921,17z/data=!3m1!4b1!4m5!3m4!1s0x87ab650f6465b071:0x34c8379b2a88ec0f!8m2!3d34.6441006!4d-99.3344921",godfathers_pizza,
Godfather's Pizza,111 E Downing St,TAHLEQUAH,OK,74464-2821,9184560385.0,"https://www.google.com/maps/place/Godfather's+Pizza+Express/@36.3135229,-106.3370717,5z/data=!4m8!1m2!2m1!1sGodfather's+Pizza+5317+South+East+44Th+St+NORMAN+OK+73072!3m4!1s0x87c9fbf17876d161:0x40e03e5158f2d0fb!8m2!3d35.9155257!4d-94.9689396?hl=en",godfathers_pizza,
Godfather's Pizza,300 N Mississippi Ave,ADA,OK,74820-5239,5803324294.0,"https://www.google.com/maps/place/Godfather's+Pizza+Express/@34.7759413,-96.6951024,14z/data=!4m8!1m2!2m1!1sGodfather's+Pizza+524+W+Main+St+ADA+OK+74820-5410!3m4!1s0x87b36c04844f25ed:0xc98c0516ff561b8c!8m2!3d34.7770005!4d-96.6695589?hl=en",godfathers_pizza,
Godfather's Pizza,100 E Walnut St,TECUMSEH,OK,74873-2028,4055986000.0,"https://www.google.com/maps/place/Godfather's+Pizza+Express/@35.2605122,-96.9365757,17z/data=!3m1!4b1!4m5!3m4!1s0x87b3b0bc32ca5483:0x454cf83a76cb3192!8m2!3d35.2605122!4d-96.9365757",godfathers_pizza,
Godfather's Pizza,219 S Boykin Dr,MEMPHIS,TX,79245-3403,8062592300.0,"https://www.google.com/maps/place/Godfather's+Pizza+Express/@34.723125,-100.53373,17z/data=!3m1!4b1!4m5!3m4!1s0x87aa80d24043a95f:0xd7416bb773538984!8m2!3d34.723125!4d-100.53373",godfathers_pizza,
Godfather's Pizza,605 N Main St,LAMAR,CO,81052-2233,7193365202.0,"https://www.google.com/maps/place/Godfather's+Pizza+Express/@38.0959777,-102.6224196,17z/data=!3m1!4b1!4m5!3m4!1s0x870c258017f0cf7f:0x1778274210c341c2!8m2!3d38.0959735!4d-102.6202309?hl=en",godfathers_pizza,
Godfather's Pizza,703 S 1st St,CLAYTON,NM,88415-2313,5753749548.0,"https://www.google.com/maps/place/Godfather's+Pizza+Express/@36.4453158,-103.180078,17z/data=!3m1!4b1!4m5!3m4!1s0x87055d85fc6ad23f:0xb96bc37b6340bb9!8m2!3d36.4453158!4d-103.180078",godfathers_pizza,
Godfather's Pizza,811 N Broadway St,MARLOW,OK,73055-1222,5806585798.0,"https://www.google.com/maps/place/Godfather's+Pizza+Express/@34.6566897,-97.9580612,17z/data=!3m1!4b1!4m5!3m4!1s0x87ad67d66d24b88f:0xdf427926f67895f6!8m2!3d34.6566897!4d-97.9580612",godfathers_pizza,
Godfather's Pizza,701 S Broadway St,MARLOW,OK,73055-3313,5806582362.0,"https://www.google.com/maps/place/Godfather's+Pizza+Express/@34.6566897,-97.9580612,17z/data=!3m1!4b1!4m5!3m4!1s0x87ad67d66d24b88f:0xdf427926f67895f6!8m2!3d34.6566897!4d-97.9580612",godfathers_pizza,
Godfather's Pizza,202 W Main St,DUNCAN,OK,73533-7026,5802528900.0,"https://www.google.com/maps/place/Godfather's+Pizza+Express/@34.5005989,-97.9476764,17z/data=!3m1!4b1!4m5!3m4!1s0x87ad5b458e46f903:0xc54ffef74486f601!8m2!3d34.5005989!4d-97.9476764",godfathers_pizza,
Godfather's Pizza,101 SE 2nd St,GUYMON,OK,73942-5241,5803382414.0,"https://www.google.com/maps/place/Godfather's+Pizza+Express/@36.6772808,-101.4813348,17z/data=!3m1!4b1!4m5!3m4!1s0x870628e06e1f5745:0xbf11b7fceb1ec0f8!8m2!3d36.6772808!4d-101.4813348",godfathers_pizza,
Godfather's Pizza,1223 N 1st Ave,DURANT,OK,74701-2807,5809249304.0,"https://www.google.com/maps/place/Godfather's+Pizza+Express/@34.002185,-96.3733248,17z/data=!3m1!4b1!4m5!3m4!1s0x864b5fcf0001ec89:0xa52aac4865bb1cfc!8m2!3d34.002185!4d-96.3733248",godfathers_pizza,
Godfather's Pizza,524 W Main St,ADA,OK,74820-5410,5804361292.0,"https://www.google.com/maps/place/Godfather's+Pizza+Express/@35.2730728,-99.5693003,7z/data=!4m8!1m2!2m1!1sGodfather's+Pizza+5317+South+East+44Th+St+NORMAN+OK+73072!3m4!1s0x87b36c733cd274d3:0x56be4c7667f2c4cf!8m2!3d34.7748141!4d-96.6856267?hl=en",godfathers_pizza,
Godfather's Pizza,1537 Grande Ave,MONTE VISTA,CO,81144-1318,7198525032.0,"https://www.google.com/maps/place/Godfather's+Pizza+Express/@37.5783897,-106.1373741,17z/data=!3m1!4b1!4m5!3m4!1s0x8715de34fb7f7d93:0x75f213ddb0481889!8m2!3d37.5783897!4d-106.1373741",godfathers_pizza,
Godfather's Pizza,108 S 12th St,GUNNISON,CO,81230-3102,9706414045.0,"https://www.google.com/maps/place/Godfather's+Pizza+Express/@38.5440222,-106.9344475,17z/data=!3m1!4b1!4m5!3m4!1s0x873f92c2932717a7:0xe51d323692390757!8m2!3d38.5440222!4d-106.9344475",godfathers_pizza,
Godfather's Pizza,3020 Nw Williams Ave,WOODWARD,OK,73801,5802563503.0,"https://www.google.com/maps/place/Love's+Country+Store/@36.4178253,-99.3869739,17z/data=!4m8!1m2!2m1!1sGodfather's+Pizza+3020+Nw+Williams+Ave+WOODWARD+OK+73801!3m4!1s0x87a8c54c6fa5af0f:0x404bff981e0e7ee1!8m2!3d36.4177985!4d-99.3848651?hl=en",godfathers_pizza,
Godfather's Pizza,905 N Broadway,PORTLAND,TN,37148,6153239098.0,"https://www.google.com/maps/place/Godfather's+Pizza+Express/@36.6043606,-86.5365663,17z/data=!3m1!4b1!4m5!3m4!1s0x8865cbaa5ac146d9:0x9e0a77a21f92f7ca!8m2!3d36.6043606!4d-86.5365663",godfathers_pizza,
Godfather's Pizza,524 West Main,DURANT,OK,74701,5809249287.0,"https://www.google.com/maps/place/Godfather's+Pizza+Express/@33.9923749,-96.3815973,17z/data=!3m1!4b1!4m5!3m4!1s0x864b5fdeb6e19f53:0x99e3e95af03e51df!8m2!3d33.9923749!4d-96.3815973",godfathers_pizza,
Godfather's Pizza,110 Locust St,ATLANTIC,IA,50022,7122431916.0,"https://www.google.com/maps/place/Godfather's+Pizza+Express/@41.4093201,-95.0153794,17z/data=!3m1!4b1!4m5!3m4!1s0x87ecb38055edb839:0x7316f50e22707!8m2!3d41.4093201!4d-95.0153794",godfathers_pizza,
Godfather's Pizza,905 Steele Station Rd,STEELE,AL,35987,2565381964.0,"https://www.google.com/maps/place/Godfather's+Pizza+Express/@33.9338277,-86.1910098,17z/data=!3m1!4b1!4m5!3m4!1s0x888a26140fc425f1:0xaab539ae6ad0bc41!8m2!3d33.9338277!4d-86.1910098",godfathers_pizza,
Godfather's Pizza,300 S.E. 291 Hwy,LEE'S SUMMIT,MO,64063,8165245437.0,"https://www.google.com/maps/place/Godfather's+Pizza+Express/@39.00362,-94.35475,17z/data=!3m1!4b1!4m5!3m4!1s0x87c11c33101225bb:0xf3ff60f09faa6fc0!8m2!3d39.00362!4d-94.35475",godfathers_pizza,
Godfather's Pizza,3301 O St,LINCOLN,NE,68510,4024753333.0,"https://www.google.com/maps/place/Godfather's+Pizza/@40.813179,-96.6724455,17z/data=!3m1!4b1!4m5!3m4!1s0x8796bff156ddbffb:0xf06a26a1b33c4e36!8m2!3d40.813179!4d-96.6724455",godfathers_pizza,
Godfather's Pizza,2994 Fulmer Dr,BARGERSVILLE,IN,46106,3175302666.0,"https://www.google.com/maps/place/Godfather's+Pizza+Express/@39.547699,-86.1581247,17z/data=!3m1!4b1!4m5!3m4!1s0x886b67209d150a19:0x6f08f653c2d0789b!8m2!3d39.547699!4d-86.1581247",godfathers_pizza,
Godfather's Pizza,305 West Robert South Kerr Blvd,WYNNEWOOD,OK,73098,4056652010.0,"https://www.google.com/maps/place/Godfather's+Pizza+Express/@34.6418439,-97.1731991,17z/data=!3m1!4b1!4m5!3m4!1s0x87b2de05d0862215:0xe20b0ffd7ccd07ec!8m2!3d34.6418439!4d-97.1731991",godfathers_pizza,
Godfather's Pizza,304 West Russworm,WATONGA,OK,73772,5806234578.0,"https://www.google.com/maps/place/Godfather's+Pizza+Express/@35.8415222,-98.4159453,17z/data=!3m1!4b1!4m5!3m4!1s0x87ae639f1c153b81:0x32d4fa4db5355619!8m2!3d35.8415222!4d-98.4159453",godfathers_pizza,
Godfather's Pizza,2605 East Bankhead Dr,WEATHERFORD,TX,76086,8175942755.0,"https://www.google.com/maps/place/Godfather's+Pizza+Express/@32.7429137,-97.7428161,17z/data=!3m1!4b1!4m5!3m4!1s0x864e0305f89054ef:0x2e0e0aef0c11b962!8m2!3d32.7429137!4d-97.7428161",godfathers_pizza,
Godfather's Pizza,Rt 45 & 142,ELDORADO,IL,62930,6182735819.0,"https://www.google.com/maps/place/Godfather's+Pizza/@37.8068933,-88.4393661,17z/data=!3m1!4b1!4m5!3m4!1s0x8870e633779c223f:0x8725b10a6f447617!8m2!3d37.8068933!4d-88.4393661",godfathers_pizza,
Godfather's Pizza,CORNER OF 8TH STREET AND SCHUYLER,OQUAWKA,IL,61469,3098674500.0,"https://www.google.com/maps/place/Godfather's+Pizza/@40.9318685,-90.9480626,17z/data=!3m1!4b1!4m5!3m4!1s0x87e13f0ba700e1eb:0x6e00578bbf09421c!8m2!3d40.9318685!4d-90.9480626",godfathers_pizza,
Godfather's Pizza,1900 S Illinois Ave,CARBONDALE,IL,62903-5904,6183516060.0,"https://www.google.com/maps/place/Godfather's+Pizza/@37.6998098,-89.2219033,17z/data=!3m1!4b1!4m5!3m4!1s0x8877122e3f1d45c5:0x4374c8a1880bc40b!8m2!3d37.6998056!4d-89.2197146?hl=en",godfathers_pizza,
Godfather's Pizza,3570 Lone Oak Rd,PADUCAH,KY,42003-5767,2705540666.0,"https://www.google.com/maps/place/Godfather's+Pizza/@37.0279789,-88.6700798,17z/data=!3m1!4b1!4m5!3m4!1s0x887a1981911f2555:0x7e34b4f5cb2ae1a0!8m2!3d37.0279789!4d-88.6700798",godfathers_pizza,
Godfather's Pizza,411 S 12th St,MURRAY,KY,42071-2343,2707617001.0,"https://www.google.com/maps/place/Godfather's+Pizza/@36.6031386,-88.314712,17z/data=!3m1!4b1!4m5!3m4!1s0x887a52ae3e6b07cb:0x88c3e13bafd6996a!8m2!3d36.6031386!4d-88.314712",godfathers_pizza,
Godfather's Pizza,210 L Street,NELIGH,NE,68756-1444,4028874610.0,"https://www.google.com/maps/place/Godfather's+Pizza/@42.1274748,-98.0291368,17z/data=!3m1!4b1!4m5!3m4!1s0x879ab0bc3eedf5d9:0x1a9f6f4f9ebb7290!8m2!3d42.1274748!4d-98.0291368",godfathers_pizza,
Godfather's Pizza,4700 W 12th St,SIOUX FALLS,SD,57107-0528,6053328911.0,"https://www.google.com/maps/place/Godfather's+Pizza+Express/@43.5443722,-96.7849374,17z/data=!3m1!4b1!4m5!3m4!1s0x878eca505bf2ec29:0xcc26b71a15f4c3e8!8m2!3d43.5443722!4d-96.7849374",godfathers_pizza,
Godfather's Pizza,220 N Highway 115,DELL RAPIDS,SD,57022-5342,6054284360.0,"https://www.google.com/maps/place/Godfather's+Pizza/@43.822365,-96.718119,17z/data=!3m1!4b1!4m5!3m4!1s0x87894732ccad767f:0x828cf5cf42169d9!8m2!3d43.822365!4d-96.718119",godfathers_pizza,
Godfather's Pizza,1302 1st Ave,MANSON,IA,50563-7712,7124692400.0,"https://www.google.com/maps/place/Godfather's+Pizza/@42.5173595,-94.5331259,17z/data=!3m1!4b1!4m5!3m4!1s0x87f28312435743b1:0xeef0b765e393c0c9!8m2!3d42.5173595!4d-94.5331259",godfathers_pizza,
Godfather's Pizza,107 N Main St,ALBIA,IA,52531,6419323011.0,"https://www.google.com/maps/place/Godfather's+Pizza/@41.028321,-92.8075553,17z/data=!3m1!4b1!4m5!3m4!1s0x87e8c717770636ed:0x5c14454e014acceb!8m2!3d41.028321!4d-92.8075553",godfathers_pizza,
Godfather's Pizza,"Rr #3, Box 173D",LANCASTER,MO,63548-4224,6604573559.0,"https://www.google.com/maps/place/Godfather's+Pizza/@40.5097856,-92.5499248,17z/data=!4m5!3m4!1s0x87e8794dd85b9dab:0x5e23c783a714f988!8m2!3d40.5097815!4d-92.5477361?hl=en",godfathers_pizza,
Godfather's Pizza,4108 Highway 63,OTTUMWA,IA,52501-8156,6416828953.0,"https://www.google.com/maps/place/Godfather's+Pizza/@40.9428763,-92.4088858,17z/data=!3m1!4b1!4m5!3m4!1s0x87e61e96ec0422ff:0x9cd744c04fbc6d4f!8m2!3d40.9428763!4d-92.4088858",godfathers_pizza,
Godfather's Pizza,703 N Westwood Blvd,POPLAR BLUFF,MO,63901-4724,5737766423.0,"https://www.google.com/maps/place/Godfather's+Pizza/@36.76378,-90.411933,17z/data=!3m1!4b1!4m5!3m4!1s0x87d7b0c1ccc387df:0xa8727c49502ef0fa!8m2!3d36.76378!4d-90.411933",godfathers_pizza,
Godfather's Pizza,615 N 4th St,CHILLICOTHE,IL,61523-1701,3092744255.0,"https://www.google.com/maps/place/Godfather's+Pizza/@40.914521,-89.4902688,17z/data=!3m1!4b1!4m5!3m4!1s0x880a4975b4da6e69:0x167749e2e265f96e!8m2!3d40.914521!4d-89.4902688",godfathers_pizza,
Godfather's Pizza,349 Tenney St,KEWANEE,IL,61443-3451,3098525249.0,"https://www.google.com/maps/place/Godfather's+Pizza/@41.2286273,-89.9302751,17z/data=!4m5!3m4!1s0x880a0162dd8c02b9:0xb41705d14e32d017!8m2!3d41.2286233!4d-89.9280864?hl=en",godfathers_pizza,
Godfather's Pizza,206 S Center Ave,EPWORTH,IA,52045-7731,5638763800.0,"https://www.google.com/maps/place/Godfather's+Pizza/@42.4434591,-90.9320839,17z/data=!3m1!4b1!4m5!3m4!1s0x87e349bb709a8e7d:0xd8ec60493fc6ef05!8m2!3d42.4434591!4d-90.9320839",godfathers_pizza,
Godfather's Pizza,14 W KY 8,VANCEBURG,KY,41179-5614,6067960435.0,"https://www.google.com/maps/place/Godfather's+Pizza/@38.5999737,-83.3194153,17z/data=!3m1!4b1!4m5!3m4!1s0x8846bb395088b77d:0x9ada06303d1540f7!8m2!3d38.5999737!4d-83.3194153",godfathers_pizza,
Godfather's Pizza,1062 McClellan Hwy,HARTS,WV,25524,3043101165.0,"https://www.google.com/maps/place/Godfather's+Pizza/@38.0314243,-82.1289306,17z/data=!3m1!4b1!4m5!3m4!1s0x884f6738622bdd93:0xccb421df6ffa1936!8m2!3d38.0314243!4d-82.1289306",godfathers_pizza,
Godfather's Pizza,125 Odd Rd,GHENT,WV,25843,3047876209.0,"https://www.google.com/maps/place/Godfather's+Pizza/@37.6158951,-81.1156332,17z/data=!3m1!4b1!4m5!3m4!1s0x884e61b3eb45e931:0x1895f6d8b2fe3778!8m2!3d37.6158951!4d-81.1156332",godfathers_pizza,
Godfather's Pizza,402 Pine St,AUBURN,IA,51433-5017,7126887722.0,"https://www.google.com/maps/place/Godfather's+Pizza/@42.252824,-94.877359,17z/data=!3m1!4b1!4m5!3m4!1s0x87ed4575dc1f1cd9:0xbf70c5a850adab8!8m2!3d42.252824!4d-94.877359",godfathers_pizza,
Godfather's Pizza,904 Cardinal Ave,DOWS,IA,50071-8004,5158524385.0,"https://www.google.com/maps/place/Godfather's+Pizza/@42.6743938,-93.4620456,17z/data=!3m1!4b1!4m5!3m4!1s0x87f1e88adcf471ad:0x4fe09457a91820df!8m2!3d42.6743938!4d-93.4620456",godfathers_pizza,
Godfather's Pizza,200 SE Gateway Dr,GRIMES,IA,50111-2182,5159862228.0,"https://www.google.com/maps/place/Godfather's+Pizza/@41.6877159,-93.7814001,17z/data=!3m1!4b1!4m5!3m4!1s0x87ec27cd98b7601f:0x42c8993252c7e91e!8m2!3d41.6877159!4d-93.7814001",godfathers_pizza,
Godfather's Pizza,444 E Main St,AGENCY,IA,52530-8000,6419376667.0,"https://www.google.com/maps/place/Godfather's+Pizza/@40.9947786,-92.3007645,17z/data=!3m1!4b1!4m5!3m4!1s0x87e619c295a6b01b:0xc3e9e3007a8dcd75!8m2!3d40.9947786!4d-92.3007645",godfathers_pizza,
Godfather's Pizza,601 S Merino Ave,EDDYVILLE,IA,52553-7104,6419695350.0,"https://www.google.com/maps/place/Godfather's+Pizza/@41.1539723,-92.6273014,17z/data=!3m1!4b1!4m5!3m4!1s0x87e8b28fb51bab9b:0x35572d4171feeaf!8m2!3d41.1539723!4d-92.6273014",godfathers_pizza,
Godfather's Pizza,100 1st St,BATAVIA,IA,52533-9843,6416622700.0,"https://www.google.com/maps/place/Godfather's+Pizza/@41.0022146,-92.1638627,17z/data=!3m1!4b1!4m5!3m4!1s0x87e614eaa27713ab:0x185ce0564d1dfbcd!8m2!3d41.0022146!4d-92.1638627",godfathers_pizza,
Godfather's Pizza,2210 Highway 13,MANCHESTER,IA,52057-8501,5639272607.0,"https://www.google.com/maps/place/Godfather's+Pizza/@42.467762,-91.4798068,17z/data=!3m1!4b1!4m5!3m4!1s0x87e4b42c9e551d3d:0x8191da8a8760c237!8m2!3d42.467762!4d-91.4798068",godfathers_pizza,
Godfather's Pizza,104 E Egyptian Ave,CHRISTOPHER,IL,62822-1642,6187244215.0,"https://www.google.com/maps/place/Godfather's+Pizza/@37.9791737,-89.0532059,17z/data=!3m1!4b1!4m5!3m4!1s0x8876df7ed049c027:0x705b3dca2784d677!8m2!3d37.9791737!4d-89.0532059",godfathers_pizza,
Godfather's Pizza,37 Lake Dr,ARNOLDS PARK,IA,51331-4501,7123327737.0,"https://www.google.com/maps/place/Godfather's+Pizza/@43.366594,-95.1390184,17z/data=!4m5!3m4!1s0x878cca06eae5bbc9:0x695d5d51775fcd1d!8m2!3d43.3665901!4d-95.1368297?hl=en",godfathers_pizza,
Godfather's Pizza,107 E Grace Ave,CHARITON,IA,50049-9689,6417745100.0,"https://www.google.com/maps/place/Godfather's+Pizza/@41.0057108,-93.2933862,17z/data=!3m1!4b1!4m5!3m4!1s0x87e93b712c162585:0xc3ddc8c6f4de1969!8m2!3d41.0057108!4d-93.2933862",godfathers_pizza,
Godfather's Pizza,807 Fitzpatrick St,CHURDAN,IA,50050-7766,5153893276.0,"https://www.google.com/maps/place/Godfather's+Pizza/@42.1528838,-94.474279,17z/data=!3m1!4b1!4m5!3m4!1s0x87ed0b53f82e1cc7:0x9cde60e0abc54435!8m2!3d42.1528838!4d-94.474279",godfathers_pizza,
Godfather's Pizza,1518 Bob Griffin Rd,CAMERON,MO,64429-8211,8166323415.0,"https://www.google.com/maps/place/Godfather's+Pizza+Express/@39.7525602,-94.2146459,17z/data=!3m1!4b1!4m5!3m4!1s0x87c1dab8ffd66957:0xea476e8aabfebdc6!8m2!3d39.7525602!4d-94.2146459",godfathers_pizza,
Godfather's Pizza,215 W US Highway 64,LEXINGTON,NC,27295-2508,3363008439.0,"https://www.google.com/maps/place/Godfather's+Pizza/@35.8317424,-80.2745731,17z/data=!3m1!4b1!4m5!3m4!1s0x885398299bf78c27:0xe9643e8cc2cb9853!8m2!3d35.8317424!4d-80.2745731",godfathers_pizza,
Godfather's Pizza,1224 W 23rd St,CEDAR FALLS,IA,50614-0039,3192737345.0,"https://www.google.com/maps/place/Godfather's+Pizza+Express/@42.5160881,-92.4603406,17z/data=!3m1!4b1!4m5!3m4!1s0x87effff7d698549f:0x836ceeee3e46bf1a!8m2!3d42.5160881!4d-92.4603406",godfathers_pizza,
Godfather's Pizza,2325 Marshall Ave,ROCKWELL CITY,IA,50579-7611,7122975707.0,"https://www.google.com/maps/place/Godfather's+Pizza/@42.452173,-94.6713188,17z/data=!3m1!4b1!4m5!3m4!1s0x87ed61dee11ec243:0x7de250b8b90320f8!8m2!3d42.452173!4d-94.6713188",godfathers_pizza,
Godfather's Pizza,1026 W Main St,BRANSON,MO,65616-2213,4173321001.0,"https://www.google.com/maps/place/Godfather's+Pizza/@36.6442861,-93.2338738,17z/data=!3m1!4b1!4m5!3m4!1s0x87cf036687dfc707:0xba6f782073d7b5fe!8m2!3d36.6442861!4d-93.2338738",godfathers_pizza,
Godfather's Pizza,3811 Twin Creek Dr,BELLEVUE,NE,68123-4000,4029527000.0,"https://www.google.com/maps/place/Godfather's+Pizza/@41.140632,-95.970843,17z/data=!3m1!4b1!4m5!3m4!1s0x879389ee8b190161:0x97d2ad35ae805921!8m2!3d41.140632!4d-95.970843",godfathers_pizza,
Godfather's Pizza,1832 S Ingram Mill Rd,SPRINGFIELD,MO,65804-2111,4178817777.0,"https://www.google.com/maps/place/Godfather's+Pizza/@37.179514,-93.225492,17z/data=!3m1!4b1!4m5!3m4!1s0x87cf7c8f9e74f9bd:0xac745a94bd5678df!8m2!3d37.179514!4d-93.225492",godfathers_pizza,
Godfather's Pizza,7920 France Ave S,BLOOMINGTON,MN,55435-5232,9528318833.0,"https://www.google.com/maps/place/Godfather's+Pizza+Express/@44.8596935,-93.3293578,17z/data=!3m1!4b1!4m5!3m4!1s0x87f6240d6f50ccf3:0xacb74db69ac0d8df!8m2!3d44.8596935!4d-93.3293578",godfathers_pizza,
Godfather's Pizza,106 Highway 46,DICKSON,TN,37055,6153757079.0,"https://www.google.com/maps/place/Godfather's+Pizza+Express/@36.0714107,-87.3803186,17z/data=!3m1!4b1!4m5!3m4!1s0x8864baa811913373:0xb65e74e48ef0507e!8m2!3d36.0714107!4d-87.3803186",godfathers_pizza,
Godfather's Pizza,301 S Lake Ave,GOTHENBURG,NE,69138-2350,3085375147.0,"https://www.google.com/maps/place/Godfather's+Pizza/@40.9172471,-100.1661317,17z/data=!3m1!4b1!4m5!3m4!1s0x879ddbf9decbdbe3:0x6cc7890eb9314a07!8m2!3d40.9172471!4d-100.1661317",godfathers_pizza,
Godfather's Pizza,1190 Oak Ridge Tpke,OAK RIDGE,TN,37830-6441,8654827725.0,"https://www.google.com/maps/place/Godfather's+Pizza+Express/@36.0184085,-84.2497064,17z/data=!3m1!4b1!4m5!3m4!1s0x885c3340162c465f:0x4018df79378c655!8m2!3d36.0184085!4d-84.2497064",godfathers_pizza,
Godfather's Pizza,2080 Southtown Blvd,OWENSBORO,KY,42301-9688,2709266559.0,"https://www.google.com/maps/place/Godfather's+Pizza/@37.7227648,-87.1426011,17z/data=!3m1!4b1!4m5!3m4!1s0x886fb97d6161c7fb:0xefb3c09d10b14495!8m2!3d37.7227648!4d-87.1426011",godfathers_pizza,
Godfather's Pizza,3025 Olivet Church Rd,PADUCAH,KY,42001-9814,2704440222.0,"https://www.google.com/maps/place/Godfather's+Pizza/@37.0737039,-88.7005086,17z/data=!3m1!4b1!4m5!3m4!1s0x887a1b9d1d1382f7:0x1e4cdf7a63b85a2f!8m2!3d37.0737039!4d-88.7005086",godfathers_pizza,
Godfather's Pizza,6925 S Franklin Rd,INDIANAPOLIS,IN,46259-9815,3172457356.0,"https://www.google.com/maps/place/Godfather's+Pizza+Express/@39.6674493,-86.0181321,17z/data=!3m1!4b1!4m5!3m4!1s0x886b44071555db4d:0xe946a5a13a3232a2!8m2!3d39.6674493!4d-86.0181321",godfathers_pizza,
Godfather's Pizza,125 N Madison St,IOWA CITY,IA,52242,3193350669.0,"https://www.google.com/maps/place/Godfather's+Pizza/@41.6632195,-91.5383111,17z/data=!3m1!4b1!4m5!3m4!1s0x87e441f3abc40745:0xa4f33d82263a77ec!8m2!3d41.6632195!4d-91.5383111",godfathers_pizza,
Godfather's Pizza,1188 S Oak St,VAN,TX,75790-3599,9039631122.0,"https://www.google.com/maps/place/Godfather's+Pizza+Express/@32.5082982,-95.6424837,17z/data=!3m1!4b1!4m5!3m4!1s0x8649a3fdca96b657:0xac336b7784c3fd43!8m2!3d32.5082982!4d-95.6424837",godfathers_pizza,
Godfather's Pizza,101 Elm St,BARDWELL,KY,42023,2706282514.0,"https://www.google.com/maps/place/Godfather's+Pizza+Express/@36.8762271,-89.0124836,17z/data=!3m1!4b1!4m5!3m4!1s0x887993f0c7be8fa5:0x5dcebe080c1c49b7!8m2!3d36.8762271!4d-89.0124836",godfathers_pizza,
Godfather's Pizza,60 E Pike St,FAYETTEVILLE,OH,45118-2501,5138752631.0,"https://www.google.com/maps/place/Godfather's+Pizza+Express/@39.1869504,-83.9353056,17z/data=!4m5!3m4!1s0x8840dfdf11c40973:0x1d8ca37bad59b316!8m2!3d39.1869463!4d-83.9331169?hl=en",godfathers_pizza,
Godfather's Pizza,1279 OH-28,LOVELAND,OH,45140,5135759605.0,"https://www.google.com/maps/place/Godfather's+Pizza+Express/@38.8623571,-88.970692,6z/data=!4m8!1m2!2m1!1sGodfather's+Pizza+1279+OH-28+LOVELAND+OH+45140!3m4!1s0x8840fe49261c744f:0x6eba36f4ee2b8e5d!8m2!3d39.2027227!4d-84.2203759?hl=en",godfathers_pizza,
Godfather's Pizza,359 3rd St,LA SALLE,IL,61301-2337,8152201819.0,"https://www.google.com/maps/place/Godfather's+Pizza+Express/@41.3302373,-89.1003485,17z/data=!3m1!4b1!4m5!3m4!1s0x8809609b7612ab41:0x572c011707889438!8m2!3d41.3302373!4d-89.1003485",godfathers_pizza,
Godfather's Pizza,3910 S Division St,BLYTHEVILLE,AR,72315-5159,8707761126.0,"https://www.google.com/maps/place/Godfather's+Pizza+Express/@35.8849441,-89.9178986,17z/data=!3m1!4b1!4m5!3m4!1s0x887f5366819adf55:0xfbd317af925b4501!8m2!3d35.8849441!4d-89.9178986",godfathers_pizza,
Godfather's Pizza,12501 Valley View Rd,SHAWNEE,OK,74804-1564,4052730555.0,"https://www.google.com/maps/place/Godfather's+Pizza+(Inside+Biscuit+Hill+Valero)/@35.3619815,-96.9381112,12z/data=!4m8!1m2!2m1!1sGodfather's+Pizza+12501+Valley+View+Rd+SHAWNEE+OK+74804-1564!3m4!1s0x87b3c09bb40c2c2d:0xf37de967ab92addb!8m2!3d35.3818406!4d-96.8066962?hl=en",godfathers_pizza,
Godfather's Pizza,2350 E 120th Ave,THORNTON,CO,80233-1408,3039201515.0,"https://www.google.com/maps/place/Godfather's+Pizza/@39.9134194,-104.9563611,17z/data=!3m1!4b1!4m5!3m4!1s0x876c741a00472ff5:0x5586b30e14ad4a0b!8m2!3d39.9134194!4d-104.9563611",godfathers_pizza,
Godfather's Pizza,115 Harrison St,BUENA VISTA,CO,81211-9258,7193953355.0,"https://www.google.com/maps/place/Godfather's+Pizza+Express/@38.8508781,-106.1392882,17z/data=!3m1!4b1!4m5!3m4!1s0x8715354b56c6f7f7:0xce065b4c2116fd5e!8m2!3d38.8508781!4d-106.1392882",godfathers_pizza,
Godfather's Pizza,10949 S Redwood Rd,SOUTH JORDAN,UT,84095-9012,8018787676.0,"https://www.google.com/maps/place/Godfather's+Pizza/@40.5524668,-111.9381513,17z/data=!3m1!4b1!4m5!3m4!1s0x87528b9cb5d03b6f:0x481a377be824edcc!8m2!3d40.5524668!4d-111.9381513",godfathers_pizza,
Godfather's Pizza,6421 N Interstate 35,DENTON,TX,76207-1443,9403201457.0,"https://www.google.com/maps/place/Godfather's+Pizza+Express/@33.2631499,-97.1815674,17z/data=!4m5!3m4!1s0x864db677e73dbdc1:0x41b53ac21c9f92de!8m2!3d33.2631454!4d-97.1793787?hl=en",godfathers_pizza,
Godfather's Pizza,3033 Highway 412 W,WATTS,OK,74964-5082,9184224300.0,"https://www.google.com/maps/place/Godfather's+Pizza+Express/@36.1757675,-94.5736767,17z/data=!3m1!4b1!4m5!3m4!1s0x87c9bd57fb8eec03:0x74bd4d6cc49eb982!8m2!3d36.1757675!4d-94.5736767",godfathers_pizza,
Godfather's Pizza,2010 Indorf Ave,HOLSTEIN,IA,51025-8008,7123686211.0,"https://www.google.com/maps/place/Godfather's+Pizza+Express/@42.4739986,-95.5440751,17z/data=!3m1!4b1!4m5!3m4!1s0x878d635c15c690ff:0xda5091f2bf9804ac!8m2!3d42.4739986!4d-95.5440751",godfathers_pizza,
Godfather's Pizza,760 US Highway 45 E,MEDINA,TN,38355-9670,7317835490.0,"https://www.google.com/maps/place/Godfather's+Pizza+Express/@35.7931271,-88.7884998,17z/data=!3m1!4b1!4m5!3m4!1s0x887ea9d89775152f:0x635c4d96b3c520be!8m2!3d35.7931271!4d-88.7884998",godfathers_pizza,
Godfather's Pizza,22406 US Highway 59 N,QUEEN CITY,TX,75572-5416,9037961385.0,"https://www.google.com/maps/place/Godfather's+Pizza+Express/@33.262025,-94.151525,17z/data=!3m1!4b1!4m5!3m4!1s0x86343954ec107b83:0xcbd2564cea63df97!8m2!3d33.262025!4d-94.151525",godfathers_pizza,
Godfather's Pizza,202 N Cedar St,GLEASON,TN,38229-7244,7316485831.0,"https://www.google.com/maps/place/Godfather's+Pizza+Express/@36.217887,-88.6124627,17z/data=!3m1!4b1!4m5!3m4!1s0x887be85dce43e12d:0x8cb660567d118b37!8m2!3d36.217887!4d-88.6124627",godfathers_pizza,
Godfather's Pizza,1104 S Broadway St,PORTLAND,TN,37148-1649,6153239921.0,"https://www.google.com/maps/place/Godfather's+Pizza+Express/@36.5493547,-86.5082877,17z/data=!4m5!3m4!1s0x886434af3d96ee73:0x3859f4eaf05f709d!8m2!3d36.5493504!4d-86.506099?hl=en",godfathers_pizza,
Godfather's Pizza,1001 W Choctaw Ave,CHICKASHA,OK,73018-2214,4052224033.0,"https://www.google.com/maps/place/Godfather's+Pizza+Express/@35.2730728,-99.5693003,7z/data=!4m8!1m2!2m1!1sGodfather's+Pizza+5317+South+East+44Th+St+NORMAN+OK+73072!3m4!1s0x87ad84a51ffccba9:0x29fe6e948f44e2d6!8m2!3d35.0520754!4d-97.9457205?hl=en",godfathers_pizza,
Godfather's Pizza,11801 E I-40,NORTH LITTLE ROCK,AR,72117,5019455400.0,"https://www.google.com/maps/place/Godfather's+Pizza+Express/@34.7862378,-92.1257034,17z/data=!3m1!4b1!4m5!3m4!1s0x87d2c092d825ee09:0x81984af8ea316905!8m2!3d34.7862378!4d-92.1257034",godfathers_pizza,
Godfather's Pizza,1412 E 1st St,PRATT,KS,67124-2066,6206725784.0,"https://www.google.com/maps/place/Godfather's+Pizza+Express/@37.646261,-98.7242319,17z/data=!4m5!3m4!1s0x87a5b3376fb6b39d:0xef358bdd3550e9d6!8m2!3d37.6462568!4d-98.7220432?hl=en",godfathers_pizza,
Godfather's Pizza,2500 Vine St,HAYS,KS,67601-2408,7856254034.0,"https://www.google.com/maps/place/Godfather's+Pizza+Express/@38.8823087,-99.3196581,17z/data=!4m5!3m4!1s0x87a17974756d927b:0xdb012307ff51a890!8m2!3d38.8823045!4d-99.3174694?hl=en",godfathers_pizza,
Godfather's Pizza,709 State St,PHILLIPSBURG,KS,67661-1715,7855435813.0,"https://www.google.com/maps/place/Godfather's+Pizza+Express/@39.755587,-99.318363,17z/data=!3m1!4b1!4m5!3m4!1s0x879f51cc094d19df:0xdb8bbe44d882ae5a!8m2!3d39.755587!4d-99.318363",godfathers_pizza,
Godfather's Pizza,208 W Pancake Blvd,LIBERAL,KS,67901-4033,6206242910.0,"https://www.google.com/maps/place/Godfather's+Pizza+Express/@37.0320218,-100.9277852,17z/data=!3m1!4b1!4m5!3m4!1s0x8708139bd80437f9:0xfd62d057791995b2!8m2!3d37.0320218!4d-100.9277852",godfathers_pizza,
Godfather's Pizza,1223 S Division St,GUTHRIE,OK,73044-5021,4052821884.0,"https://www.google.com/maps/place/Godfather's+Pizza+Express/@35.8653682,-97.4256329,17z/data=!3m1!4b1!4m5!3m4!1s0x87b192a5df562d69:0x9f8a549049b0e74e!8m2!3d35.8653682!4d-97.4256329",godfathers_pizza,
Godfather's Pizza,228 N Green Ave,PURCELL,OK,73080-4032,4055279491.0,"https://www.google.com/maps/place/Godfather's+Pizza/@35.0150055,-97.3662289,17z/data=!3m1!4b1!4m5!3m4!1s0x87b25f3890c4f2fd:0x98148c128f5e9e74!8m2!3d35.0150055!4d-97.3662289",godfathers_pizza,
Godfather's Pizza,1016 W Main St,YUKON,OK,73099-1044,4053549772.0,"https://www.google.com/maps/place/Godfather's+Pizza+Express/@35.5075458,-97.75985,17z/data=!3m1!4b1!4m5!3m4!1s0x87b207c162896ef5:0xb82e6b512863593b!8m2!3d35.5075458!4d-97.75985",godfathers_pizza,
Godfather's Pizza,411 S 1st St,MADILL,OK,73446-3804,5807952612.0,"https://www.google.com/maps/place/Godfather's+Pizza+Express/@34.0867712,-96.7698825,17z/data=!3m1!4b1!4m5!3m4!1s0x864cc76d26487979:0xe2acf3dc5e8d30c6!8m2!3d34.0867712!4d-96.7698825",godfathers_pizza,
Godfather's Pizza,413 E Main St,HENRYETTA,OK,74437-4435,9186528934.0,"https://www.google.com/maps/place/Godfather's+Pizza+Express/@35.4394925,-95.9769347,17z/data=!3m1!4b1!4m5!3m4!1s0x87b438ca9fe4ad2b:0xfbd9951ad794fc42!8m2!3d35.4394925!4d-95.9769347",godfathers_pizza,
Godfather's Pizza,301 E Olive St,LAMAR,CO,81052-2840,7193365382.0,"https://www.google.com/maps/place/Godfather's+Pizza+Express/@38.0885129,-102.618523,17z/data=!4m5!3m4!1s0x870c25867bf0254d:0xb3e29021f672c2c5!8m2!3d38.0885087!4d-102.6163343?hl=en",godfathers_pizza,
Godfather's Pizza,102 W Copeland,OKEMAH,OK,74859,9186232024.0,"https://www.google.com/maps/place/Godfather's+Pizza+Express/@35.2730728,-99.5693003,7z/data=!4m8!1m2!2m1!1sGodfather's+Pizza+5317+South+East+44Th+St+NORMAN+OK+73072!3m4!1s0x87b40cc086fd9b0f:0x1d10f0554a34aa76!8m2!3d35.4209082!4d-96.3005471?hl=en",godfathers_pizza,
Godfather's Pizza,4200 Lafayette Rd,HOPKINSVILLE,KY,42240-9365,2708814274.0,"https://www.google.com/maps/place/Godfather's+Pizza+Express/@36.8207643,-87.5063833,17z/data=!4m5!3m4!1s0x88653374a10687c7:0x6c64a64def50b283!8m2!3d36.82076!4d-87.5041946?hl=en",godfathers_pizza,
Godfather's Pizza,303 W Holme St,NORTON,KS,67654-1348,7858775494.0,"https://www.google.com/maps/place/Godfather's+Pizza+Express/@39.8387657,-99.8927819,17z/data=!3m1!4b1!4m5!3m4!1s0x879f7584c449f6ff:0x235e93cf216c63d9!8m2!3d39.8387657!4d-99.8927819",godfathers_pizza,
Godfather's Pizza,400 E Wyatt Earp Blvd,DODGE CITY,KS,67801-5323,6202250641.0,"https://www.google.com/maps/place/Godfather's+Pizza+Express/@37.753248,-100.0140339,17z/data=!4m5!3m4!1s0x87a71b729f1a03fb:0x87c4864c9a9db836!8m2!3d37.7532438!4d-100.0118452?hl=en",godfathers_pizza,
Godfather's Pizza,309 W Grant Ave,PAULS VALLEY,OK,73075-3255,4052385861.0,"https://www.google.com/maps/place/Godfather's+Pizza+Express/@35.2730728,-99.5693003,7z/data=!4m8!1m2!2m1!1sGodfather's+Pizza+5317+South+East+44Th+St+NORMAN+OK+73072!3m4!1s0x87b2e5d4d13ad13b:0x30d211ba69289331!8m2!3d34.7398382!4d-97.2225683?hl=en",godfathers_pizza,
Godfather's Pizza,930 W Broadway St,ARDMORE,OK,73401-4529,5802236362.0,"https://www.google.com/maps/place/Godfather's+Pizza+Express/@34.1741033,-97.1409897,17z/data=!3m1!4b1!4m5!3m4!1s0x864d2906a6fe67db:0x1bff18491819c18e!8m2!3d34.1741033!4d-97.1409897",godfathers_pizza,
Godfather's Pizza,1015 E Steve Owens Blvd,MIAMI,OK,74354-7909,9185428702.0,"https://www.google.com/maps/place/Godfather's+Pizza+Express/@36.8714246,-94.8679058,17z/data=!3m1!4b1!4m5!3m4!1s0x87c817c151b28111:0x1744fa0fe26b8c36!8m2!3d36.8714246!4d-94.8679058",godfathers_pizza,
Godfather's Pizza,504 S Park Dr,BROKEN BOW,OK,74728-5330,5805843813.0,"https://www.google.com/maps/place/Godfather's+Pizza+Express/@34.0223538,-94.7399233,17z/data=!3m1!4b1!4m5!3m4!1s0x86356ad993b7c2ed:0xb7edb4973d866473!8m2!3d34.0223538!4d-94.7399233",godfathers_pizza,
Godfather's Pizza,1005 N Kickapoo Ave,SHAWNEE,OK,74801-4843,4052753263.0,"https://www.google.com/maps/place/Godfather's+Pizza+Express/@35.3418829,-96.9294466,17z/data=!3m1!4b1!4m5!3m4!1s0x87b3b78db0bb90cd:0x8d28fb36078b745d!8m2!3d35.3418829!4d-96.9294466",godfathers_pizza,
Godfather's Pizza,308 E 1st St,LA JUNTA,CO,81050-1701,7193848932.0,"https://www.google.com/maps/place/Godfather's+Pizza+Express/@37.9877544,-103.5386184,17z/data=!3m1!4b1!4m5!3m4!1s0x870df881564d9e67:0x7f2c530a20b795e9!8m2!3d37.9877544!4d-103.5386184",godfathers_pizza,
Godfather's Pizza,12501 Apex Great Basin Way North,LAS VEGAS,NV,89165,7026437398.0,"https://www.google.com/maps/place/Godfather's+Pizza/@36.3815568,-114.8962416,17z/data=!3m1!4b1!4m5!3m4!1s0x80c91df138d47bc9:0x1239400df37c1443!8m2!3d36.3815568!4d-114.8962416",godfathers_pizza,
Godfather's Pizza,7495 Smith Rd,BEAUMONT,TX,77705,4098409602.0,"https://www.google.com/maps/place/Godfather's+Pizza+Express/@29.989145,-94.2114553,17z/data=!3m1!4b1!4m5!3m4!1s0x863ece6ef2d796a3:0x9f9b509ca2ea323b!8m2!3d29.989145!4d-94.2114553",godfathers_pizza,
Godfather's Pizza,801 A Highway 278 W,AMORY,MS,38821,6627497088.0,"https://www.google.com/maps/place/Godfather's+Pizza+Express/@33.9769998,-88.4984913,17z/data=!3m1!4b1!4m5!3m4!1s0x88873d47f6f9b6c1:0x2ca441bd631eeed5!8m2!3d33.9769998!4d-88.4984913",godfathers_pizza,
Godfather's Pizza,9567 East Iliff Ave,DENVER,CO,80231,3033350516.0,"https://www.google.com/maps/place/Godfather's+Pizza/@39.6752472,-104.8762551,17z/data=!3m1!4b1!4m5!3m4!1s0x876c7d63a8d7705b:0xab6eaece9fffeeb9!8m2!3d39.6752472!4d-104.8762551",godfathers_pizza,
Godfather's Pizza,3233 South West 89Th,OKLAHOMA CITY,OK,73159,4056861053.0,"https://www.google.com/maps/place/Godfather's+Pizza+Express/@35.3774965,-97.5736688,17z/data=!3m1!4b1!4m5!3m4!1s0x87b2125154e6704b:0xed509c7c8162eb5!8m2!3d35.3774965!4d-97.5736688",godfathers_pizza,
Godfather's Pizza,104 104th Street East,WILLISTON,ND,58801,7015723578.0,"https://www.google.com/maps/place/Godfather's+Pizza+Express/@48.2438197,-103.6210314,17z/data=!3m1!4b1!4m5!3m4!1s0x53216816ec5f71ad:0x2e665aacf700003d!8m2!3d48.2438197!4d-103.6210314",godfathers_pizza,
Godfather's Pizza,56021 Us Highway 41,CALUMET TOWNSHIP,MI,49913,9063375952.0,"https://www.google.com/maps/place/Godfather's+Pizza+Express/@47.2286449,-88.4548748,17z/data=!3m1!4b1!4m5!3m4!1s0x4d50bb91572ccc0b:0x10aba6f3595c6608!8m2!3d47.2286449!4d-88.4548748",godfathers_pizza,
Godfather's Pizza,2615 Oklahoma,WOODWARD,OK,73801,5802543644.0,"https://www.google.com/maps/place/Godfather's+Pizza+Express/@36.4330909,-99.4171799,17z/data=!4m5!3m4!1s0x87a8c4e05a216ed9:0xf69a56507989c7db!8m2!3d36.4330866!4d-99.4149912?hl=en",godfathers_pizza,
Godfather's Pizza,205 E Morgan St,BOONVILLE,MO,65233,6606728550.0,"https://www.google.com/maps/place/Godfather's+Pizza+Express/@38.975996,-92.7484462,17z/data=!3m1!4b1!4m5!3m4!1s0x87c33f97fc035a5f:0xa523a59e4c4198e0!8m2!3d38.975996!4d-92.7484462",godfathers_pizza,
Godfather's Pizza,3215 N Main St,PARIS,TX,75460,9037371950.0,"https://www.google.com/maps/place/Godfather's+Pizza+Express/@33.6954324,-95.5553071,17z/data=!3m1!4b1!4m5!3m4!1s0x864af78cbe435123:0x4f593273e59b03c0!8m2!3d33.6954324!4d-95.5553071",godfathers_pizza,
Godfather's Pizza,6138 Lake Norris Rd,LAKE,MS,39092,6017750011.0,"https://www.google.com/maps/place/Godfather's+Pizza+Express/@32.3224346,-89.3424766,17z/data=!3m1!4b1!4m5!3m4!1s0x888300e82f2bdc5d:0xcea804f318508634!8m2!3d32.3224346!4d-89.3424766",godfathers_pizza,
Godfather's Pizza,5317 South East 44Th St,NORMAN,OK,73072,4056540059.0,"https://www.google.com/maps/place/Godfather's+Pizza+Express/@35.182304,-97.5222406,17z/data=!4m8!1m2!2m1!1sGodfather's+Pizza+5317+South+East+44Th+St+NORMAN+OK+73072!3m4!1s0x87b269a0fcbb1bdd:0x32c82f9151cb621!8m2!3d35.1822996!4d-97.5200519?hl=en",godfathers_pizza,
Godfather's Pizza,401 North Main,FAIRVIEW,OK,73737,5802273363.0,"https://www.google.com/maps/place/Godfather's+Pizza+Express/@36.2724053,-98.4804175,17z/data=!3m1!4b1!4m5!3m4!1s0x87ae557c43ec2627:0xd5c9cd56201b8fe7!8m2!3d36.2724053!4d-98.4804175",godfathers_pizza,
Godfather's Pizza,5750 BENTON RD,PADUCAH,KY,42003,2708981926.0,"https://www.google.com/maps/place/Godfather's+Pizza/@37.0113178,-88.5314917,17z/data=!3m1!4b1!4m5!3m4!1s0x887a14698d67d0c5:0x23a7fc5081ca8193!8m2!3d37.0113178!4d-88.5314917",godfathers_pizza,
Godfather's Pizza,2161 ALTA DR,ALDERSON,WV,24910,3044452574.0,"https://www.google.com/maps/place/Godfather's+Pizza/@37.7288615,-80.6326693,17z/data=!3m1!4b1!4m5!3m4!1s0x884c31d59b1f9db5:0x409d50d0efb0328a!8m2!3d37.7288615!4d-80.6326693",godfathers_pizza,
