Company Name,Address 1,City,State,Zip,Phone,Google Link,Status
Hungry Howie's Pizza & Subs,1003 N Leroy St,FENTON,MI,48430-2755,8106293100.0,"https://www.google.com/maps/place/Hungry+Howie's+Pizza/@42.80768,-83.70797,17z/data=!3m1!4b1!4m5!3m4!1s0x8823645870aa2e73:0xe1372ab6b438c5d7!8m2!3d42.80768!4d-83.70797",
Hungry Howie's Pizza & Subs,1026 S State Rd,DAVISON,MI,48423-1904,8106536688.0,"https://www.google.com/maps/place/Hungry+Howie's+Pizza/@43.01904,-83.5183053,17z/data=!3m1!4b1!4m5!3m4!1s0x88247e6fdf7e3c93:0x2b2ed8627a3b16f8!8m2!3d43.01904!4d-83.5183053",
Hungry Howie's Pizza & Subs,10430 Front Beach Rd,PANAMA CITY,FL,32407-3514,8502303999.0,"https://www.google.com/maps/place/Hungry+Howie's+Pizza/@30.1782908,-85.8032177,17z/data=!3m1!4b1!4m5!3m4!1s0x889388d604f71de9:0xf8973ff6c43af62d!8m2!3d30.1782908!4d-85.8032177",
Hungry Howie's Pizza & Subs,1045 E Lemon St,TEMPE,AZ,85281-3970,4808047500.0,"https://www.google.com/maps/place/Hungry+Howie's+Pizza/@33.4161137,-111.9222431,17z/data=!3m1!4b1!4m5!3m4!1s0x872b08ef2affc62b:0xdb52f3b8f5fc32b3!8m2!3d33.4161137!4d-111.9222431",
Hungry Howie's Pizza & Subs,105 Southwest Pkwy,COLLEGE STATION,TX,77840-4738,9796936666.0,"https://www.google.com/maps/place/Hungry+Howie's+Pizza/@30.591934,-96.330086,17z/data=!3m1!4b1!4m5!3m4!1s0x86468364dc483faf:0x22eb8a94f108fb1!8m2!3d30.591934!4d-96.330086",
Hungry Howie's Pizza & Subs,1117 W Jefferson St,QUINCY,FL,32351-2211,8506273000.0,"https://www.google.com/maps/place/Hungry+Howie's+Pizza/@30.587489,-84.5900163,17z/data=!3m1!4b1!4m5!3m4!1s0x88ece81203fa34f9:0x894f2246ff983503!8m2!3d30.587489!4d-84.5900163",
Hungry Howie's Pizza & Subs,10265 Tamiami Trl N,NAPLES,FL,34108-1904,2395970007.0,"https://www.google.com/maps/place/Hungry+Howie's+Pizza/@26.26485,-81.80199,17z/data=!3m1!4b1!4m5!3m4!1s0x88db1ec79de96fd9:0x6cb59c55ee6aca95!8m2!3d26.26485!4d-81.80199",
Hungry Howie's Pizza & Subs,105 Fairbanks St,MARINE CITY,MI,48039-1594,8107651100.0,"https://www.google.com/maps/place/Hungry+Howie's+Pizza/@42.72119,-82.497536,17z/data=!3m1!4b1!4m5!3m4!1s0x88256c475ad77b69:0x21af1f44210e6f9b!8m2!3d42.72119!4d-82.497536",
Hungry Howie's Pizza & Subs,1144 John Sims Pkwy E,NICEVILLE,FL,32578-2204,8507292222.0,"https://www.google.com/maps/place/Hungry+Howie's+Pizza/@30.5169556,-86.464349,17z/data=!3m1!4b1!4m5!3m4!1s0x889169add84751d5:0x30796482bfd85c6f!8m2!3d30.5169556!4d-86.464349",
Hungry Howie's Pizza & Subs,1209 Ross Clark Cir,DOTHAN,AL,36301-3019,3346732300.0,"https://www.google.com/maps/place/Hungry+Howie's+Pizza/@31.211872,-85.361145,17z/data=!3m1!4b1!4m5!3m4!1s0x88929364949f2903:0x6ccf1c0ad81c2d54!8m2!3d31.211872!4d-85.361145",
Hungry Howie's Pizza & Subs,1101 S Florida Ave,LAKELAND,FL,33803-1307,8636822124.0,"https://www.google.com/maps/place/Hungry+Howie's+Pizza/@28.028461,-81.957274,17z/data=!3m1!4b1!4m5!3m4!1s0x88dd38d2744634d3:0x5edcf631423f6b2c!8m2!3d28.028461!4d-81.957274",
Hungry Howie's Pizza & Subs,2209 Citrus Blvd,LEESBURG,FL,34748-3008,3527873999.0,"https://www.google.com/maps/place/Hungry+Howie's+Pizza/@28.840716,-81.894983,17z/data=!3m1!4b1!4m5!3m4!1s0x88e7c05ba2dcda07:0x9fb49f65e0038703!8m2!3d28.840716!4d-81.894983",
Hungry Howie's Pizza & Subs,15252 Old 27 N,MARSHALL,MI,49068,2697813555.0,"https://www.google.com/maps/place/Hungry+Howie's+Pizza/@42.292255,-84.96353,17z/data=!3m1!4b1!4m5!3m4!1s0x8817e2c7bb004193:0x9f9ba7e42759e9fc!8m2!3d42.292255!4d-84.96353",
Hungry Howie's Pizza & Subs,111 S Mission St,MOUNT PLEASANT,MI,48858-2838,9897720044.0,"https://www.google.com/maps/place/Hungry+Howie's+Pizza/@43.6038589,-84.7695687,17z/data=!4m5!3m4!1s0x88221cb1fd840acb:0xa1673e571bad2b83!8m2!3d43.603855!4d-84.76738?hl=en",
Hungry Howie's Pizza & Subs,111 W Bullard Ave,CLOVIS,CA,93612-6313,5592974444.0,"https://www.google.com/maps/place/Hungry+Howie's+Pizza/@36.82329,-119.71155,17z/data=!3m1!4b1!4m5!3m4!1s0x80945c8eef9ed201:0xeafb1e164dcb2487!8m2!3d36.82329!4d-119.71155",
Hungry Howie's Pizza & Subs,111 W Cass St,ALBION,MI,49224-1730,5176292924.0,"https://www.google.com/maps/place/Hungry+Howie's+Pizza/@42.24522,-84.75384,17z/data=!3m1!4b1!4m5!3m4!1s0x883d453d450c4d43:0x395a377f633ce791!8m2!3d42.24522!4d-84.75384",
Hungry Howie's Pizza & Subs,1116 S Crismon Rd,MESA,AZ,85208-2599,4803800500.0,"https://www.google.com/maps/place/Hungry+Howie's+Pizza/@33.394962,-111.61613,17z/data=!3m1!4b1!4m5!3m4!1s0x872bb1072a837f6b:0x531ea071494a3629!8m2!3d33.394962!4d-111.61613",
Hungry Howie's Pizza & Subs,11115 SW 93rd Court Rd,OCALA,FL,34481-3103,3528610555.0,"https://www.google.com/maps/place/Hungry+Howie's+Pizza/@29.0612893,-82.2744026,17z/data=!3m1!4b1!4m5!3m4!1s0x88e8790bc7e1b09b:0xc10e58c35d381cf3!8m2!3d29.0612893!4d-82.2744026",
Hungry Howie's Pizza & Subs,1136 W Randall St,COOPERSVILLE,MI,49404-1388,6169979797.0,"https://www.google.com/maps/place/Hungry+Howie's+Pizza/@43.05933,-85.95509,17z/data=!3m1!4b1!4m5!3m4!1s0x88199f0c0da97325:0xa3d379f3f0b8a937!8m2!3d43.05933!4d-85.95509",
Hungry Howie's Pizza & Subs,11389 W Jefferson Ave,RIVER ROUGE,MI,48218-1211,3138434100.0,"https://www.google.com/maps/place/Hungry+Howie's+Pizza/@42.262375,-83.13712,17z/data=!3m1!4b1!4m5!3m4!1s0x883b316408319c8b:0xf0fcf7978fbcf1a3!8m2!3d42.262375!4d-83.13712",
Hungry Howie's Pizza & Subs,1144 6th St NW,WINTER HAVEN,FL,33881-4021,8632934633.0,"https://www.google.com/maps/place/Hungry+Howie's+Pizza/@28.0329476,-81.7325406,17z/data=!3m1!4b1!4m5!3m4!1s0x88dd12d8ef0e0ee1:0xbdf73f1236699665!8m2!3d28.0329476!4d-81.7325406",
Hungry Howie's Pizza & Subs,11774 E Colonial Dr,ORLANDO,FL,32817-4625,4072739676.0,"https://www.google.com/maps/place/Hungry+Howie%E2%80%99s+Pizza/@28.56537,-81.209096,17z/data=!3m1!4b1!4m5!3m4!1s0x88e7662cc89a21b1:0x67c1dd2f3e71c45d!8m2!3d28.56537!4d-81.209096",
Hungry Howie's Pizza & Subs,121 E Main St,DEWITT,MI,48820,5176692555.0,"https://www.google.com/maps/place/hungry+howie+s+pizza,+Hungry+Howies+Logo/@42.8423352,-84.568199,17z/data=!3m1!4b1!4m5!3m4!1s0x8822ecf9e03aaaab:0x3ac31ab4b2d45616!8m2!3d42.8423352!4d-84.568199",
Hungry Howie's Pizza & Subs,12725 W Indian School Rd,AVONDALE,AZ,85392-9520,6235351827.0,"https://www.google.com/maps/place/Hungry+Howie's+Pizza/@33.492863,-112.33298,17z/data=!3m1!4b1!4m5!3m4!1s0x872b40b2bbd679fb:0xb2aee5769b05dd69!8m2!3d33.492863!4d-112.33298",
Hungry Howie's Pizza & Subs,1025 S Dillard St,WINTER GARDEN,FL,34787-3913,4076545954.0,"https://www.google.com/maps/place/CLOSED+Hungry+Howie's/@28.4406718,-82.644999,8z/data=!4m8!1m2!2m1!1sHungry+Howie's+Pizza+%26+Subs+WINTER+GARDEN+FL!3m4!1s0x88e783a78c303fad:0x9b8da87b7c91fee7!8m2!3d28.551918!4d-81.581714?hl=en",
Hungry Howie's Pizza & Subs,125 S Jefferson St,HASTINGS,MI,49058-1825,2699455500.0,"https://www.google.com/maps/place/Hungry+Howie's+Pizza/@42.648026,-85.28741,17z/data=!3m1!4b1!4m5!3m4!1s0x88183d757361cc9f:0x21f1fc36684ef993!8m2!3d42.648026!4d-85.28741",
Hungry Howie's Pizza & Subs,1327 S Main St,PLYMOUTH,MI,48170-2217,7344533550.0,"https://www.google.com/maps/place/Hungry+Howie's+Pizza/@42.360397,-83.46934,17z/data=!3m1!4b1!4m5!3m4!1s0x883b532bfdb412af:0xea421ee6f5cce0a8!8m2!3d42.360397!4d-83.46934",
Hungry Howie's Pizza & Subs,13486 San Pedro Ave,SAN ANTONIO,TX,78216-2017,2106509923.0,"https://www.google.com/maps/place/Hungry+Howie's+Pizza/@29.563303,-98.48094,17z/data=!3m1!4b1!4m5!3m4!1s0x865c8a8078eaf08b:0xae9aabdb52b39b79!8m2!3d29.563303!4d-98.48094",
Hungry Howie's Pizza & Subs,13201 Tamiami Trl,NORTH PORT,FL,34287-2163,9414260995.0,"https://www.google.com/maps/place/Hungry+Howie's+Pizza/@27.04704,-82.2532365,17z/data=!3m1!4b1!4m5!3m4!1s0x88c35486a1cf42b3:0x9887a2bbda91514b!8m2!3d27.04704!4d-82.2532365",
Hungry Howie's Pizza & Subs,13229 E 14 Mile Rd,STERLING HEIGHTS,MI,48312-6302,5862640215.0,"https://www.google.com/maps/place/Hungry+Howie's+Pizza/@42.538486,-82.99311,17z/data=!3m1!4b1!4m5!3m4!1s0x8824d97de354a779:0xf1e738d32bde95ec!8m2!3d42.538486!4d-82.99311",
Hungry Howie's Pizza & Subs,134 N Harrison Rd,EAST LANSING,MI,48823-4152,5173369111.0,"https://www.google.com/maps/place/Hungry+Howie's+Pizza/@42.734592,-84.49326,17z/data=!3m1!4b1!4m5!3m4!1s0x8822e9d90772cff5:0x9d3a52fa048cd730!8m2!3d42.734592!4d-84.49326",
Hungry Howie's Pizza & Subs,14219 Walsingham Rd,LARGO,FL,33774-3236,7275961400.0,"https://www.google.com/maps/place/Hungry+Howie's+Pizza/@27.8807124,-82.8355873,17z/data=!3m1!4b1!4m5!3m4!1s0x88c2f99dbd12def7:0x5a65ab26d6a36f5a!8m2!3d27.8807124!4d-82.8355873",
Hungry Howie's Pizza & Subs,1500 34th St N,SAINT PETERSBURG,FL,33713-5460,7273276010.0,"https://www.google.com/maps/place/Hungry+Howie's+Pizza/@27.7867402,-82.6799018,17z/data=!3m1!4b1!4m5!3m4!1s0x88c2e3b1cd3d953b:0xd33b6aa96cd9f999!8m2!3d27.7867402!4d-82.6799018",
Hungry Howie's Pizza & Subs,151 S Main,CEDAR SPRINGS,MI,49319-8950,6166964444.0,"https://www.google.com/maps/place/Hungry+Howie's+Pizza/@43.220467,-85.55198,17z/data=!3m1!4b1!4m5!3m4!1s0x8818fce63c363553:0xb908e570b08ab5b0!8m2!3d43.220467!4d-85.55198",
Hungry Howie's Pizza & Subs,15316 E Jefferson Ave,GROSSE POINTE PARK,MI,48230-1316,3138237000.0,"https://www.google.com/maps/place/Hungry+Howie's+Pizza/@42.376694,-82.9345,17z/data=!3m1!4b1!4m5!3m4!1s0x8824d5a6b0f085b5:0x9d8b093899c58b6f!8m2!3d42.376694!4d-82.9345",
Hungry Howie's Pizza & Subs,1405 N Broadway Ave,BARTOW,FL,33830-3311,8635330501.0,"https://www.google.com/maps/place/Hungry+Howie's+Pizza/@27.9086661,-81.8440753,17z/data=!3m1!4b1!4m5!3m4!1s0x88dd17b7d4d1a8f7:0xd5741f24b3dd439a!8m2!3d27.9086661!4d-81.8440753",
Hungry Howie's Pizza & Subs,14069 66th St,LARGO,FL,33771,7275365108.0,"https://www.google.com/maps/place/Hungry+Howie's+Pizza/@27.8998817,-82.7283254,17z/data=!3m1!4b1!4m5!3m4!1s0x88c2e54983c3a579:0x63e52aed6725cc54!8m2!3d27.8998817!4d-82.7283254",
Hungry Howie's Pizza & Subs,1555 E Bay Dr,LARGO,FL,33771-1002,7275845390.0,"https://www.google.com/maps/place/Hungry+Howie's+Pizza/@27.9160758,-82.7722996,17z/data=!3m1!4b1!4m5!3m4!1s0x88c2fa840fe79ab1:0x4cc9ab3019ca1c38!8m2!3d27.9160758!4d-82.7722996",
Hungry Howie's Pizza & Subs,1565 W Maumee St,ADRIAN,MI,49221-1213,5172638149.0,"https://www.google.com/maps/place/Hungry+Howie's+Pizza/@41.900124,-84.049164,17z/data=!3m1!4b1!4m5!3m4!1s0x883cf048275dfc35:0xfe79a3c2f14e416e!8m2!3d41.900124!4d-84.049164",
Hungry Howie's Pizza & Subs,16400 US Highway 331 S,FREEPORT,FL,32439-4192,8508351355.0,"https://www.google.com/maps/place/Hungry+Howie's+Pizza/@30.4869137,-86.1243743,17z/data=!3m1!4b1!4m5!3m4!1s0x8893dda74959f58b:0x8807f098ec870b37!8m2!3d30.4869137!4d-86.1243743",
Hungry Howie's Pizza & Subs,16135 NW US Highway 441,ALACHUA,FL,32615-6393,3865185255.0,"https://www.google.com/maps/place/Hungry+Howie's/@29.8035171,-82.521174,17z/data=!4m8!1m2!2m1!1sHungry+Howie's+Pizza+%26+Subs+16135+NW+US+Highway+441+ALACHUA+FL+32615-6393!3m4!1s0x88e8b655306b081f:0xb9ff1101d436c334!8m2!3d29.803509!4d-82.518987?hl=en",
Hungry Howie's Pizza & Subs,1444 E Main St,KENT,OH,44240-2844,3306775555.0,"https://www.google.com/maps/place/Hungry+Howie's+Pizza/@41.153717,-81.336334,17z/data=!3m1!4b1!4m5!3m4!1s0x88313ad53c5d79cd:0xc8d8695ecd674ec5!8m2!3d41.153717!4d-81.336334",
Hungry Howie's Pizza & Subs,1496 Apalachee Pkwy,TALLAHASSEE,FL,32301-4041,8509426800.0,"https://www.google.com/maps/place/Hungry+Howie's+Pizza/@30.4362905,-84.258342,17z/data=!3m1!4b1!4m5!3m4!1s0x88ec5f900a697b1b:0x65d67ca9126fcc8f!8m2!3d30.4362905!4d-84.258342",
Hungry Howie's Pizza & Subs,15 Roosevelt Rd,VALPARAISO,IN,46383-5347,2194760800.0,"https://www.google.com/maps/place/Hungry+Howie's+Pizza/@41.4685,-87.04671,17z/data=!3m1!4b1!4m5!3m4!1s0x88119a16a7bebaaf:0x960d387debb2a1dd!8m2!3d41.4685!4d-87.04671",
Hungry Howie's Pizza & Subs,150 N Pantano Rd,TUCSON,AZ,85710-1475,5208850707.0,"https://www.google.com/maps/place/Hungry+Howie's+Pizza/@32.223015,-110.822914,17z/data=!3m1!4b1!4m5!3m4!1s0x86d66f46ebcb6391:0x681da8785405d8df!8m2!3d32.223015!4d-110.822914",
Hungry Howie's Pizza & Subs,1534 Ford Ave,WYANDOTTE,MI,48192-2302,7342824026.0,"https://www.google.com/maps/place/hungry+howie+s+pizza,+Hungry+Howies+Logo/@42.2140582,-83.1716204,17z/data=!3m1!4b1!4m5!3m4!1s0x883b3736eacbffff:0x2bcf6281dddff0c6!8m2!3d42.2140582!4d-83.1716204",
Hungry Howie's Pizza & Subs,15441 N Dale Mabry Hwy,TAMPA,FL,33618-1822,8132652111.0,"https://www.google.com/maps/place/Hungry+Howie's+Pizza/@28.0925332,-82.5004295,17z/data=!3m1!4b1!4m5!3m4!1s0x88c2c09e1c6aba23:0x4be67539b6bb3690!8m2!3d28.0925332!4d-82.5004295",
Hungry Howie's Pizza & Subs,1677 SE US Highway 19,CRYSTAL RIVER,FL,34429-4849,3525631151.0,"https://www.google.com/maps/place/Hungry+Howie's+Pizza/@28.8826221,-82.5805491,17z/data=!3m1!4b1!4m5!3m4!1s0x88e84035c2997cfd:0xa519534ce39d1f7b!8m2!3d28.8826221!4d-82.5805491",
Hungry Howie's Pizza & Subs,1601 S Kings Hwy,MYRTLE BEACH,SC,29577-4512,8434442000.0,"https://www.google.com/maps/place/Hungry+Howie's+Pizza/@33.675236,-78.90419,17z/data=!3m1!4b1!4m5!3m4!1s0x890069bf8fb80895:0xd6faf48cd090d27d!8m2!3d33.675236!4d-78.90419",
Hungry Howie's Pizza & Subs,1640 E Highway 50,CLERMONT,FL,34711-5123,3523942828.0,"https://www.google.com/maps/place/Hungry+Howie's+Pizza+%26+Subs/@28.547353,-81.725986,17z/data=!3m1!4b1!4m5!3m4!1s0x88e78f1ae8fd8c33:0x48d77094dc2140a9!8m2!3d28.547353!4d-81.725986",
Hungry Howie's Pizza & Subs,1705 8th Ave W,PALMETTO,FL,34221-3125,9417220006.0,"https://www.google.com/maps/place/Hungry+Howie's+Pizza+%26+Salad+Bar/@27.529018,-82.573618,17z/data=!3m1!4b1!4m5!3m4!1s0x88c317f06bfa83a7:0x31063f2bc7548c36!8m2!3d27.529018!4d-82.573618",
Hungry Howie's Pizza & Subs,1790 N Chickasaw Trl,ORLANDO,FL,32825-5223,4073801780.0,"https://www.google.com/maps/place/Hungry+Howie's+Pizza/@28.5556569,-81.28539,17z/data=!3m1!4b1!4m5!3m4!1s0x88e7658d93a0c21b:0x37003c0aec6a5361!8m2!3d28.5556569!4d-81.28539",
Hungry Howie's Pizza & Subs,180 S Main St,LABELLE,FL,33935-4956,8636756363.0,"https://www.google.com/maps/place/Hungry+Howie's+Pizza/@26.758995,-81.43874,17z/data=!3m1!4b1!4m5!3m4!1s0x88db83657c28948b:0x205d828ab22f3d79!8m2!3d26.758995!4d-81.43874",
Hungry Howie's Pizza & Subs,857 SW Main Blvd,LAKE CITY,FL,32025-5796,3867557050.0,"https://www.google.com/maps/place/Hungry+Howie's+Pizza+%26+Subs/@30.1784063,-82.6386392,17z/data=!3m1!4b1!4m5!3m4!1s0x88ef3983668cdd53:0x684a48430a733a78!8m2!3d30.1784063!4d-82.6386392",
Hungry Howie's Pizza & Subs,1707 Sardis Rd N,CHARLOTTE,NC,28270-2571,7048455100.0,"https://www.google.com/maps/place/Hungry+Howie's+Pizza/@35.14073,-80.73808,17z/data=!3m1!4b1!4m5!3m4!1s0x88542143e313221d:0x64b318b7a66a89dc!8m2!3d35.14073!4d-80.73808",
Hungry Howie's Pizza & Subs,1884 Drew St,CLEARWATER,FL,33765-2915,7274490400.0,"https://www.google.com/maps/place/Hungry+Howie's+Pizza/@27.968291,-82.7593914,17z/data=!3m1!4b1!4m5!3m4!1s0x88c2f04b2a395453:0x6f51732b4fdabb8b!8m2!3d27.968291!4d-82.7593914",
Hungry Howie's Pizza & Subs,189 Columbia Ave E,BATTLE CREEK,MI,49015-3734,2699625400.0,"https://www.google.com/maps/place/Hungry+Howie's+Pizza/@42.298847,-85.19183,17z/data=!3m1!4b1!4m5!3m4!1s0x8817f203e3869451:0xb952d928cfb71980!8m2!3d42.298847!4d-85.19183",
Hungry Howie's Pizza & Subs,19838 State Road 20 W,BLOUNTSTOWN,FL,32424-3920,8506743838.0,"https://www.google.com/maps/place/Hungry+Howie's+Pizza/@30.443856,-85.059201,17z/data=!3m1!4b1!4m5!3m4!1s0x889337a493ec70ed:0x2f2dbf606953f657!8m2!3d30.443856!4d-85.059201",
Hungry Howie's Pizza & Subs,200 S Clinton St,STOCKBRIDGE,MI,49285-9122,5178517447.0,"https://www.google.com/maps/place/Hungry+Howie's+Pizza/@42.450005,-84.180405,17z/data=!3m1!4b1!4m5!3m4!1s0x88232c7bd567f1c1:0xb781e8f17c88b571!8m2!3d42.450005!4d-84.180405",
Hungry Howie's Pizza & Subs,200 W Bay St,EAST TAWAS,MI,48730-1253,9893623100.0,"https://www.google.com/maps/place/Hungry+Howie's+Pizza/@44.27947,-83.492065,17z/data=!3m1!4b1!4m5!3m4!1s0x88272947d6eb22f9:0xde5cd8caa7a422ff!8m2!3d44.27947!4d-83.492065",
Hungry Howie's Pizza & Subs,2004 S Parsons Ave,SEFFNER,FL,33584-5206,8136840807.0,"https://www.google.com/maps/place/Hungry+Howie's+Pizza/@27.979029,-82.285493,17z/data=!3m1!4b1!4m5!3m4!1s0x88c2cc0e0abec317:0xb9bbfadfb69d8678!8m2!3d27.979029!4d-82.285493",
Hungry Howie's Pizza & Subs,201 N Riverside Ave,SAINT CLAIR,MI,48079-5470,8103295900.0,"https://www.google.com/maps/place/Hungry+Howie's+Pizza/@42.8258768,-82.4884482,17z/data=!4m8!1m2!2m1!1sHungry+Howie's+Pizza+%26+Subs+201+N+Riverside+Ave+SAINT+CLAIR+MI+48079-5470!3m4!1s0x882573db4fdb5af3:0x34eddbadaf18a4ab!8m2!3d42.8257323!4d-82.486583?hl=en",
Hungry Howie's Pizza & Subs,1909 E Ray Rd,CHANDLER,AZ,85225-8724,4808579377.0,"https://www.google.com/maps/place/Hungry+Howie's+Pizza/@33.320084,-111.80961,17z/data=!3m1!4b1!4m5!3m4!1s0x872baa2ad1ed554b:0x52ff2bd7d07d4fc!8m2!3d33.320084!4d-111.80961",
Hungry Howie's Pizza & Subs,200 E Prairie St,VICKSBURG,MI,49097-1255,2696499099.0,"https://www.google.com/maps/place/Hungry+Howie's+Pizza/@42.119534,-85.53081,17z/data=!3m1!4b1!4m5!3m4!1s0x8817a190076c3afb:0xafe06afff91642b8!8m2!3d42.119534!4d-85.53081",
Hungry Howie's Pizza & Subs,201 S Ridgewood Ave,EDGEWATER,FL,32132-1946,3864278699.0,"https://www.google.com/maps/place/Hungry+Howie's+Pizza/@28.9905316,-80.9086864,17z/data=!4m8!1m2!2m1!1sHungry+Howie's+Pizza+%26+Subs+201+S+Ridgewood+Ave+EDGEWATER+FL+32132-1946!3m4!1s0x88e72e9906e0b9fb:0xd90e1c763847e578!8m2!3d28.9905239!4d-80.9063187?hl=en",
Hungry Howie's Pizza & Subs,1944 W Pensacola St,TALLAHASSEE,FL,32304-3142,8505742200.0,"https://www.google.com/maps/place/Hungry+Howie's+Pizza/@30.4408928,-84.316377,17z/data=!3m1!4b1!4m5!3m4!1s0x88ecf4fa570956b5:0x5336c8ca2533071d!8m2!3d30.4408928!4d-84.316377",
Hungry Howie's Pizza & Subs,2109 Main St,DUNEDIN,FL,34698-5659,7277348800.0,"https://www.google.com/maps/place/Hungry+Howie's+Pizza/@28.019101,-82.7504252,17z/data=!3m1!4b1!4m5!3m4!1s0x88c2f21c21f8e711:0x27792ea5c954a7d7!8m2!3d28.019101!4d-82.7504252",
Hungry Howie's Pizza & Subs,108 N Commonwealth Ave,POLK CITY,FL,33868-9506,8639842440.0,"https://www.google.com/maps/place/Hungry+Howie's+Pizza/@28.1829429,-81.8233674,17z/data=!3m1!4b1!4m5!3m4!1s0x88dd69a700efc6c3:0xcb51cd967dd01bc6!8m2!3d28.1829429!4d-81.8233674",
Hungry Howie's Pizza & Subs,222 N Cedar St,MASON,MI,48854-1011,5176766622.0,"https://www.google.com/maps/place/Hungry+Howie's+Pizza/@42.5839879,-84.454737,17z/data=!4m5!3m4!1s0x8822c544f07159e1:0xcf857c9a882bdc14!8m2!3d42.583984!4d-84.4525483?hl=en",
Hungry Howie's Pizza & Subs,205 W Grand River Ave,WILLIAMSTON,MI,48895-1319,5176555900.0,"https://www.google.com/maps/place/Hungry+Howie's+Pizza/@42.688393,-84.28577,17z/data=!3m1!4b1!4m5!3m4!1s0x8822df9be1dd72f3:0xf670d21db04e29dc!8m2!3d42.688393!4d-84.28577",
Hungry Howie's Pizza & Subs,233 Crockett Blvd,MERRITT ISLAND,FL,32953-4384,3214599771.0,"https://www.google.com/maps/place/Hungry+Howie's+Pizza/@28.3838247,-80.7044326,17z/data=!3m1!4b1!4m5!3m4!1s0x88e0a9911fece02b:0x31b6a57ffb5bb225!8m2!3d28.3838247!4d-80.7044326",
Hungry Howie's Pizza & Subs,2466 S Center Rd,BURTON,MI,48519-1152,8107421122.0,"https://www.google.com/maps/place/Hungry+Howie's+Pizza/@42.99105,-83.63458,17z/data=!3m1!4b1!4m5!3m4!1s0x88237f827970d37b:0x9eba56b9f4c3985!8m2!3d42.99105!4d-83.63458",
Hungry Howie's Pizza & Subs,2170 Cass Lake Rd,KEEGO HARBOR,MI,48320-1274,2486838383.0,"https://www.google.com/maps/place/Hungry+Howie's+Pizza/@42.606407,-83.34421,17z/data=!3m1!4b1!4m5!3m4!1s0x8824bc1a33f9b799:0x42e7aba9ab97a512!8m2!3d42.606407!4d-83.34421",
Hungry Howie's Pizza & Subs,2701 SW College Rd,OCALA,FL,34474-4437,3528611071.0,"https://www.google.com/maps/place/Hungry+Howie's+Pizza/@29.1666344,-82.1713224,17z/data=!3m1!4b1!4m5!3m4!1s0x88e7d4e077fcdad3:0x522ba78833f6f338!8m2!3d29.1666344!4d-82.1713224",
Hungry Howie's Pizza & Subs,22040 W 10 Mile Rd,SOUTHFIELD,MI,48033-3207,2483508290.0,"https://www.google.com/maps/place/Hungry+Howie's+Pizza/@42.472767,-83.261536,17z/data=!3m1!4b1!4m5!3m4!1s0x8824b7cd64bc9a1b:0xf3ef9890efb27c10!8m2!3d42.472767!4d-83.261536",
Hungry Howie's Pizza & Subs,2222 S Ferdon Blvd,CRESTVIEW,FL,32536-8457,8506890990.0,"https://www.google.com/maps/place/Hungry+Howie's+Pizza/@30.73736,-86.565682,17z/data=!3m1!4b1!4m5!3m4!1s0x88917338c6b8a02b:0xc6cc6241aa5cf05e!8m2!3d30.73736!4d-86.565682",
Hungry Howie's Pizza & Subs,2460 Cedar St,HOLT,MI,48842-3103,5176999000.0,"https://www.google.com/maps/place/Hungry+Howie's+Pizza/@42.650494,-84.5284,17z/data=!3m1!4b1!4m5!3m4!1s0x8822c6aea04108e9:0xc57ff9b1024bbcfd!8m2!3d42.650494!4d-84.5284",
Hungry Howie's Pizza & Subs,2395 Tamiami Trl,PORT CHARLOTTE,FL,33952-3954,9416279200.0,"https://www.google.com/maps/place/Hungry+Howie's+Pizza/@26.9966737,-82.1197268,17z/data=!3m1!4b1!4m5!3m4!1s0x88dca9830f48cb47:0x7f92fa0a20a24680!8m2!3d26.9966737!4d-82.1197268",
Hungry Howie's Pizza & Subs,24637 Gibraltar Rd,FLAT ROCK,MI,48134-1347,7347832900.0,"https://www.google.com/maps/place/Hungry+Howie's+Pizza/@42.093555,-83.271614,17z/data=!3m1!4b1!4m5!3m4!1s0x883b40942376d663:0xe8b65b7c38b392b4!8m2!3d42.093555!4d-83.271614",
Hungry Howie's Pizza & Subs,25249 Plymouth Rd,REDFORD,MI,48239-2018,3135348844.0,"https://www.google.com/maps/place/Hungry+Howie's+Pizza/@42.370766,-83.28868,17z/data=!3m1!4b1!4m5!3m4!1s0x8824b5215d6c022b:0x7e3e696175b9c4de!8m2!3d42.370766!4d-83.28868",
Hungry Howie's Pizza & Subs,27307 Wesley Chapel Blvd,WESLEY CHAPEL,FL,33544-4287,8139737555.0,"https://www.google.com/maps/place/Hungry+Howie's+Pizza+%26+Subs/@28.2397387,-82.3665271,17z/data=!3m1!5s0x88c2b042ee58794f:0x6a01047109584390!4m5!3m4!1s0x88c2b042d2375905:0x2dcf6cfe024fa35b!8m2!3d28.239734!4d-82.3643384?hl=en",
Hungry Howie's Pizza & Subs,27448 7 Mile Rd,LIVONIA,MI,48152-3802,2487773300.0,"https://www.google.com/maps/place/Hungry+Howie's+Pizza/@42.427822,-83.31714,17z/data=!3m1!4b1!4m5!3m4!1s0x8824b418fbe489af:0xed5af329de38d828!8m2!3d42.427822!4d-83.31714",
Hungry Howie's Pizza & Subs,2805 Shepherd Rd,LAKELAND,FL,33811-2156,8637012345.0,"https://www.google.com/maps/place/Hungry+Howie's+Pizza/@27.9391094,-82.0024195,17z/data=!3m1!4b1!4m5!3m4!1s0x88dd3a4dfcdc6181:0x33fe00213b5a20b9!8m2!3d27.9391094!4d-82.0024195",
Hungry Howie's Pizza & Subs,2934 N Hayden Rd,SCOTTSDALE,AZ,85251-6615,4806631300.0,"https://www.google.com/maps/place/Hungry+Howie's+Pizza/@33.48093,-111.909966,17z/data=!3m1!4b1!4m5!3m4!1s0x872b0bd394e5f501:0x3b225293317f74f2!8m2!3d33.48093!4d-111.909966",
Hungry Howie's Pizza & Subs,3007 Cypress Gardens Rd,WINTER HAVEN,FL,33884-2258,8633242055.0,"https://www.google.com/maps/place/Hungry+Howie's+Pizza/@27.997162,-81.686205,17z/data=!3m1!4b1!4m5!3m4!1s0x88dd0d8167b14f3b:0xd365a001792821f1!8m2!3d27.997162!4d-81.686205",
Hungry Howie's Pizza & Subs,3057 W Houghton Lake Dr,HOUGHTON LAKE,MI,48629-8243,9893661234.0,"https://www.google.com/maps/place/Hungry+Howie's+Pizza/@44.298264,-84.69963,17z/data=!3m1!4b1!4m5!3m4!1s0x88203366270004fb:0x96cc56d319aba777!8m2!3d44.298264!4d-84.69963",
Hungry Howie's Pizza & Subs,31400 Harper Ave,SAINT CLAIR SHORES,MI,48082-2451,5862948090.0,"https://www.google.com/maps/place/Hungry+Howie's+Pizza/@42.5269537,-82.893259,17z/data=!3m1!4b1!4m5!3m4!1s0x882527763112c2f9:0x857284ab80cde914!8m2!3d42.5269537!4d-82.893259",
Hungry Howie's Pizza & Subs,278 Eglin Pkwy NE,FORT WALTON BEACH,FL,32547-2867,8508628867.0,"https://www.google.com/maps/place/Hungry+Howie's+Pizza/@30.433173,-86.604377,17z/data=!3m1!4b1!4m5!3m4!1s0x88913f0b94e512db:0xea37e2ff7520ee3b!8m2!3d30.433173!4d-86.604377",
Hungry Howie's Pizza & Subs,2790 Creighton Rd,PENSACOLA,FL,32504-7342,8504942600.0,"https://www.google.com/maps/place/Hungry+Howie's+Pizza/@30.495503,-87.190628,17z/data=!3m1!4b1!4m5!3m4!1s0x8890c02856be8dcf:0x8d64e9bb8b5f359f!8m2!3d30.495503!4d-87.190628",
Hungry Howie's Pizza & Subs,2844 E Highland Rd,HIGHLAND,MI,48356-2730,2488898690.0,"https://www.google.com/maps/place/Hungry+Howie's+Pizza/@42.652744,-83.57624,17z/data=!3m1!4b1!4m5!3m4!1s0x8824a06611feac1f:0xb8d93c40f93aa15d!8m2!3d42.652744!4d-83.57624",
Hungry Howie's Pizza & Subs,28532 Ford Rd,GARDEN CITY,MI,48135-2842,7345222121.0,"https://www.google.com/maps/place/Hungry+Howie's+Pizza/@42.326157,-83.32292,17z/data=!3m1!4b1!4m5!3m4!1s0x883b4b7049e2fbaf:0xa3c8d090e71104d5!8m2!3d42.326157!4d-83.32292",
Hungry Howie's Pizza & Subs,2934 US Highway 27 N,SEBRING,FL,33870,8633854777.0,"https://www.google.com/maps/place/hungry+howie+s+pizza,+Hungry+Howies+Logo/@27.4728142,-81.4434349,17z/data=!3m1!4b1!4m5!3m4!1s0x88dc59e216c00001:0xdbe768ccc1c7339a!8m2!3d27.4728142!4d-81.4434349",
Hungry Howie's Pizza & Subs,29142 Hoover Rd,WARREN,MI,48093-3476,5865584800.0,"https://www.google.com/maps/place/Hungry+Howie's+Pizza/@42.508186,-83.006424,17z/data=!3m1!4b1!4m5!3m4!1s0x8824da1126a6cd81:0xdd58c1c0bd2684c!8m2!3d42.508186!4d-83.006424",
Hungry Howie's Pizza & Subs,3183 Union Lake Rd,COMMERCE TOWNSHIP,MI,48382-4547,2483632050.0,"https://www.google.com/maps/place/Hungry+Howie's+Pizza/@42.58956,-83.445404,17z/data=!3m1!4b1!4m5!3m4!1s0x8824a49833567b19:0xe61bd7c825d72759!8m2!3d42.58956!4d-83.445404",
Hungry Howie's Pizza & Subs,3230 W Michigan Ave,PENSACOLA,FL,32507,8509414000.0,"https://www.google.com/maps/place/Hungry+Howie's+Pizza/@30.4615159,-87.2981107,17z/data=!3m1!4b1!4m5!3m4!1s0x8890be7914883819:0x78f96e7552f13f5e!8m2!3d30.4615159!4d-87.2981107",
Hungry Howie's Pizza & Subs,4212 Highland Rd,WATERFORD,MI,48328,2486817070.0,"https://www.google.com/maps/place/Hungry+Howie's+Pizza/@42.64121,-83.35373,17z/data=!3m1!4b1!4m5!3m4!1s0x8824bdc88d5dbdb7:0x91379c2568c716ac!8m2!3d42.64121!4d-83.35373",
Hungry Howie's Pizza & Subs,3491 Thomasville Rd,TALLAHASSEE,FL,32309-3437,8508943100.0,"https://www.google.com/maps/place/Hungry+Howie's+Pizza/@30.5071052,-84.2484895,17z/data=!3m1!4b1!4m5!3m4!1s0x88ec58c739bba885:0xb140e8ecf182c309!8m2!3d30.5071052!4d-84.2484895",
Hungry Howie's Pizza & Subs,3515 W Union Hills Dr,GLENDALE,AZ,85308-2431,6028432727.0,"https://www.google.com/maps/place/Hungry+Howie's+Pizza/@33.653786,-112.135925,17z/data=!3m1!4b1!4m5!3m4!1s0x872b6f2e677796a1:0x2f7329b89b541b6!8m2!3d33.653786!4d-112.135925",
Hungry Howie's Pizza & Subs,3036 Portage St,KALAMAZOO,MI,49001-3754,2693816144.0,"https://www.google.com/maps/place/Hungry+Howie's+Pizza/@42.260437,-85.56724,17z/data=!3m1!4b1!4m5!3m4!1s0x88179dae6c7d9739:0x1191ffcdf58c6966!8m2!3d42.260437!4d-85.56724",
Hungry Howie's Pizza & Subs,30495 John R Rd,MADISON HEIGHTS,MI,48071-2126,2485839944.0,"https://www.google.com/maps/place/Hungry+Howie's+Pizza/@42.516655,-83.10662,17z/data=!3m1!4b1!4m5!3m4!1s0x8824c56c7130a2e5:0x4d9251b2ad56eb86!8m2!3d42.516655!4d-83.10662",
Hungry Howie's Pizza & Subs,3058 Britton Rd,PERRY,MI,48872-8743,5176255555.0,"https://www.google.com/maps/place/Hungry+Howie's+Pizza/@42.83436,-84.221016,17z/data=!3m1!4b1!4m5!3m4!1s0x88231c56336728db:0x55b425b3b7ada909!8m2!3d42.83436!4d-84.221016",
Hungry Howie's Pizza & Subs,3216 S Dale Mabry Hwy,TAMPA,FL,33629-7839,8138376577.0,"https://www.google.com/maps/place/Hungry+Howie's+Pizza/@27.9158714,-82.5057192,17z/data=!3m1!4b1!4m5!3m4!1s0x88c2c331bbc7445f:0xf902ca644634c0db!8m2!3d27.9158714!4d-82.5057192",
Hungry Howie's Pizza & Subs,325 Railroad St,HUDSON,MI,49247-1062,5174484694.0,"https://www.google.com/maps/place/Hungry+Howie's+Pizza/@41.855747,-84.35746,17z/data=!3m1!4b1!4m5!3m4!1s0x883d06ab7791c319:0xaa910074d8b1bc8c!8m2!3d41.855747!4d-84.35746",
Hungry Howie's Pizza & Subs,3272 W Hillsboro Blvd,DEERFIELD BEACH,FL,33442-9482,9545707374.0,"https://www.google.com/maps/place/Hungry+Howie's+Pizza/@26.317481,-80.1481928,17z/data=!3m1!4b1!4m5!3m4!1s0x88d91c55d976ab93:0x4a599abf2db10cc2!8m2!3d26.317481!4d-80.1481928",
Hungry Howie's Pizza & Subs,3562 S Lapeer Rd,METAMORA,MI,48455-8998,8106782600.0,"https://www.google.com/maps/place/Hungry+Howie's+Pizza/@42.95386,-83.31475,17z/data=!3m1!4b1!4m5!3m4!1s0x88248a4768dfbad1:0xcdf06c92a01b04ce!8m2!3d42.95386!4d-83.31475",
Hungry Howie's Pizza & Subs,371 S Belair Rd,MARTINEZ,GA,30907-8837,7066509220.0,"https://www.google.com/maps/place/Hungry+Howie's+Pizza/@33.48665,-82.136024,17z/data=!3m1!4b1!4m5!3m4!1s0x88f9d471223c8b15:0x8b20b40c1332de78!8m2!3d33.48665!4d-82.136024",
Hungry Howie's Pizza & Subs,37265 S Groesbeck Hwy,CLINTON TWP,MI,48036-2316,5864636300.0,"https://www.google.com/maps/place/Hungry+Howie's+Pizza/@42.573063,-82.90994,17z/data=!3m1!4b1!4m5!3m4!1s0x8824df5658785e29:0xc1d12cc0459b5c0a!8m2!3d42.573063!4d-82.90994",
Hungry Howie's Pizza & Subs,3753 E Silver Springs Blvd,OCALA,FL,34470-4903,3526947171.0,"https://www.google.com/maps/place/Hungry+Howie's+Pizza/@29.200076,-82.084368,17z/data=!3m1!4b1!4m5!3m4!1s0x88e62d2743a882bd:0xf64ebd189d08885b!8m2!3d29.200076!4d-82.084368",
Hungry Howie's Pizza & Subs,37595 Green St,NEW BALTIMORE,MI,48047-6037,5867254999.0,"https://www.google.com/maps/place/Hungry+Howie's+Pizza/@42.6876,-82.72299,17z/data=!3m1!4b1!4m5!3m4!1s0x8825176896171cb9:0x4194675e4ce8c8e!8m2!3d42.6876!4d-82.72299",
Hungry Howie's Pizza & Subs,3980 S Ortonville Rd,CLARKSTON,MI,48348-1246,2486209002.0,"https://www.google.com/maps/place/Hungry+Howie's+Pizza/@42.79367,-83.42243,17z/data=!3m1!4b1!4m5!3m4!1s0x88249a80244efd3b:0xb47836abd5d205d5!8m2!3d42.79367!4d-83.42243",
Hungry Howie's Pizza & Subs,3329 Beale Ave,ALTOONA,PA,16601-1549,8149437000.0,"https://www.google.com/maps/place/Hungry+Howie's+Pizza/@40.493427,-78.41675,17z/data=!3m1!4b1!4m5!3m4!1s0x89cb91086602e49d:0x44a134fa69ba9ce8!8m2!3d40.493427!4d-78.41675",
Hungry Howie's Pizza & Subs,35 N Cleveland Ave,MOGADORE,OH,44260-1365,3306281164.0,"https://www.google.com/maps/place/Hungry+Howie's+Pizza/@41.0519174,-81.3948796,17z/data=!4m8!1m2!2m1!1sHungry+Howie's+Pizza+%26+Subs+35+N+Cleveland+Ave+MOGADORE+OH+44260-1365!3m4!1s0x88531aa276ba0ef1:0x8d645729d0570248!8m2!3d41.051876!4d-81.39272?hl=en",
Hungry Howie's Pizza & Subs,35410 Jefferson Ave,HARRISON TWP,MI,48045-3247,5867915005.0,"https://www.google.com/maps/place/Hungry+Howie's+Pizza/@42.554382,-82.85322,17z/data=!3m1!4b1!4m5!3m4!1s0x882526cfdc25926d:0xde10ccc6e4dc5a52!8m2!3d42.554382!4d-82.85322",
Hungry Howie's Pizza & Subs,3572 17th St,SARASOTA,FL,34235-8908,9419512919.0,"https://www.google.com/maps/place/Hungry+Howie's+Pizza/@27.3537988,-82.5037842,17z/data=!3m1!4b1!4m5!3m4!1s0x88c33f60937c5f5f:0x7f350d362b680ebd!8m2!3d27.3537988!4d-82.5037842",
Hungry Howie's Pizza & Subs,3576 Bay Rd,SAGINAW,MI,48603-2428,9897926300.0,"https://www.google.com/maps/place/Hungry+Howie's+Pizza/@43.459373,-83.975105,17z/data=!3m1!4b1!4m5!3m4!1s0x8823c31fed843483:0x5592768388e57145!8m2!3d43.459373!4d-83.975105",
Hungry Howie's Pizza & Subs,3601 N Lecanto Hwy,BEVERLY HILLS,FL,34465-3503,3525273311.0,"https://www.google.com/maps/place/Hungry+Howie's+Pizza/@28.9160048,-82.4694863,17z/data=!3m1!4b1!4m5!3m4!1s0x88e86c08bcc3af49:0xb381d5d99374d73e!8m2!3d28.9160048!4d-82.4694863",
Hungry Howie's Pizza & Subs,3625 Corunna Rd,FLINT,MI,48532-3830,8102326522.0,"https://www.google.com/maps/place/Hungry+Howie's+Pizza/@43.0020998,-83.7341458,17z/data=!3m1!4b1!4m5!3m4!1s0x88237807d31eac53:0x5df818bc3f3050c2!8m2!3d43.0020998!4d-83.7341458",
Hungry Howie's Pizza & Subs,366 E Waterloo Rd,AKRON,OH,44320,3307869200.0,"https://www.google.com/maps/place/Hungry+Howie's+Pizza/@41.02857,-81.51361,17z/data=!3m1!4b1!4m5!3m4!1s0x88312a0b29a93129:0x704a508caa371d12!8m2!3d41.02857!4d-81.51361",
Hungry Howie's Pizza & Subs,3675 12 Mile Rd,BERKLEY,MI,48072-1355,2485451060.0,"https://www.google.com/maps/place/Hungry+Howie's+Pizza/@42.4880702,-83.2356497,12z/data=!4m8!1m2!2m1!1sHungry+Howie's+Pizza+%26+Subs+3675+12+Mile+Rd+BERKLEY+MI+48072-1355!3m4!1s0x8824c89ccdb1f2e5:0x13c3e79e0ca641c6!8m2!3d42.50282!4d-83.19698?hl=en",
Hungry Howie's Pizza & Subs,3736 Monroe St,DEARBORN,MI,48124-3620,3132781230.0,"https://www.google.com/maps/place/Hungry+Howie's+Pizza/@42.283337,-83.25133,17z/data=!3m1!4b1!4m5!3m4!1s0x883b4a07fabe9145:0x898c022d52d9bd61!8m2!3d42.283337!4d-83.25133",
Hungry Howie's Pizza & Subs,3780 Tampa Rd,OLDSMAR,FL,34677-3045,8138541595.0,"https://www.google.com/maps/place/Hungry+Howie's+Pizza/@28.0424611,-82.6777848,17z/data=!3m1!4b1!4m5!3m4!1s0x88c2ec445b02fb05:0x7986d95aab203157!8m2!3d28.0424611!4d-82.6777848",
Hungry Howie's Pizza & Subs,3921 West Rd,TRENTON,MI,48183-2239,7346925560.0,"https://www.google.com/maps/place/hungry+howie+s+pizza,+Hungry+Howies+Logo/@42.1404655,-83.2150454,17z/data=!3m1!4b1!4m5!3m4!1s0x883b38e4383fffff:0x96a2947f0a724b53!8m2!3d42.1404655!4d-83.2150454",
Hungry Howie's Pizza & Subs,3935 Telegraph Rd,BLOOMFIELD HILLS,MI,48302-1475,2485946000.0,"https://www.google.com/maps/place/Hungry+Howie's+Pizza/@42.5822944,-83.2802821,17z/data=!3m1!4b1!4m5!3m4!1s0x8824b8ce5711e331:0x5b2632bd3978241e!8m2!3d42.5822944!4d-83.2802821",
Hungry Howie's Pizza & Subs,4008 Highway 17 Byp S,MYRTLE BEACH,SC,29588,8433611300.0,"https://www.google.com/maps/place/Hungry+Howie's+Pizza/@33.675236,-78.90419,17z/data=!3m1!4b1!4m5!3m4!1s0x890069bf8fb80895:0xd6faf48cd090d27d!8m2!3d33.675236!4d-78.90419",
Hungry Howie's Pizza & Subs,4069 Lake Michigan Dr NW,WALKER,MI,49504,6167352050.0,"https://www.google.com/maps/place/Hungry+Howie's+Pizza/@42.972427,-85.76792,17z/data=!3m1!4b1!4m5!3m4!1s0x8819a57d7217f1ef:0xb5abb1eddc92c82c!8m2!3d42.972427!4d-85.76792",
Hungry Howie's Pizza & Subs,418 Monument Ave,PORT SAINT JOE,FL,32456-1820,8502299222.0,"https://www.google.com/maps/place/Howie's/@29.81184,-85.30365,17z/data=!3m1!4b1!4m5!3m4!1s0x8894966564f38f15:0x3daaa88191369ef5!8m2!3d29.81184!4d-85.30365",
Hungry Howie's Pizza & Subs,419 W 9 Mile Rd,FERNDALE,MI,48220-1793,2485460643.0,"https://www.google.com/maps/place/Hungry+Howie's+Pizza/@42.460346,-83.1396,17z/data=!3m1!4b1!4m5!3m4!1s0x8824cee112c0591b:0xff6d2774ac9762f9!8m2!3d42.460346!4d-83.1396",
Hungry Howie's Pizza & Subs,4209 E Shields Ave,FRESNO,CA,93726-7121,5592275555.0,"https://www.google.com/maps/place/Hungry+Howie's+Pizza/@36.78042,-119.753944,17z/data=!3m1!4b1!4m5!3m4!1s0x80945dc5f906f713:0x985c092b2a2924f8!8m2!3d36.78042!4d-119.753944",
Hungry Howie's Pizza & Subs,43747 Van Dyke Ave,STERLING HEIGHTS,MI,48314-2445,5867269300.0,"https://www.google.com/maps/place/Hungry+Howie's+Pizza/@42.615524,-83.03282,17z/data=!3m1!4b1!4m5!3m4!1s0x8824dc51352bc601:0x2f3c8f5c039e928!8m2!3d42.615524!4d-83.03282",
Hungry Howie's Pizza & Subs,220 N Canton Center Rd,CANTON,MI,48187-2951,7349810900.0,"https://www.google.com/maps/place/Hungry+Howie's+Pizza/@42.308475,-83.48637,17z/data=!3m1!4b1!4m5!3m4!1s0x883b53a686c98673:0x4c7e668006282176!8m2!3d42.308475!4d-83.48637",
Hungry Howie's Pizza & Subs,4470 Lafayette St,MARIANNA,FL,32446-3441,8505267878.0,"https://www.google.com/maps/place/Hungry+Howie's+Pizza/@30.7750503,-85.2235758,17z/data=!3m1!4b1!4m5!3m4!1s0x889320f0876dce4d:0x7e049ed189960833!8m2!3d30.7750503!4d-85.2235758",
Hungry Howie's Pizza & Subs,4511 Grand Blvd,NEW PORT RICHEY,FL,34652-5121,7278424900.0,"https://www.google.com/maps/place/Hungry+Howie's+Pizza/@28.224747,-82.7236463,17z/data=!3m1!4b1!4m5!3m4!1s0x88c291c2c63cb625:0x5dc9d7680325e30c!8m2!3d28.224747!4d-82.7236463",
Hungry Howie's Pizza & Subs,4625 E Thomas Rd,PHOENIX,AZ,85018-7709,6028406100.0,"https://www.google.com/maps/place/Hungry+Howie's+Pizza/@33.47962,-111.98165,17z/data=!3m1!4b1!4m5!3m4!1s0x872b0c38ce3d2dc3:0x412db23b0aca782b!8m2!3d33.47962!4d-111.98165",
Hungry Howie's Pizza & Subs,4 W Carleton Rd,HILLSDALE,MI,49242-1226,5174370600.0,"https://www.google.com/maps/place/Hungry+Howie's+Pizza/@41.92481,-84.63577,17z/data=!3m1!4b1!4m5!3m4!1s0x883d72efa3565289:0x5f9c4f6d072bb98c!8m2!3d41.92481!4d-84.63577",
Hungry Howie's Pizza & Subs,4078 17 Mile Rd,STERLING HEIGHTS,MI,48310-6836,5862688800.0,"https://www.google.com/maps/place/Hungry+Howie's+Pizza/@42.5786089,-83.06891,17z/data=!3m1!4b1!4m5!3m4!1s0x8824dca884ffce9f:0x912ea3045e0d549d!8m2!3d42.5786089!4d-83.06891",
Hungry Howie's Pizza & Subs,425 S Saginaw Rd,MIDLAND,MI,48640-4520,9898325292.0,"https://www.google.com/maps/place/hungry+howie+s+pizza,+Hungry+Howies+Logo/@43.6236442,-84.2233615,17z/data=!3m1!4b1!4m5!3m4!1s0x8823d5a19d670001:0xa4fcf310608bf76d!8m2!3d43.6236442!4d-84.2233615",
Hungry Howie's Pizza & Subs,430 State Road 436,CASSELBERRY,FL,32707-4973,4077676562.0,"https://www.google.com/maps/place/Hungry+Howie's+Pizza/@28.654851,-81.3316305,17z/data=!3m1!4b1!4m5!3m4!1s0x88e76e18ff26af03:0x66ad29fb82c70d04!8m2!3d28.654851!4d-81.3316305",
Hungry Howie's Pizza & Subs,49143 Schoenherr Rd,SHELBY TWP,MI,48315-3858,5867395100.0,"https://www.google.com/maps/place/Hungry+Howie's+Pizza/@42.656857,-82.99527,17z/data=!3m1!4b1!4m5!3m4!1s0x8824e75320a620b7:0x1afcae5f7b41f959!8m2!3d42.656857!4d-82.99527",
Hungry Howie's Pizza & Subs,4930 N Adams Rd,OAKLAND TWP,MI,48306-1416,2482769999.0,"https://www.google.com/maps/place/Hungry+Howie's+Pizza/@42.72588,-83.1993516,17z/data=!3m1!4b1!4m5!3m4!1s0x8824eb90b1e018b1:0x713cf222aca6c28b!8m2!3d42.72588!4d-83.1993516",
Hungry Howie's Pizza & Subs,103 301 Blvd W,BRADENTON,FL,34205-7900,9417554599.0,"https://www.google.com/maps/place/Hungry+Howie's+Pizza+%26+Salad+Bar/@27.465511,-82.563421,17z/data=!3m1!4b1!4m5!3m4!1s0x88c31608df7fd2b5:0xbbeb2fc11a894d82!8m2!3d27.465511!4d-82.563421",
Hungry Howie's Pizza & Subs,518 Marshall St,COLDWATER,MI,49036-1171,5172792992.0,"https://www.google.com/maps/place/Hungry+Howie's+Pizza/@41.95596,-84.99968,17z/data=!3m1!4b1!4m5!3m4!1s0x8817d76999b78491:0x76de6f4158298320!8m2!3d41.95596!4d-84.99968",
Hungry Howie's Pizza & Subs,5026 W Cactus Rd,GLENDALE,AZ,85304-2241,6025487770.0,"https://www.google.com/maps/place/Hungry+Howie's+Pizza/@33.597015,-112.166794,17z/data=!3m1!4b1!4m5!3m4!1s0x872b6bdffdb97b69:0x1a206f0076c51d7b!8m2!3d33.597015!4d-112.166794",
Hungry Howie's Pizza & Subs,530 S Mill St,CLIO,MI,48420-1438,8106875000.0,"https://www.google.com/maps/place/Hungry+Howie's+Pizza/@43.17299,-83.73519,17z/data=!3m1!4b1!4m5!3m4!1s0x88238f96b78cb259:0xec14d1aa8778ea66!8m2!3d43.17299!4d-83.73519",
Hungry Howie's Pizza & Subs,5357 N Socrum Loop Rd,LAKELAND,FL,33809-4256,8638533222.0,"https://www.google.com/maps/place/Hungry+Howie's+Pizza/@28.111324,-81.945276,17z/data=!3m1!4b1!4m5!3m4!1s0x88dd41290d82d8ff:0x194edd02318f656c!8m2!3d28.111324!4d-81.945276",
Hungry Howie's Pizza & Subs,5613 University Blvd W,JACKSONVILLE,FL,32216-5558,9047338566.0,"https://www.google.com/maps/place/Hungry+Howie's+Pizza/@30.272026,-81.609498,17z/data=!3m1!4b1!4m5!3m4!1s0x88e5b60f34556613:0xf3c504c79f62338f!8m2!3d30.272026!4d-81.609498",
Hungry Howie's Pizza & Subs,5711 S Wayne Rd,WAYNE,MI,48184-2403,7343268990.0,"https://www.google.com/maps/place/Hungry+Howie's+Pizza/@42.267303,-83.38828,17z/data=!3m1!4b1!4m5!3m4!1s0x883b4e65e2374959:0x168ea3d6d02adb73!8m2!3d42.267303!4d-83.38828",
Hungry Howie's Pizza & Subs,5735 SW State Road 247,LAKE CITY,FL,32024-4544,3867523111.0,"https://www.google.com/maps/place/FUTURE+Hungry+Howie's/@30.1174174,-82.7284283,17z/data=!3m1!4b1!4m5!3m4!1s0x88ef3022384aa383:0xba8301cfe7cf949a!8m2!3d30.1174174!4d-82.7284283",
Hungry Howie's Pizza & Subs,583 S Cedar St,IMLAY CITY,MI,48444-1346,8107244515.0,"https://www.google.com/maps/place/Hungry+Howie's+Pizza/@43.017784,-83.07154,17z/data=!3m1!4b1!4m5!3m4!1s0x88245766e61d2ff7:0x44f71e0966106e8d!8m2!3d43.017784!4d-83.07154",
Hungry Howie's Pizza & Subs,4726 Clarkston Rd,CLARKSTON,MI,48348-3558,2483941200.0,"https://www.google.com/maps/place/Hungry+Howie's+Pizza/@42.764164,-83.33998,17z/data=!3m1!4b1!4m5!3m4!1s0x8824915eea1df24b:0x286ab87742cf961c!8m2!3d42.764164!4d-83.33998",
Hungry Howie's Pizza & Subs,4744 US Highway 98 N,LAKELAND,FL,33809-3658,8638591436.0,"https://www.google.com/maps/place/Hungry+Howie's+Pizza/@28.1040396,-81.974099,17z/data=!3m1!4b1!4m5!3m4!1s0x88dd47223fbf70e3:0x4b192314f718cd03!8m2!3d28.1040396!4d-81.974099",
Hungry Howie's Pizza & Subs,479 W 14 Mile Rd,CLAWSON,MI,48017-1927,2482801480.0,"https://www.google.com/maps/place/Hungry+Howie's+Pizza/@42.53297,-83.1537,17z/data=!3m1!4b1!4m5!3m4!1s0x8824c5cffb846533:0x5e8c396c7a94cca1!8m2!3d42.53297!4d-83.1537",
Hungry Howie's Pizza & Subs,3071 Rifle Range Rd,WAHNETA,FL,33880-5777,8633181122.0,"https://www.google.com/maps/place/Hungry+Howie's+Pizza/@27.9571305,-81.726342,17z/data=!3m1!4b1!4m5!3m4!1s0x88dd122829e96e1f:0xa03232f7fd6bd757!8m2!3d27.9571305!4d-81.726342",
Hungry Howie's Pizza & Subs,5455 Gull Rd,KALAMAZOO,MI,49008,2693426002.0,"https://www.google.com/maps/place/Hungry+Howie's+Pizza/@42.32314,-85.52362,17z/data=!3m1!4b1!4m5!3m4!1s0x8817835ee7d3988b:0x98ed35e04e5cf24d!8m2!3d42.32314!4d-85.52362",
Hungry Howie's Pizza & Subs,555 7 Mile Rd,NORTHVILLE,MI,48167-1639,2483058376.0,"https://www.google.com/maps/place/Hungry+Howie's+Pizza/@42.425877,-83.4762,17z/data=!3m1!4b1!4m5!3m4!1s0x8824ac378a79f713:0x6f0a10c9adaa37bf!8m2!3d42.425877!4d-83.4762",
Hungry Howie's Pizza & Subs,5611 Old Shell Rd,MOBILE,AL,36608-3040,2513453333.0,"https://www.google.com/maps/place/Hungry+Howie's+Pizza/@30.688951,-88.17261,17z/data=!3m1!4b1!4m5!3m4!1s0x889bb2ae72550819:0x5637f48a66076be3!8m2!3d30.688951!4d-88.17261",
Hungry Howie's Pizza & Subs,6005 E Thompson Rd,INDIANAPOLIS,IN,46237-3503,3177865800.0,"https://www.google.com/maps/place/Hungry+Howie's+Pizza/@39.694412,-86.06253,17z/data=!3m1!4b1!4m5!3m4!1s0x886b44f1e37d402f:0x1f9449f6a96c8d02!8m2!3d39.694412!4d-86.06253",
Hungry Howie's Pizza & Subs,601 N Grand Ave,FOWLERVILLE,MI,48836-9792,5172233200.0,"https://www.google.com/maps/place/Hungry+Howie's+Pizza/@42.66045,-84.079475,17z/data=!3m1!4b1!4m5!3m4!1s0x88233cc292f7a497:0xe7f4b453dc1cfa6c!8m2!3d42.66045!4d-84.079475",
Hungry Howie's Pizza & Subs,607 E 23rd St,PANAMA CITY,FL,32405-5325,8507479464.0,"https://www.google.com/maps/place/Hungry+Howie's+Pizza/@30.1899495,-85.6517667,17z/data=!3m1!4b1!4m5!3m4!1s0x889383d0363a7e95:0xbffd77623f84837d!8m2!3d30.1899495!4d-85.6517667",
Hungry Howie's Pizza & Subs,6104 N US Highway 41,APOLLO BEACH,FL,33572-1806,8136450464.0,"https://www.google.com/maps/place/Hungry+Howie's+Pizza/@27.7659291,-82.3946015,17z/data=!3m1!4b1!4m5!3m4!1s0x88c2d9d3835fb0e7:0xa5cd7f968df21cff!8m2!3d27.7659291!4d-82.3946015",
Hungry Howie's Pizza & Subs,226 Tamiami Trl,PUNTA GORDA,FL,33950-4433,9415058800.0,"https://www.google.com/maps/place/Hungry+Howie's/@26.9355873,-82.0492865,17z/data=!3m1!4b1!4m5!3m4!1s0x88db57efb43cfb73:0xc42b3d3b37d6d32b!8m2!3d26.9355873!4d-82.0492865",
Hungry Howie's Pizza & Subs,618 Peterson Ave N,DOUGLAS,GA,31533-4912,9123845500.0,"https://www.google.com/maps/place/Hungry+Howie's+Pizza/@31.51486,-82.850136,17z/data=!3m1!4b1!4m5!3m4!1s0x88f02b892a8138dd:0xf0a1ac1c0976a9da!8m2!3d31.51486!4d-82.850136",
Hungry Howie's Pizza & Subs,6426 W Sugar Creek Rd,CHARLOTTE,NC,28269-2384,7045094567.0,"https://www.google.com/maps/place/Hungry+Howie's+Pizza/@35.33553,-80.79687,17z/data=!3m1!4b1!4m5!3m4!1s0x88541d90f598e7c9:0x45c89c2a98af16cb!8m2!3d35.33553!4d-80.79687",
Hungry Howie's Pizza & Subs,6328 Park Blvd N,PINELLAS PARK,FL,33781-3148,7275416465.0,"https://www.google.com/maps/place/Hungry+Howie's+Pizza/@27.8386308,-82.7229665,17z/data=!3m1!4b1!4m5!3m4!1s0x88c2e4bab3b32241:0xa526646bcd950cca!8m2!3d27.8386308!4d-82.7229665",
Hungry Howie's Pizza & Subs,6338 Forest Hill Blvd,GREENACRES,FL,33415-6104,5619669733.0,"https://www.google.com/maps/place/Hungry+Howie's+Pizza+Subs+%26+Wings/@26.649841,-80.1436413,17z/data=!3m1!4b1!4m5!3m4!1s0x88d928879db64747:0x45875b8875fb7bc6!8m2!3d26.649841!4d-80.1436413",
Hungry Howie's Pizza & Subs,65 Douglas Ave,HOLLAND,MI,49424-3310,6165464444.0,"https://www.google.com/maps/place/Hungry+Howie's+Pizza/@42.8041934,-86.1100734,17z/data=!3m1!4b1!4m5!3m4!1s0x88198d497f1e2021:0x8d9aeb420caab4b7!8m2!3d42.8041934!4d-86.1100734",
Hungry Howie's Pizza & Subs,6703 E 81st St,TULSA,OK,74133-4157,9185230000.0,"https://www.google.com/maps/place/Hungry+Howie's+Pizza/@36.046764,-95.90253,17z/data=!3m1!4b1!4m5!3m4!1s0x87b692096dad27a9:0x7a8d2aef1f211564!8m2!3d36.046764!4d-95.90253",
Hungry Howie's Pizza & Subs,67437 S Main St,RICHMOND,MI,48062-1923,5867274410.0,"https://www.google.com/maps/place/hungry+howie+s+pizza/@42.7978402,-82.7394976,17z/data=!3m1!4b1!4m5!3m4!1s0x88250557379eaaab:0x9d1da793fb66d80d!8m2!3d42.7978402!4d-82.7394976",
Hungry Howie's Pizza & Subs,6853 SE Maricamp Rd,OCALA,FL,34472-2813,3526874000.0,"https://www.google.com/maps/place/Hungry+Howie's+Pizza/@29.1288531,-82.0367309,17z/data=!3m1!4b1!4m5!3m4!1s0x88e7cd85eaaa2c57:0x5f0a05e99434f77d!8m2!3d29.1288531!4d-82.0367309",
Hungry Howie's Pizza & Subs,7304 Royal Palm Blvd,MARGATE,FL,33063-6803,9549774444.0,"https://www.google.com/maps/place/Hungry+Howie's+Pizza/@26.252576,-80.224411,17z/data=!3m1!4b1!4m5!3m4!1s0x88d904dda9afd37f:0xaa08aba7aa0651fc!8m2!3d26.252576!4d-80.224411",
Hungry Howie's Pizza & Subs,6315 Sashabaw Rd,CLARKSTON,MI,48346-4825,2486257474.0,"https://www.google.com/maps/place/Hungry+Howie's+Pizza/@42.730244,-83.380066,17z/data=!3m1!4b1!4m5!3m4!1s0x8824971fee3a33b9:0xf413a3b3ec9f9f6c!8m2!3d42.730244!4d-83.380066",
Hungry Howie's Pizza & Subs,650 Pointe Tremble Rd,ALGONAC,MI,48001-1807,8107943000.0,"https://www.google.com/maps/place/Hungry+Howie's+Pizza/@42.61466,-82.54157,17z/data=!3m1!4b1!4m5!3m4!1s0x88254018936ce8e7:0x628034be1a535c7f!8m2!3d42.61466!4d-82.54157",
Hungry Howie's Pizza & Subs,6570 Central Ave,SAINT PETERSBURG,FL,33707-1330,7273452020.0,"https://www.google.com/maps/place/Hungry+Howie's+Pizza/@27.770564,-82.727974,17z/data=!3m1!4b1!4m5!3m4!1s0x88c2e2d195b8e267:0x4e6aebcc1ed3b981!8m2!3d27.770564!4d-82.727974",
Hungry Howie's Pizza & Subs,6801 St Andrews Rd,IRMO,SC,29212,8037492669.0,"https://www.google.com/maps/place/Hungry+Howie's+Pizza/@34.071896,-81.17554,17z/data=!3m1!4b1!4m5!3m4!1s0x88f898907bfd59e1:0xf5cfdb2a4752f08d!8m2!3d34.071896!4d-81.17554",
Hungry Howie's Pizza & Subs,5726 Ranch Lake Blvd,LAKEWOOD RANCH,FL,34202-3709,9417582600.0,"https://www.google.com/maps/place/Hungry+Howie's+Pizza+%26+Salad+Bar/@27.439174,-82.456252,17z/data=!3m1!4b1!4m5!3m4!1s0x88c33bfed34f643f:0x15e46fa1054c3adb!8m2!3d27.439174!4d-82.456252",
Hungry Howie's Pizza & Subs,7223 State Road 52,HUDSON,FL,34667-6710,7278628888.0,"https://www.google.com/maps/place/Hungry+Howie's+Pizza/@28.3317916,-82.6949601,17z/data=!3m1!4b1!4m5!3m4!1s0x88c29afed35c91bb:0xbc2083bd90c91c63!8m2!3d28.3317916!4d-82.6949601",
Hungry Howie's Pizza & Subs,742 N Waverly Rd,LANSING,MI,48917-2268,5173214404.0,"https://www.google.com/maps/place/Hungry+Howie's+Pizza/@42.7432394,-84.6023955,17z/data=!3m1!4b1!4m5!3m4!1s0x8822eaac79bf050d:0x536708decfc5ef12!8m2!3d42.7432394!4d-84.6023955",
Hungry Howie's Pizza & Subs,7620 Gunn Hwy,TAMPA,FL,33625-3144,8139206311.0,"https://www.google.com/maps/place/Hungry+Howie's+Pizza/@28.0782533,-82.5711682,17z/data=!3m1!4b1!4m5!3m4!1s0x88c2eaa31f413d9f:0x20ea2c3188cade5b!8m2!3d28.0782533!4d-82.5711682",
Hungry Howie's Pizza & Subs,7949 S 8th St,KALAMAZOO,MI,49009-8955,2693757970.0,"https://www.google.com/maps/place/Hungry+Howie's+Pizza/@42.201786,-85.68626,17z/data=!3m1!4b1!4m5!3m4!1s0x8817738704c9e859:0xda9494ba9d8f7843!8m2!3d42.201786!4d-85.68626",
Hungry Howie's Pizza & Subs,7722 E US Highway 36,AVON,IN,46123-7880,3172721801.0,"https://www.google.com/maps/place/Hungry+Howie's+Pizza/@39.763744,-86.3863,17z/data=!3m1!4b1!4m5!3m4!1s0x886caf87ac5a71ef:0x51856b5260f6753f!8m2!3d39.763744!4d-86.3863",
Hungry Howie's Pizza & Subs,819 W Bloomingdale Ave,BRANDON,FL,33511-7701,8136840988.0,"https://www.google.com/maps/place/Hungry+Howie's+Pizza+%26+Subs/@27.8928255,-82.2949112,17z/data=!3m1!4b1!4m5!3m4!1s0x88c2d206e380f28b:0xe6701e65228830da!8m2!3d27.8928255!4d-82.2949112",
Hungry Howie's Pizza & Subs,882 N Van Dyke Rd,ALMONT,MI,48003-8557,8107980800.0,"https://www.google.com/maps/place/hungry+howie+s+pizza,+Hungry+Howies+Logo/@42.9290419,-83.048358,17z/data=!3m1!4b1!4m5!3m4!1s0x8824f84dc22e5107:0x9420dc1febc193c!8m2!3d42.9290419!4d-83.048358",
Hungry Howie's Pizza & Subs,8257 Normandy Blvd,JACKSONVILLE,FL,32221-6689,9047815656.0,"https://www.google.com/maps/place/Hungry+Howie's+Pizza/@30.291332,-81.786141,17z/data=!3m1!4b1!4m5!3m4!1s0x88e5bf49b7577aa7:0x39163868189f9d44!8m2!3d30.291332!4d-81.786141",
Hungry Howie's Pizza & Subs,8345 W Thunderbird Rd,PEORIA,AZ,85381-3668,6237732777.0,"https://www.google.com/maps/place/Hungry+Howie's+Pizza/@33.608505,-112.23836,17z/data=!3m1!4b1!4m5!3m4!1s0x872b69df602161af:0x29b7eab9472a53eb!8m2!3d33.608505!4d-112.23836",
Hungry Howie's Pizza & Subs,8351 Silver Lake Rd,LINDEN,MI,48451-9061,8107355803.0,"https://www.google.com/maps/place/Hungry+Howie's+Pizza/@42.795116,-83.83672,17z/data=!3m1!4b1!4m5!3m4!1s0x88236e965a04a71f:0x37890a4425926783!8m2!3d42.795116!4d-83.83672",
Hungry Howie's Pizza & Subs,8769 Monroe Rd,DURAND,MI,48429-1062,9892882323.0,"https://www.google.com/maps/place/Hungry+Howie's+Pizza/@42.922634,-83.99054,17z/data=!3m1!4b1!4m5!3m4!1s0x88230c6a388d4325:0x80abe85c86c38485!8m2!3d42.922634!4d-83.99054",
Hungry Howie's Pizza & Subs,8821 Newburgh Rd,LIVONIA,MI,48150-3424,7342930400.0,"https://www.google.com/maps/place/Hungry+Howie's+Pizza/@42.35378,-83.4114,17z/data=!3m1!4b1!4m5!3m4!1s0x883b4d4fd07d3c9d:0x566d6c29cdd317ef!8m2!3d42.35378!4d-83.4114",
Hungry Howie's Pizza & Subs,26 N State St,ZEELAND,MI,49464-1281,6167727070.0,"https://www.google.com/maps/place/Hungry+Howie's+Pizza/@42.813007,-86.019226,17z/data=!3m1!4b1!4m5!3m4!1s0x8819935dbb006c69:0xc92daa450fd70db6!8m2!3d42.813007!4d-86.019226",
Hungry Howie's Pizza & Subs,900 W Holmes Rd,LANSING,MI,48910-4483,5173940300.0,"https://www.google.com/maps/place/Hungry+Howie's+Pizza/@42.697857,-84.56479,17z/data=!3m1!4b1!4m5!3m4!1s0x8822c055306748b7:0xf1529cf9bfecfec!8m2!3d42.697857!4d-84.56479",
Hungry Howie's Pizza & Subs,904 E 11 Mile Rd,ROYAL OAK,MI,48067-1968,2485458090.0,"https://www.google.com/maps/place/Hungry+Howie's+Pizza/@42.48998,-83.13424,17z/data=!3m1!4b1!4m5!3m4!1s0x8824cf6e4ae91a55:0x44c7b76556c72aca!8m2!3d42.48998!4d-83.13424",
Hungry Howie's Pizza & Subs,843 N Van Dyke Rd,BAD AXE,MI,48413-9016,9892693500.0,"https://www.google.com/maps/place/Hungry+Howie's+Pizza/@43.8161,-83.00164,17z/data=!3m1!4b1!4m5!3m4!1s0x88268c0c2d9ee351:0xda1baba149adbfc5!8m2!3d43.8161!4d-83.00164",
Hungry Howie's Pizza & Subs,871 E North St,KENDALLVILLE,IN,46755-1227,2603478000.0,"https://www.google.com/maps/place/Hungry+Howie's+Pizza/@41.453197,-85.25274,17z/data=!3m1!4b1!4m5!3m4!1s0x881614c2b8122109:0x240839d66b8bf90c!8m2!3d41.453197!4d-85.25274",
Hungry Howie's Pizza & Subs,893 S State St,CARO,MI,48723-1702,9896724166.0,"https://www.google.com/maps/place/Hungry+Howie's+Pizza/@43.48108,-83.40618,17z/data=!3m1!4b1!4m5!3m4!1s0x88241ad9527e9e4d:0x924a7e6a06a3dfeb!8m2!3d43.48108!4d-83.40618",
Hungry Howie's Pizza & Subs,9109 Ridge Rd,NEW PORT RICHEY,FL,34654-5059,7278467760.0,"https://www.google.com/maps/place/Hungry+Howie's+Pizza/@28.2811325,-82.6642811,17z/data=!3m1!4b1!4m5!3m4!1s0x88c290a37f4ab4c1:0x9c42a09f1005fee6!8m2!3d28.2811325!4d-82.6642811",
Hungry Howie's Pizza & Subs,9135 Highland Rd,WHITE LAKE,MI,48383,2486981940.0,"https://www.google.com/maps/place/Hungry+Howie's+Pizza/@42.65676,-83.46627,17z/data=!3m1!4b1!4m5!3m4!1s0x8824a25fbb5ccb43:0x5e9c56f94ffdc80d!8m2!3d42.65676!4d-83.46627",
Hungry Howie's Pizza & Subs,919 N McEwan St,CLARE,MI,48617-1234,9893862345.0,"https://www.google.com/maps/place/Hungry+Howie's+Pizza/@43.82297,-84.768845,17z/data=!3m1!4b1!4m5!3m4!1s0x8821f0018933ac4b:0x4acddbe16f581313!8m2!3d43.82297!4d-84.768845",
Hungry Howie's Pizza & Subs,2214 Kent Dairy Rd,ALABASTER,AL,35007-5333,2056645900.0,"https://www.google.com/maps/place/Hungry+Howie's+Pizza/@33.214184,-86.825584,17z/data=!3m1!4b1!4m5!3m4!1s0x888928a95f368bcb:0x6cc745fd9156b843!8m2!3d33.214184!4d-86.825584",
Hungry Howie's Pizza & Subs,910 Ashmun St,SAULT SAINTE MARIE,MI,49783-2245,9066326699.0,"https://www.google.com/maps/place/Hungry+Howie's+Pizza/@46.492676,-84.35185,17z/data=!3m1!4b1!4m5!3m4!1s0x4d369e5baf76a5d1:0x6d95fc461fc109f8!8m2!3d46.492676!4d-84.35185",
Hungry Howie's Pizza & Subs,916 S Main St,EATON RAPIDS,MI,48827-1732,5176636200.0,"https://www.google.com/maps/place/Hungry+Howie's+Pizza/@42.503357,-84.65669,17z/data=!3m1!4b1!4m5!3m4!1s0x8822b42845440065:0xf19e2b4639082b37!8m2!3d42.503357!4d-84.65669",
Hungry Howie's Pizza & Subs,10251 SE US Highway 441,BELLEVIEW,FL,34420-6815,3523074694.0,"https://www.google.com/maps/place/Hungry+Howie's+Pizza/@29.0730901,-82.0719159,17z/data=!3m1!4b1!4m5!3m4!1s0x88e7d197386006b9:0x7bae81770e0d8ec4!8m2!3d29.0730901!4d-82.0719159",
Hungry Howie's Pizza & Subs,1030 US Highway 331 S,DEFUNIAK SPRINGS,FL,32435-8719,8509510484.0,"https://www.google.com/maps/place/Hungry+Howie's/@30.7080165,-86.1239488,17z/data=!3m1!4b1!4m5!3m4!1s0x8893d1ae1fc6f03b:0x7727edc4ee93e11d!8m2!3d30.7080165!4d-86.1239488",
Hungry Howie's Pizza & Subs,1052 US Highway 27 S,AVON PARK,FL,33825-5114,8634520222.0,"https://www.google.com/maps/place/Hungry+Howie's+Pizza/@27.583026,-81.515055,17z/data=!3m1!4b1!4m5!3m4!1s0x88dc55f7fdcec36f:0x5084fc62bcb2e2d5!8m2!3d27.583026!4d-81.515055",
Hungry Howie's Pizza & Subs,11300 W M 179 Hwy,MIDDLEVILLE,MI,49333-8429,2697953250.0,"https://www.google.com/maps/place/Hungry+Howie's+Pizza/@42.631786,-85.51148,17z/data=!3m1!4b1!4m5!3m4!1s0x881831f03b6a7f11:0x18a1d80c825f33ac!8m2!3d42.631786!4d-85.51148",
Hungry Howie's Pizza & Subs,11360 N Saginaw St,MOUNT MORRIS,MI,48458-2083,8106865577.0,"https://www.google.com/maps/place/Hungry+Howie's+Pizza/@43.114353,-83.69396,17z/data=!3m1!4b1!4m5!3m4!1s0x882384347ac6c68f:0x4c865b1ff0082fde!8m2!3d43.114353!4d-83.69396",
Hungry Howie's Pizza & Subs,115 S Main St,FREELAND,MI,48623-8936,9896955700.0,"https://www.google.com/maps/place/Hungry+Howie's+Pizza/@43.52411,-84.122055,17z/data=!3m1!4b1!4m5!3m4!1s0x8823d0f455f14629:0xa23d03531473fc52!8m2!3d43.52411!4d-84.122055",
Hungry Howie's Pizza & Subs,11930 Whitmore Lake Rd,WHITMORE LAKE,MI,48189-9153,7344499100.0,"https://www.google.com/maps/place/Hungry+Howie's+Pizza/@42.43164,-83.76949,17z/data=!3m1!4b1!4m5!3m4!1s0x88234d85bde544ed:0xe61dd25c9d7e09b0!8m2!3d42.43164!4d-83.76949",
Hungry Howie's Pizza & Subs,120 E Lawrence Ave,CHARLOTTE,MI,48813-1519,5175411100.0,"https://www.google.com/maps/place/Hungry+Howie's+Pizza/@42.563828,-84.834885,17z/data=!3m1!4b1!4m5!3m4!1s0x8822af17c637154d:0x3300bffd91d361b1!8m2!3d42.563828!4d-84.834885",
Hungry Howie's Pizza & Subs,10784 Belleville Rd,VAN BUREN TWP,MI,48111-1308,7346974545.0,"https://www.google.com/maps/place/Hungry+Howie's+Pizza/@42.224133,-83.48674,17z/data=!3m1!4b1!4m5!3m4!1s0x883b509607cdd439:0xc5eb59b22084e192!8m2!3d42.224133!4d-83.48674",
Hungry Howie's Pizza & Subs,108 E Delaware St,DECATUR,MI,49045-1151,2694238100.0,"https://www.google.com/maps/place/Hungry+Howie's+Pizza/@42.108894,-85.97276,17z/data=!3m1!4b1!4m5!3m4!1s0x88173ef4f957970b:0x97b4ae99f7854b56!8m2!3d42.108894!4d-85.97276",
Hungry Howie's Pizza & Subs,1085 Tamiami Trl N,NOKOMIS,FL,34275-2163,9414120099.0,"https://www.google.com/maps/place/Hungry+Howie's+Pizza/@27.136665,-82.458699,17z/data=!3m1!4b1!4m5!3m4!1s0x88c35b419bdd8955:0x4dc781dd5acf06d2!8m2!3d27.136665!4d-82.458699",
Hungry Howie's Pizza & Subs,1100 Meadows Rd,CALEXICO,CA,92231-5917,7603574700.0,"https://www.google.com/maps/place/Hungry+Howie's+Pizza/@32.679676,-115.48215,17z/data=!3m1!4b1!4m5!3m4!1s0x80d7653bb458db9b:0xa3ae98352a926adb!8m2!3d32.679676!4d-115.48215",
Hungry Howie's Pizza & Subs,1101 N Woodland Blvd,DELAND,FL,32720-2248,3867381880.0,"https://www.google.com/maps/place/Hungry+Howie's+Pizza/@29.0467655,-81.3037565,17z/data=!3m1!4b1!4m5!3m4!1s0x88e71c85a0f6b0d3:0x1a9d5d22e7813d02!8m2!3d29.0467655!4d-81.3037565",
Hungry Howie's Pizza & Subs,1123 W Broad St,CHESANING,MI,48616-1005,9898455450.0,"https://www.google.com/maps/place/Hungry+Howie's+Pizza/@43.185925,-84.12869,17z/data=!3m1!4b1!4m5!3m4!1s0x8823b02381acad53:0xc7277dfb47150c91!8m2!3d43.185925!4d-84.12869",
Hungry Howie's Pizza & Subs,1124 N Main St,BUSHNELL,FL,33513-5045,3525699299.0,"https://www.google.com/maps/place/Hungry+Howie's+Pizza/@28.6827581,-82.1120871,17z/data=!3m1!4b1!4m5!3m4!1s0x88e7e461794ccd21:0x272950424566400d!8m2!3d28.6827581!4d-82.1120871",
Hungry Howie's Pizza & Subs,1212 S Broad St,BROOKSVILLE,FL,34601-3132,3527998535.0,"https://www.google.com/maps/place/Hungry+Howie's+Pizza/@28.5429603,-82.4035388,17z/data=!3m1!4b1!4m5!3m4!1s0x88e81cbb39da88b7:0xe38c2f21b81db32d!8m2!3d28.5429603!4d-82.4035388",
Hungry Howie's Pizza & Subs,12402 Highland Rd,HARTLAND,MI,48353-2947,8106325959.0,"https://www.google.com/maps/place/Hungry+Howie's+Pizza/@42.6345,-83.71101,17z/data=!3m1!4b1!4m5!3m4!1s0x88235cbffbe7d4eb:0x4e4e9e94722fa632!8m2!3d42.6345!4d-83.71101",
Hungry Howie's Pizza & Subs,2019 E Del Mar Blvd,LAREDO,TX,78041,9567444444.0,"https://www.google.com/maps/place/Hungry+Howie's+Pizza/@27.57503,-99.4725,17z/data=!3m1!4b1!4m5!3m4!1s0x866120c72edb44bd:0xe86a2a603c5bf98e!8m2!3d27.57503!4d-99.4725",
Hungry Howie's Pizza & Subs,1240 Main St,CHIPLEY,FL,32428-2471,8506388382.0,"https://www.google.com/maps/place/Hungry+Howie's+Pizza/@30.7656705,-85.5414663,17z/data=!3m1!4b1!4m5!3m4!1s0x889301eb0f94522b:0x7841ae0460ef7ed0!8m2!3d30.7656705!4d-85.5414663",
Hungry Howie's Pizza & Subs,1381 S Drake Rd,KALAMAZOO,MI,49006-6257,2693731600.0,"https://www.google.com/maps/place/Hungry+Howie's+Pizza/@42.27577,-85.64794,17z/data=!3m1!4b1!4m5!3m4!1s0x88177706aea68ca3:0x9b8a6793fe15d866!8m2!3d42.27577!4d-85.64794",
Hungry Howie's Pizza & Subs,1400 N Wayne St,ANGOLA,IN,46703-2359,2606657766.0,"https://www.google.com/maps/place/Hungry+Howie's+Pizza/@41.65087,-84.999084,17z/data=!3m1!4b1!4m5!3m4!1s0x881626208ce1428d:0x549d1d0434d1bd89!8m2!3d41.65087!4d-84.999084",
Hungry Howie's Pizza & Subs,1409 S College St,AUBURN,AL,36832-5901,3348265555.0,"https://www.google.com/maps/place/Hungry+Howie's+Pizza/@32.5804782,-85.4947155,17z/data=!3m1!4b1!4m5!3m4!1s0x888cf3bcbaa8f3c3:0xf4af9a52d7d84287!8m2!3d32.5804782!4d-85.4947155",
Hungry Howie's Pizza & Subs,1419 Flushing Rd,FLUSHING,MI,48433-2228,8104877000.0,"https://www.google.com/maps/place/Hungry+Howie's+Pizza/@43.05966,-83.82145,17z/data=!3m1!4b1!4m5!3m4!1s0x88239c468491ee2b:0x5a3ff73bcf05aa34!8m2!3d43.05966!4d-83.82145",
Hungry Howie's Pizza & Subs,12710 US Highway 301,DADE CITY,FL,33525-6059,3525210054.0,"https://www.google.com/maps/place/Hungry+Howie's+Pizza/@28.342803,-82.186877,17z/data=!3m1!4b1!4m5!3m4!1s0x88dd536f4bd84d3f:0x4ff2f74669e8eea5!8m2!3d28.342803!4d-82.186877",
Hungry Howie's Pizza & Subs,128 W 12th St,ERIE,PA,16501-1750,8144640202.0,"https://www.google.com/maps/place/Hungry+Howie's+Pizza/@42.12274,-80.083755,17z/data=!3m1!4b1!4m5!3m4!1s0x882d7fe2673dced7:0x327c28d17ece3a8f!8m2!3d42.12274!4d-80.083755",
Hungry Howie's Pizza & Subs,1302 S 78th St,TAMPA,FL,33619-4701,8136640717.0,"https://www.google.com/maps/place/Hungry+Howie's+Pizza/@27.93639,-82.3682401,17z/data=!3m1!4b1!4m5!3m4!1s0x88c2cf982261ca07:0x4f0fd127587923e1!8m2!3d27.93639!4d-82.3682401",
Hungry Howie's Pizza & Subs,1310 NW 23rd Ave,GAINESVILLE,FL,32605-3009,3523746600.0,"https://www.google.com/maps/place/Hungry+Howie's+Pizza/@29.6742848,-82.3397132,17z/data=!3m1!4b1!4m5!3m4!1s0x88e8a4637dc4d73d:0x7f97657b126a5ca5!8m2!3d29.6742848!4d-82.3397132",
Hungry Howie's Pizza & Subs,14291 W Grand Ave,SURPRISE,AZ,85374-4298,6235443977.0,"https://www.google.com/maps/place/Hungry+Howie's+Pizza/@33.652832,-112.37095,17z/data=!3m1!4b1!4m5!3m4!1s0x872b5b2fe9e750d1:0xebac84a553d6d996!8m2!3d33.652832!4d-112.37095",
Hungry Howie's Pizza & Subs,144 W Brigham Rd,SAINT GEORGE,UT,84790-7471,4356560011.0,"https://www.google.com/maps/place/Hungry+Howie's+Pizza/@37.061043,-113.5859,17z/data=!3m1!4b1!4m5!3m4!1s0x80ca4559ea0d92fb:0xb706c7b1e62d151a!8m2!3d37.061043!4d-113.5859",
Hungry Howie's Pizza & Subs,1511 W Brandon Blvd,BRANDON,FL,33511-4805,8136844477.0,"https://www.google.com/maps/place/Hungry+Howie's+Pizza/@27.9372706,-82.3075962,17z/data=!3m1!4b1!4m5!3m4!1s0x88c2ce7be613dfed:0xdecfe5ef7b64ac5f!8m2!3d27.9372706!4d-82.3075962",
Hungry Howie's Pizza & Subs,15359 Amberly Dr,TAMPA,FL,33647-1601,8139718818.0,"https://www.google.com/maps/place/Hungry+Howie's+Pizza/@28.0875919,-82.4036194,17z/data=!3m1!4b1!4m5!3m4!1s0x88c2c7f639021699:0xdd4451e8497d66eb!8m2!3d28.0875919!4d-82.4036194",
Hungry Howie's Pizza & Subs,1851 44th St SW,WYOMING,MI,49519-6440,6162497070.0,"https://www.google.com/maps/place/Hungry+Howie's+Pizza/@42.8849299,-85.7128437,17z/data=!4m5!3m4!1s0x885421440b260b79:0x403b05077f40807d!8m2!3d42.884926!4d-85.710655?hl=en",
Hungry Howie's Pizza & Subs,16083 Eureka Rd,SOUTHGATE,MI,48195-2626,7342820700.0,"https://www.google.com/maps/place/Hungry+Howie's+Pizza/@42.198505,-83.21845,17z/data=!3m1!4b1!4m5!3m4!1s0x883b378f541d8a07:0xbe83416ef165d26d!8m2!3d42.198505!4d-83.21845",
Hungry Howie's Pizza & Subs,1618 Stone St,PORT HURON,MI,48060-3344,8109877000.0,"https://www.google.com/maps/place/Hungry+Howie's+Pizza/@42.99161,-82.4305,17z/data=!3m1!4b1!4m5!3m4!1s0x88259c8816508d05:0x5945e3e9d07ef7aa!8m2!3d42.99161!4d-82.4305",
Hungry Howie's Pizza & Subs,14916 N Florida Ave,TAMPA,FL,33613-1632,8139683272.0,"https://www.google.com/maps/place/Hungry+Howie's+Pizza/@28.0851542,-82.4599588,17z/data=!3m1!4b1!4m5!3m4!1s0x88c2c75bf25c3a7d:0xbc73cecb2b7c65a3!8m2!3d28.0851542!4d-82.4599588",
Hungry Howie's Pizza & Subs,1501 E Morris Blvd,MORRISTOWN,TN,37813-5777,4235878889.0,"https://www.google.com/maps/place/Hungry+Howie's+Pizza/@36.21779,-83.27613,17z/data=!3m1!4b1!4m5!3m4!1s0x885b97b9a093ae37:0x8c6087cc1628a30b!8m2!3d36.21779!4d-83.27613",
Hungry Howie's Pizza & Subs,159 Marcell Dr NE,ROCKFORD,MI,49341-1365,6168638888.0,"https://www.google.com/maps/place/Hungry+Howie's+Pizza/@43.115757,-85.54648,17z/data=!3m1!4b1!4m5!3m4!1s0x8818ff10ca5cd26f:0x7c9baf424d073f01!8m2!3d43.115757!4d-85.54648",
Hungry Howie's Pizza & Subs,166 Millers Creek Dr,WINSTON SALEM,NC,27127-3100,3367649898.0,"https://www.google.com/maps/place/Hungry+Howie's+Pizza/@35.98978,-80.270874,17z/data=!3m1!4b1!4m5!3m4!1s0x8853a4d17efeb073:0x9324116b5f0a1537!8m2!3d35.98978!4d-80.270874",
Hungry Howie's Pizza & Subs,16640 Saddle Club Rd,WESTON,FL,33326-1810,9543858200.0,"https://www.google.com/maps/place/Hungry+Howie's+Pizza/@26.1151674,-80.3759086,17z/data=!3m1!4b1!4m5!3m4!1s0x88d90a19952e992b:0xe7dbe24949868e8a!8m2!3d26.1151674!4d-80.3759086",
Hungry Howie's Pizza & Subs,16517 Fishhawk Blvd,LITHIA,FL,33547-3835,8136899200.0,"https://www.google.com/maps/place/Hungry+Howie's+Pizza/@27.8553551,-82.2042335,17z/data=!3m1!4b1!4m5!3m4!1s0x88dd2d3a2eafbab9:0xc1576273923ee381!8m2!3d27.8553551!4d-82.2042335",
Hungry Howie's Pizza & Subs,16210 Detroit Ave,LAKEWOOD,OH,44107-3717,2165217200.0,"https://www.google.com/maps/place/Hungry+Howie's+Pizza/@41.485504,-81.81083,17z/data=!3m1!4b1!4m5!3m4!1s0x8830f26899e4cf49:0xab6e9313832a6f8c!8m2!3d41.485504!4d-81.81083",
Hungry Howie's Pizza & Subs,1673 Haslett Rd,HASLETT,MI,48840-8429,5173394333.0,"https://www.google.com/maps/place/Hungry+Howie's+Pizza/@42.7465,-84.411736,17z/data=!3m1!4b1!4m5!3m4!1s0x8822e79609f9e5b7:0xebf16424b8fcd99d!8m2!3d42.7465!4d-84.411736",
Hungry Howie's Pizza & Subs,1674 Ridgewood Ave,HOLLY HILL,FL,32117-1734,3866777339.0,"https://www.google.com/maps/place/Hungry+Howie's+Pizza/@29.257038,-81.047962,17z/data=!3m1!4b1!4m5!3m4!1s0x88e6db0a01de7ae3:0x81d259bcc9d9e866!8m2!3d29.257038!4d-81.047962",
Hungry Howie's Pizza & Subs,17035 N 67th Ave,GLENDALE,AZ,85308-3655,6238784777.0,"https://www.google.com/maps/place/Hungry+Howie's+Pizza/@33.639725,-112.20266,17z/data=!3m1!4b1!4m5!3m4!1s0x872b684e203e398d:0x42718010143113a2!8m2!3d33.639725!4d-112.20266",
Hungry Howie's Pizza & Subs,17180 Front Beach Rd,PANAMA CITY BEACH,FL,32413-2365,8502364426.0,"https://www.google.com/maps/place/Hungry+Howie's+Pizza/@30.223906,-85.891698,17z/data=!3m1!4b1!4m5!3m4!1s0x88938cf8ff453f11:0x14811c765d418503!8m2!3d30.223906!4d-85.891698",
Hungry Howie's Pizza & Subs,1720 S McCall Rd,ENGLEWOOD,FL,34223-4800,9414758384.0,"https://www.google.com/maps/place/Hungry+Howie's+Pizza/@26.9391001,-82.3390441,17z/data=!3m1!4b1!4m5!3m4!1s0x88c4a9b687ed84a3:0x1d81a51df4210455!8m2!3d26.9391001!4d-82.3390441",
Hungry Howie's Pizza & Subs,668 Blowing Rock Rd,BOONE,NC,28607-6146,8282645004.0,"https://www.google.com/maps/place/Hungry+Howie's+Pizza/@36.2090224,-81.6737242,17z/data=!3m1!4b1!4m5!3m4!1s0x8850fa5aa8b4b137:0xabd29f3002c4a3b!8m2!3d36.2090224!4d-81.6737242",
Hungry Howie's Pizza & Subs,17744 Frazho Rd,ROSEVILLE,MI,48066-3864,5867725600.0,"https://www.google.com/maps/place/Hungry+Howie's+Pizza/@42.48702,-82.939095,17z/data=!3m1!4b1!4m5!3m4!1s0x8824d78885719bbb:0xebe242bc5354bc27!8m2!3d42.48702!4d-82.939095",
Hungry Howie's Pizza & Subs,1808 Breton Rd SE,GRAND RAPIDS,MI,49506-4802,6169549999.0,"https://www.google.com/maps/place/Hungry+Howie's+Pizza/@42.93063,-85.608284,17z/data=!3m1!4b1!4m5!3m4!1s0x8819b2aecd56c7a5:0x909819212a9acf3a!8m2!3d42.93063!4d-85.608284",
Hungry Howie's Pizza & Subs,1814 Oberlin Rd,RALEIGH,NC,27608-2044,9197890001.0,"https://www.google.com/maps/place/Hungry+Howie's+Pizza/@35.808727,-78.65528,17z/data=!3m1!4b1!4m5!3m4!1s0x89ac5f55a16356cd:0xcdaa98e10d44e906!8m2!3d35.808727!4d-78.65528",
Hungry Howie's Pizza & Subs,1820 S Newburgh Rd,WESTLAND,MI,48186-3925,7347210600.0,"https://www.google.com/maps/place/Hungry+Howie's+Pizza/@42.294636,-83.4078,17z/data=!3m1!4b1!4m5!3m4!1s0x883b4def105e1eff:0x7bc359f77753ae64!8m2!3d42.294636!4d-83.4078",
Hungry Howie's Pizza & Subs,1844 McFarland Blvd,NORTHPORT,AL,35476-3273,2053332633.0,"https://www.google.com/maps/place/Hungry+Howie's+Pizza/@33.24005,-87.57558,17z/data=!3m1!4b1!4m5!3m4!1s0x88861d2b86c63f55:0x618071b38a288b37!8m2!3d33.24005!4d-87.57558",
Hungry Howie's Pizza & Subs,1874 Whittaker Rd,YPSILANTI,MI,48197-9728,7344800400.0,"https://www.google.com/maps/place/Hungry+Howie's+Pizza/@42.21384,-83.6208,17z/data=!3m1!4b1!4m5!3m4!1s0x883ca7d92ef3601d:0xfb58832922b93a73!8m2!3d42.21384!4d-83.6208",
Hungry Howie's Pizza & Subs,201 S Scenic Hwy,FROSTPROOF,FL,33843-2124,8636356565.0,"https://www.google.com/maps/place/Hungry+Howie's+Pizza/@27.7435327,-81.5322787,17z/data=!4m5!3m4!1s0x88dd00bbba03532d:0xdf33e114b9ce4089!8m2!3d27.743528!4d-81.53009?hl=en",
Hungry Howie's Pizza & Subs,205 W Main St,APOPKA,FL,32703-5132,4078866688.0,"https://www.google.com/maps/place/Hungry+Howie's+Pizza/@28.675956,-81.516006,17z/data=!3m1!4b1!4m5!3m4!1s0x88e79df8085cb061:0xcbb07e6be8f81858!8m2!3d28.675956!4d-81.516006",
Hungry Howie's Pizza & Subs,2050 W Guadalupe Rd,MESA,AZ,85202-7373,4808319111.0,"https://www.google.com/maps/place/Hungry+Howie's+Pizza/@33.364742,-111.87807,17z/data=!3m1!4b1!4m5!3m4!1s0x872b07979808e2ad:0x11611f6ffb0153dd!8m2!3d33.364742!4d-111.87807",
Hungry Howie's Pizza & Subs,208 N Alexander St,PLANT CITY,FL,33566,8137526113.0,"https://www.google.com/maps/place/Hungry+Howie's+Pizza/@28.015555,-82.137469,17z/data=!3m1!4b1!4m5!3m4!1s0x88dd34255966ce99:0x9765ee860cf63f92!8m2!3d28.015555!4d-82.137469",
Hungry Howie's Pizza & Subs,21222 Mariner Pl,LUTZ,FL,33549-4103,8139499393.0,"https://www.google.com/maps/place/Hungry+Howie's+Pizza/@28.1906709,-82.4653624,17z/data=!3m1!4b1!4m5!3m4!1s0x88c2bbfca36d0377:0xf249185077595e41!8m2!3d28.1906709!4d-82.4653624",
Hungry Howie's Pizza & Subs,19182 Fort St,RIVERVIEW,MI,48193-6761,7344791900.0,"https://www.google.com/maps/place/Hungry+Howie's+Pizza/@42.16876,-83.19067,17z/data=!3m1!4b1!4m5!3m4!1s0x883b39bef68213cb:0x9c94e5463da245ae!8m2!3d42.16876!4d-83.19067",
Hungry Howie's Pizza & Subs,2221 Plainfield Ave NE,GRAND RAPIDS,MI,49505-4215,6163634055.0,"https://www.google.com/maps/place/Hungry+Howie's+Pizza/@43.003174,-85.65367,17z/data=!3m1!4b1!4m5!3m4!1s0x8819ab6e3dacf645:0xe0712714fc702a51!8m2!3d43.003174!4d-85.65367",
Hungry Howie's Pizza & Subs,2262 Aloma Ave,WINTER PARK,FL,32792-3304,4076448262.0,"https://www.google.com/maps/place/Hungry+Howie's+Pizza/@28.6007473,-81.3216215,17z/data=!3m1!4b1!4m5!3m4!1s0x88e76febba310b9d:0xf298816a3be4b468!8m2!3d28.6007473!4d-81.3216215",
Hungry Howie's Pizza & Subs,22945 Hoover Rd,WARREN,MI,48089-2540,5867571500.0,"https://www.google.com/maps/place/Hungry+Howie's+Pizza/@42.462936,-83.00589,17z/data=!3m1!4b1!4m5!3m4!1s0x8824d0daf74d24a5:0x68c0c8ec2ca06281!8m2!3d42.462936!4d-83.00589",
Hungry Howie's Pizza & Subs,1965 Tamiami Trl S,VENICE,FL,34293-5005,9414934200.0,"https://www.google.com/maps/place/Hungry+Howie's+Pizza/@27.0601357,-82.4143336,17z/data=!3m1!4b1!4m5!3m4!1s0x88c3598bb57ee173:0x66b9f26d32d6ce1a!8m2!3d27.0601357!4d-82.4143336",
Hungry Howie's Pizza & Subs,1990 N John Young Pkwy,KISSIMMEE,FL,34741-3221,4079311040.0,"https://www.google.com/maps/place/Hungry+Howie's+Pizza/@28.3103356,-81.4171146,17z/data=!3m1!4b1!4m5!3m4!1s0x88dd86a8085ef3c7:0xd3fd044b45c0faa9!8m2!3d28.3103356!4d-81.4171146",
Hungry Howie's Pizza & Subs,2001 E Hillsborough Ave,TAMPA,FL,33610-8210,8132393233.0,"https://www.google.com/maps/place/Hungry+Howie's+Pizza/@27.9956877,-82.4367233,17z/data=!3m1!4b1!4m5!3m4!1s0x88c2c42a244a9485:0x77c93284c3d60e48!8m2!3d27.9956877!4d-82.4367233",
Hungry Howie's Pizza & Subs,203 E Butler Rd,MAULDIN,SC,29662-2105,8646760100.0,"https://www.google.com/maps/place/Hungry+Howie's+Pizza/@34.78165,-82.30156,17z/data=!3m1!4b1!4m5!3m4!1s0x88582609d3e06117:0x3864283ed26396db!8m2!3d34.78165!4d-82.30156",
Hungry Howie's Pizza & Subs,21143 Mack Ave,GROSSE POINTE WOODS,MI,48236-1043,3138864500.0,"https://www.google.com/maps/place/Hungry+Howie's+Pizza/@42.44923,-82.90565,17z/data=!3m1!4b1!4m5!3m4!1s0x8825282acaee38eb:0x1899ba8565382af8!8m2!3d42.44923!4d-82.90565",
Hungry Howie's Pizza & Subs,2121 Columbus Rd NE,CANTON,OH,44705-2529,3304555141.0,"https://www.google.com/maps/place/Hungry+Howie's+Pizza/@40.832165,-81.34596,17z/data=!3m1!4b1!4m5!3m4!1s0x8836d02c7091fa93:0x94822f0c81fcb379!8m2!3d40.832165!4d-81.34596",
Hungry Howie's Pizza & Subs,2411 Tuscarawas St W,CANTON,OH,44708-4727,3304531681.0,"https://www.google.com/maps/place/Hungry+Howie's+Pizza/@40.799595,-81.40127,17z/data=!3m1!4b1!4m5!3m4!1s0x8836da75f61a46bd:0x2f02b72450546d96!8m2!3d40.799595!4d-81.40127",
Hungry Howie's Pizza & Subs,2439 Enterprise Dr,ORANGE CITY,FL,32763-7964,3867750550.0,"https://www.google.com/maps/place/Hungry+Howie's+Pizza/@28.9231826,-81.2983896,17z/data=!3m1!4b1!4m5!3m4!1s0x88e7105f26a8e7a9:0x153555a2d4114292!8m2!3d28.9231826!4d-81.2983896",
Hungry Howie's Pizza & Subs,2430 US Highway 92 E,LAKELAND,FL,33801-2650,8636658070.0,"https://www.google.com/maps/place/Hungry+Howie's+Pizza/@28.048379,-81.9060582,17z/data=!3m1!4b1!4m5!3m4!1s0x88dd3f7795eb547d:0x56fbcff2d0e708a2!8m2!3d28.048379!4d-81.9060582",
Hungry Howie's Pizza & Subs,250 S Main St,BROOKLYN,MI,49230-9114,5175922225.0,"https://www.google.com/maps/place/Hungry+Howie's+Pizza/@42.1008339,-84.2485381,17z/data=!3m1!4b1!4m5!3m4!1s0x883cdfdd5d7ec1b1:0x20c68d3cf324df46!8m2!3d42.1008339!4d-84.2485381",
Hungry Howie's Pizza & Subs,2501 E State Road 60,VALRICO,FL,33594-3830,8136540650.0,"https://www.google.com/maps/place/Hungry+Howie's+Pizza/@27.937181,-82.244206,17z/data=!3m1!4b1!4m5!3m4!1s0x88c2ce5e7cea48ab:0x6d2851eeffdee16b!8m2!3d27.937181!4d-82.244206",
Hungry Howie's Pizza & Subs,25530 21 Mile Rd,CHESTERFIELD TWP,MI,48051-2703,5865988700.0,"https://www.google.com/maps/place/Hungry+Howie's+Pizza/@42.644672,-82.85246,17z/data=!3m1!4b1!4m5!3m4!1s0x88251f634ecbfadb:0xbd6161e04d5f20eb!8m2!3d42.644672!4d-82.85246",
Hungry Howie's Pizza & Subs,2206 Airport Blvd,MOBILE,AL,36606-1740,2514781616.0,"https://www.google.com/maps/place/Hungry+Howie's+Pizza/@30.676756,-88.093544,17z/data=!3m1!4b1!4m5!3m4!1s0x889a4de0edac5feb:0x1da51144406b006a!8m2!3d30.676756!4d-88.093544",
Hungry Howie's Pizza & Subs,22441 Kelly Rd,EASTPOINTE,MI,48021-2620,5864452220.0,"https://www.google.com/maps/place/Hungry+Howie's+Pizza/@42.4635,-82.92896,17z/data=!3m1!4b1!4m5!3m4!1s0x8824d7b882ca79ab:0xcf6506352b3b7bf6!8m2!3d42.4635!4d-82.92896",
Hungry Howie's Pizza & Subs,22467 Middlebelt Rd,FARMINGTON HILLS,MI,48336-3743,2484775210.0,"https://www.google.com/maps/place/Hungry+Howie's+Pizza/@42.456898,-83.33731,17z/data=!3m1!4b1!4m5!3m4!1s0x8824b135476319ab:0xe62f7b213a2ac1da!8m2!3d42.456898!4d-83.33731",
Hungry Howie's Pizza & Subs,2330 S Milford Rd,HIGHLAND,MI,48357-4982,2486847300.0,"https://www.google.com/maps/place/Hungry+Howie's+Pizza/@42.6167829,-83.6166521,17z/data=!3m1!4b1!4m5!3m4!1s0x882358415870c843:0xfd0ce349673226b1!8m2!3d42.6167829!4d-83.6166521",
Hungry Howie's Pizza & Subs,2400 S French Ave,SANFORD,FL,32771-4250,4073214440.0,"https://www.google.com/maps/place/Hungry+Howie's+Pizza/@28.790094,-81.273379,17z/data=!3m1!4b1!4m5!3m4!1s0x88e7136b2f2bc95f:0xe52d32f367720325!8m2!3d28.790094!4d-81.273379",
Hungry Howie's Pizza & Subs,2424 E US Highway 92,PLANT CITY,FL,33566-7528,8137640363.0,"https://www.google.com/maps/place/Hungry+Howie's+Pizza/@28.0207467,-82.0973387,17z/data=!4m5!3m4!1s0x88dd36f9df10c837:0xf49d3d449c384bc9!8m2!3d28.020742!4d-82.09515?hl=en",
Hungry Howie's Pizza & Subs,24691 Coolidge Hwy,OAK PARK,MI,48237-1449,2485454010.0,"https://www.google.com/maps/place/Hungry+Howie's+Pizza/@42.4731099,-83.1828052,17z/data=!3m1!4b1!4m5!3m4!1s0x8824c8dc59018bc9:0xc6a886c7f845a412!8m2!3d42.4731099!4d-83.1828052",
Hungry Howie's Pizza & Subs,2560 E Grand River Ave,HOWELL,MI,48843-9529,5175480067.0,"https://www.google.com/maps/place/Hungry+Howie's+Pizza/@42.596657,-83.90476,17z/data=!3m1!4b1!4m5!3m4!1s0x88234710fe72bea9:0x28eea39552f144cf!8m2!3d42.596657!4d-83.90476",
Hungry Howie's Pizza & Subs,27634 Middlebelt Rd,FARMINGTON HILLS,MI,48334-5001,2484429900.0,"https://www.google.com/maps/place/Hungry+Howie's+Pizza/@42.4982901,-83.3377075,17z/data=!3m1!4b1!4m5!3m4!1s0x8824b0b457bb110b:0x6f566769d9676a68!8m2!3d42.4982901!4d-83.3377075",
Hungry Howie's Pizza & Subs,280 N Ortonville Rd,ORTONVILLE,MI,48462-8550,2486275255.0,"https://www.google.com/maps/place/hungry+howie+s+pizza,+Hungry+Howies+Logo/@42.8563894,-83.4537469,17z/data=!3m1!4b1!4m5!3m4!1s0x88248519fd73ffff:0x38b496d948899b68!8m2!3d42.8563894!4d-83.4537469",
Hungry Howie's Pizza & Subs,5248 Eastern Ave SE,KENTWOOD,MI,49508-6010,6165324433.0,"https://www.google.com/maps/place/Hungry+Howie's+Pizza/@42.868565,-85.644066,17z/data=!3m1!4b1!4m5!3m4!1s0x8819b382c8b331b1:0xfb14071c8d3ec5e5!8m2!3d42.868565!4d-85.644066",
Hungry Howie's Pizza & Subs,3047 Winter Lake Road,WINTER HAVEN,FL,33880-1135,8632949334.0,"https://www.google.com/maps/place/Hungry+Howie's+Pizza/@28.0052757,-81.7816152,17z/data=!3m1!4b1!4m5!3m4!1s0x88dd147f96a3cf0f:0x6f47f2f88019d5a1!8m2!3d28.0052757!4d-81.7816152",
Hungry Howie's Pizza & Subs,3011 E Walton Blvd,AUBURN HILLS,MI,48326-2367,2483734330.0,"https://www.google.com/maps/place/Hungry+Howie's+Pizza/@42.67932,-83.2298,17z/data=!3m1!4b1!4m5!3m4!1s0x8824eabe1aeccc71:0xf96a0e807008c75e!8m2!3d42.67932!4d-83.2298",
Hungry Howie's Pizza & Subs,30130 23 Mile Rd,CHESTERFIELD,MI,48047-2190,5864219600.0,"https://www.google.com/maps/place/Hungry+Howie's+Pizza/@42.674,-82.805756,17z/data=!3m1!4b1!4m5!3m4!1s0x882518d9024c6fb1:0x4a714d62b0cd4195!8m2!3d42.674!4d-82.805756",
Hungry Howie's Pizza & Subs,2014 Sam Walton Way,LAKE WALES,FL,33853,8636762222.0,"https://www.google.com/maps/place/Hungry+Howie's+Pizza/@27.8928895,-81.555547,17z/data=!3m1!4b1!4m5!3m4!1s0x88dd08dc5b1f1d8f:0x55a82b19412d5ae5!8m2!3d27.8928895!4d-81.555547",
Hungry Howie's Pizza & Subs,3073 18th Ave S,SAINT PETERSBURG,FL,33712-2553,7273275555.0,"https://www.google.com/maps/place/Hungry+Howie's+Pizza/@27.752269,-82.6748417,17z/data=!3m1!4b1!4m5!3m4!1s0x88c2e26a25804c3b:0x4845932f82cc6ebe!8m2!3d27.752269!4d-82.6748417",
Hungry Howie's Pizza & Subs,8232 N Merriman Rd,WESTLAND,MI,48185-1693,7342615660.0,"https://www.google.com/maps/place/Hungry+Howie's+Pizza/@42.348015,-83.35031,17z/data=!3m1!4b1!4m5!3m4!1s0x883b4cbac8b40b93:0x2ba7d3596bd25d8d!8m2!3d42.348015!4d-83.35031",
Hungry Howie's Pizza & Subs,3096 Gulf Breeze Pkwy,GULF BREEZE,FL,32563-3246,8509346787.0,"https://www.google.com/maps/place/hungry+howie+s+pizza,+Hungry+Howies+Logo/@30.3863154,-87.0958033,17z/data=!3m1!4b1!4m5!3m4!1s0x8890c48c2756aaab:0xd3ca921affa4bdf0!8m2!3d30.3863154!4d-87.0958033",
Hungry Howie's Pizza & Subs,3111 Mahan Dr,TALLAHASSEE,FL,32308-5511,8508778999.0,"https://www.google.com/maps/place/Hungry+Howie's+Pizza/@30.4602275,-84.2243759,17z/data=!3m1!4b1!4m5!3m4!1s0x88ec5ee3abc31cb7:0xbd19138fcde6a6eb!8m2!3d30.4602275!4d-84.2243759",
Hungry Howie's Pizza & Subs,3122 N Campbell Ave,TUCSON,AZ,85719-7303,5203279200.0,"https://www.google.com/maps/place/Hungry+Howie's+Pizza/@32.26379,-110.94328,17z/data=!3m1!4b1!4m5!3m4!1s0x86d67184676d54f3:0xb556a5fa619c5e5a!8m2!3d32.26379!4d-110.94328",
Hungry Howie's Pizza & Subs,3126 S Higley Rd,GILBERT,AZ,85297,4808406000.0,"https://www.google.com/maps/place/Hungry+Howie's+Pizza/@33.29369,-111.72176,17z/data=!3m1!4b1!4m5!3m4!1s0x872bacf8ed9e34dd:0xafc607a5f5a907da!8m2!3d33.29369!4d-111.72176",
Hungry Howie's Pizza & Subs,31912 Ryan Rd,WARREN,MI,48092-1339,5869393290.0,"https://www.google.com/maps/place/Hungry+Howie's+Pizza/@42.52786,-83.06773,17z/data=!3m1!4b1!4m5!3m4!1s0x8824dac554d91767:0x4bab9090946f2899!8m2!3d42.52786!4d-83.06773",
Hungry Howie's Pizza & Subs,669 E Saginaw Hwy,GRAND LEDGE,MI,48837-2102,5176278300.0,"https://www.google.com/maps/place/Hungry+Howie's+Pizza/@42.74139,-84.741806,17z/data=!3m1!4b1!4m5!3m4!1s0x882297db4d9c9b35:0xa20f9a2b7dead979!8m2!3d42.74139!4d-84.741806",
Hungry Howie's Pizza & Subs,33699 5 Mile Rd,LIVONIA,MI,48154-2865,7344275050.0,"https://www.google.com/maps/place/Hungry+Howie's+Pizza/@42.396053,-83.37668,17z/data=!3m1!4b1!4m5!3m4!1s0x8824b300491e80d1:0x7ae93ab518fd0394!8m2!3d42.396053!4d-83.37668",
Hungry Howie's Pizza & Subs,33700 Ford Rd,WESTLAND,MI,48185-3005,7344220333.0,"https://www.google.com/maps/place/Hungry+Howie's+Pizza/@42.325085,-83.37321,17z/data=!3m1!4b1!4m5!3m4!1s0x883b4cf951f09a55:0x2f081cb3149337d2!8m2!3d42.325085!4d-83.37321",
Hungry Howie's Pizza & Subs,306 S Tyndall Pkwy,TEMP CLOSED,FL,32404-6724,8507470447.0,"https://www.google.com/maps/place/Hungry+Howie's+Pizza/@30.1417175,-85.5917137,17z/data=!3m1!4b1!4m5!3m4!1s0x88937f6819939e55:0x8798f799dee6ab32!8m2!3d30.1417175!4d-85.5917137",
Hungry Howie's Pizza & Subs,31204 Old Wixom Rd,WIXOM,MI,48393-2426,2489600100.0,"https://www.google.com/maps/place/Hungry+Howie's+Pizza/@42.523098,-83.53746,17z/data=!3m1!4b1!4m5!3m4!1s0x8824a89cdced1ee9:0xa80359bedcb4787b!8m2!3d42.523098!4d-83.53746",
Hungry Howie's Pizza & Subs,1929 Baldwin St,JENISON,MI,49428-8977,6164573333.0,"https://www.google.com/maps/place/Hungry+Howie's+Pizza/@42.907547,-85.830055,17z/data=!3m1!4b1!4m5!3m4!1s0x8819baf4f534ac25:0x256c4ef5512e9220!8m2!3d42.907547!4d-85.830055",
Hungry Howie's Pizza & Subs,387 Havendale Blvd,AUBURNDALE,FL,33823-4536,8639671118.0,"https://www.google.com/maps/place/Hungry+Howie's+Pizza/@28.0563861,-81.7788213,17z/data=!3m1!4b1!4m5!3m4!1s0x88dd6caa7d181d41:0x8817c51c5f7eab58!8m2!3d28.0563861!4d-81.7788213",
Hungry Howie's Pizza & Subs,3200 Center Ave,ESSEXVILLE,MI,48732-1778,9898942100.0,"https://www.google.com/maps/place/Hungry+Howie's+Pizza/@43.594006,-83.84185,17z/data=!3m1!4b1!4m5!3m4!1s0x8823e2284de06b91:0xc0c2225a65f7aeac!8m2!3d43.594006!4d-83.84185",
Hungry Howie's Pizza & Subs,3615 Rochester Rd,TROY,MI,48083-5214,2486898400.0,"https://www.google.com/maps/place/Hungry+Howie's+Pizza/@42.5712,-83.12851,17z/data=!3m1!4b1!4m5!3m4!1s0x8824c47b43d4633d:0x86bb1874a648e5d5!8m2!3d42.5712!4d-83.12851",
Hungry Howie's Pizza & Subs,8225 Telegraph Rd,TAYLOR,MI,48180-2230,3132952350.0,"https://www.google.com/maps/place/Hungry+Howie's+Pizza/@42.24791,-83.269356,17z/data=!3m1!4b1!4m5!3m4!1s0x883b49c7ad2c6111:0x3040a2dcb9f9f9a7!8m2!3d42.24791!4d-83.269356",
Hungry Howie's Pizza & Subs,3240 Gratiot Blvd,MARYSVILLE,MI,48040-1489,8103643360.0,"https://www.google.com/maps/place/Hungry+Howie's+Pizza/@42.91292,-82.4988,17z/data=!3m1!4b1!4m5!3m4!1s0x882575953447df6b:0x9f9e8e3afac52958!8m2!3d42.91292!4d-82.4988",
Hungry Howie's Pizza & Subs,33901 Woodward Ave,BIRMINGHAM,MI,48009-0917,2485406040.0,"https://www.google.com/maps/place/Hungry+Howie's+Pizza/@42.5384,-83.20649,17z/data=!3m1!4b1!4m5!3m4!1s0x8824c65321c556e9:0xcc166c94d12cd2fc!8m2!3d42.5384!4d-83.20649",
Hungry Howie's Pizza & Subs,3435 N Pine Ave,OCALA,FL,34471,3526719979.0,"https://www.google.com/maps/place/Hungry+Howie's+Pizza/@29.2224893,-82.145519,17z/data=!3m1!4b1!4m5!3m4!1s0x88e62b6d8ac982e1:0xd3f1065bf8e2aaa5!8m2!3d29.2224893!4d-82.145519",
Hungry Howie's Pizza & Subs,3839 N Monroe St,TALLAHASSEE,FL,32303-2175,8505625656.0,"https://www.google.com/maps/place/Hungry+Howie's+Pizza/@30.5033142,-84.3290441,17z/data=!3m1!4b1!4m5!3m4!1s0x88ecf6994f9e059f:0x2ceb584880e142f3!8m2!3d30.5033142!4d-84.3290441",
Hungry Howie's Pizza & Subs,3939 Massillon Rd,UNIONTOWN,OH,44685-6723,3308999993.0,"https://www.google.com/maps/place/Hungry+Howie's+Pizza/@40.953896,-81.46512,17z/data=!3m1!4b1!4m5!3m4!1s0x8836d4da6d45f905:0x7b1d2a257427557f!8m2!3d40.953896!4d-81.46512",
Hungry Howie's Pizza & Subs,400 N Charleston Ave,FORT MEADE,FL,33841-2405,8632856200.0,"https://www.google.com/maps/place/Hungry+Howie's+Pizza/@27.756846,-81.8011921,17z/data=!3m1!4b1!4m5!3m4!1s0x88dd1ec0bc5e8de9:0x8098bc8097844fed!8m2!3d27.756846!4d-81.8011921",
Hungry Howie's Pizza & Subs,4020 Richfield Rd,FLINT,MI,48506-2009,8102447070.0,"https://www.google.com/maps/place/Hungry+Howie's+Pizza/@43.050858,-83.6349,17z/data=!3m1!4b1!4m5!3m4!1s0x8823811dff806b47:0x601e7ddba7a74c1a!8m2!3d43.050858!4d-83.6349",
Hungry Howie's Pizza & Subs,4112 Bee Ridge Rd,SARASOTA,FL,34233-2553,9413771984.0,"https://www.google.com/maps/place/Hungry+Howie's+Pizza/@27.298401,-82.485256,17z/data=!3m1!4b1!4m5!3m4!1s0x88c341286e2b3493:0x2377277d0dadf6fc!8m2!3d27.298401!4d-82.485256",
Hungry Howie's Pizza & Subs,414 W Wade St,TRENTON,FL,32693-4151,3524639499.0,"https://www.google.com/maps/place/Hungry+Howie's+Pizza/@29.613019,-82.821944,17z/data=!3m1!4b1!4m5!3m4!1s0x88e8de0a1aa90821:0x612bb2854fc8c0cb!8m2!3d29.613019!4d-82.821944",
Hungry Howie's Pizza & Subs,4290 N Scenic Hwy,LAKE WALES,FL,33898,8636762626.0,"https://www.google.com/maps/place/Hungry+Howie's+Pizza/@27.959257,-81.59419,17z/data=!3m1!4b1!4m5!3m4!1s0x88dd08dc5b1f1d8f:0x49d2929351015556!8m2!3d27.959257!4d-81.59419",
Hungry Howie's Pizza & Subs,43067 Hayes Rd,STERLING HEIGHTS,MI,48313-2352,5865669700.0,"https://www.google.com/maps/place/Hungry+Howie's+Pizza/@42.613342,-82.97355,17z/data=!3m1!4b1!4m5!3m4!1s0x8824de608db8fb65:0x3e9eb4663079e2c7!8m2!3d42.613342!4d-82.97355",
Hungry Howie's Pizza & Subs,4475 Woodbine Rd,PACE,FL,33571,8509946880.0,"https://www.google.com/maps/place/Hungry+Howie's+Pizza/@30.600149,-87.182833,17z/data=!3m1!4b1!4m5!3m4!1s0x8890ec87f1c40f93:0x15dd774a6721f51b!8m2!3d30.600149!4d-87.182833",
Hungry Howie's Pizza & Subs,4541 Gunn Hwy,TAMPA,FL,33624-6311,8139683660.0,"https://www.google.com/maps/place/Hungry+Howie's+Pizza/@28.049924,-82.51883,17z/data=!3m1!4b1!4m5!3m4!1s0x88c2c10007b20823:0xd51cc9f76a6ddb39!8m2!3d28.049924!4d-82.51883",
Hungry Howie's Pizza & Subs,457 Plaza Dr,EUSTIS,FL,32726-6523,3523578999.0,"https://www.google.com/maps/place/Hungry+Howie's+Pizza/@28.8242689,-81.6914467,17z/data=!3m1!4b1!4m5!3m4!1s0x88e7a2cd6bd2ff9f:0x38e8f639ab5c24ee!8m2!3d28.8242689!4d-81.6914467",
Hungry Howie's Pizza & Subs,4652 E 9 Mile Rd,WARREN,MI,48091-2549,5867545355.0,"https://www.google.com/maps/place/Hungry+Howie's+Pizza/@42.46185,-83.057816,17z/data=!3m1!4b1!4m5!3m4!1s0x8824d035eadcd2b5:0x3c403dc6b3ebb9d6!8m2!3d42.46185!4d-83.057816",
Hungry Howie's Pizza & Subs,3614 E Southern Ave,MESA,AZ,85206-2510,4806411525.0,"https://www.google.com/maps/place/Hungry+Howie's+Pizza/@33.3953,-111.75291,17z/data=!3m1!4b1!4m5!3m4!1s0x872baf3649db22db:0xaac2c9722e122635!8m2!3d33.3953!4d-111.75291",
Hungry Howie's Pizza & Subs,376 7 New Berlin Rd,JACKSONVILLE,FL,32218-3881,9046960001.0,"https://www.google.com/maps/place/Hungry+Howie's+Pizza/@30.4645933,-81.6287198,17z/data=!3m1!4b1!4m5!3m4!1s0x88e5ae3f0b3a48cf:0xf2a41e1765c9e49a!8m2!3d30.4645933!4d-81.6287198",
Hungry Howie's Pizza & Subs,3856 Sun City Center Blvd,RUSKIN,FL,33573-6806,8136333433.0,"https://www.google.com/maps/place/Hungry+Howie's+Pizza/@27.713083,-82.372725,17z/data=!3m1!4b1!4m5!3m4!1s0x88c3281e798a14fd:0x14d09fa1147f83eb!8m2!3d27.713083!4d-82.372725",
Hungry Howie's Pizza & Subs,51074 Romeo Plank Rd,MACOMB,MI,48044,5869921900.0,"https://www.google.com/maps/place/Hungry+Howie's+Pizza/@42.673294,-82.94041,17z/data=!3m1!4b1!4m5!3m4!1s0x8824e05b16f854b7:0x4d878b809e4f4843!8m2!3d42.673294!4d-82.94041",
Hungry Howie's Pizza & Subs,513 S Lafayette St,SOUTH LYON,MI,48178-1453,2484867900.0,"https://www.google.com/maps/place/Hungry+Howie's+Pizza/@42.455933,-83.65061,17z/data=!3m1!4b1!4m5!3m4!1s0x8823569dd3a4a94d:0xc94fb5adbb5fd0c9!8m2!3d42.455933!4d-83.65061",
Hungry Howie's Pizza & Subs,5160 N US Highway 23,OSCODA,MI,48750-9559,9897391300.0,"https://www.google.com/maps/place/Hungry+Howie's+Pizza/@44.430027,-83.32961,17z/data=!3m1!4b1!4m5!3m4!1s0x88273c023278668f:0x7fefa233cf6f624e!8m2!3d44.430027!4d-83.32961",
Hungry Howie's Pizza & Subs,525 Pine Island Rd,FORT MYERS,FL,33903-3720,2399959100.0,"https://www.google.com/maps/place/Hungry+Howie's+Pizza+and+Subs/@26.6805584,-81.8962176,17z/data=!3m1!4b1!4m5!3m4!1s0x88db4238114577df:0x37053c789e2f07ef!8m2!3d26.6805584!4d-81.8962176",
Hungry Howie's Pizza & Subs,5295 Lapeer Rd,KIMBALL,MI,48074-1422,8109848800.0,"https://www.google.com/maps/place/hungry+howie+s+pizza,+Hungry+Howies+Logo/@42.986108,-82.5366982,17z/data=!3m1!4b1!4m5!3m4!1s0x88259f1442fbffff:0x97b0fcb91ead6a16!8m2!3d42.986108!4d-82.5366982",
Hungry Howie's Pizza & Subs,5440 Gall Blvd,ZEPHYRHILLS,FL,33542-3932,8137885515.0,"https://www.google.com/maps/place/Hungry+Howie's+Pizza/@28.237117,-82.1830995,17z/data=!3m1!4b1!4m5!3m4!1s0x88dd4d1288e220ad:0xb075606408e5a7f3!8m2!3d28.237117!4d-82.1830995",
Hungry Howie's Pizza & Subs,479 N Main St,FRANKENMUTH,MI,48734-1115,9896528850.0,"https://www.google.com/maps/place/Hungry+Howie's+Pizza/@43.341618,-83.73685,17z/data=!3m1!4b1!4m5!3m4!1s0x8823f2f27f4e767f:0x6fe479e0d72a0c75!8m2!3d43.341618!4d-83.73685",
Hungry Howie's Pizza & Subs,491 N State Road 434,ALTAMONTE SPRINGS,FL,32714-2182,4076825858.0,"https://www.google.com/maps/place/Hungry+Howie's+Pizza/@28.6682438,-81.4183586,17z/data=!3m1!4b1!4m5!3m4!1s0x88e77150d003bf8d:0x9bde56dc03ca5b1e!8m2!3d28.6682438!4d-81.4183586",
Hungry Howie's Pizza & Subs,4938 Gratiot Rd,SAGINAW,MI,48603,9897935100.0,"https://www.google.com/maps/place/Hungry+Howie's+Pizza/@43.415527,-84.01383,17z/data=!3m1!4b1!4m5!3m4!1s0x8823c3f70a466403:0x509c0eae10802bb0!8m2!3d43.415527!4d-84.01383",
Hungry Howie's Pizza & Subs,502 S Euclid Ave,BAY CITY,MI,48706-3208,9896679100.0,"https://www.google.com/maps/place/Hungry+Howie's+Pizza/@43.597176,-83.91583,17z/data=!3m1!4b1!4m5!3m4!1s0x8823e06691ccc073:0x9aec4dfbf3a095d3!8m2!3d43.597176!4d-83.91583",
Hungry Howie's Pizza & Subs,5570 4th St N,SAINT PETERSBURG,FL,33703-2252,7275278811.0,"https://www.google.com/maps/place/Hungry+Howie's+Pizza/@27.8229943,-82.639085,17z/data=!3m1!4b1!4m5!3m4!1s0x88c2e6ad482fc191:0x4388cf643447e698!8m2!3d27.8229943!4d-82.639085",
Hungry Howie's Pizza & Subs,5805 N Highway 231,CEDAR GROVE,FL,32404-9162,8507858400.0,"https://www.google.com/maps/place/Hungry+Howie's+Pizza/@30.2485556,-85.5582947,17z/data=!3m1!4b1!4m5!3m4!1s0x88937862c8d9d8c1:0x3eeddedd0944373d!8m2!3d30.2485556!4d-85.5582947",
Hungry Howie's Pizza & Subs,59065 Gratiot Ave,NEW HAVEN,MI,48048-2057,5867493355.0,"https://www.google.com/maps/place/Hungry+Howie's+Pizza/@42.735065,-82.78523,17z/data=!3m1!4b1!4m5!3m4!1s0x88251bb6181b48c5:0x88f812b125fa90f4!8m2!3d42.735065!4d-82.78523",
Hungry Howie's Pizza & Subs,5945 US Highway 17 92 N,DAVENPORT,FL,33837-8330,8634245000.0,"https://www.google.com/maps/place/Hungry+Howie's+Pizza/@28.23684,-81.55976,17z/data=!3m1!4b1!4m5!3m4!1s0x88dd79d46f7ddd6f:0xb787a21cd78948d3!8m2!3d28.23684!4d-81.55976",
Hungry Howie's Pizza & Subs,600 W Glenoaks Blvd,GLENDALE,CA,91202-2821,8185022646.0,"https://www.google.com/maps/place/Hungry+Howie's+Pizza/@34.15927,-118.267105,17z/data=!3m1!4b1!4m5!3m4!1s0x80c2c045d56876d7:0x13fd3ffcb5ad11d1!8m2!3d34.15927!4d-118.267105",
Hungry Howie's Pizza & Subs,54734 Shelby Rd,SHELBY TWP,MI,48316-1472,2486563300.0,"https://www.google.com/maps/place/Hungry+Howie's+Pizza/@42.696205,-83.06871,17z/data=!3m1!4b1!4m5!3m4!1s0x8824e62d6d7439eb:0x4eca064cdcb141f6!8m2!3d42.696205!4d-83.06871",
Hungry Howie's Pizza & Subs,5485 W US Highway 10,LUDINGTON,MI,49431-2457,2318436363.0,"https://www.google.com/maps/place/Hungry+Howie's+Pizza/@43.95565,-86.4164,17z/data=!3m1!4b1!4m5!3m4!1s0x881c1a07a4afc725:0x63922cc9319e5a96!8m2!3d43.95565!4d-86.4164",
Hungry Howie's Pizza & Subs,5592 Dixie Hwy,WATERFORD,MI,48329-1616,2486231620.0,"https://www.google.com/maps/place/Hungry+Howie's+Pizza/@42.700245,-83.398834,17z/data=!3m1!4b1!4m5!3m4!1s0x882497beba5a21b3:0xd575ae935c4117be!8m2!3d42.700245!4d-83.398834",
Hungry Howie's Pizza & Subs,5802 N Armenia Ave,TAMPA,FL,33603-1000,8138706111.0,"https://www.google.com/maps/place/Hungry+Howie's+Pizza/@28.0002333,-82.4847777,17z/data=!3m1!4b1!4m5!3m4!1s0x88c2c3fd674f8289:0x1eb976f38dfafd2a!8m2!3d28.0002333!4d-82.4847777",
Hungry Howie's Pizza & Subs,5820 Douglas Rd,TOLEDO,OH,43613-1251,4194742800.0,"https://www.google.com/maps/place/Hungry+Howie's+Pizza/@41.721737,-83.6048015,17z/data=!3m1!4b1!4m5!3m4!1s0x883c7f92ce7154cd:0x4d1a7b2bdaa6f57a!8m2!3d41.721737!4d-83.6048015",
Hungry Howie's Pizza & Subs,6 W Main St,MILAN,MI,48160-1214,7344391716.0,"https://www.google.com/maps/place/Hungry+Howie's+Pizza/@42.085056,-83.68329,17z/data=!3m1!4b1!4m5!3m4!1s0x883ca223d185c5a1:0x413e267847b313c2!8m2!3d42.085056!4d-83.68329",
Hungry Howie's Pizza & Subs,606 N Main St,ROCHESTER,MI,48307-1454,2486522010.0,"https://www.google.com/maps/place/Hungry+Howie's+Pizza/@42.68348,-83.133514,17z/data=!3m1!4b1!4m5!3m4!1s0x8824e9ba0ea44d3d:0xc33e3af129d4deed!8m2!3d42.68348!4d-83.133514",
Hungry Howie's Pizza & Subs,6182 Dixie Hwy,BRIDGEPORT,MI,48722-9667,9897777600.0,"https://www.google.com/maps/place/Hungry+Howie's+Pizza/@43.357986,-83.88057,17z/data=!3m1!4b1!4m5!3m4!1s0x8823eb0793044029:0xab7df78b583c3743!8m2!3d43.357986!4d-83.88057",
Hungry Howie's Pizza & Subs,630 W Genesee St,LAPEER,MI,48446-1801,8106672000.0,"https://www.google.com/maps/place/Hungry+Howie's+Pizza/@43.050983,-83.31498,17z/data=!3m1!4b1!4m5!3m4!1s0x882461363f712671:0x7d69416fd341cf0c!8m2!3d43.050983!4d-83.31498",
Hungry Howie's Pizza & Subs,6353 Cottage Hill Rd,MOBILE,AL,36609-3116,2516650502.0,"https://www.google.com/maps/place/Hungry+Howie's+Pizza/@30.639547,-88.18926,17z/data=!3m1!4b1!4m5!3m4!1s0x889bb317bca21ecb:0x30346a457f37efb!8m2!3d30.639547!4d-88.18926",
Hungry Howie's Pizza & Subs,6380 W. Jefferson Blvd,FORT WAYNE,IN,46804-6272,2604360110.0,"https://www.google.com/maps/place/Hungry+Howie's+Pizza/@41.05627,-85.22621,17z/data=!3m1!4b1!4m5!3m4!1s0x8815e6541b10d3a1:0x64736b7f1b8d45a0!8m2!3d41.05627!4d-85.22621",
Hungry Howie's Pizza & Subs,6185 Lake Michigan Dr,ALLENDALE,MI,49401-9244,6168956777.0,"https://www.google.com/maps/place/Hungry+Howie's+Pizza/@42.97296,-85.93879,17z/data=!3m1!4b1!4m5!3m4!1s0x8819987197098b71:0x5e9b45b334b896de!8m2!3d42.97296!4d-85.93879",
Hungry Howie's Pizza & Subs,620 Alt 19,PALM HARBOR,FL,34683-4433,7277893737.0,"https://www.google.com/maps/place/Hungry+Howie's+Pizza/@28.0739597,-82.7668906,17z/data=!3m1!4b1!4m5!3m4!1s0x88c2f2e55570f64f:0x55192a26471c6ce8!8m2!3d28.0739597!4d-82.7668906",
Hungry Howie's Pizza & Subs,6207 E Hillsborough Ave,TAMPA,FL,33610-5424,8136280037.0,"https://www.google.com/maps/place/Hungry+Howie's+Pizza/@27.9956898,-82.3865467,17z/data=!3m1!4b1!4m5!3m4!1s0x88c2c8aad8d4774d:0x223feb5e00fa99b1!8m2!3d27.9956898!4d-82.3865467",
Hungry Howie's Pizza & Subs,634 W State St,ALLIANCE,OH,44601-4701,3308219999.0,"https://www.google.com/maps/place/Hungry+Howie's+Pizza/@40.9015027,-81.1137099,17z/data=!3m1!4b1!4m5!3m4!1s0x8836b4f93621cddd:0xc7f18048cf8be350!8m2!3d40.9015027!4d-81.1137099",
Hungry Howie's Pizza & Subs,64203 Van Dyke Rd,WASHINGTON TWP,MI,48095-2579,5867525200.0,"https://www.google.com/maps/place/Hungry+Howie's+Pizza/@42.766647,-83.018776,17z/data=!3m1!4b1!4m5!3m4!1s0x8824e45f1364cc05:0x7f9a291a3792f2c0!8m2!3d42.766647!4d-83.018776",
Hungry Howie's Pizza & Subs,6453 Farmington Rd,WEST BLOOMFIELD,MI,48322-2210,2486269922.0,"https://www.google.com/maps/place/Hungry+Howie's+Pizza/@42.543594,-83.3796,17z/data=!3m1!4b1!4m5!3m4!1s0x8824baf649c637dd:0x80bc421257622117!8m2!3d42.543594!4d-83.3796",
Hungry Howie's Pizza & Subs,701 S Main St,WILDWOOD,FL,34785-4806,3527485525.0,"https://www.google.com/maps/place/Hungry+Howie's+Pizza/@28.852489,-82.045811,17z/data=!3m1!4b1!4m5!3m4!1s0x88e7dd2bfbed60a3:0x84e7d4cc5dd13cb9!8m2!3d28.852489!4d-82.045811",
Hungry Howie's Pizza & Subs,806 S Riverside Dr,STEINHATCHEE,FL,32359-3475,3524987100.0,"https://www.google.com/maps/place/Hungry+Howie's+Pizza/@29.669613,-83.38089,17z/data=!3m1!4b1!4m5!3m4!1s0x88e942ffda92cd41:0xc4a6cc5e855fb202!8m2!3d29.669613!4d-83.38089",
Hungry Howie's Pizza & Subs,8230 Navarre Pkwy,NAVARRE,FL,32566-6943,8509396400.0,"https://www.google.com/maps/place/Hungry+Howie's+Pizza/@30.4038914,-86.8788042,17z/data=!3m1!4b1!4m5!3m4!1s0x889120ca542f8b6b:0x1aca0e71275e8b0e!8m2!3d30.4038914!4d-86.8788042",
Hungry Howie's Pizza & Subs,8334 Pineville Matthews Rd,CHARLOTTE,NC,28226-3764,7047527577.0,"https://www.google.com/maps/place/Hungry+Howie's+Pizza/@35.0879908,-80.8606093,17z/data=!3m1!4b1!4m5!3m4!1s0x88569cf8b8182161:0x61207737d6c62a8b!8m2!3d35.0879908!4d-80.8606093",
Hungry Howie's Pizza & Subs,6989 Seminole Blvd,SEMINOLE,FL,33772-6026,7273922288.0,"https://www.google.com/maps/place/Hungry+Howie's+Pizza/@27.8354501,-82.7866906,17z/data=!3m1!4b1!4m5!3m4!1s0x88c2fb8670686c0d:0x5ba093092436c97e!8m2!3d27.8354501!4d-82.7866906",
Hungry Howie's Pizza & Subs,742 W Cedar Ave,GLADWIN,MI,48624-2030,9894261868.0,"https://www.google.com/maps/place/Hungry+Howie's+Pizza/@43.98106,-84.495476,17z/data=!3m1!4b1!4m5!3m4!1s0x8821bd9665ba270f:0x24353ccf6fff5e3c!8m2!3d43.98106!4d-84.495476",
Hungry Howie's Pizza & Subs,7448 W Glendale Ave,GLENDALE,AZ,85303-2575,6234660383.0,"https://www.google.com/maps/place/Hungry+Howie's+Pizza/@33.539078,-112.217865,17z/data=!3m1!4b1!4m5!3m4!1s0x872b6a8c7dcc11d9:0xc6c8f542a3926e88!8m2!3d33.539078!4d-112.217865",
Hungry Howie's Pizza & Subs,7567 Miller Rd,SWARTZ CREEK,MI,48473-1433,8106357171.0,"https://www.google.com/maps/place/Hungry+Howie's+Pizza/@42.957108,-83.8297,17z/data=!3m1!4b1!4m5!3m4!1s0x88237693ba171b1b:0x9b61b42a7b568b6f!8m2!3d42.957108!4d-83.8297",
Hungry Howie's Pizza & Subs,763 Baldwin Ave,PONTIAC,MI,48340-2501,2483329200.0,"https://www.google.com/maps/place/Hungry+Howie's+Pizza/@42.65848,-83.301575,17z/data=!3m1!4b1!4m5!3m4!1s0x8824be2e19118bab:0x5e3264f2a2b20cf0!8m2!3d42.65848!4d-83.301575",
Hungry Howie's Pizza & Subs,841 S Highway 27/441,LADY LAKE,FL,32159,3527506900.0,"https://www.google.com/maps/place/Hungry+Howie's+Pizza/@28.900077,-81.913103,17z/data=!4m5!3m4!1s0x88e7c6d5bc8efb8d:0x3b088e9c21b2940b!8m2!3d28.9000723!4d-81.9109143?hl=en",
Hungry Howie's Pizza & Subs,8414 N Armenia Ave,TAMPA,FL,33612,8139324330.0,"https://www.google.com/maps/place/Hungry+Howie's+Pizza/@28.02604,-82.4859601,17z/data=!3m1!4b1!4m5!3m4!1s0x88c2c137be6d850b:0x2dd09f5199c833ec!8m2!3d28.02604!4d-82.4859601",
Hungry Howie's Pizza & Subs,8535 Macomb St,GROSSE ILE,MI,48138-1511,7346755800.0,"https://www.google.com/maps/place/hungry+howie+s+pizza,+Hungry+Howies+Logo/@42.1302456,-83.1511222,17z/data=!3m1!4b1!4m5!3m4!1s0x883b3be9d1455555:0xf3273cb7509bc485!8m2!3d42.1302456!4d-83.1511222",
Hungry Howie's Pizza & Subs,10039 University East Dr,CHARLOTTE,NC,28262,7045984744.0,"https://www.google.com/maps/place/Hungry+Howie's+Pizza/@35.310593,-80.71596,17z/data=!3m1!4b1!4m5!3m4!1s0x88541eae0136b97f:0x4732f712ca3453bc!8m2!3d35.310593!4d-80.71596",
Hungry Howie's Pizza & Subs,439 E Michigan Ave,SALINE,MI,48176-1547,7349449188.0,"https://www.google.com/maps/place/Hungry+Howie's+Pizza/@42.17209,-83.77239,17z/data=!3m1!4b1!4m5!3m4!1s0x883cbb71c8461c2b:0x589ba0b4d6ecf663!8m2!3d42.17209!4d-83.77239",
Hungry Howie's Pizza & Subs,1642 Providence Blvd,DELTONA,FL,32725-4942,3865749299.0,"https://www.google.com/maps/place/Hungry+Howie's+Pizza/@28.902653,-81.22848,17z/data=!3m1!4b1!4m5!3m4!1s0x88e7114d34dd0ed5:0x1149985ade901c7d!8m2!3d28.902653!4d-81.22848",
Hungry Howie's Pizza & Subs,954 N Pontiac Trl,WALLED LAKE,MI,48390-3234,2486248006.0,"https://www.google.com/maps/place/Hungry+Howie's+Pizza/@42.540024,-83.479546,17z/data=!3m1!4b1!4m5!3m4!1s0x8824a5962649cef1:0x9c161ad90f390446!8m2!3d42.540024!4d-83.479546",
Hungry Howie's Pizza & Subs,9945 SE Highway 42,SUMMERFIELD,FL,34491-5958,3522458252.0,"https://www.google.com/maps/place/Hungry+Howie's+Pizza/@28.9825665,-81.988533,17z/data=!3m1!4b1!4m5!3m4!1s0x88e7c58525bc43bf:0x2e8d27a33ff0649c!8m2!3d28.9825665!4d-81.988533",
Hungry Howie's Pizza & Subs,25861 SE Highway 19,OLD TOWN,FL,32680,3525422212.0,"https://www.google.com/maps/place/Hungry+Howie's+Pizza/@29.6018759,-82.9801796,17z/data=!3m1!4b1!4m5!3m4!1s0x88e9189f725a23b1:0xfe5294ddaf34319d!8m2!3d29.6018759!4d-82.9801796",
Hungry Howie's Pizza & Subs,4640 E M 36 Box 368,LAKELAND,MI,48143,8102319888.0,"https://www.google.com/maps/place/Hungry+Howie's+Pizza/@42.46592,-83.85373,17z/data=!3m1!4b1!4m5!3m4!1s0x88234c01c14711fb:0x73504b5a0e6cd1b3!8m2!3d42.46592!4d-83.85373",
Hungry Howie's Pizza & Subs,815 N Houk Rd,DELAWARE,OH,43015-4418,7403638020.0,"https://www.google.com/maps/place/Hungry+Howie's+Pizza/@40.31345,-83.11142,17z/data=!3m1!4b1!4m5!3m4!1s0x8838e4e482948e6b:0x69b180e9e2a7d756!8m2!3d40.31345!4d-83.11142",
Hungry Howie's Pizza & Subs,8802 Rocky Creek Dr,TAMPA,FL,33615-4315,8138859992.0,"https://www.google.com/maps/place/Hungry+Howie's+Pizza/@27.9962334,-82.5839466,17z/data=!3m1!4b1!4m5!3m4!1s0x88c2e98d2d6d1329:0xe2f6f5dee35112e6!8m2!3d27.9962334!4d-82.5839466",
Hungry Howie's Pizza & Subs,8943 S Tryon St,CHARLOTTE,NC,28273-3539,7045882000.0,"https://www.google.com/maps/place/Hungry+Howie's+Pizza/@35.13644,-80.93675,17z/data=!3m1!4b1!4m5!3m4!1s0x88569bd5d8245fd9:0x75932a79db7a4e91!8m2!3d35.13644!4d-80.93675",
Hungry Howie's Pizza & Subs,910 Rucker Blvd,ENTERPRISE,AL,36330-2160,3343935888.0,"https://www.google.com/maps/place/Hungry+Howie's+Pizza/@31.323435,-85.82832,17z/data=!3m1!4b1!4m5!3m4!1s0x88926e8d2ced9811:0x1d3ee4dca42ce466!8m2!3d31.323435!4d-85.82832",
Hungry Howie's Pizza & Subs,914 E 9 Mile Rd,HAZEL PARK,MI,48030-1839,2486919040.0,"https://www.google.com/maps/place/Hungry+Howie's+Pizza/@42.4613379,-83.0984987,17z/data=!4m5!3m4!1s0x8824cfcb4657e76d:0x1071b5fdbfcc0248!8m2!3d42.461334!4d-83.09631?hl=en",
Hungry Howie's Pizza & Subs,9235 E 141st St,FISHERS,IN,46038-3536,3177735800.0,"https://www.google.com/maps/place/Hungry+Howie's+Pizza/@39.993107,-86.00636,17z/data=!3m1!4b1!4m5!3m4!1s0x8814b40220044e0b:0xf46e926062353b6c!8m2!3d39.993107!4d-86.00636",
Hungry Howie's Pizza & Subs,9517 E Fowler Ave,THONOTOSASSA,FL,33592-2139,8139867822.0,"https://www.google.com/maps/place/Hungry+Howie's+Pizza/@28.053812,-82.334602,17z/data=!3m1!4b1!4m5!3m4!1s0x88c2c9ba6ee40e27:0xdff6e09a3ba7d10b!8m2!3d28.053812!4d-82.334602",
Hungry Howie's Pizza & Subs,G4495 Fenton Rd,BURTON,MI,48529-1925,8107678300.0,"https://www.google.com/maps/place/Hungry+Howie's+Pizza/@42.960403,-83.69206,17z/data=!3m1!4b1!4m5!3m4!1s0x882378a75554fd11:0xc61da6af196e2fd3!8m2!3d42.960403!4d-83.69206",
Hungry Howie's Pizza & Subs,80 Wilson Blvd S,NAPLES,FL,34117-9386,2394559995.0,"https://www.google.com/maps/place/Hungry+Howie's+Pizza/@26.2283302,-81.6057329,17z/data=!3m1!4b1!4m5!3m4!1s0x88db03d7a0921479:0xe1d15e94864394!8m2!3d26.2283302!4d-81.6057329",
Hungry Howie's Pizza & Subs,1010 N Saginaw St,HOLLY,MI,48442-1351,2483281000.0,"https://www.google.com/maps/place/Hungry+Howie's+Pizza/@42.802708,-83.62763,17z/data=!3m1!4b1!4m5!3m4!1s0x88236257c5a46cb1:0x212ed282836764cd!8m2!3d42.802708!4d-83.62763",
Hungry Howie's Pizza & Subs,40 W Nine Mile Rd,PENSACOLA,FL,32534-1274,8504940073.0,"https://www.google.com/maps/place/Hungry+Howie's+Pizza/@30.534576,-87.275211,17z/data=!3m1!4b1!4m5!3m4!1s0x889095b09e655a45:0x2141dc877d95b22!8m2!3d30.534576!4d-87.275211",
Hungry Howie's Pizza & Subs,378 E Base St,MADISON,FL,32340-2439,8509732300.0,"https://www.google.com/maps/place/Hungry+Howie's+Pizza/@30.4688064,-83.4103331,17z/data=!3m1!4b1!4m5!3m4!1s0x88ee90bb3048baa3:0xa08d1ed845d4d505!8m2!3d30.4688064!4d-83.4103331",
Hungry Howie's Pizza & Subs,1816 S Waukesha St,BONIFAY,FL,32425-3100,8505472300.0,"https://www.google.com/maps/place/Hungry+Howie's+Pizza/@30.7720748,-85.6838644,17z/data=!3m1!4b1!4m5!3m4!1s0x8893ab80afa86551:0xb4015398951463e3!8m2!3d30.7720748!4d-85.6838644",
Hungry Howie's Pizza & Subs,222 SW Port St Lucie Blvd,PORT SAINT LUCIE,FL,34984-5049,7723232565.0,"https://www.google.com/maps/place/CLOSED+-Hungry+Howie's/@27.2736617,-80.3512787,17z/data=!3m1!4b1!4m5!3m4!1s0x88dee93cc88f4abf:0x2441be0be5624d51!8m2!3d27.2736617!4d-80.3512787",
Hungry Howie's Pizza & Subs,3499 E Lake Lansing Rd,EAST LANSING,MI,48823-1510,5173321020.0,"https://www.google.com/maps/place/Hungry+Howie's+Pizza/@42.758934,-84.48316,17z/data=!3m1!4b1!4m5!3m4!1s0x8822e9b25ea69cdb:0xf8bde1c530f91a01!8m2!3d42.758934!4d-84.48316",
Hungry Howie's Pizza & Subs,1745 W Hunt Hwy,QUEEN CREEK,AZ,85143-5215,4804746000.0,"https://www.google.com/maps/place/Hungry+Howie's+Pizza/@33.177937,-111.585753,17z/data=!3m1!4b1!4m5!3m4!1s0x872a4c32f9a1e3eb:0x23d9bd279737ccec!8m2!3d33.177937!4d-111.585753",
Hungry Howie's Pizza & Subs,5912 18th St E,ELLENTON,FL,34222-2907,9419813814.0,"https://www.google.com/maps/place/Hungry+Howie's+Pizza+%26+Salad+Bar/@27.530097,-82.503544,17z/data=!3m1!4b1!4m5!3m4!1s0x88c33ccc19d6a869:0x7baae9d05b0d5430!8m2!3d27.530097!4d-82.503544",
Hungry Howie's Pizza & Subs,1252 Norman Eskridge Hwy,SEAFORD,DE,19973-1726,3026299050.0,"https://www.google.com/maps/place/Hungry+Howie's+Pizza/@38.653072,-75.59642,17z/data=!3m1!4b1!4m5!3m4!1s0x89b8f1152b497dad:0x4f85057d8e991067!8m2!3d38.653072!4d-75.59642",
Hungry Howie's Pizza & Subs,2035 E Ireland Rd,SOUTH BEND,IN,46614-2908,5742311100.0,"https://www.google.com/maps/place/Hungry+Howie's+Pizza/@41.630302,-86.21697,17z/data=!3m1!4b1!4m5!3m4!1s0x8816cc8885e2def3:0xf7fb04001a8f9ad5!8m2!3d41.630302!4d-86.21697",
Hungry Howie's Pizza & Subs,3311 SE Federal Hwy,STUART,FL,34997-4913,7722219915.0,"https://www.google.com/maps/place/CLOSED+-Hungry+Howie's/@27.1648248,-80.225651,17z/data=!3m1!4b1!4m5!3m4!1s0x88deddac7b47b9b1:0xd64d7f81e4b6a180!8m2!3d27.1648248!4d-80.225651",
Hungry Howie's Pizza & Subs,3050 N Highway 71,WEWAHITCHKA,FL,32424,8506394300.0,"https://www.google.com/maps/place/Hungry+Howie's+Pizza/@30.1564971,-85.2099207,17z/data=!3m1!4b1!4m5!3m4!1s0x88935ea2782b3d55:0x89f59d53ae428c22!8m2!3d30.1564971!4d-85.2099207",
Hungry Howie's Pizza & Subs,29042 Utica Rd,ROSEVILLE,MI,48066-4623,5867769700.0,"https://www.google.com/maps/place/Hungry+Howie's+Pizza/@42.510365,-82.93612,17z/data=!3m1!4b1!4m5!3m4!1s0x8824d8477a3d31d7:0x2ce2185bc785deb6!8m2!3d42.510365!4d-82.93612",
Hungry Howie's Pizza & Subs,1812 W Sunset Blvd,SAINT GEORGE,UT,84770-6568,4356565588.0,"https://www.google.com/maps/place/Hungry+Howie's+Pizza/@37.123264,-113.62234,17z/data=!3m1!4b1!4m5!3m4!1s0x80ca447da14cd4f7:0x90630b648abca425!8m2!3d37.123264!4d-113.62234",
Hungry Howie's Pizza & Subs,958 E Badillo St,COVINA,CA,91724-2950,6269663333.0,"https://www.google.com/maps/place/Hungry+Howie's+Pizza/@34.08548,-117.871086,17z/data=!3m1!4b1!4m5!3m4!1s0x80c328fa315581cd:0x1eee6d05fb1d528!8m2!3d34.08548!4d-117.871086",
Hungry Howie's Pizza & Subs,6701 Glenwood Ave,RALEIGH,NC,27612-6257,9197823434.0,"https://www.google.com/maps/place/Hungry+Howie's+Pizza/@35.860195,-78.70996,17z/data=!3m1!4b1!4m5!3m4!1s0x88327ee4a37ad8a5:0x7a95e9a4e7cf5b48!8m2!3d35.860195!4d-78.70996",
Hungry Howie's Pizza & Subs,121 Howland Blvd,DELTONA,FL,32738-9214,4076884757.0,"https://www.google.com/maps/place/Hungry+Howie's+Pizza/@28.8724042,-81.1645006,17z/data=!3m1!4b1!4m5!3m4!1s0x88e716201d68f5bb:0x3034c2a70519eee0!8m2!3d28.8724042!4d-81.1645006",
Hungry Howie's Pizza & Subs,4250 N Wickham Rd,MELBOURNE,FL,32935-2486,3212559900.0,"https://www.google.com/maps/place/CLOSED+Hungry+Howie's/@28.1861233,-80.840537,11z/data=!4m8!1m2!2m1!1sHungry+Howie's+Pizza+%26+Subs+4250+N+Wickham+Rd+MELBOURNE+FL+32935-2486!3m4!1s0x88de05799c4cad97:0x335bacb58a6f33dd!8m2!3d28.176799!4d-80.67255?hl=en",
Hungry Howie's Pizza & Subs,2150 58th Ave,VERO BEACH,FL,32966-4647,7722577300.0,"https://www.google.com/maps/place/Hungry+Howie's/@27.6417876,-80.4452747,17z/data=!3m1!4b1!4m5!3m4!1s0x88de5fd2e2051487:0xf16d594629cd889d!8m2!3d27.6417876!4d-80.4452747",
Hungry Howie's Pizza & Subs,5 SW Ave D,BELLE GLADE,FL,33430,5619932300.0,"https://www.google.com/maps/place/CLOSED/@26.683297,-80.66811,17z/data=!3m1!4b1!4m5!3m4!1s0x88d95079978b5f57:0xb84ed4766875b4b!8m2!3d26.683297!4d-80.66811",
Hungry Howie's Pizza & Subs,4851 Rice Mine Rd NE,TUSCALOOSA,AL,35406-3547,2053453737.0,"https://www.google.com/maps/place/Hungry+Howie's+Pizza/@33.263412,-87.51453,17z/data=!3m1!4b1!4m5!3m4!1s0x8888a7bbea3fc50d:0xdea2791b381b52dc!8m2!3d33.263412!4d-87.51453",
Hungry Howie's Pizza & Subs,1060 Spillway Cir,BRANDON,MS,39047-6035,6017060418.0,"https://www.google.com/maps/place/Hungry+Howie's+Pizza/@32.38387,-90.03978,17z/data=!3m1!4b1!4m5!3m4!1s0x8629d4e1799e3879:0x3b044a254bf2415f!8m2!3d32.38387!4d-90.03978",
Hungry Howie's Pizza & Subs,7157 Old Canton Rd,RIDGELAND,MS,39157-1020,6018985008.0,"https://www.google.com/maps/place/Hungry+Howie's+Pizza/@32.4204188,-90.1068947,17z/data=!3m1!4b1!4m5!3m4!1s0x8629d3c9ea370e79:0xab563f89e2b0dcc2!8m2!3d32.4204188!4d-90.1068947",
Hungry Howie's Pizza & Subs,1863 Southfield Rd,LINCOLN PARK,MI,48146-2247,3133579000.0,"https://www.google.com/maps/place/Hungry+Howie's+Pizza/@42.25401,-83.19146,17z/data=!3m1!4b1!4m5!3m4!1s0x89acf7026f37838b:0xda4c4aa11a822db9!8m2!3d42.25401!4d-83.19146",
Hungry Howie's Pizza & Subs,2209 Niles St,BAKERSFIELD,CA,93306,6613223999.0,"https://www.google.com/maps/place/Hungry+Howie's+Pizza/@35.375202,-118.96728,17z/data=!3m1!4b1!4m5!3m4!1s0x80ea6be57151100d:0x1cfc53cec1783971!8m2!3d35.375202!4d-118.96728",
Hungry Howie's Pizza & Subs,2262 US Highway 1,MIMS,FL,32754-3846,3212642455.0,"https://www.google.com/maps/place/Hungry+Howie's/@28.6595632,-80.8434238,17z/data=!3m1!4b1!4m5!3m4!1s0x88e74b71fe650fc1:0x784c195ae68dc36e!8m2!3d28.6595632!4d-80.8434238",
Hungry Howie's Pizza & Subs,1320 N Florida Ave,INVERNESS,FL,34450-2409,3523443435.0,"https://www.google.com/maps/place/Hungry+Howie's+Pizza/@28.8405274,-82.3441155,17z/data=!3m1!4b1!4m5!3m4!1s0x88610144e03c5211:0x4977500c79ba4314!8m2!3d28.8405274!4d-82.3441155",
Hungry Howie's Pizza & Subs,2736 Red Cliffs Dr,SAINT GEORGE,UT,84790-5714,4356749966.0,"https://www.google.com/maps/place/Hungry+Howie's+Pizza/@37.125923,-113.52756,17z/data=!3m1!4b1!4m5!3m4!1s0x80ca5b0bb6381ab5:0xfdc0585393555542!8m2!3d37.125923!4d-113.52756",
Hungry Howie's Pizza & Subs,11565 S Saginaw St,GRAND BLANC,MI,48439-1355,8106956700.0,"https://www.google.com/maps/place/Hungry+Howie's+Pizza/@42.927307,-83.62834,17z/data=!3m1!4b1!4m5!3m4!1s0x88237e7c78b26909:0x87a61a564913f219!8m2!3d42.927307!4d-83.62834",
Hungry Howie's Pizza & Subs,1900 13th St,SAINT CLOUD,FL,34769-4202,4079573131.0,"https://www.google.com/maps/place/Hungry+Howie's+Pizza/@28.246209,-81.290694,17z/data=!3m1!4b1!4m5!3m4!1s0x88dd8e522a4e66f3:0xd2a7695afd572236!8m2!3d28.246209!4d-81.290694",
Hungry Howie's Pizza & Subs,20824 Hall Rd,CLINTON TWP,MI,48035,5867831500.0,"https://www.google.com/maps/place/Hungry+Howie's+Pizza/@42.6280216,-82.9133569,17z/data=!3m1!4b1!4m5!3m4!1s0x8825200a47efd261:0x53e4a4da1cad018a!8m2!3d42.6280216!4d-82.9133569",
Hungry Howie's Pizza & Subs,24533 Center Ridge Rd,WESTLAKE,OH,44145-5616,4408991236.0,"https://www.google.com/maps/place/Hungry+Howie's+Pizza/@41.457413,-81.893135,17z/data=!3m1!4b1!4m5!3m4!1s0x8830929480daf44d:0x37c1775cf36a463a!8m2!3d41.457413!4d-81.893135",
Hungry Howie's Pizza & Subs,3359 NW Main Ave,JENSEN BEACH,FL,34957-4423,7726929233.0,"https://www.google.com/maps/place/CLOSED+-+Hungry+Howie's/@27.0616445,-81.888463,8z/data=!4m8!1m2!2m1!1sHungry+Howie's+Pizza+%26+Subs+JENSEN+BEACH+FL!3m4!1s0x88dee7d096d1a889:0xc8be769749dad082!8m2!3d27.246244!4d-80.269094?hl=en",
Hungry Howie's Pizza & Subs,603 E Grand River Ave,BRIGHTON,MI,48116,8102273771.0,"https://www.google.com/maps/place/Hungry+Howie's+Pizza/@42.533432,-83.78312,17z/data=!3m1!4b1!4m5!3m4!1s0x88234ff4a8cfd63f:0xd0507c9be766c5ff!8m2!3d42.533432!4d-83.78312",
Hungry Howie's Pizza & Subs,610 N Navy Blvd,PENSACOLA,FL,32507-1211,8504576900.0,"https://www.google.com/maps/place/Hungry+Howie's+Pizza/@30.3968719,-87.2771207,17z/data=!3m1!4b1!4m5!3m4!1s0x8890b9374cf8efd7:0x732f66580c6b441f!8m2!3d30.3968719!4d-87.2771207",
Hungry Howie's Pizza & Subs,6534 Caroline St,MILTON,FL,32570-4778,8506268600.0,"https://www.google.com/maps/place/Hungry+Howie's+Pizza/@30.6197393,-87.0519749,17z/data=!3m1!4b1!4m5!3m4!1s0x8890e591b5ae2321:0x849e0ec87e8ea12f!8m2!3d30.6197393!4d-87.0519749",
Hungry Howie's Pizza & Subs,8011 Merrill Rd,JACKSONVILLE,FL,32277-3799,9047439100.0,"https://www.google.com/maps/place/Hungry+Howie's+Pizza/@30.3540205,-81.5612782,17z/data=!3m1!4b1!4m5!3m4!1s0x88e5b3822c030de7:0x44ad21975af647a8!8m2!3d30.3540205!4d-81.5612782",
Hungry Howie's Pizza & Subs,9173 Mentor Ave,MENTOR,OH,44060-6676,4402059595.0,"https://www.google.com/maps/place/Hungry+Howie's+Pizza/@41.67678,-81.3115,17z/data=!3m1!4b1!4m5!3m4!1s0x8831a5dbf60ad28f:0x9a67aac17cacf2c3!8m2!3d41.67678!4d-81.3115",
Hungry Howie's Pizza & Subs,10042 US Highway 301 S,RIVERVIEW,FL,33578,8136777353.0,"https://www.google.com/maps/place/Hungry+Howie's+Pizza/@27.8542722,-82.3260768,17z/data=!3m1!4b1!4m5!3m4!1s0x88c2d1a051f8718d:0x5f590ebe347171cd!8m2!3d27.8542722!4d-82.3260768",
Hungry Howie's Pizza & Subs,3914 Country Club Rd,WINSTON SALEM,NC,27104-2915,3367689000.0,"https://www.google.com/maps/place/Hungry+Howie's+Pizza/@36.0898166,-80.3173995,17z/data=!3m1!4b1!4m5!3m4!1s0x8853b1ab0c44bffd:0xc00ae84e5606bc15!8m2!3d36.0898166!4d-80.3173995",
Hungry Howie's Pizza & Subs,11309 Bandera Rd,SAN ANTONIO,TX,78250-2601,2106479856.0,"https://www.google.com/maps/place/Hungry+Howie's+Pizza/@29.548227,-98.662506,17z/data=!3m1!4b1!4m5!3m4!1s0x88f8989a9d631a2d:0xdf3b917648707216!8m2!3d29.548227!4d-98.662506",
Hungry Howie's Pizza & Subs,3837 Southside Blvd,JACKSONVILLE,FL,32216-4698,9042328247.0,"https://www.google.com/maps/place/Hungry+Howie's+Pizza+and+Subs/@30.277081,-81.558363,17z/data=!3m1!4b1!4m5!3m4!1s0x88e5b57541da666d:0x5b52e5828bcd41af!8m2!3d30.277081!4d-81.558363",
Hungry Howie's Pizza & Subs,5 Utility Dr,PALM COAST,FL,32137-4628,3864464461.0,"https://www.google.com/maps/place/Hungry+Howie's/@29.5485336,-81.2134338,17z/data=!3m1!4b1!4m5!3m4!1s0x88e6945426bd2789:0x26b480afe3e47ced!8m2!3d29.5485336!4d-81.2134338",
Hungry Howie's Pizza & Subs,3551 Blairstone Rd,TALLAHASSEE,FL,32301-8826,8506713400.0,"https://www.google.com/maps/place/Hungry+Howie's+Pizza/@30.403537,-84.237569,17z/data=!3m1!4b1!4m5!3m4!1s0x88ec5fd79ba2da21:0x5035128fc2b5cb06!8m2!3d30.403537!4d-84.237569",
Hungry Howie's Pizza & Subs,34904 Emerald Coast Pkwy,DESTIN,FL,32541-3496,8504602422.0,"https://www.google.com/maps/place/Hungry+Howie's+Pizza/@30.3874929,-86.4269395,17z/data=!3m1!4b1!4m5!3m4!1s0x88914357ddad69d9:0xc149bd92cfa5350c!8m2!3d30.3874929!4d-86.4269395",
Hungry Howie's Pizza & Subs,35890 Hwy 27,HAINES CITY,FL,33844-3735,8638046060.0,"https://www.google.com/maps/place/Hungry+Howie's+Pizza/@28.1233265,-81.6414206,17z/data=!3m1!4b1!4m5!3m4!1s0x88dd73cef0826f49:0xa6366229fc3426bf!8m2!3d28.1233265!4d-81.6414206",
Hungry Howie's Pizza & Subs,8610 Camfield St,CHARLOTTE,NC,28277-2465,7045437900.0,"https://www.google.com/maps/place/Hungry+Howie's+Pizza/@35.0529444,-80.8176487,17z/data=!3m1!5s0x88569d59e55713db:0xb825fcec6a139890!4m5!3m4!1s0x88569d575c9dd7a3:0x80a2427529df8bd3!8m2!3d35.05294!4d-80.81546?hl=en",
Hungry Howie's Pizza & Subs,9200 Carothers Pkwy,FRANKLIN,TN,37067-6353,6152248556.0,"https://www.google.com/maps/place/Hungry+Howie's+Pizza/@35.96028,-86.801216,17z/data=!3m1!4b1!4m5!3m4!1s0x88647bdff0cec08d:0x1e518f35f5746151!8m2!3d35.96028!4d-86.801216",
Hungry Howie's Pizza & Subs,5710 W Gate City Blvd,GREENSBORO,NC,27407-7061,3367630569.0,"https://www.google.com/maps/place/Hungry+Howie's+Pizza/@36.016716,-79.89834,17z/data=!3m1!4b1!4m5!3m4!1s0x88531aa276ba0ef3:0xda069944c550bf10!8m2!3d36.016716!4d-79.89834",
Hungry Howie's Pizza & Subs,2078 US Highway 98 W,SANTA ROSA BEACH,FL,32459-5372,8506223333.0,"https://www.google.com/maps/place/Hungry+Howies+Santa+Rosa/@30.375045,-86.21374,17z/data=!3m1!4b1!4m5!3m4!1s0x8893e3d363afb4a7:0x6c607e23c815f7e2!8m2!3d30.375045!4d-86.21374",
Hungry Howie's Pizza & Subs,2304 S Kirkman Rd,ORLANDO,FL,32811-3230,4072967070.0,"https://www.google.com/maps/place/Hungry+Howie's+Pizza/@28.516695,-81.459876,17z/data=!3m1!4b1!4m5!3m4!1s0x88e7793cebc9c863:0x3964195c08dcb66e!8m2!3d28.516695!4d-81.459876",
Hungry Howie's Pizza & Subs,6054 Sisson Rd,TITUSVILLE,FL,32780-3217,3212688778.0,"https://www.google.com/maps/place/Hungry+Howie's/@28.5311512,-80.8105328,17z/data=!3m1!4b1!4m5!3m4!1s0x88e0ad4ca335adeb:0x2e143c561904d06e!8m2!3d28.5311512!4d-80.8105328",
Hungry Howie's Pizza & Subs,6365 Simmons St,NORTH LAS VEGAS,NV,89031-7292,7024331313.0,"https://www.google.com/maps/place/Hungry+Howie's+Pizza/@36.27579,-115.18036,17z/data=!3m1!4b1!4m5!3m4!1s0x80c8e9651d5efc79:0xbbc0adb9095212f8!8m2!3d36.27579!4d-115.18036",
Hungry Howie's Pizza & Subs,4693 Old Pleasant Hill Rd,POINCIANA,FL,34759,4078474444.0,"https://www.google.com/maps/place/Hungry+Howie's/@28.1462422,-81.4414874,17z/data=!3m1!4b1!4m5!3m4!1s0x88dd9c134275adb9:0x7f9a184e26ceeb84!8m2!3d28.1462422!4d-81.4414874",
Hungry Howie's Pizza & Subs,2239 N Telegraph Rd,MONROE,MI,48162-8941,7346391245.0,"https://www.google.com/maps/place/Hungry+Howie's+Pizza/@41.953278,-83.398415,17z/data=!3m1!4b1!4m5!3m4!1s0x883b6f3f834ba8d3:0x81868d99fab1c6da!8m2!3d41.953278!4d-83.398415",
Hungry Howie's Pizza & Subs,2421 Gum Branch Rd,JACKSONVILLE,NC,28540-4008,9103553599.0,"https://www.google.com/maps/place/Hungry+Howie's+Pizza/@34.799664,-77.441124,17z/data=!3m1!4b1!4m5!3m4!1s0x89a911cc3163921b:0x5bc098564ba48f8!8m2!3d34.799664!4d-77.441124",
Hungry Howie's Pizza & Subs,18059 W Catawba Ave,CORNELIUS,NC,28031-3805,7042373810.0,"https://www.google.com/maps/place/Hungry+Howie's+Pizza/@35.45937,-80.8889,17z/data=!3m1!4b1!4m5!3m4!1s0x8856a937ba9e0a89:0x65e138b1885995e2!8m2!3d35.45937!4d-80.8889",
Hungry Howie's Pizza & Subs,4690 49th St N,SAINT PETERSBURG,FL,33709,7275255444.0,"https://www.google.com/maps/place/Hungry+Howie's+Pizza/@27.8143805,-82.7003278,17z/data=!3m1!4b1!4m5!3m4!1s0x88c2e37a84a69517:0x921d12de8b4474be!8m2!3d27.8143805!4d-82.7003278",
Hungry Howie's Pizza & Subs,5166 Mariner Blvd,SPRING HILL,FL,34609-1802,3526844424.0,"https://www.google.com/maps/place/Hungry+Howie's+Pizza/@28.5024761,-82.5235148,17z/data=!3m1!4b1!4m5!3m4!1s0x88e81fb20780c025:0x117ce0231bac44bd!8m2!3d28.5024761!4d-82.5235148",
Hungry Howie's Pizza & Subs,5086 Station Rd,ERIE,PA,16510-4361,8148994242.0,"https://www.google.com/maps/place/Hungry+Howie's+Pizza/@42.124287,-79.98094,17z/data=!3m1!4b1!4m5!3m4!1s0x882d7d91a4a9a86d:0x84e7766c5f19b949!8m2!3d42.124287!4d-79.98094",
Hungry Howie's Pizza & Subs,675 Tucker Rd,TEHACHAPI,CA,93561-2570,6618221000.0,"https://www.google.com/maps/place/Hungry+Howie's+Pizza/@35.127182,-118.46866,17z/data=!3m1!4b1!4m5!3m4!1s0x80c1f7eb8ad9aaa7:0x2307a0a2bf1dfd74!8m2!3d35.127182!4d-118.46866",
Hungry Howie's Pizza & Subs,2455 W Midway Rd,FORT PIERCE,FL,34981-4912,7724610090.0,"https://www.google.com/maps/place/Hungry+Howie's+Pizza/@27.373872,-80.349397,17z/data=!3m1!4b1!4m5!3m4!1s0x88deee6c0673f41d:0xaf1f4981a3250fbc!8m2!3d27.373872!4d-80.349397",
Hungry Howie's Pizza & Subs,830 E Hathaway Ave,BRONSON,FL,32621-6706,3524865848.0,"https://www.google.com/maps/place/Hungry+Howie's+Pizza/@29.4416699,-82.6300606,17z/data=!3m1!4b1!4m5!3m4!1s0x88e8edcb849b2a93:0x221681952ced5d8a!8m2!3d29.4416699!4d-82.6300606",
Hungry Howie's Pizza & Subs,1475 White Ln,BAKERSFIELD,CA,93307-4677,6613973777.0,"https://www.google.com/maps/place/Hungry+Howie's+Pizza/@35.3168139,-119.019081,17z/data=!3m1!4b1!4m5!3m4!1s0x80ea6aec14a69619:0xeaede1e9c2b7e56d!8m2!3d35.3168139!4d-119.019081",
Hungry Howie's Pizza & Subs,2638 S Rochester Rd,ROCHESTER HILLS,MI,48307-4545,2488520002.0,"https://www.google.com/maps/place/Hungry+Howie's+Pizza/@42.641655,-83.13327,17z/data=!3m1!4b1!4m5!3m4!1s0x8824c2663cae8317:0xa396788302b2e195!8m2!3d42.641655!4d-83.13327",
Hungry Howie's Pizza & Subs,6040 S Gun Club Rd,AURORA,CO,80016-5305,3036274694.0,"https://www.google.com/maps/place/Hungry+Howie's+Pizza/@39.60529,-104.7151,17z/data=!3m1!4b1!4m5!3m4!1s0x876c8c7a45b07371:0x1eac441b7b3d6ac7!8m2!3d39.60529!4d-104.7151",
Hungry Howie's Pizza & Subs,522B Joel Blvd,LEHIGH ACRES,FL,33936,2393685225.0,"https://www.google.com/maps/place/Hungry+Howie's+Pizza+%26+Subs/@26.6205,-81.597459,17z/data=!3m1!4b1!4m5!3m4!1s0x88db740c986fd6cf:0x91f53ab4bbae745f!8m2!3d26.6205!4d-81.597459",
Hungry Howie's Pizza & Subs,314 S State Road 19,PALATKA,FL,32177-3939,3865307101.0,"https://www.google.com/maps/place/Hungry+Howie's/@29.6455106,-81.6774837,17z/data=!4m5!3m4!1s0x88e665968e118495:0xc7a2c7ab238722de!8m2!3d29.645506!4d-81.675295?hl=en",
Hungry Howie's Pizza & Subs,4865 24th Ave,FORT GRATIOT,MI,48059-3488,8103859500.0,"https://www.google.com/maps/place/Hungry+Howie's+Pizza/@43.0497156,-82.4580088,17z/data=!3m1!4b1!4m5!3m4!1s0x88259a3720b33927:0x6b406bba07d72db3!8m2!3d43.0497156!4d-82.4580088",
Hungry Howie's Pizza & Subs,2600 S University Dr,MIRAMAR,FL,33025-3013,9543676799.0,"https://www.google.com/maps/place/Hungry+Howie's+Pizza+%26+Subs/@25.985589,-80.247882,17z/data=!3m1!4b1!4m5!3m4!1s0x88d9af311ff77ac1:0xf8e9b6c3a568c34e!8m2!3d25.985589!4d-80.247882",
Hungry Howie's Pizza & Subs,10227 Brookpark Rd,PARMA,OH,44130-1107,2162653000.0,"https://www.google.com/maps/place/Hungry+Howie's+Pizza/@41.41801,-81.756226,17z/data=!3m1!4b1!4m5!3m4!1s0x8830eef3285e5315:0x89336b7c469a0a10!8m2!3d41.41801!4d-81.756226",
Hungry Howie's Pizza & Subs,2419 Springs Rd NE,HICKORY,NC,28601-3078,8283032500.0,"https://www.google.com/maps/place/Hungry+Howie's+Pizza/@35.7534,-81.289154,17z/data=!3m1!4b1!4m5!3m4!1s0x885130f2d4e9e921:0x1055f996a6c0df37!8m2!3d35.7534!4d-81.289154",
Hungry Howie's Pizza & Subs,175 Freedom Way,MIDWAY PARK,NC,28544-1444,9109396100.0,"https://www.google.com/maps/place/Hungry+Howie's+Pizza/@34.71822,-77.32568,17z/data=!3m1!4b1!4m5!3m4!1s0x89a904d10687608d:0x596f17974985ed38!8m2!3d34.71822!4d-77.32568",
Hungry Howie's Pizza & Subs,4500 Gosford Rd,BAKERSFIELD,CA,93313-4840,6614272888.0,"https://www.google.com/maps/place/Hungry+Howie's+Pizza/@35.3143421,-119.0914988,17z/data=!3m1!4b1!4m5!3m4!1s0x80ea41aa93c9d24f:0xa07e009f0e50c106!8m2!3d35.3143421!4d-119.0914988",
Hungry Howie's Pizza & Subs,3558 W 26th St,ERIE,PA,16506-2042,8148332002.0,"https://www.google.com/maps/place/Hungry+Howie's+Pizza/@42.081944,-80.1569587,17z/data=!4m5!3m4!1s0x88327ee4a37ad8a5:0xd90115884e594831!8m2!3d42.08194!4d-80.15477?hl=en",
Hungry Howie's Pizza & Subs,1311 E Orange Ave,TALLAHASSEE,FL,32301,8504213333.0,"https://www.google.com/maps/place/Hungry+Howie's+Pizza+and+Subs/@30.4121955,-84.2847887,17z/data=!4m5!3m4!1s0x88ecf54fbae2111b:0xa97d5b66b56a4df4!8m2!3d30.4121909!4d-84.2826?hl=en",
Hungry Howie's Pizza & Subs,6649 Taft St,HOLLYWOOD,FL,33024-4010,9549672777.0,"https://www.google.com/maps/place/Hungry+Howie's+Pizza+and+Subs/@26.025907,-80.222133,17z/data=!3m1!4b1!4m5!3m4!1s0x88d9a91a70816fbf:0x6e8cd1fd71d6af05!8m2!3d26.025907!4d-80.222133",
Hungry Howie's Pizza & Subs,553 Indian Trail Rd S,INDIAN TRAIL,NC,28079-8832,7048211004.0,"https://www.google.com/maps/place/Hungry+Howie's+Pizza/@35.06858,-80.676865,17z/data=!3m1!4b1!4m5!3m4!1s0x88542500b9dce135:0x19ff33e394eb7810!8m2!3d35.06858!4d-80.676865",
Hungry Howie's Pizza & Subs,7628 Sun Vista Way,ORLANDO,FL,32822-7501,4072820555.0,"https://www.google.com/maps/place/Hungry+Howie's+Pizza/@28.492143,-81.284522,17z/data=!3m1!4b1!4m5!3m4!1s0x88e76479f8a3118b:0xe0652e62ce302e5b!8m2!3d28.492143!4d-81.284522",
Hungry Howie's Pizza & Subs,6555 Nova Dr,DAVIE,FL,33317-7404,9544246280.0,"https://www.google.com/maps/place/Hungry+Howie's+Pizza/@26.0868939,-80.2317287,17z/data=!3m1!4b1!4m5!3m4!1s0x88d9a82a9b78435b:0x36e54f00e74d8386!8m2!3d26.0868939!4d-80.2317287",
Hungry Howie's Pizza & Subs,6431 E County Line Rd,TAMPA,FL,33647-1840,8139076999.0,"https://www.google.com/maps/place/Hungry+Howie's+Pizza/@28.1690474,-82.3551985,17z/data=!3m1!4b1!4m5!3m4!1s0x88c2b72e35d7ed33:0xf4599284b11c49f7!8m2!3d28.1690474!4d-82.3551985",
Hungry Howie's Pizza & Subs,836 N West Ave,JACKSON,MI,49202-3267,5178172000.0,"https://www.google.com/maps/place/Hungry+Howie's+Pizza/@42.258125,-84.423744,17z/data=!3m1!4b1!4m5!3m4!1s0x88569cf8e9c2a225:0xb58ced8a079f8b66!8m2!3d42.258125!4d-84.423744",
Hungry Howie's Pizza & Subs,5201 Nicholson Dr,BATON ROUGE,LA,70808,2257614694.0,"https://www.google.com/maps/place/Hungry+Howie's+Pizza/@30.389627,-91.1724116,17z/data=!3m1!4b1!4m5!3m4!1s0x8626a6fe0dc8b1b7:0x1cc9b96076b2973f!8m2!3d30.389627!4d-91.1724116",
Hungry Howie's Pizza & Subs,5476 Brown St,GRACEVILLE,FL,32440-1221,8503605009.0,"https://www.google.com/maps/place/Hungry+Howie's+Pizza+%26+Subs/@30.9669188,-85.5123519,17z/data=!3m1!4b1!4m5!3m4!1s0x8892fa2f78b165c1:0x85a009044dc754aa!8m2!3d30.9669188!4d-85.5123519",
Hungry Howie's Pizza & Subs,2111 Spring Cypress Rd,SPRING,TX,77388-4250,3462200202.0,"https://www.google.com/maps/place/Hungry+Howie's+Pizza/@29.9650375,-95.8654226,10z/data=!4m8!1m2!2m1!1sHungry+Howie's+Pizza+%26+Subs+2111+Spring+Cypress+Rd+SPRING+TX+77388-4250!3m4!1s0x864734c2582a0c55:0xef046c7e87fa5a53!8m2!3d30.067139!4d-95.449295?hl=en",
Hungry Howie's Pizza & Subs,4601 E Moody Blvd,BUNNELL,FL,32110-9017,3865863977.0,"https://www.google.com/maps/place/Hungry+Howie's+Pizza+%26+Subs/@29.4750933,-81.2266951,17z/data=!3m1!4b1!4m5!3m4!1s0x88e6eb1595ffa445:0xacff8d1f4938b2b7!8m2!3d29.4750933!4d-81.2266951",
Hungry Howie's Pizza & Subs,4789 N Congress Ave,BOYNTON BEACH,FL,33426-7941,5612664772.0,"https://www.google.com/maps/place/Hungry+Howie's+Pizza+%26+Subs/@26.5715978,-80.0910301,17z/data=!3m1!4b1!4m5!3m4!1s0x88d8d899abd20a0f:0x5bd2c11ab24ee2d5!8m2!3d26.5715978!4d-80.0910301",
Hungry Howie's Pizza & Subs,1809 N Pine Island Rd,PLANTATION,FL,33322-5207,9546361111.0,"https://www.google.com/maps/place/Hungry+Howie's+Pizza+and+Subs/@26.147316,-80.270421,17z/data=!3m1!4b1!4m5!3m4!1s0x88d9062f40636dc3:0x1c3e82c1bebd3b3d!8m2!3d26.147316!4d-80.270421",
Hungry Howie's Pizza & Subs,4650 W Main St,DOTHAN,AL,36305-9419,3347927771.0,"https://www.google.com/maps/place/Hungry+Howie's+Pizza/@31.239405,-85.46283,17z/data=!3m1!4b1!4m5!3m4!1s0x88928da2f0c7089b:0xa6fe49856a52a7cb!8m2!3d31.239405!4d-85.46283",
Hungry Howie's Pizza & Subs,3609 South Blvd,CHARLOTTE,NC,28209-2369,7045869100.0,"https://www.google.com/maps/place/Hungry+Howie's+Pizza/@35.192314,-80.873405,17z/data=!3m1!4b1!4m5!3m4!1s0x88569f16f2e03595:0xdc2f4ce28e0ffef7!8m2!3d35.192314!4d-80.873405",
Hungry Howie's Pizza & Subs,1708 N Young Blvd,CHIEFLAND,FL,32626-1707,3524907777.0,"https://www.google.com/maps/place/Hungry+Howie's+Pizza/@29.4956782,-82.8681513,17z/data=!3m1!4b1!4m5!3m4!1s0x88e8e2290391aac3:0x62d11436183f6aaf!8m2!3d29.4956782!4d-82.8681513",
Hungry Howie's Pizza & Subs,4520 Hallandale Beach Blvd,PEMBROKE PARK,FL,33023,7547777047.0,"https://www.google.com/maps/place/Hungry+Howie's+Pizza+%26+Subs/@25.9839709,-80.1891714,17z/data=!3m1!4b1!4m5!3m4!1s0x88d9aea9ec8fa4af:0x740ee74545cd160!8m2!3d25.9839709!4d-80.1891714",
Hungry Howie's Pizza & Subs,1998 Fl-19,TAVARES,FL,32778,3523439999.0,"https://www.google.com/maps/place/Hungry+Howie's+Pizza+%26+Subs/@28.7851845,-81.7506569,17z/data=!3m1!4b1!4m5!3m4!1s0x88e79624863d7701:0x3ba1b0a22e2491fb!8m2!3d28.7851845!4d-81.7506569",
Hungry Howie's Pizza & Subs,3560 N Zaragoza Rd,EL PASO,TX,79938,9157062171.0,"https://www.google.com/maps/place/Hungry+Howie's+Pizza/@31.794588,-106.23103,17z/data=!3m1!4b1!4m5!3m4!1s0x86e7468b2a6c915f:0xfb3c32aa595f6155!8m2!3d31.794588!4d-106.23103",
Hungry Howie's Pizza & Subs,801 Dixon Blvd,COCOA,FL,32922,3213490000.0,"https://www.google.com/maps/place/Hungry+Howie's+Pizza+%26+Subs/@28.3746291,-80.7390324,17z/data=!3m1!4b1!4m5!3m4!1s0x88e0aa13f0fac47f:0xb095488d93327225!8m2!3d28.3746291!4d-80.7390324",
Hungry Howie's Pizza & Subs,4201 St. Antoine,DETROIT,MI,48201,3135280010.0,"https://www.google.com/maps/place/Hungry+Howie's+Pizza/@42.353714,-83.05555,17z/data=!3m1!4b1!4m5!3m4!1s0x8824d2c70898c825:0x6333f9c361e1f411!8m2!3d42.353714!4d-83.05555",
Hungry Howie's Pizza & Subs,13548 Beechnut St,HOUSTON,TX,77083,3462141010.0,"https://www.google.com/maps/place/hungry+howie+s+pizza,+Hungry+Howies+Logo/@29.6890525,-95.6216874,17z/data=!3m1!4b1!4m5!3m4!1s0x8640dd945c700001:0xabddfe6afd6c73d7!8m2!3d29.6890525!4d-95.6216874",
Hungry Howie's Pizza & Subs,1740 South Cannon Blvd,KANNAPOLIS,NC,28083,7049354077.0,"https://www.google.com/maps/place/Hungry+Howie's+Pizza/@35.4703,-80.61141,17z/data=!3m1!4b1!4m5!3m4!1s0x885409b4e8564d7d:0x1beef0be0524eafc!8m2!3d35.4703!4d-80.61141",
Hungry Howie's Pizza & Subs,915 South Point Rd,BELMONT,NC,28012,7044610535.0,"https://www.google.com/maps/place/Hungry+Howie's+Pizza/@35.223785,-81.035934,17z/data=!3m1!4b1!4m5!3m4!1s0x885697065815e657:0xcaffa8609f0ebe95!8m2!3d35.223785!4d-81.035934",
Hungry Howie's Pizza & Subs,390 Bullsboro Dr,NEWNAN,GA,30263,4703471122.0,"https://www.google.com/maps/place/Hungry+Howie's+Pizza/@33.3961355,-84.7633516,17z/data=!3m1!4b1!4m5!3m4!1s0x88f4c72a51032b63:0x6589f2c42f93863f!8m2!3d33.3961355!4d-84.7633516",
Hungry Howie's Pizza & Subs,21003 Highland Knolls Dr,KATY,TX,77450-1565,2817126362.0,"https://www.google.com/maps/place/Hungry+Howie's+Pizza/@29.759167,-95.7325,17z/data=!3m1!4b1!4m5!3m4!1s0x86412741b94099d9:0xd1c8c4f5b6dd6ed0!8m2!3d29.759167!4d-95.7325",
Hungry Howie's Pizza & Subs,7788 US HIGHWAY 27,FORT WHITE,FL,32038,3864971484.0,"https://www.google.com/maps/place/Hungry+Howie's+Pizza/@29.9227325,-82.7153173,17z/data=!3m1!4b1!4m5!3m4!1s0x88e8cd6d8e52ee31:0xe5f9d554eb0029df!8m2!3d29.9227325!4d-82.7153173",
Hungry Howie's Pizza & Subs,3600 S W ARCHER RD,GAINESVILLE,FL,32608,3523358444.0,"https://www.google.com/maps/place/Hungry+Howie's+Pizza/@29.6235468,-82.3767328,17z/data=!3m1!4b1!4m5!3m4!1s0x88e8a3237b825613:0xcbf6bfc5550ba79a!8m2!3d29.6235468!4d-82.3767328",
Hungry Howie's Pizza & Subs,2015 Lascassas Pike,MURFREESBORO,TN,37130-1937,6159003971.0,"https://www.google.com/maps/place/Hungry+Howie's+Pizza/@35.8727018,-86.3554177,17z/data=!3m1!4b1!4m5!3m4!1s0x8853a31a06afea7f:0xf385268e06a1943!8m2!3d35.8727018!4d-86.3554177",
Hungry Howie's Pizza & Subs,3085 Jupiter Blvd SE,PALM BAY,FL,32909-4008,3214994599.0,"https://www.google.com/maps/place/Hungry+Howie's+Pizza/@27.9879592,-80.6618732,17z/data=!3m1!4b1!4m5!3m4!1s0x88de0d3162107c47:0xfc35a4e9488d78c1!8m2!3d27.9879592!4d-80.6618732",
Hungry Howie's Pizza & Subs,1615 S Opdyke Rd,BLOOMFIELD HILLS,MI,48304-1043,2483344000.0,"https://www.google.com/maps/place/Hungry+Howie's+Pizza/@42.6185695,-83.2473097,17z/data=!3m1!4b1!4m5!3m4!1s0x8824c0f41dcdbc99:0xd3a3130db392d556!8m2!3d42.6185695!4d-83.2473097",
Hungry Howie's Pizza & Subs,24265 Novi Rd,NOVI,MI,48375-2461,2483481111.0,"https://www.google.com/maps/place/Hungry+Howie's+Pizza/@42.467777,-83.4760315,17z/data=!3m1!4b1!4m5!3m4!1s0x8824aef2089dce53:0xa7d73fe1251a8554!8m2!3d42.467777!4d-83.4760315",
Hungry Howie's Pizza & Subs,334 Reno Dr,WAYLAND,MI,49348-1277,2697921510.0,"https://www.google.com/maps/place/hungry+howie+s+pizza,+Hungry+Howies+Logo/@42.6721459,-85.6582176,17z/data=!3m1!4b1!4m5!3m4!1s0x8819cc4f26300001:0xa9f5f0901a0e0063!8m2!3d42.6721459!4d-85.6582176",
Hungry Howie's Pizza & Subs,5501 Mian St,DEL CITY,OK,73115,4056017444.0,"https://www.google.com/maps/place/Hungry+Howie's+Pizza/@35.441826,-97.4241804,17z/data=!3m1!4b1!4m5!3m4!1s0x88569d575c9dd65d:0xa08d3db93db9be81!8m2!3d35.441826!4d-97.4241804",
Hungry Howie's Pizza & Subs,9766 Old Saint Augustine Rd,JACKSONVILLE,FL,32257-8865,9042929200.0,"https://www.google.com/maps/place/Hungry+Howie's/@30.199855,-81.615834,17z/data=!3m1!4b1!4m5!3m4!1s0x88e5c96f9858f34d:0x194f6e3577a43b3a!8m2!3d30.199855!4d-81.615834",
Hungry Howie's Pizza & Subs,2000 Crawfordville Hwy,CRAWFORDVILLE,FL,32327-1089,8509266400.0,"https://www.google.com/maps/place/hungry+howie+s+pizza,+Hungry+Howies+Logo/@30.2191056,-84.3631592,17z/data=!3m1!4b1!4m5!3m4!1s0x88ec85f9b7155555:0x30aff6599308fac3!8m2!3d30.2191056!4d-84.3631592",
Hungry Howie's Pizza & Subs,195 N Park Blvd,LAKE ORION,MI,48362-3147,2486936666.0,"https://www.google.com/maps/place/Hungry+Howie's+Pizza/@42.786186,-83.24438,17z/data=!3m1!4b1!4m5!3m4!1s0x8824ed294aca047f:0x5a5fe789d46e6bc7!8m2!3d42.786186!4d-83.24438",
Hungry Howie's Pizza & Subs,35103 Grand River Ave,FARMINGTON,MI,48335-3211,2484741111.0,"https://www.google.com/maps/place/Hungry+Howie's+Pizza/@42.468605,-83.39397,17z/data=!3m1!4b1!4m5!3m4!1s0x8824b1b0a59087ab:0xb2e668ca6a777352!8m2!3d42.468605!4d-83.39397",
Hungry Howie's Pizza & Subs,3365 Washtenaw Ave,ANN ARBOR,MI,48104-4281,7349290072.0,"https://www.google.com/maps/place/Hungry+Howie's+Pizza/@42.256783,-83.69235,17z/data=!3m1!4b1!4m5!3m4!1s0x883caf26c4084dcd:0x312bdabdb1d1f210!8m2!3d42.256783!4d-83.69235",
Hungry Howie's Pizza & Subs,7703 N El Capitan Way,LAS VEGAS,NV,89143-1120,7024324334.0,"https://www.google.com/maps/place/Hungry+Howie's/@36.3005164,-115.2842596,17z/data=!3m1!4b1!4m5!3m4!1s0x80c8934ab3d7dba1:0xafae54b412914738!8m2!3d36.3005164!4d-115.2842596",
Hungry Howie's Pizza & Subs,1904 NW Maynard Rd,CARY,NC,27513-4997,9192341380.0,"https://www.google.com/maps/place/Hungry+Howie's+Pizza/@35.8296661,-78.8652751,11z/data=!4m8!1m2!2m1!1sHungry+Howie's+Pizza+%26+Subs+1904+NW+Maynard+Rd+CARY+NC+27513-4997!3m4!1s0x89acf390d870f067:0xc1f898a2404555db!8m2!3d35.798786!4d-78.795006?hl=en",
Hungry Howie's Pizza & Subs,6133 N Fry Rd,KATY,TX,77449-5849,2813452500.0,"https://www.google.com/maps/place/Hungry+Howie's+Pizza/@29.862339,-95.72118,17z/data=!3m1!4b1!4m5!3m4!1s0x8640d7e533f1e937:0xa5425175094a6c6b!8m2!3d29.862339!4d-95.72118",
Hungry Howie's Pizza & Subs,87 Cotton Mill Rd,STARKVILLE,MS,39759-8179,6622705355.0,"https://www.google.com/maps/place/Hungry+Howie's+Pizza/@33.455364,-88.80454,17z/data=!3m1!4b1!4m5!3m4!1s0x8881353f825408fd:0x815d0607af5ae1d7!8m2!3d33.455364!4d-88.80454",
Hungry Howie's Pizza & Subs,27198 Eureka Rd,TAYLOR,MI,48180-4829,7349429500.0,"https://www.google.com/maps/place/Hungry+Howie's+Pizza/@42.197108,-83.303826,17z/data=!3m1!4b1!4m5!3m4!1s0x883b4f61ee9b1275:0xf18e304053a00b25!8m2!3d42.197108!4d-83.303826",
Hungry Howie's Pizza & Subs,1549 N State St,OREM,UT,84057-2539,8012253333.0,"https://www.google.com/maps/place/Hungry+Howie's+Pizza/@40.3255,-111.7083,17z/data=!3m1!4b1!4m5!3m4!1s0x874d851f2faf4e8f:0x269b2abeb4c29bc2!8m2!3d40.3255!4d-111.7083",
Hungry Howie's Pizza & Subs,207 N Clarke Rd,OCOEE,FL,34761-2569,4079300789.0,"https://www.google.com/maps/place/Hungry+Howie's/@28.572393,-81.516894,17z/data=!3m1!4b1!4m5!3m4!1s0x88e782a06b586ebb:0x7de2ce939c66a5f9!8m2!3d28.572393!4d-81.516894",
Hungry Howie's Pizza & Subs,1038 S 6th Ave,WAUCHULA,FL,33873-3306,8637732100.0,"https://www.google.com/maps/place/Hungry+Howie's+Pizza/@27.5334791,-81.8103735,17z/data=!3m1!4b1!4m5!3m4!1s0x88dce61ed055e253:0x3551d05acaec62e3!8m2!3d27.5334791!4d-81.8103735",
Hungry Howie's Pizza & Subs,2131 Woodruff Rd,GREENVILLE,SC,29607-5950,8645208226.0,"https://www.google.com/maps/place/Hungry+Howie's+Pizza/@34.8211679,-82.2598737,17z/data=!3m1!5s0x88582858a42239ad:0xe4fbe5f53039f0b5!4m8!1m2!2m1!1sHungry+Howie's+Pizza+%26+Subs+2131+Woodruff+Rd+GREENVILLE+SC+29607-5950!3m4!1s0x88582858a44537b1:0x3bfd2b2a2378329b!8m2!3d34.821102!4d-82.25721?hl=en",
Hungry Howie's Pizza & Subs,227 E State St,WEST LAFAYETTE,IN,47906-3222,7652509121.0,"https://www.google.com/maps/place/Hungry+Howie's+Pizza/@40.421272,-86.90352,17z/data=!3m1!4b1!4m5!3m4!1s0x8812e2a816c0dcab:0x3c0177c96e7d48a!8m2!3d40.421272!4d-86.90352",
Hungry Howie's Pizza & Subs,5317 E Fletcher Ave,TEMPLE TERRACE,FL,33617-1145,8135154444.0,"https://www.google.com/maps/place/Hungry+Howie's/@28.0688637,-82.3941424,17z/data=!3m1!4b1!4m5!3m4!1s0x88c2c7e6d245c331:0xbe9ce4539523b0b0!8m2!3d28.0688637!4d-82.3941424",
Hungry Howie's Pizza & Subs,3320 Robinwood Rd,GASTONIA,NC,28054-6689,7048429100.0,"https://www.google.com/maps/place/Hungry+Howie's+Pizza/@35.217087,-81.15739,17z/data=!3m1!4b1!4m5!3m4!1s0x8856953422a24f03:0x4bb9e0c84a598db6!8m2!3d35.217087!4d-81.15739",
Hungry Howie's Pizza & Subs,1626 N Haggerty Rd,CANTON,MI,48187-3711,7349815838.0,"https://www.google.com/maps/place/Hungry+Howie's+Pizza/@42.318474,-83.44811,17z/data=!3m1!4b1!4m5!3m4!1s0x883b525c73a1f64b:0x75fdff1baa6b3947!8m2!3d42.318474!4d-83.44811",
Hungry Howie's Pizza & Subs,10530 Rosedale Hwy,BAKERSFIELD,CA,93312-3237,6614270777.0,"https://www.google.com/maps/place/Hungry+Howie's+Pizza/@35.383972,-119.11992,17z/data=!3m1!4b1!4m5!3m4!1s0x80ea439e41a2db0d:0xda65fa066a1b0a37!8m2!3d35.383972!4d-119.11992",
Hungry Howie's Pizza & Subs,810 N Orange Ave,GREEN COVE SPRINGS,FL,32043-2556,9048633084.0,"https://www.google.com/maps/place/Hungry+Howie's+Pizza+%26+Subs/@30.003084,-81.685122,17z/data=!3m1!4b1!4m5!3m4!1s0x88e5d0a42db80601:0x81496ee983e0cdd6!8m2!3d30.003084!4d-81.685122",
Hungry Howie's Pizza & Subs,1238 N Ferdon Blvd,CRESTVIEW,FL,32536-1752,8503985001.0,"https://www.google.com/maps/place/Hungry+Howie's+Pizza/@30.7873115,-86.5596227,17z/data=!3m1!4b1!4m5!3m4!1s0x889174e9f829a837:0x3a215970fb635c16!8m2!3d30.7873115!4d-86.5596227",
Hungry Howie's Pizza & Subs,4214 Crescent Ave,FORT WAYNE,IN,46815-4529,2602477555.0,"https://www.google.com/maps/place/Hungry+Howie's+Pizza/@41.1180222,-85.1035129,17z/data=!4m8!1m2!2m1!1sHungry+Howie's+Pizza+%26+Subs+4214+Crescent+Ave+FORT+WAYNE+IN+46815-4529!3m4!1s0x8815fcca24421ca5:0x83352947a68976a4!8m2!3d41.11804!4d-85.10135?hl=en",
Hungry Howie's Pizza & Subs,4847 E Greenway Rd,SCOTTSDALE,AZ,85254-1685,6028678888.0,"https://www.google.com/maps/place/Hungry+Howie's+Pizza/@33.62496,-111.97596,17z/data=!3m1!4b1!4m5!3m4!1s0x872b73dde9a223f7:0xad4abb300663b925!8m2!3d33.62496!4d-111.97596",
Hungry Howie's Pizza & Subs,2318 Painters Mill Dr,FAYETTEVILLE,NC,28304-6602,9102133888.0,"https://www.google.com/maps/place/Hungry+Howie's+Pizza/@35.0112809,-78.9827833,17z/data=!3m1!4b1!4m5!3m4!1s0x89ab15afabc8d4eb:0xf924f3a2d7392f0d!8m2!3d35.0112809!4d-78.9827833",
Hungry Howie's Pizza & Subs,2951 Battleground Ave,GREENSBORO,NC,27408-2705,3368080988.0,"https://www.google.com/maps/place/Hungry+Howie's+Pizza/@36.113792,-79.83535,17z/data=!3m1!4b1!4m5!3m4!1s0x88531c2189e32f05:0xd54135b2310f8ffb!8m2!3d36.113792!4d-79.83535",
Hungry Howie's Pizza & Subs,1040 E University Ave,GAINESVILLE,FL,32601-5616,3527274757.0,"https://www.google.com/maps/place/hungry+howie+s+pizza,+Hungry+Howies+Logo/@29.6522354,-82.3119403,17z/data=!3m1!4b1!4m5!3m4!1s0x88e8a3fa1ad5aaab:0xcd533a4fd05942de!8m2!3d29.6522354!4d-82.3119403",
Hungry Howie's Pizza & Subs,10676 Chantilly Pkwy,MONTGOMERY,AL,36117,3346498711.0,"https://www.google.com/maps/place/Hungry+Howie's+Pizza/@32.35661,-86.13335,17z/data=!3m1!4b1!4m5!3m4!1s0x888c2db2e01cce87:0x8d3b6078aea7958a!8m2!3d32.35661!4d-86.13335",
Hungry Howie's Pizza & Subs,4270 River Oaks Dr,CAROLINA FOREST,SC,29579-5603,8438060008.0,"https://www.google.com/maps/place/Hungry+Howie's+Pizza/@33.759167,-78.860535,17z/data=!3m1!4b1!4m5!3m4!1s0x89006f6ab8d967fb:0xfaf5b5b9ee3140a0!8m2!3d33.759167!4d-78.860535",
Hungry Howie's Pizza & Subs,1530 Holmes Rd,YPSILANTI,MI,48198,7348965151.0,"https://www.google.com/maps/place/Hungry+Howie's+Pizza/@42.253456,-83.5801,17z/data=!3m1!4b1!4m5!3m4!1s0x883b57cd343b2475:0x5401324e6648ca76!8m2!3d42.253456!4d-83.5801",
Hungry Howie's Pizza & Subs,3395 Plymouth Rd,ANN ARBOR,MI,48105,7347731010.0,"https://www.google.com/maps/place/Hungry+Howie's+Pizza/@42.305515,-83.69442,17z/data=!3m1!4b1!4m5!3m4!1s0x883cac196a72acf1:0x3741cc2d458ea6ef!8m2!3d42.305515!4d-83.69442",
Hungry Howie's Pizza & Subs,171 South Milford Rd,MILFORD,MI,48381,2487140063.0,"https://www.google.com/maps/place/Hungry+Howie's+Pizza/@42.580906,-83.609245,17z/data=!3m1!4b1!4m5!3m4!1s0x882359cdebf9dc79:0x296d8856b40ac62b!8m2!3d42.580906!4d-83.609245",
Hungry Howie's Pizza & Subs,4000 Frey Road NW,KENNESAW,GA,30144,4704120101.0,"https://www.google.com/maps/place/Hungry+Howie's+Pizza/@34.0500724,-84.5825887,17z/data=!4m5!3m4!1s0x88f56be6f31dfc41:0x8fcb09a6021b962c!8m2!3d34.050068!4d-84.5804?hl=en",
Hungry Howie's Pizza & Subs,1725 E Broad St,STATESVILLE,NC,28625,7042538020.0,"https://www.google.com/maps/place/Hungry+Howie's+Pizza/@35.79084,-80.85505,17z/data=!3m1!4b1!4m5!3m4!1s0x885159020e0494ed:0xa13a1f807accb2ac!8m2!3d35.79084!4d-80.85505",
Hungry Howie's Pizza & Subs,4501 S. Texas Ave,BRYAN,TX,77802,9796936666.0,"https://www.google.com/maps/place/Hungry+Howie's+Pizza/@30.6112988,-96.3514426,14z/data=!4m8!1m2!2m1!1sHungry+Howie's+Pizza+%26+Subs+4501+S.+Texas+Ave+BRYAN+TX+77802!3m4!1s0x864683ec6e8d3187:0xf6f9e0311cf10934!8m2!3d30.630592!4d-96.33778?hl=en",
Hungry Howie's Pizza & Subs,1475 North Main St,LOGAN,UT,84341,4359992929.0,"https://www.google.com/maps/place/Hungry+Howie's+Pizza/@41.7591571,-111.8347909,17z/data=!3m1!4b1!4m5!3m4!1s0x87547df9df72b471:0x65342e0dcea4384b!8m2!3d41.7591571!4d-111.8347909",
Hungry Howie's Pizza & Subs,3320 West Bethany Home Rd,PHOENIX,AZ,85017,4806495999.0,"https://www.google.com/maps/place/Hungry+Howies/@33.524586,-112.1311,17z/data=!3m1!4b1!4m5!3m4!1s0x872b6cb1fb8472a1:0x8c11d13994295809!8m2!3d33.524586!4d-112.1311",
Hungry Howie's Pizza & Subs,4272 North Academy Blvd,COLORADO SPRINGS,CO,80918,7192662663.0,"https://www.google.com/maps/place/Hungry+Howie's+Pizza/@38.89274,-104.757866,17z/data=!3m1!4b1!4m5!3m4!1s0x87134ff4c55d6d37:0xc10fa1d900266826!8m2!3d38.89274!4d-104.757866",
Hungry Howie's Pizza & Subs,4045 SOUTH BUFFALO RD,LAS VEGAS,NV,89147,7028322844.0,"https://www.google.com/maps/place/Hungry+Howie's+Pizza/@36.115353,-115.262405,17z/data=!3m1!4b1!4m5!3m4!1s0x80c8c736b452f497:0x312224c37707085c!8m2!3d36.115353!4d-115.262405",
Hungry Howie's Pizza & Subs,4008 HIGHWAY 17 S,NORTH MYRTLE BEACH,SC,29582,8433611300.0,"https://www.google.com/maps/place/Hungry+Howie's+Pizza/@33.803207,-78.73043,17z/data=!3m1!4b1!4m5!3m4!1s0x8900634618e18223:0x34808df575071499!8m2!3d33.803207!4d-78.73043",
Hungry Howie's Pizza & Subs,1917 W 1800 North A1,CLEARFIELD,UT,84015,3852628181.0,"https://www.google.com/maps/place/Hungry+Howie's+Pizza/@41.13934,-112.063416,17z/data=!3m1!4b1!4m5!3m4!1s0x87531bf6e2ccbecd:0xf400274c2b06e7fc!8m2!3d41.13934!4d-112.063416",
Hungry Howie's Pizza & Subs,10300 Rodney Parkham Rd,LITTLE ROCK,AR,72227,5015009595.0,"https://www.google.com/maps/place/Hungry+Howie's+Pizza/@34.767563,-92.38811,17z/data=!3m1!4b1!4m5!3m4!1s0x87d2a1f2ef7b03f3:0x16a2535b09a90223!8m2!3d34.767563!4d-92.38811",
Hungry Howie's Pizza & Subs,720 East Main St,LAKE BUTLER,FL,32054,3864962878.0,"https://www.google.com/maps/place/Hungry+Howie's+Pizza/@30.0231682,-82.3292063,17z/data=!3m1!4b1!4m5!3m4!1s0x88ef53d40f1d9d5f:0x2a86b36399c1b85e!8m2!3d30.0231682!4d-82.3292063",
Hungry Howie's Pizza & Subs,1215 SUNRISE PLAZA DR,CLERMONT,FL,34714,3522418448.0,"https://www.google.com/maps/place/Hungry+Howie's+Pizza/@28.3645458,-81.6802715,17z/data=!3m1!4b1!4m5!3m4!1s0x88dd7cda8236e8cb:0x97da3224d14ec699!8m2!3d28.3645458!4d-81.6802715",
