Company Name,Address 1,City,State,Zip,Phone,Google Link,Company Name Processed,Status
Johnnys New York Style Pizza,778 Hwy 96,BONAIRE,GA,31005,4789880220.0,"https://www.google.com/maps/place/Johnny's+New+York+Style+Pizza/@32.5528416,-83.6605493,17z/data=!3m1!4b1!4m5!3m4!1s0x88f3de26d280b7cd:0x82a1a2ea3af252f5!8m2!3d32.5528416!4d-83.6605493",johnnys_new_york_style_pizza,
Johnnys New York Style Pizza,608 Eagles Landing Pkwy,STOCKBRIDGE,GA,30281-5096,6782891449.0,"https://www.google.com/maps/place/Johnny's+New+York+Style+Pizza/@33.5138374,-84.2133681,17z/data=!3m1!4b1!4m5!3m4!1s0x88f45722e7bacf9f:0x82f9b04fb9942630!8m2!3d33.5138374!4d-84.2133681",johnnys_new_york_style_pizza,
Johnnys New York Style Pizza,559 Riverstone Pkwy,CANTON,GA,30114-5264,4708635099.0,"https://www.google.com/maps/place/Johnny's+New+York+Style+Pizza/@34.2453472,-84.4848816,17z/data=!3m1!4b1!4m5!3m4!1s0x88f565a945566bd3:0x180f383609bf8686!8m2!3d34.2453472!4d-84.4848816",johnnys_new_york_style_pizza,
Johnnys New York Style Pizza,550 W Crossville Rd,ROSWELL,GA,30075-7523,6788784242.0,"https://www.google.com/maps/place/Johnny's+New+York+Style+Pizza/@34.0550689,-84.3778848,17z/data=!3m1!4b1!4m5!3m4!1s0x88f57313acffca25:0x1e62348e7ba14da5!8m2!3d34.0550689!4d-84.3778848",johnnys_new_york_style_pizza,
Johnnys New York Style Pizza,49 Hosiery Mill Rd,DALLAS,GA,30157-1687,7704459500.0,"https://www.google.com/maps/place/Johnny's+New+York+Style+Pizza/@33.9559889,-84.7870745,17z/data=!3m1!4b1!4m5!3m4!1s0x88f5374c64716503:0xb41f0c36a7fa48f1!8m2!3d33.9559889!4d-84.7870745",johnnys_new_york_style_pizza,
Johnnys New York Style Pizza,2445 Salem Rd,CONYERS,GA,30013-6316,7709221000.0,"https://www.google.com/maps/place/Johnny's+New+York+Style+Pizza/@33.6239171,-83.9782435,17z/data=!3m1!4b1!4m5!3m4!1s0x88f44b1e5b474859:0xcf598aa5531f3ae1!8m2!3d33.6239171!4d-83.9782435",johnnys_new_york_style_pizza,
Johnnys New York Style Pizza,1810 Cheshire Bridge Rd NE,ATLANTA,GA,30324-4924,4048748304.0,"https://www.google.com/maps/place/Johnny's+New+York+Style+Pizza/@33.8090901,-84.3635676,17z/data=!3m1!4b1!4m5!3m4!1s0x88f505d1ea8a6ef3:0x491ebbf2c819eaae!8m2!3d33.8090901!4d-84.3635676",johnnys_new_york_style_pizza,
Johnnys New York Style Pizza,1670 S Highway 27,CARROLLTON,GA,30117-6944,7708305955.0,"https://www.google.com/maps/place/Johnny's+New+York+Style+Pizza/@33.5448476,-85.0733177,17z/data=!3m1!4b1!4m5!3m4!1s0x888b28b1cafcca3d:0x4123309a64835ee9!8m2!3d33.5448476!4d-85.0733177",johnnys_new_york_style_pizza,
Johnnys New York Style Pizza,1635 Old 41 Hwy NW,KENNESAW,GA,30152-4480,6789960911.0,"https://www.google.com/maps/place/Johnny's+New+York+Style+Pizza/@33.9929882,-84.5994153,17z/data=!3m1!4b1!4m5!3m4!1s0x88f51576dc4e6261:0x133603b67e555611!8m2!3d33.9929882!4d-84.5994153",johnnys_new_york_style_pizza,
Johnnys New York Style Pizza,1435 Highlands Ridge Rd SE,SMYRNA,GA,30082-4872,7704310600.0,"https://www.google.com/maps/place/Johnny's+New+York+Style+Pizza/@33.8401637,-84.5188549,17z/data=!3m1!4b1!4m5!3m4!1s0x88f51a1cf01fd53f:0x96efe85a8d925377!8m2!3d33.8401637!4d-84.5188549",johnnys_new_york_style_pizza,
Johnnys New York Style Pizza,1105 Parkside Ln,WOODSTOCK,GA,30189-5381,7709289494.0,"https://www.google.com/maps/place/Johnny's+New+York+Style+Pizza/@34.1081672,-84.5533927,17z/data=!3m1!4b1!4m5!3m4!1s0x88f56bc5a11c8a71:0x66b6f60f8fad62b7!8m2!3d34.1081672!4d-84.5533927",johnnys_new_york_style_pizza,
Johnnys New York Style Pizza,1040 Gaines School Rd,ATHENS,GA,30605-6335,7063541515.0,"https://www.google.com/maps/place/Johnny's+New+York+Style+Pizza/@33.9280041,-83.3372702,17z/data=!3m1!4b1!4m5!3m4!1s0x88f66c7fc13a5f85:0xcd8df6684d40a8a6!8m2!3d33.9280041!4d-83.3372702",johnnys_new_york_style_pizza,
Johnnys New York Style Pizza,7887A Roswell Rd,SANDY SPRINGS,GA,30350-4829,7708043322.0,"https://www.google.com/maps/place/Johnny's+New+York+Style+Pizza/@33.9726872,-84.357323,17z/data=!3m1!4b1!4m5!3m4!1s0x88f50c79229931e3:0x7682ac333c72be00!8m2!3d33.9726872!4d-84.357323",johnnys_new_york_style_pizza,
Johnnys New York Style Pizza,6770 Veterans Pkwy,COLUMBUS,GA,31909-7201,7065075050.0,"https://www.google.com/maps/place/Johnny's+New+York+Style+Pizza/@32.5434781,-84.9512997,17z/data=!3m1!4b1!4m5!3m4!1s0x888ccb45e7a677a7:0x6ccbe06b7267c454!8m2!3d32.5434781!4d-84.9512997",johnnys_new_york_style_pizza,
Johnnys New York Style Pizza,3940 Cherokee St NW,KENNESAW,GA,30144-6421,6783550825.0,"https://www.google.com/maps/place/Johnny's+New+York+Style+Pizza/@34.0495173,-84.5966291,17z/data=!3m1!4b1!4m5!3m4!1s0x88f56aa5b19871b9:0xe067c668af7f5d25!8m2!3d34.0495173!4d-84.5966291",johnnys_new_york_style_pizza,
Johnnys New York Style Pizza,3718 Dallas Hwy SW,MARIETTA,GA,30064-5982,7704258333.0,"https://www.google.com/maps/place/Johnny's+New+York+Style+Pizza/@33.9534476,-84.6611741,17z/data=!3m1!4b1!4m5!3m4!1s0x88f53e9c7d5385a3:0x4d6cf1ec6b3ad93d!8m2!3d33.9534476!4d-84.6611741",johnnys_new_york_style_pizza,
Johnnys New York Style Pizza,3035 Centerville Hwy,SNELLVILLE,GA,30078,7709788180.0,"https://www.google.com/maps/place/Johnny's+New+York+Style+Pizza/@33.8244712,-84.0326865,17z/data=!3m1!4b1!4m5!3m4!1s0x88f5b0a38c13f33f:0xe63d6050c5fb1bf1!8m2!3d33.8244712!4d-84.0326865",johnnys_new_york_style_pizza,
Johnnys New York Style Pizza,2911 Chapel Hill Rd,DOUGLASVILLE,GA,30135-7142,6782148486.0,"https://www.google.com/maps/place/Johnny's+New+York+Style+Pizza/@33.7256775,-84.7362178,17z/data=!3m1!4b1!4m5!3m4!1s0x88f527ab86d06f2d:0x840d7933c7aa1507!8m2!3d33.7256775!4d-84.7362178",johnnys_new_york_style_pizza,
Johnnys New York Style Pizza,233 Broad St,ROME,GA,30161-3002,7062326555.0,"https://www.google.com/maps/place/Johnny's+New+York+Style+Pizza/@34.2537064,-85.1758147,17z/data=!4m5!3m4!1s0x888aa4bea9be66d5:0x31dc04cd419d1209!8m2!3d34.253702!4d-85.173626?hl=en",johnnys_new_york_style_pizza,
Johnnys New York Style Pizza,1899 Newnan Crossing Blvd E,NEWNAN,GA,30265,7702523495.0,"https://www.google.com/maps/place/Johnny's+New+York+Style+Pizza/@33.3734502,-84.7533965,17z/data=!3m1!4b1!4m5!3m4!1s0x88f4c6355b87d95d:0xd5a8b5d92c0dc495!8m2!3d33.3734502!4d-84.7533965",johnnys_new_york_style_pizza,
Johnnys New York Style Pizza,66 Hiram Douglasville Hwy,HIRAM,GA,30141,7704390109.0,"https://www.google.com/maps/place/Johnny's+New+York+Style+Pizza/@33.89096,-84.7558394,17z/data=!3m1!4b1!4m5!3m4!1s0x88f53ae8445c7be3:0x2fd4d41a3999c467!8m2!3d33.89096!4d-84.7558394",johnnys_new_york_style_pizza,
Johnnys New York Style Pizza,2115 Market Place Blvd,CUMMING,GA,30041,6784563133.0,"https://www.google.com/maps/place/Johnny's+New+York+Style+Pizza/@34.1928259,-84.128633,17z/data=!3m1!4b1!4m5!3m4!1s0x88f585336dc125f5:0x1bdccadb3e169120!8m2!3d34.1928259!4d-84.128633",johnnys_new_york_style_pizza,
Johnnys New York Style Pizza,329 South Peterson Ave,DOUGLAS,GA,31533,9123931223.0,"https://www.google.com/maps/place/Johnny's+New+York+Style+Pizza/@31.5054699,-82.8506849,17z/data=!3m1!4b1!4m5!3m4!1s0x88f02b8e679b0f77:0xb3a4f211430b7ec!8m2!3d31.5054699!4d-82.8506849",johnnys_new_york_style_pizza,
Johnnys New York Style Pizza,744 Noah Dr,JASPER,GA,30143-8705,7062530800.0,"https://www.google.com/maps/place/Johnny's+New+York+Style+Pizza/@34.4694866,-84.4582625,17z/data=!3m1!4b1!4m5!3m4!1s0x885f88b56c2f6fc5:0x6eeb892e98199870!8m2!3d34.4694866!4d-84.4582625",johnnys_new_york_style_pizza,
Johnnys New York Style Pizza,712 3rd Ave,WEST POINT,GA,31833-1545,7066452010.0,"https://www.google.com/maps/place/Johnny's+New+York+Style+Pizza/@32.8764516,-85.1839245,17z/data=!3m1!4b1!4m5!3m4!1s0x888ca40c8043c351:0xd853a2db194e877b!8m2!3d32.8764516!4d-85.1839245",johnnys_new_york_style_pizza,
Johnnys New York Style Pizza,6124 Hickory Flat Hwy,CANTON,GA,30115-7265,7707046776.0,"https://www.google.com/maps/place/Johnny's+New+York+Style+Pizza/@34.1756383,-84.4193223,17z/data=!3m1!4b1!4m5!3m4!1s0x88f57038580442e7:0xfc3e45b6ec6e5681!8m2!3d34.1756383!4d-84.4193223",johnnys_new_york_style_pizza,
Johnnys New York Style Pizza,4880 Lower Roswell Rd,MARIETTA,GA,30068-4375,6785602228.0,"https://www.google.com/maps/place/Johnny's+New+York+Style+Pizza/@33.9653623,-84.410773,17z/data=!3m1!4b1!4m5!3m4!1s0x88f50dbbc50c35e9:0xea6441fc5b86fda5!8m2!3d33.9653623!4d-84.410773",johnnys_new_york_style_pizza,
Johnnys New York Style Pizza,4132 Atlanta Hwy,LOGANVILLE,GA,30052-5285,6786918505.0,"https://www.google.com/maps/place/Johnny's+New+York+Style+Pizza/@33.8453274,-83.9092526,17z/data=!3m1!4b1!4m5!3m4!1s0x88f5c622515edf51:0xa4abd16777fff24!8m2!3d33.8453274!4d-83.9092526",johnnys_new_york_style_pizza,
Johnnys New York Style Pizza,244 N Dixie Ave,CARTERSVILLE,GA,30120-2934,6787210520.0,"https://www.google.com/maps/place/Johnny's+New+York+Style+Pizza/@34.1736585,-84.7876439,17z/data=!3m1!4b1!4m5!3m4!1s0x88f54f6c02aaebaf:0xdd3a135ac49c303a!8m2!3d34.1736585!4d-84.7876439",johnnys_new_york_style_pizza,
Johnnys New York Style Pizza,24 Old Jackson Rd,MCDONOUGH,GA,30252-3029,7709544225.0,"https://www.google.com/maps/place/Johnny's+New+York+Style+Pizza/@33.4276666,-84.0980763,17z/data=!3m1!4b1!4m5!3m4!1s0x88f444d466119331:0x3e4bf3b57c8971ad!8m2!3d33.4276666!4d-84.0980763",johnnys_new_york_style_pizza,
Johnnys New York Style Pizza,230 Glynn St N,FAYETTEVILLE,GA,30214-1622,7704614225.0,"https://www.google.com/maps/place/Johnny's+New+York+Style+Pizza/@33.4519396,-84.4556767,17z/data=!3m1!4b1!4m5!3m4!1s0x88f4efcb9eda470d:0x90ca7f6d8681e19a!8m2!3d33.4519396!4d-84.4556767",johnnys_new_york_style_pizza,
Johnnys New York Style Pizza,2023 Grayson Hwy,GRAYSON,GA,30017-1205,7709629181.0,"https://www.google.com/maps/place/Johnny's+New+York+Style+Pizza/@33.8956155,-83.958894,17z/data=!3m1!4b1!4m5!3m4!1s0x88f5b8c1f397e485:0x39a809a4632a8762!8m2!3d33.8956155!4d-83.958894",johnnys_new_york_style_pizza,
Johnnys New York Style Pizza,1735 Nathan Dean Byp,ROCKMART,GA,30153-2021,7706847700.0,"https://www.google.com/maps/place/Johnny's+New+York+Style+Pizza/@34.0126457,-85.0317879,17z/data=!3m1!4b1!4m5!3m4!1s0x888ac9a7954b6347:0x1c1e122ad0ea6358!8m2!3d34.0126457!4d-85.0317879",johnnys_new_york_style_pizza,
Johnnys New York Style Pizza,1465 Chattahoochee Ave NW,ATLANTA,GA,30318-2801,4046038043.0,"https://www.google.com/maps/place/Johnny's+New+York+Style+Pizza/@33.8079066,-84.4345764,17z/data=!3m1!4b1!4m5!3m4!1s0x88f5052bad57b517:0xf82c7410b7f4aa11!8m2!3d33.8079066!4d-84.4345764",johnnys_new_york_style_pizza,
Johnnys New York Style Pizza,1145 Peachtree Industrial Blvd,SUWANEE,GA,30024-4054,7709321998.0,"https://www.google.com/maps/place/Johnny's+New+York+Style+Pizza/@34.0486429,-84.0950745,17z/data=!3m1!4b1!4m5!3m4!1s0x88f5978435ed9ec5:0x36aa746a0fec40bd!8m2!3d34.0486429!4d-84.0950745",johnnys_new_york_style_pizza,
Johnnys New York Style Pizza,834 Virginia Ave,HAPEVILLE,GA,30354-1943,4047663727.0,"https://www.google.com/maps/place/Johnny's+New+York+Style+Pizza/@33.6588203,-84.4161087,17z/data=!3m1!4b1!4m5!3m4!1s0x88f4fd680dd5c89d:0x92ff4649301c3de8!8m2!3d33.6588203!4d-84.4161087",johnnys_new_york_style_pizza,
Johnnys New York Style Pizza,7363 Spout Springs Rd,FLOWERY BRANCH,GA,30542-5563,7709650429.0,"https://www.google.com/maps/place/Johnny's+New+York+Style+Pizza/@34.1109722,-83.8742232,17z/data=!3m1!4b1!4m5!3m4!1s0x88f5ec693f991c17:0x923dc55268371a06!8m2!3d34.1109722!4d-83.8742232",johnnys_new_york_style_pizza,
Johnnys New York Style Pizza,720 Dacula Rd,DACULA,GA,30019-7055,6783772434.0,"https://www.google.com/maps/place/Johnny's+New+York+Style+Pizza/@34.0026938,-83.9130492,17z/data=!3m1!4b1!4m5!3m4!1s0x88f5eaa079ba1b43:0xb4076a7e653a6e7f!8m2!3d34.0026938!4d-83.9130492",johnnys_new_york_style_pizza,
Johnnys New York Style Pizza,6255 Zebulon Rd,MACON,GA,31210-8068,4784053232.0,"https://www.google.com/maps/place/Johnny's+New+York+Style+Pizza/@32.882537,-83.7670743,17z/data=!3m1!4b1!4m5!3m4!1s0x88f3f7816f0e5a61:0xabb12d09c31a3f19!8m2!3d32.882537!4d-83.7670743",johnnys_new_york_style_pizza,
Johnnys New York Style Pizza,5495 Cascade Rd SW,ATLANTA,GA,30331-7359,6789730634.0,"https://www.google.com/maps/place/Johnny's+New+York+Style+Pizza/@33.731656,-84.5670158,17z/data=!3m1!4b1!4m5!3m4!1s0x88f51efafa26bbe1:0x3de1083c1f2936ba!8m2!3d33.731656!4d-84.5670158",johnnys_new_york_style_pizza,
Johnnys New York Style Pizza,494 Crosstown Dr,PEACHTREE CITY,GA,30269-2915,7704865480.0,"https://www.google.com/maps/place/Johnny's+New+York+Style+Pizza/@33.377477,-84.5608118,17z/data=!3m1!4b1!4m5!3m4!1s0x88f4ebb2452b92d7:0x94decac2e5602d1d!8m2!3d33.377477!4d-84.5608118",johnnys_new_york_style_pizza,
Johnnys New York Style Pizza,355 Quill Dr,DAWSONVILLE,GA,30534-6537,7062161224.0,"https://www.google.com/maps/place/Johnny's+New+York+Style+Pizza/@34.3490336,-84.0475255,17z/data=!3m1!4b1!4m5!3m4!1s0x88f589c5ea2f5261:0x72c30ada47365925!8m2!3d34.3490336!4d-84.0475255",johnnys_new_york_style_pizza,
Johnnys New York Style Pizza,3490 Keith Bridge Rd,CUMMING,GA,30041-5546,6789474260.0,"https://www.google.com/maps/place/Johnny's+New+York+Style+Pizza/@34.2573931,-84.0715055,17z/data=!3m1!4b1!4m5!3m4!1s0x88f58f3c9952aafd:0x41dcb4509ee2224e!8m2!3d34.2573931!4d-84.0715055",johnnys_new_york_style_pizza,
Johnnys New York Style Pizza,3451 Cobb Pkwy NW,ACWORTH,GA,30101-5766,7705295300.0,"https://www.google.com/maps/place/Johnny's+New+York+Style+Pizza/@34.0377704,-84.6907924,17z/data=!3m1!4b1!4m5!3m4!1s0x88f538aabe1a0423:0xa9caff4e44d5409d!8m2!3d34.0377704!4d-84.6907924",johnnys_new_york_style_pizza,
Johnnys New York Style Pizza,3157 Sugarloaf Pkwy,LAWRENCEVILLE,GA,30045-9490,6789858288.0,"https://www.google.com/maps/place/Johnny's+New+York+Style+Pizza/@33.9211375,-84.0103622,17z/data=!3m1!4b1!4m5!3m4!1s0x88f5beac8c788a79:0x46566a7ea4e60eb3!8m2!3d33.9211375!4d-84.0103622",johnnys_new_york_style_pizza,
Johnnys New York Style Pizza,2970 Canton Rd,MARIETTA,GA,30066,6787970505.0,"https://www.google.com/maps/place/Johnny's+New+York+Style+Pizza/@34.0231168,-84.5274618,17z/data=!3m1!4b1!4m5!3m4!1s0x88f514a8d4bc7d53:0xe68f0a9dd6a092f7!8m2!3d34.0231168!4d-84.5274618",johnnys_new_york_style_pizza,
Johnnys New York Style Pizza,2301 Bellevue Rd,DUBLIN,GA,31021-2554,4782728966.0,"https://www.google.com/maps/place/Johnny's+New+York+Style+Pizza/@32.5293705,-82.9429568,17z/data=!3m1!4b1!4m5!3m4!1s0x88f1202fda6fcbed:0xcd4b160281817087!8m2!3d32.5293705!4d-82.9429568",johnnys_new_york_style_pizza,
Johnnys New York Style Pizza,2000 Mirror Lake Blvd,VILLA RICA,GA,30180-2124,6788405111.0,"https://www.google.com/maps/place/Johnny's+New+York+Style+Pizza/@33.7339864,-84.8999856,17z/data=!3m1!4b1!4m5!3m4!1s0x88f52aff82f0c37d:0x649a98a9b34c0eef!8m2!3d33.7339864!4d-84.8999856",johnnys_new_york_style_pizza,
Johnnys New York Style Pizza,1050 Richard D Sailors Pkwy,POWDER SPRINGS,GA,30127-5228,6784836186.0,"https://www.google.com/maps/place/Johnny's+New+York+Style+Pizza/@33.8648171,-84.6803342,17z/data=!3m1!4b1!4m5!3m4!1s0x88f53cadecc10f59:0xe20cf9a85a4b9d69!8m2!3d33.8648171!4d-84.6803342",johnnys_new_york_style_pizza,
Johnnys New York Style Pizza,10176 Carlin Dr,COVINGTON,GA,30014-3603,6783424343.0,"https://www.google.com/maps/place/Johnny's+New+York+Style+Pizza/@33.5703385,-83.8519702,17z/data=!3m1!4b1!4m5!3m4!1s0x88f4340957c3c1d3:0x45385886a83a486f!8m2!3d33.5703385!4d-83.8519702",johnnys_new_york_style_pizza,
