Company Name,Address 1,City,State,Zip,Phone,Google Link,Status
Little Caesar's,100 Highway 11 N,POPLARVILLE,MS,39470,6013855100.0,"https://www.google.com/maps/place/Little+Caesars+Pizza/@30.843391,-89.541449,17z/data=!3m1!4b1!4m5!3m4!1s0x889da9541ee93cbb:0x90a2fe7aa753007d!8m2!3d30.843391!4d-89.541449",
Little Caesar's,10469 Dunbarton Blvd,BARNWELL,SC,29812,8036212515.0,"https://www.google.com/maps/place/Little+Caesars+Pizza/@33.242999,-81.375655,17z/data=!3m1!4b1!4m5!3m4!1s0x88f90f61c666b0d7:0x8cb44c668f411af0!8m2!3d33.242999!4d-81.375655",
Little Caesar's,1656 Bruckner Blvd,BRONX,NY,10473,9174718165.0,"https://www.google.com/maps/place/Little+Caesars+Pizza/@40.823657,-73.873688,17z/data=!3m1!4b1!4m5!3m4!1s0x89c2f5cca82c997f:0x9a3f42701980a11a!8m2!3d40.823657!4d-73.873688",
Little Caesar's,245 Ga Highway 49 N,BYRON,GA,31008,4789561779.0,"https://www.google.com/maps/place/Little+Caesars+Pizza/@32.658626,-83.746475,17z/data=!3m1!4b1!4m5!3m4!1s0x88f3e8f220ebe171:0x894eefd0867db6f7!8m2!3d32.658626!4d-83.746475",
Little Caesar's,535 Military St S,HAMILTON,AL,35570,2054302160.0,"https://www.google.com/maps/place/Little+Caesars+Pizza/@34.136721,-87.990021,17z/data=!3m1!4b1!4m5!3m4!1s0x8887bd61d5000001:0x3a4689f2b91b009f!8m2!3d34.136721!4d-87.990021",
Little Caesar's,5493 Monument Point Rd,EGG HARBOR,WI,54209,9207431700.0,"https://www.google.com/maps/place/Little+Caesars+Pizza/@44.965323,-87.335853,17z/data=!3m1!4b1!4m5!3m4!1s0x881d5946b79b930f:0x73759a6f82d657aa!8m2!3d44.965323!4d-87.335853",
Little Caesar's,5850 Silver Hill Rd,DISTRICT HEIGHTS,MD,20747,3014568607.0,"https://www.google.com/maps/place/Little+Caesars+Pizza/@38.8570037,-76.9064448,17z/data=!3m1!4b1!4m5!3m4!1s0x89b7bec5e402d789:0xf80eee33c88f2ba5!8m2!3d38.8570037!4d-76.9064448",
Little Caesar's,750 West Walnut St,WATSEKA,IL,60970,8157851052.0,"https://www.google.com/maps/place/Little+Caesars+Pizza/@40.779882,-87.744595,17z/data=!3m1!4b1!4m5!3m4!1s0x880d9140b6c0baa5:0x15ebbc47c3409ea8!8m2!3d40.779882!4d-87.744595",
Little Caesar's,1400 South Broadway,OAK GROVE,MO,64075,8166251581.0,"https://www.google.com/maps/place/Little+Caesars+Pizza/@39.0024119,-94.1299229,17z/data=!3m1!4b1!4m5!3m4!1s0x87c113d7c8037097:0xc75c6a2d2ee63f5b!8m2!3d39.0024119!4d-94.1299229",
Little Caesar's,2010 South Main St,FARMVILLE,VA,23901,4343942233.0,"https://www.google.com/maps/place/Little+Caesars+Pizza/@37.273161,-78.401643,17z/data=!3m1!4b1!4m5!3m4!1s0x89b24f238bfbb78d:0x2514d15c544e8a1b!8m2!3d37.273161!4d-78.401643",
Little Caesar's,2708 Pine St,ARKADELPHIA,AR,71923,8704641559.0,"https://www.google.com/maps/place/Little+Caesars+Pizza/@34.122958,-93.082009,17z/data=!3m1!4b1!4m5!3m4!1s0x8632dfe68994fe15:0x296c3d0d5c1caa9d!8m2!3d34.122958!4d-93.082009",
Little Caesar's,305 Navajo Blvd,HOLBROOK,AZ,86025,9285241200.0,"https://www.google.com/maps/place/Little+Caesars+Pizza/@34.903076,-110.158524,17z/data=!3m1!4b1!4m5!3m4!1s0x872fa8175622c2e1:0x28f09ef08fee21e6!8m2!3d34.903076!4d-110.158524",
Little Caesar's,5623 Garth Rd,BAYTOWN,TX,77521,2816284606.0,"https://www.google.com/maps/place/Little+Caesars+Pizza/@29.7842358,-94.979434,17z/data=!3m1!4b1!4m5!3m4!1s0x863f5f96baa5568b:0x4a03ded9da99c405!8m2!3d29.7842358!4d-94.979434",
Little Caesar's,940 Frontenac Dr,WINONA,MN,55987,5074744679.0,"https://www.google.com/maps/place/Little+Caesars+Pizza/@44.0355855,-91.6191531,17z/data=!3m1!4b1!4m5!3m4!1s0x87f96de8e9d87955:0xad7e3781a6cdc9dd!8m2!3d44.0355855!4d-91.6191531",
Little Caesar's,1111 North Quincy Ave,OTTUMWA,IA,52501,6418149998.0,"https://www.google.com/maps/place/Little+Caesars+Pizza/@41.016889,-92.439885,17z/data=!3m1!4b1!4m5!3m4!1s0x87e61d620f71d01b:0xc86d96b3b59e590b!8m2!3d41.016889!4d-92.439885",
Little Caesar's,1932 South Seguin Ave,NEW BRAUNFELS,TX,78130,8308375499.0,"https://www.google.com/maps/place/Little+Caesars+Pizza/@29.678011,-98.106628,17z/data=!3m1!4b1!4m5!3m4!1s0x865cbdded6ecb6f1:0x729f142b24ab67c9!8m2!3d29.678011!4d-98.106628",
Little Caesar's,2508 Wilbert Ct,BROOKINGS,SD,57006,6056927667.0,"https://www.google.com/maps/place/Little+Caesars+Pizza/@44.315571,-96.761975,17z/data=!3m1!4b1!4m5!3m4!1s0x8789a288ef0e24e3:0x1a716113a370e158!8m2!3d44.315571!4d-96.761975",
Little Caesar's,303 West Van Buren St,CLINTON,IL,61727,2178140045.0,"https://www.google.com/maps/place/Little+Caesars+Pizza/@40.1484898,-88.9634203,17z/data=!3m1!4b1!4m5!3m4!1s0x880b45f132b7d9f5:0xb3cde0b3904e194c!8m2!3d40.1484898!4d-88.9634203",
Little Caesar's,4511 College Ave,SNYDER,TX,79549,3252071751.0,"https://www.google.com/maps/place/Little+Caesars+Pizza/@32.695919,-100.9197158,17z/data=!3m1!4b1!4m5!3m4!1s0x86ff49b0ad28423b:0x7dc6dd09fe7bb912!8m2!3d32.695919!4d-100.9197158",
Little Caesar's,915 West Beale St,KINGMAN,AZ,86401,9287180088.0,"https://www.google.com/maps/place/Little+Caesars+Pizza/@35.1920414,-114.0715287,17z/data=!4m5!3m4!1s0x80cddf40bb330d49:0x197dff8bb84dccff!8m2!3d35.192037!4d-114.06934?hl=en",
Little Caesar's,1480 West Winnemucca Blvd,WINNEMUCCA,NV,89445,7754328306.0,"https://www.google.com/maps/place/Little+Caesars+Pizza/@40.963733,-117.74502,17z/data=!3m1!4b1!4m5!3m4!1s0x80a0fd5f8baabde3:0xf01ed24c18fec069!8m2!3d40.963733!4d-117.74502",
Little Caesar's,3304 Gallatin Pike Rd,NASHVILLE,TN,37216,6157605881.0,"https://www.google.com/maps/place/Little+Caesars+Pizza/@36.2090718,-86.7338384,17z/data=!3m1!4b1!4m5!3m4!1s0x886468050d772b69:0x129eb19f7f258868!8m2!3d36.2090718!4d-86.7338384",
Little Caesar's,51 South 8Th St,HILBERT,WI,54129,9208533974.0,"https://www.google.com/maps/place/Little+Caesars+Pizza/@44.138907,-88.165019,17z/data=!3m1!4b1!4m5!3m4!1s0x88030bee52c94755:0xf67b59d05d4068b!8m2!3d44.138907!4d-88.165019",
Little Caesar's,7547 Highway 711,PEMBROKE,NC,28372,9105221328.0,"https://www.google.com/maps/place/Little+Caesars+Pizza/@34.6666515,-79.1751059,17z/data=!3m1!4b1!4m5!3m4!1s0x89aad93421633e27:0x6f8955871f3cb5a4!8m2!3d34.6666515!4d-79.1751059",
Little Caesar's,832 South Main St,DAYTON,OH,45458,9379791010.0,"https://www.google.com/maps/place/Little+Caesars+Pizza/@39.615975,-84.159435,17z/data=!3m1!4b1!4m5!3m4!1s0x88408f431cc0f415:0x584fa921dda2c89!8m2!3d39.615975!4d-84.159435",
