Company Name,Address 1,City,State,Zip,Phone,Google Link,Status
Lou Malnatis Pizzeria,502 Northwest Hwy,CARY,IL,60013-2995,2248369100.0,"https://www.google.com/maps/place/Lou+Malnati's+Pizzeria/@42.21526,-88.2519179,17z/data=!3m1!4b1!4m5!3m4!1s0x880f0b1a124c0cd1:0xd52f79ef39b24c3e!8m2!3d42.21526!4d-88.2519179",
Lou Malnatis Pizzeria,439 N Wells St,CHICAGO,IL,60654-4512,3128289800.0,"https://www.google.com/maps/place/Lou+Malnati's+Pizzeria/@41.8903416,-87.6337174,17z/data=!3m1!4b1!4m5!3m4!1s0x880e2cb6a8034a35:0x75dbc9bf82f2c81b!8m2!3d41.8903416!4d-87.6337174",
Lou Malnatis Pizzeria,1048 Commons Dr,GENEVA,IL,60134-2539,6302081600.0,"https://www.google.com/maps/place/Lou+Malnati's+Pizzeria+-+Carry+Out/@41.8955852,-88.3413263,17z/data=!3m1!4b1!4m5!3m4!1s0x880ee2bda701fc89:0x7f8cca2b3ae226cc!8m2!3d41.8955852!4d-88.3413263",
Lou Malnatis Pizzeria,2848 US 34,OSWEGO,IL,60543,6306082567.0,"https://www.google.com/maps/place/Lou+Malnati's+Pizzeria+-+Carry+Out/@41.6973104,-88.3188222,17z/data=!3m1!4b1!4m5!3m4!1s0x880ef1da04fb05d1:0x17144699f9d12cde!8m2!3d41.6973104!4d-88.3188222",
Lou Malnatis Pizzeria,259 S Weber Rd,BOLINGBROOK,IL,60490-1510,6306790099.0,"https://www.google.com/maps/place/Lou+Malnati's+Pizzeria+-+Carry+Out/@41.6909209,-88.1265421,17z/data=!3m1!4b1!4m5!3m4!1s0x880e591c2eae08f9:0x279c03a0eb3f4f9c!8m2!3d41.6909209!4d-88.1265421",
Lou Malnatis Pizzeria,12801 S Harlem Ave,PALOS HEIGHTS,IL,60463-2186,7086082400.0,"https://www.google.com/maps/place/Lou+Malnati's+Pizzeria+-+Carry+Out/@41.659033,-87.795688,17z/data=!3m1!4b1!4m5!3m4!1s0x880e3eb55bdaf72b:0x581bb4f00c59f80f!8m2!3d41.659033!4d-87.795688",
Lou Malnatis Pizzeria,6456 S Cicero Ave,CHICAGO,IL,60638-5816,7732379900.0,"https://www.google.com/maps/place/Lou+Malnati's+Pizzeria/@41.774966,-87.742635,17z/data=!3m1!4b1!4m5!3m4!1s0x880e30fc3b774a1b:0xd59eb03a0dac17f!8m2!3d41.774966!4d-87.742635",
Lou Malnatis Pizzeria,3859 W Ogden Ave,CHICAGO,IL,60623-2459,7737620800.0,"https://www.google.com/maps/place/Lou+Malnati's+Pizzeria/@41.8529375,-87.7245526,15z/data=!3m1!5s0x880e325c08585517:0x2bb36b02c7d69c8!4m8!1m2!2m1!1sLou+Malnatis+Pizzeria+3859+W+Ogden+Ave+CHICAGO+IL+60623-2459!3m4!1s0x880e325c08673e4b:0xf33af8f75b02502d!8m2!3d41.851735!4d-87.722011?hl=en",
Lou Malnatis Pizzeria,1528 Route 59,JOLIET,IL,60435,8152546200.0,"https://www.google.com/maps/place/Lou+Malnati's+Pizzeria+-+Carry+Out/@41.5493274,-88.1990615,17z/data=!3m1!4b1!4m5!3m4!1s0x880e8a50e6ec2bc3:0xb438d76eafa39837!8m2!3d41.5493274!4d-88.1990615",
Lou Malnatis Pizzeria,2510 E Lincoln Hwy,NEW LENOX,IL,60451-9712,8159007450.0,"https://www.google.com/maps/place/Lou+Malnati's+Pizzeria+-+Carry+Out/@41.50781,-87.9173354,17z/data=!3m1!4b1!4m5!3m4!1s0x880e6bf38b9251af:0xe5851dfbb23bbbac!8m2!3d41.50781!4d-87.9173354",
Lou Malnatis Pizzeria,34500 N US Highway 45,THIRD LAKE,IL,60030-4041,8472315550.0,"https://www.google.com/maps/place/Lou+Malnati's+Pizzeria+-+Carry+Out/@42.3641111,-88.0000383,17z/data=!3m1!4b1!4m5!3m4!1s0x880f9012406f914f:0x8b459f642ebfd802!8m2!3d42.3641111!4d-88.0000383",
Lou Malnatis Pizzeria,3223 Lake Ave,WILMETTE,IL,60091-1069,8472565780.0,"https://www.google.com/maps/place/Lou+Malnati's+Pizzeria+-+Carry+Out/@42.0788938,-87.7560508,17z/data=!3m1!4b1!4m5!3m4!1s0x880fc5bf13a99205:0x960e713252d97b57!8m2!3d42.0788938!4d-87.7560508",
Lou Malnatis Pizzeria,840 S Waukegan Rd,LAKE FOREST,IL,60045-2608,8477351515.0,"https://www.google.com/maps/place/Lou+Malnati's+Pizzeria+-+Carry+Out/@42.2247197,-87.8744532,17z/data=!3m1!4b1!4m5!3m4!1s0x880f955d7b35d2fd:0xe8cde075634387d3!8m2!3d42.2247197!4d-87.8744532",
Lou Malnatis Pizzeria,1 S Roselle Rd,SCHAUMBURG,IL,60193-1638,8479851525.0,"https://www.google.com/maps/place/Lou+Malnati's+Pizzeria/@42.0269517,-88.0795798,17z/data=!3m1!4b1!4m5!3m4!1s0x880faf260faa0347:0xf179b8bac44aa3ba!8m2!3d42.0269517!4d-88.0795798",
Lou Malnatis Pizzeria,1120 N State St,CHICAGO,IL,60610-2718,3127257777.0,"https://www.google.com/maps/place/Lou+Malnati's+Pizzeria/@41.9026225,-87.6285973,17z/data=!3m1!4b1!4m5!3m4!1s0x880fd34e2ac0f553:0x4640944bf7f9b098!8m2!3d41.9026225!4d-87.6285973",
Lou Malnatis Pizzeria,343 E Geneva Rd,CAROL STREAM,IL,60188-2438,6306687200.0,"https://www.google.com/maps/place/Lou+Malnati's+Pizzeria+-+Carry+Out/@41.8884989,-88.1111413,17z/data=!3m1!4b1!4m5!3m4!1s0x880e54bc6188204d:0x4750505205c52f27!8m2!3d41.8884989!4d-88.1111413",
Lou Malnatis Pizzeria,2879 95th St,NAPERVILLE,IL,60564-9007,6309044222.0,"https://www.google.com/maps/place/Lou+Malnati's+Pizzeria+-+Carry+Out/@41.710332,-88.203296,17z/data=!3m1!4b1!4m5!3m4!1s0x880ef7ac5d2c3433:0xa144592db914ded0!8m2!3d41.710332!4d-88.203296",
Lou Malnatis Pizzeria,14150 S Bell Rd,HOMER GLEN,IL,60491-8465,7085800300.0,"https://www.google.com/maps/place/Lou+Malnati's+Pizzeria+-+Carry+Out/@41.6315334,-87.9325877,17z/data=!3m1!4b1!4m5!3m4!1s0x880e417d43734fc3:0xcb7452e97b8f9ccc!8m2!3d41.6315334!4d-87.9325877",
Lou Malnatis Pizzeria,7125 W Gunnison St,HARWOOD HEIGHTS,IL,60706-3830,7086673500.0,"https://www.google.com/maps/place/Lou+Malnati's+Pizzeria+-+Carry+Out/@41.9677932,-87.8046568,17z/data=!3m1!4b1!4m5!3m4!1s0x880fcbc5722dec4b:0xc70475ad9ca32f3c!8m2!3d41.9677932!4d-87.8046568",
Lou Malnatis Pizzeria,1850 Sherman Ave,EVANSTON,IL,60201-3795,8473285400.0,"https://www.google.com/maps/place/Lou+Malnati's+Pizzeria/@42.0514654,-87.6820016,17z/data=!3m1!4b1!4m5!3m4!1s0x880fd00bc4a0a033:0xfbce9d7a90dee838!8m2!3d42.0514654!4d-87.6820016",
Lou Malnatis Pizzeria,1225 S Rand Rd,LAKE ZURICH,IL,60047-2960,8475508800.0,"https://www.google.com/maps/place/Lou+Malnati's+Pizzeria+-+Carry+Out/@42.1767652,-88.0765744,17z/data=!3m1!4b1!4m5!3m4!1s0x880fa3cc197deddb:0x33bea2d1bdffd5c9!8m2!3d42.1767652!4d-88.0765744",
Lou Malnatis Pizzeria,1720 North Orchard Rd,AURORA,IL,60506,6305818550.0,"https://www.google.com/maps/place/Lou+Malnati's+Pizzeria+-+Carry+Out/@41.7907255,-88.3762643,17z/data=!3m1!4b1!4m5!3m4!1s0x880ee5b151a6dc7d:0xbcee9aeb2b2a8d6c!8m2!3d41.7907255!4d-88.3762643",
Lou Malnatis Pizzeria,440 75th St,DOWNERS GROVE,IL,60516-4454,6302412400.0,"https://www.google.com/maps/place/Lou+Malnati's+Pizzeria+-+Carry+Out/@41.7525847,-87.9953843,17z/data=!3m1!4b1!4m5!3m4!1s0x880e4ff2590e16d5:0x79225e2565460f6e!8m2!3d41.7525847!4d-87.9953843",
Lou Malnatis Pizzeria,4700 Gilbert Ave,WESTERN SPRINGS,IL,60558-1753,7082463400.0,"https://www.google.com/maps/place/Lou+Malnati's+Pizzeria+-+Carry+Out/@41.8033893,-87.8902713,17z/data=!3m1!4b1!4m5!3m4!1s0x880e49992802baa7:0x5e194a8eda4393fb!8m2!3d41.8033893!4d-87.8902713",
Lou Malnatis Pizzeria,3315 Vollmer Rd,FLOSSMOOR,IL,60422-2003,7084166300.0,"https://www.google.com/maps/place/Lou+Malnati's+Pizzeria+-+Carry+Out/@41.5285999,-87.6969721,17z/data=!3m1!4b1!4m5!3m4!1s0x880e19d81c57c97d:0x50172db7089d46cd!8m2!3d41.5285999!4d-87.6969721",
Lou Malnatis Pizzeria,5261 W 95th St,OAK LAWN,IL,60453-2450,7084252600.0,"https://www.google.com/maps/place/Lou+Malnati's+Pizzeria+-+Carry+Out/@41.7196097,-87.7523882,17z/data=!3m1!4b1!4m5!3m4!1s0x880e3a6a14ec2e2b:0xf879fa1eb5151e8d!8m2!3d41.7196097!4d-87.7523882",
Lou Malnatis Pizzeria,3986 N Avondale Ave,CHICAGO,IL,60641,7732708330.0,"https://www.google.com/maps/place/Lou+Malnati's+Pizzeria+-+Carry+Out/@41.9533552,-87.7320259,17z/data=!3m1!4b1!4m5!3m4!1s0x880fcdb4275fd479:0x1f8b49cc0821d844!8m2!3d41.9533552!4d-87.7320259",
Lou Malnatis Pizzeria,1520 N Damen Ave,CHICAGO,IL,60622-1967,7733952400.0,"https://www.google.com/maps/place/Lou+Malnati's+Pizzeria+-+Carry+Out/@41.9090324,-87.6777701,17z/data=!3m1!4b1!4m5!3m4!1s0x880e2d45e5f0d1d7:0x806a2d81a0336963!8m2!3d41.9090324!4d-87.6777701",
Lou Malnatis Pizzeria,958 W Wrightwood Ave,CHICAGO,IL,60614-2317,7738324030.0,"https://www.google.com/maps/place/Lou+Malnati's+Pizzeria/@41.9291798,-87.6535523,17z/data=!3m1!4b1!4m5!3m4!1s0x880fd3038c6c77a9:0x429c82af4620827a!8m2!3d41.9291798!4d-87.6535523",
Lou Malnatis Pizzeria,8515 Redtail Dr,VILLAGE OF LAKEWOOD,IL,60014-3356,8154778100.0,"https://www.google.com/maps/place/Lou+Malnati's+Pizzeria/@42.2056688,-88.373744,17z/data=!3m1!4b1!4m5!3m4!1s0x880f13301a1d962f:0xb8775a9ebe18bd91!8m2!3d42.2056688!4d-88.373744",
Lou Malnatis Pizzeria,1890 1st St,HIGHLAND PARK,IL,60035-3102,8472669000.0,"https://www.google.com/maps/place/Lou+Malnati's+Pizzeria+-+Carry+Out/@42.186709,-87.800569,17z/data=!3m1!4b1!4m5!3m4!1s0x880fc1bca24b9245:0xa46689e484af7448!8m2!3d42.186709!4d-87.800569",
Lou Malnatis Pizzeria,1326 Shermer Rd,NORTHBROOK,IL,60062-4537,8472910250.0,"https://www.google.com/maps/place/Lou+Malnati's+Pizzeria+-+Carry+Out/@42.1290358,-87.8267447,17z/data=!3m1!4b1!4m5!3m4!1s0x880fc73036f4c5df:0x1f589773badc73a2!8m2!3d42.1290358!4d-87.8267447",
Lou Malnatis Pizzeria,1050 E Higgins Rd,ELK GROVE VILLAGE,IL,60007-1506,8474392000.0,"https://www.google.com/maps/place/Lou+Malnati's+Pizzeria/@42.0268954,-87.9711318,17z/data=!3m1!4b1!4m5!3m4!1s0x880faf0ae4dce981:0xedecab812dbf7296!8m2!3d42.0268954!4d-87.9711318",
Lou Malnatis Pizzeria,357 S Barrington Rd,SCHAUMBURG,IL,60193-5345,8475241900.0,"https://www.google.com/maps/place/Lou+Malnati's+Pizzeria+-+Carry+Out/@42.0185489,-88.1438064,17z/data=!3m1!4b1!4m5!3m4!1s0x880fa9b412e33d15:0x3295284a936a0f89!8m2!3d42.0185489!4d-88.1438064",
Lou Malnatis Pizzeria,1504 N Elmhurst Rd,MOUNT PROSPECT,IL,60056-1011,8475901900.0,"https://www.google.com/maps/place/Lou+Malnati's+Pizzeria+-+Carry+Out/@42.094584,-87.937437,17z/data=!3m1!4b1!4m5!3m4!1s0x880fba264150fb71:0x7de1195cccf5b913!8m2!3d42.094584!4d-87.937437",
Lou Malnatis Pizzeria,6649 N Lincoln Ave,LINCOLNWOOD,IL,60712-3605,8476730800.0,"https://www.google.com/maps/place/Lou+Malnati's+Pizzeria/@42.002147,-87.7255476,17z/data=!3m1!4b1!4m5!3m4!1s0x880fce44914c03cf:0xa50afe29a2d36651!8m2!3d42.002147!4d-87.7255476",
Lou Malnatis Pizzeria,903 S Randall Rd,ELGIN,IL,60123-3004,8477606500.0,"https://www.google.com/maps/place/Lou+Malnati's+Pizzeria+-+Carry+Out/@42.0074816,-88.3351093,17z/data=!3m1!4b1!4m5!3m4!1s0x880f1b386290776d:0x4ebd2d3ecc99d270!8m2!3d42.0074816!4d-88.3351093",
Lou Malnatis Pizzeria,287 N Northwest Hwy,PALATINE,IL,60067-5326,8479630800.0,"https://www.google.com/maps/place/Lou+Malnati's+Pizzeria+-+Carry+Out/@42.1163411,-88.0333413,17z/data=!3m1!4b1!4m5!3m4!1s0x880fa4ea32cd2913:0x343444e3510403f6!8m2!3d42.1163411!4d-88.0333413",
Lou Malnatis Pizzeria,1235 W Randolph St,CHICAGO,IL,60607-1517,3122434000.0,"https://www.google.com/maps/place/Lou+Malnati's+Pizzeria/@41.8839514,-87.6580375,17z/data=!3m1!4b1!4m5!3m4!1s0x880e2cd8787a1969:0x24b45c2b8d6ec97f!8m2!3d41.8839514!4d-87.6580375",
Lou Malnatis Pizzeria,805 S State St,CHICAGO,IL,60605-2225,3127861000.0,"https://www.google.com/maps/place/Lou+Malnati's+Pizzeria/@41.8715611,-87.6272861,17z/data=!3m1!4b1!4m5!3m4!1s0x880e2c99f4fba789:0x3391da854435bd98!8m2!3d41.8715611!4d-87.6272861",
Lou Malnatis Pizzeria,110 W Park Ave,ELMHURST,IL,60126-6201,6305160800.0,"https://www.google.com/maps/place/Lou+Malnati's+Pizzeria+-+Carry+Out/@41.8992697,-87.9405455,17z/data=!3m1!4b1!4m5!3m4!1s0x880e4cacfc72bd0b:0xa4960c8d6c19f9b5!8m2!3d41.8992697!4d-87.9405455",
Lou Malnatis Pizzeria,369 W Army Trail Rd,BLOOMINGDALE,IL,60108-2358,6305829600.0,"https://www.google.com/maps/place/Lou+Malnati's+Pizzeria+-+Carry+Out/@41.9400389,-88.1118912,17z/data=!3m1!4b1!4m5!3m4!1s0x880fab0bf2e0a05b:0x600343dc43eea216!8m2!3d41.9400389!4d-88.1118912",
Lou Malnatis Pizzeria,131 W Jefferson Ave,NAPERVILLE,IL,60540-4682,6307170700.0,"https://www.google.com/maps/place/Lou+Malnati's+Pizzeria/@41.7731813,-88.1508409,17z/data=!3m1!4b1!4m5!3m4!1s0x880e57c7a99760eb:0xdae450f9c3f9b60e!8m2!3d41.7731813!4d-88.1508409",
Lou Malnatis Pizzeria,1038 Lake St,OAK PARK,IL,60301-1102,7083580800.0,"https://www.google.com/maps/place/Lou+Malnati's+Pizzeria/@41.8887625,-87.8020363,17z/data=!3m1!4b1!4m5!3m4!1s0x880e34c5f88b3b29:0xd2706077b4457336!8m2!3d41.8887625!4d-87.8020363",
Lou Malnatis Pizzeria,9501 171st St,TINLEY PARK,IL,60487-6110,7084039700.0,"https://www.google.com/maps/place/Lou+Malnati's+Pizzeria/@41.5785925,-87.8496499,17z/data=!3m1!4b1!4m5!3m4!1s0x880e15568a7de237:0x422e9d53762ad268!8m2!3d41.5785925!4d-87.8496499",
Lou Malnatis Pizzeria,4340 N Lincoln Ave,CHICAGO,IL,60618-1712,7736544000.0,"https://www.google.com/maps/place/Lou+Malnati's+Pizzeria/@41.9606724,-87.6836008,17z/data=!3m1!4b1!4m5!3m4!1s0x880fd213e481b2a3:0x7d7aab2c4219c561!8m2!3d41.9606724!4d-87.6836008",
Lou Malnatis Pizzeria,85 S Buffalo Grove Rd,BUFFALO GROVE,IL,60089-2104,8472157100.0,"https://www.google.com/maps/place/Lou+Malnati's+Pizzeria/@42.1528236,-87.9605513,17z/data=!3m1!4b1!4m5!3m4!1s0x880fbc6f1a35495f:0xca19b2e5290741bd!8m2!3d42.1528236!4d-87.9605513",
Lou Malnatis Pizzeria,650 N Northwest Hwy,PARK RIDGE,IL,60068-2554,8472922277.0,"https://www.google.com/maps/place/Lou+Malnati's+Pizzeria+-+Carry+Out/@42.0189499,-87.843055,17z/data=!3m1!4b1!4m5!3m4!1s0x880fc83324098d91:0x325620a73326706!8m2!3d42.0189499!4d-87.843055",
Lou Malnatis Pizzeria,1436 S Milwaukee Ave,LIBERTYVILLE,IL,60048-3796,8473626070.0,"https://www.google.com/maps/place/Lou+Malnati's+Pizzeria+-+Carry+Out/@42.2599647,-87.9476224,17z/data=!3m1!4b1!4m5!3m4!1s0x880f968a29ff95e1:0x882bdf9c977448cc!8m2!3d42.2599647!4d-87.9476224",
Lou Malnatis Pizzeria,6240 Mulford Village Dr,ROCKFORD,IL,61107,8154771100.0,"https://www.google.com/maps/place/Lou+Malnati's+Pizzeria+-+Carry+Out/@42.2681188,-88.9951414,17z/data=!3m1!4b1!4m5!3m4!1s0x8808b99302503537:0xe1f06e8482a28e07!8m2!3d42.2681188!4d-88.9951414",
Lou Malnatis Pizzeria,114 West Lake St,ADDISON,IL,60101,6304131400.0,"https://www.google.com/maps/place/Lou+Malnati's+Pizzeria+-+Carry+Out/@41.9346301,-87.9917051,17z/data=!3m1!4b1!4m5!3m4!1s0x880fb2f3261ff0a5:0x9d4f5465471c518f!8m2!3d41.9346301!4d-87.9917051",
Lou Malnatis Pizzeria,2279 Randall Rd,CARPENTERSVILLE,IL,60110,8477375550.0,"https://www.google.com/maps/place/Lou+Malnati's+Pizzeria+-+Carry+Out/@42.1226525,-88.3343546,17z/data=!3m1!4b1!4m5!3m4!1s0x880f11e826b8e775:0x88830799f62fd060!8m2!3d42.1226525!4d-88.3343546",
Lou Malnatis Pizzeria,7550 Broadview Village Sq,BROADVIEW,IL,60155,7084008999.0,"https://www.google.com/maps/place/Lou+Malnati's+Pizzeria+-+Carry+Out/@41.8499918,-87.8518788,17z/data=!3m1!4b1!4m5!3m4!1s0x880e3594ea2f9cd9:0xdf354deeb08bd452!8m2!3d41.8499918!4d-87.8518788",
