Company Name,Address 1,City,State,Zip,Phone,Google Link,Status
MOD Pizza,9925 Barker Cypress Rd,CYPRESS,TX,77433-5314,8322204931.0,"https://www.google.com/maps/place/MOD+Pizza/@29.921521,-95.687839,17z/data=!3m1!4b1!4m5!3m4!1s0x8640d66002117861:0xa6dc4981a2a6be7b!8m2!3d29.921521!4d-95.687839",
MOD Pizza,9405 N Newport Hwy,SPOKANE,WA,99218-1390,5092905465.0,"https://www.google.com/maps/place/MOD+Pizza/@47.743396,-117.408678,17z/data=!3m1!4b1!4m5!3m4!1s0x549e1c141eb92687:0x5d66a4941096ce99!8m2!3d47.743396!4d-117.408678",
MOD Pizza,9196 N Main St,ENGLEWOOD,OH,45415-1123,9377710918.0,"https://www.google.com/maps/place/MOD+Pizza/@39.8574066,-84.2775283,17z/data=!3m1!4b1!4m5!3m4!1s0x883f80196d000c97:0x713268753807426e!8m2!3d39.8574066!4d-84.2775283",
MOD Pizza,8985 Venice Blvd,LOS ANGELES,CA,90034-3344,4243459282.0,"https://www.google.com/maps/place/MOD+Pizza/@34.0272926,-118.3925557,17z/data=!3m1!4b1!4m5!3m4!1s0x80c2b9808f4bb8dd:0xacea8b15875b6ac0!8m2!3d34.0272926!4d-118.3925557",
MOD Pizza,8896 Apollo Way,DOWNEY,CA,90242-4028,5622990344.0,"https://www.google.com/maps/place/MOD+Pizza/@33.9221339,-118.1315306,17z/data=!3m1!4b1!4m5!3m4!1s0x80c2cd721f21479d:0x8857313f111d9fd4!8m2!3d33.9221339!4d-118.1315306",
MOD Pizza,873 Merrimon Ave,ASHEVILLE,NC,28804-2404,8287745406.0,"https://www.google.com/maps/place/MOD+Pizza/@35.6277673,-82.5522633,17z/data=!3m1!4b1!4m5!3m4!1s0x8859f4cf0ab3162b:0xaaab8e1a415b3fe6!8m2!3d35.6277673!4d-82.5522633",
MOD Pizza,8225 S Chester St,CENTENNIAL,CO,80112-3528,7202145360.0,"https://www.google.com/maps/place/MOD+Pizza/@39.5678779,-104.8805589,17z/data=!3m1!4b1!4m5!3m4!1s0x876c85b762a11ffb:0xd8882a20ac91a6e0!8m2!3d39.5678779!4d-104.8805589",
MOD Pizza,7916 NE 6th Ave,VANCOUVER,WA,98665-8107,3608285220.0,"https://www.google.com/maps/place/MOD+Pizza/@45.6796172,-122.6668975,17z/data=!3m1!4b1!4m5!3m4!1s0x5495ae8d22ef71e7:0xac51604920e14405!8m2!3d45.6796172!4d-122.6668975",
MOD Pizza,7480 W Bell Rd,GLENDALE,AZ,85308-8533,6024765575.0,"https://www.google.com/maps/place/MOD+Pizza/@33.6399578,-112.2196463,17z/data=!3m1!4b1!4m5!3m4!1s0x872b6837586a4f95:0xc72b26a8c7e3cf26!8m2!3d33.6399578!4d-112.2196463",
MOD Pizza,6777 Woodlands Pkwy,THE WOODLANDS,TX,77382-2786,2817190148.0,"https://www.google.com/maps/place/MOD+Pizza/@30.1797466,-95.5381589,17z/data=!3m1!4b1!4m5!3m4!1s0x864731b5273cbfd1:0xba5200b7c3e1de1!8m2!3d30.1797466!4d-95.5381589",
MOD Pizza,6415 W 104th Ave,WESTMINSTER,CO,80020,7204177300.0,"https://www.google.com/maps/place/MOD+Pizza/@39.8885494,-105.0685528,17z/data=!3m1!4b1!4m5!3m4!1s0x876b8987f63bc35d:0x1bc55a91eb379ddc!8m2!3d39.8885494!4d-105.0685528",
MOD Pizza,6010 15th Ave NW,SEATTLE,WA,98107-2301,2069394000.0,"https://www.google.com/maps/place/MOD+Pizza/@47.6727218,-122.3758973,17z/data=!3m1!4b1!4m5!3m4!1s0x549015cc15b895af:0x841e1ea1d5aede63!8m2!3d47.6727218!4d-122.3758973",
MOD Pizza,5925 Dublin Blvd,COLORADO SPRINGS,CO,80923,7196382247.0,"https://www.google.com/maps/place/MOD+Pizza/@38.9246427,-104.7183602,17z/data=!3m1!4b1!4m5!3m4!1s0x8713491cbc4b306d:0x1cc11dd851dd7c0f!8m2!3d38.9246427!4d-104.7183602",
MOD Pizza,5670 Cottle Rd,SAN JOSE,CA,95123-3761,6694005375.0,"https://www.google.com/maps/place/MOD+Pizza/@37.2486546,-121.8030496,17z/data=!3m1!4b1!4m5!3m4!1s0x808e2e2268ffd237:0xc1664c5ff77fec24!8m2!3d37.2486546!4d-121.8030496",
MOD Pizza,5102 FM 1463 Rd,KATY,TX,77494-7870,3467078154.0,"https://www.google.com/maps/place/MOD+Pizza/@29.7183296,-95.8468697,17z/data=!3m1!4b1!4m5!3m4!1s0x864123a5599f7a39:0xb743d2fd752a6b7d!8m2!3d29.7183296!4d-95.8468697",
MOD Pizza,4989 Factory Shops Blvd,CASTLE ROCK,CO,80108-3345,7206164500.0,"https://www.google.com/maps/place/Mod+Pizza/@39.4106782,-104.873081,17z/data=!3m1!4b1!4m5!3m4!1s0x876c99913f15c063:0xe41f60831ec665d5!8m2!3d39.4106782!4d-104.873081",
MOD Pizza,41865 Ford Rd,CANTON,MI,48187,7344566100.0,"https://www.google.com/maps/place/MOD+Pizza/@42.3221935,-83.4536975,17z/data=!3m1!4b1!4m5!3m4!1s0x883b52578051f89f:0xc3213ff74629501d!8m2!3d42.3221935!4d-83.4536975",
MOD Pizza,4101 Tates Creek Centre Dr,LEXINGTON,KY,40517-3066,8593680855.0,"https://www.google.com/maps/place/MOD+Pizza/@37.9718472,-84.4986609,17z/data=!3m1!4b1!4m5!3m4!1s0x88425ba17dfbcd4f:0xd2614b05bed3a3f4!8m2!3d37.9718472!4d-84.4986609",
MOD Pizza,39010 Argonaut Way,FREMONT,CA,94538-1302,5102984314.0,"https://www.google.com/maps/place/MOD+Pizza/@37.5457519,-121.9899895,17z/data=!3m1!4b1!4m5!3m4!1s0x808fc09db4ee5449:0xf0c0f48d7d5f5b6!8m2!3d37.5457519!4d-121.9899895",
MOD Pizza,370 W Army Trail Rd,BLOOMINGDALE,IL,60108-2359,6305235296.0,"https://www.google.com/maps/place/MOD+Pizza/@41.9381731,-88.1126256,17z/data=!3m1!4b1!4m5!3m4!1s0x880fab08daea78c7:0xd2d2894f84b6dedb!8m2!3d41.9381731!4d-88.1126256",
MOD Pizza,3351 Clear Lake City Blvd,HOUSTON,TX,77059-2506,8322844290.0,"https://www.google.com/maps/place/MOD+Pizza/@29.6040446,-95.1273872,17z/data=!3m1!4b1!4m5!3m4!1s0x86409bebc7889e87:0xb6477502fcae7e7c!8m2!3d29.6040446!4d-95.1273872",
MOD Pizza,319 State Ave,MARYSVILLE,WA,98270-5027,3606512161.0,"https://www.google.com/maps/place/MOD+Pizza/@48.0515538,-122.1774497,17z/data=!3m1!4b1!4m5!3m4!1s0x54855485b60380d5:0xf04928456eb43b70!8m2!3d48.0515538!4d-122.1774497",
MOD Pizza,3058 S Rochester Rd,ROCHESTER HILLS,MI,48307-5038,2489233545.0,"https://www.google.com/maps/place/MOD+Pizza/@42.6352157,-83.1325143,17z/data=!3m1!4b1!4m5!3m4!1s0x8824c25cdcaa0c6f:0xe57778aff65438b7!8m2!3d42.6352157!4d-83.1325143",
MOD Pizza,994 W Dillon Rd,LOUISVILLE,CO,80027-8400,3037362481.0,"https://www.google.com/maps/place/MOD+Pizza/@39.9607276,-105.1641983,17z/data=!3m1!4b1!4m5!3m4!1s0x876bf32c2db4124b:0xa0ca1cba1b94178d!8m2!3d39.9607276!4d-105.1641983",
MOD Pizza,8900 161st Ave NE,REDMOND,WA,98052-7551,4254975104.0,"https://www.google.com/maps/place/MOD+Pizza/@47.6814298,-122.1229516,17z/data=!3m1!4b1!4m5!3m4!1s0x54900d4c9d99e087:0xe4c2a112d98bd14b!8m2!3d47.6814298!4d-122.1229516",
MOD Pizza,8552 Highway 6 N,HOUSTON,TX,77095-4809,2818582911.0,"https://www.google.com/maps/place/MOD+Pizza/@29.9034732,-95.6325762,17z/data=!3m1!4b1!4m5!3m4!1s0x8640d126ff2fb3a7:0xc6d26320b195ac5b!8m2!3d29.9034732!4d-95.6325762",
MOD Pizza,830 W Warner Rd,GILBERT,AZ,85233-7355,6023135666.0,"https://www.google.com/maps/place/MOD+Pizza/@33.3359902,-111.8076275,17z/data=!3m1!4b1!4m5!3m4!1s0x872ba9764a1b1151:0x4291b0d1e2e6fdab!8m2!3d33.3359902!4d-111.8076275",
MOD Pizza,7447 N Academy Blvd,COLORADO SPRINGS,CO,80920-3204,7192191912.0,"https://www.google.com/maps/place/MOD+Pizza/@38.938482,-104.7972581,17z/data=!3m1!4b1!4m5!3m4!1s0x87134e884a73f76d:0xd3d28eb4865d633c!8m2!3d38.938482!4d-104.7972581",
MOD Pizza,304 Soscol Ave,NAPA,CA,94559-4006,7073466758.0,"https://www.google.com/maps/place/MOD+Pizza/@38.2856838,-122.2743449,17z/data=!3m1!4b1!4m5!3m4!1s0x8085060e676910ef:0x6f393b248b5b1f29!8m2!3d38.2856838!4d-122.2743449",
MOD Pizza,3007 E Central Texas Expy,KILLEEN,TX,76543-7374,2546805305.0,"https://www.google.com/maps/place/MOD+Pizza/@31.0862393,-97.7080712,17z/data=!3m1!4b1!4m5!3m4!1s0x86454bd1cbf66991:0xff2aa09f3d97d2e6!8m2!3d31.0862393!4d-97.7080712",
MOD Pizza,2960 Cahill Main,FITCHBURG,WI,53711-7157,6084165224.0,"https://www.google.com/maps/place/MOD+Pizza/@43.0169658,-89.4229942,17z/data=!3m1!4b1!4m5!3m4!1s0x8807b29de8682a57:0x7e60942eefdb78b!8m2!3d43.0169658!4d-89.4229942",
MOD Pizza,2925 Newmarket St,BELLINGHAM,WA,98226-3869,3607468563.0,"https://www.google.com/maps/place/MOD+Pizza/@48.7700179,-122.443845,17z/data=!3m1!4b1!4m5!3m4!1s0x5485a47b82fc166d:0x5c780bbc5670ca38!8m2!3d48.7700179!4d-122.443845",
MOD Pizza,289 E Swedesford Rd,WAYNE,PA,19087-1462,4845811235.0,"https://www.google.com/maps/place/MOD+Pizza/@40.0738515,-75.4302774,17z/data=!3m1!4b1!4m5!3m4!1s0x89c694809ee37333:0xae970ab4848518de!8m2!3d40.0738515!4d-75.4302774",
MOD Pizza,27511 San Bernardino Ave,REDLANDS,CA,92374-5042,9097480200.0,"https://www.google.com/maps/place/MOD+Pizza/@34.0743214,-117.2048257,17z/data=!3m1!4b1!4m5!3m4!1s0x80dcaaf6f54d70df:0x40fd82827a6748fc!8m2!3d34.0743214!4d-117.2048257",
MOD Pizza,26722 Portola Pkwy,FOOTHILL RANCH,CA,92610-1769,9492150031.0,"https://www.google.com/maps/place/MOD+Pizza/@33.6799672,-117.6650785,17z/data=!3m1!4b1!4m5!3m4!1s0x80dcc20b642452db:0x44b2978c2bdc3ebc!8m2!3d33.6799672!4d-117.6650785",
MOD Pizza,26562 Moulton Pkwy,LAGUNA HILLS,CA,92653-5776,9492384616.0,"https://www.google.com/maps/place/MOD+Pizza/@33.5770444,-117.7021738,17z/data=!3m1!4b1!4m5!3m4!1s0x80dcef2e20be6dbf:0xaae47f7f31ccd8fe!8m2!3d33.5770444!4d-117.7021738",
MOD Pizza,23890 E Smoky Hill Rd,AURORA,CO,80016-1358,7205088690.0,"https://www.google.com/maps/place/MOD+Pizza/@39.598885,-104.7098627,17z/data=!3m1!4b1!4m5!3m4!1s0x876c8c63beff20b5:0x1f3df15f9d780a9b!8m2!3d39.598885!4d-104.7098627",
MOD Pizza,23423 NE Novelty Hill Rd,REDMOND,WA,98053-5504,4253071150.0,"https://www.google.com/maps/place/MOD+Pizza/@47.6991828,-122.0279417,17z/data=!3m1!4b1!4m5!3m4!1s0x549073577cc9dff9:0x655851198f3edb5f!8m2!3d47.6991828!4d-122.0279417",
MOD Pizza,2308 S Shore Ctr,ALAMEDA,CA,94501-5760,5102271444.0,"https://www.google.com/maps/place/MOD+Pizza/@37.7561547,-122.2503601,17z/data=!3m1!4b1!4m5!3m4!1s0x808f86a4c25d3641:0x26e91da46a6159d9!8m2!3d37.7561547!4d-122.2503601",
MOD Pizza,23071 Allen Rd,WOODHAVEN,MI,48183-3365,7347591055.0,"https://www.google.com/maps/place/MOD+Pizza/@42.1401582,-83.225041,17z/data=!3m1!4b1!4m5!3m4!1s0x883b38ec0cf5426d:0x9b23a6c554f53367!8m2!3d42.1401582!4d-83.225041",
MOD Pizza,22833 NE 8th St,SAMMAMISH,WA,98074-7232,4258367345.0,"https://www.google.com/maps/place/MOD+Pizza/@47.6162189,-122.0334785,17z/data=!3m1!4b1!4m5!3m4!1s0x5490718b3491c6b1:0xb16dfa0946393a30!8m2!3d47.6162189!4d-122.0334785",
MOD Pizza,22833 Bothell Everett Hwy,BOTHELL,WA,98021-9385,4254195578.0,"https://www.google.com/maps/place/MOD+Pizza/@47.790753,-122.2146222,17z/data=!3m1!4b1!4m5!3m4!1s0x54900fa9d31a81b1:0xd65ab9688a5d889c!8m2!3d47.790753!4d-122.2146222",
MOD Pizza,22026 N US-281,SAN ANTONIO,TX,78258,2103183338.0,"https://www.google.com/maps/place/MOD+Pizza/@29.6462606,-98.4526329,17z/data=!4m5!3m4!1s0x865c89afed65a6dd:0x4e815fad6b9cb6be!8m2!3d29.646256!4d-98.4504442?hl=en",
MOD Pizza,2051 Bronze Star Dr,WOODLAND,CA,95776-5443,5306696639.0,"https://www.google.com/maps/place/MOD+Pizza/@38.670425,-121.7257426,17z/data=!3m1!4b1!4m5!3m4!1s0x8084d153f3b759a5:0xf94c1d759b78ea16!8m2!3d38.670425!4d-121.7257426",
MOD Pizza,204 SW Yamhill St,PORTLAND,OR,97204-3009,9712300547.0,"https://www.google.com/maps/place/MOD+Pizza/@45.5172372,-122.6753055,17z/data=!3m1!4b1!4m5!3m4!1s0x54950a0f7bd85fff:0x73d458b06405f6bb!8m2!3d45.5172372!4d-122.6753055",
MOD Pizza,2033 Dorsett Vlg,MARYLAND HEIGHTS,MO,63043-2207,3144858040.0,"https://www.google.com/maps/place/MOD+Pizza/@38.715856,-90.4543254,17z/data=!3m1!4b1!4m5!3m4!1s0x87df2df4baea9487:0x328921779c8b3642!8m2!3d38.715856!4d-90.4543254",
MOD Pizza,203 Coburg Rd,EUGENE,OR,97401-5602,4582058910.0,"https://www.google.com/maps/place/MOD+Pizza/@44.0638394,-123.0766357,17z/data=!3m1!4b1!4m5!3m4!1s0x54c11e0264aeba09:0x441d6f4a64c5320!8m2!3d44.0638394!4d-123.0766357",
MOD Pizza,20152 W 153rd St,OLATHE,KS,66062-9131,9132543461.0,"https://www.google.com/maps/place/MOD+Pizza/@38.851647,-94.8186578,17z/data=!3m1!4b1!4m5!3m4!1s0x87c0bdd22ec06875:0x79d354673de2321!8m2!3d38.851647!4d-94.8186578",
MOD Pizza,2000 S Bascom Ave,CAMPBELL,CA,95008-3204,4085087371.0,"https://www.google.com/maps/place/MOD+Pizza/@37.2866593,-121.9312717,17z/data=!3m1!4b1!4m5!3m4!1s0x808e34e99088b823:0xc5a2e4e9ccebaabd!8m2!3d37.2866593!4d-121.9312717",
MOD Pizza,2000 El Camino Real,SANTA CLARA,CA,95050-4075,6692922900.0,"https://www.google.com/maps/place/MOD+Pizza/@37.3517472,-121.9598439,17z/data=!3m1!4b1!4m5!3m4!1s0x808fca45e17023bb:0xfad7aa1ef9d2cf3b!8m2!3d37.3517472!4d-121.9598439",
MOD Pizza,1988 1st Capitol Dr,SAINT CHARLES,MO,63301-1609,6366690540.0,"https://www.google.com/maps/place/MOD+pizza/@38.7833702,-90.5030505,17z/data=!3m1!4b1!4m5!3m4!1s0x87df2f194531fda3:0x93b1113f44d3ad9a!8m2!3d38.7833702!4d-90.5030505",
MOD Pizza,1976 Wentzville Pkwy,WENTZVILLE,MO,63385-3453,6368561040.0,"https://www.google.com/maps/place/MOD+Pizza/@38.8145012,-90.8736639,17z/data=!3m1!4b1!4m5!3m4!1s0x87dec879bad10161:0xcb8918a54248d0b!8m2!3d38.8145012!4d-90.8736639",
MOD Pizza,7240 Outfitters Way,WEST CHESTER,OH,45069-7591,5137550678.0,"https://www.google.com/maps/place/MOD+Pizza/@39.3687178,-84.3703347,17z/data=!3m1!4b1!4m5!3m4!1s0x8840506fffffffff:0xec49bb3a6a1f079!8m2!3d39.3687178!4d-84.3703347",
MOD Pizza,707 W Main Ave,SPOKANE,WA,99201-0643,5095700433.0,"https://www.google.com/maps/place/MOD+Pizza/@47.6586922,-117.4227393,17z/data=!3m1!4b1!4m5!3m4!1s0x549e18608e26ce95:0x9fee196fa2bf3e1b!8m2!3d47.6586922!4d-117.4227393",
MOD Pizza,7000 NE Airport Way,PORTLAND,OR,97218-1009,9712307090.0,"https://www.google.com/maps/place/MOD+Pizza/@45.5888549,-122.5963023,17z/data=!3m1!4b1!4m5!3m4!1s0x5495a42eecfd39db:0x20011a35e076fbfe!8m2!3d45.5888549!4d-122.5963023",
MOD Pizza,4830 Berewick Commons Pkwy,CHARLOTTE,NC,28273,7049101220.0,"https://www.google.com/maps/place/MOD+Pizza/@35.1616636,-80.9717821,17z/data=!3m1!4b1!4m5!3m4!1s0x885699e9eb768147:0xc6a026f5e1ac58f1!8m2!3d35.1616636!4d-80.9717821",
MOD Pizza,5400 Crossings Dr,ROCKLIN,CA,95677-3912,9168241052.0,"https://www.google.com/maps/place/MOD+Pizza/@38.800432,-121.203954,17z/data=!3m1!4b1!4m5!3m4!1s0x809b1ee88e1c03cf:0x916871d69d8fe725!8m2!3d38.800432!4d-121.203954",
MOD Pizza,5265 Buckeystown Pike,FREDERICK,MD,21704-7535,2408777967.0,"https://www.google.com/maps/place/MOD+Pizza/@39.3755155,-77.4129871,17z/data=!3m1!4b1!4m5!3m4!1s0x89c9d9862afe5a83:0xdb458bb3057628c0!8m2!3d39.3755155!4d-77.4129871",
MOD Pizza,50670 Gratiot Ave,CHESTERFIELD,MI,48051,5862655470.0,"https://www.google.com/maps/place/MOD+Pizza/@42.6730212,-82.8337377,17z/data=!3m1!4b1!4m5!3m4!1s0x88251f24a2596279:0xf60ec31102e59401!8m2!3d42.6730212!4d-82.8337377",
MOD Pizza,500 Canyon Ridge Dr,AUSTIN,TX,78753-1632,5129757095.0,"https://www.google.com/maps/place/MOD+Pizza/@30.4053978,-97.6762093,17z/data=!3m1!5s0x8644cec87c9d45a5:0xe8c76feab5384f70!4m5!3m4!1s0x8644cec87c934663:0xbfc480500c76c65d!8m2!3d30.4053932!4d-97.6740206?hl=en",
MOD Pizza,4811 Meadows Rd,LAKE OSWEGO,OR,97035-2511,9712337103.0,"https://www.google.com/maps/place/MOD+Pizza/@45.4183908,-122.7262015,17z/data=!3m1!4b1!4m5!3m4!1s0x5495733a0865f5a7:0x1a2d2965844ee646!8m2!3d45.4183908!4d-122.7262015",
MOD Pizza,4784 Morse Rd,COLUMBUS,OH,43230-1355,6143694878.0,"https://www.google.com/maps/place/MOD+Pizza/@40.0558993,-82.865156,17z/data=!3m1!4b1!4m5!3m4!1s0x88386056324e80fd:0x591aeb84506e1ef6!8m2!3d40.0558993!4d-82.865156",
MOD Pizza,4425 Commercial St SE,SALEM,OR,97302,9712094198.0,"https://www.google.com/maps/place/MOD+Pizza/@44.8895979,-123.0345624,17z/data=!3m1!4b1!4m5!3m4!1s0x54c007420d997511:0x952fe87615d8ff68!8m2!3d44.8895979!4d-123.0345624",
MOD Pizza,4280 E Indian School Rd,PHOENIX,AZ,85018-5374,6023148379.0,"https://www.google.com/maps/place/MOD+Pizza/@33.4954417,-111.9894752,17z/data=!3m1!4b1!4m5!3m4!1s0x872b0c50ec2815bb:0x84e86b1893300f70!8m2!3d33.4954417!4d-111.9894752",
MOD Pizza,3977 S Arizona Ave,CHANDLER,AZ,85248-2707,6022832819.0,"https://www.google.com/maps/place/MOD+Pizza/@33.2481125,-111.8407009,17z/data=!3m1!4b1!4m5!3m4!1s0x872baa911801ed01:0xebf8115188540eb3!8m2!3d33.2481125!4d-111.8407009",
MOD Pizza,3444 Arlington Ave,RIVERSIDE,CA,92506-3253,9513745255.0,"https://www.google.com/maps/place/MOD+Pizza/@33.9460654,-117.3867722,17z/data=!3m1!4b1!4m5!3m4!1s0x80dcb04a5f81c8ab:0xb9ff6fcd9dc56aaf!8m2!3d33.9460654!4d-117.3867722",
MOD Pizza,19718 Highway 99,LYNNWOOD,WA,98036-6046,4255825392.0,"https://www.google.com/maps/place/MOD+Pizza/@47.819746,-122.3167281,17z/data=!3m1!4b1!4m5!3m4!1s0x54900536827d5a85:0xfb2b7cb67c64689a!8m2!3d47.819746!4d-122.3167281",
MOD Pizza,1920 E Riverside Dr,AUSTIN,TX,78741-1342,5127925554.0,"https://www.google.com/maps/place/MOD+Pizza/@30.2432112,-97.7281276,17z/data=!3m1!4b1!4m5!3m4!1s0x8644b44f9d0c7f07:0x3b3d77dff9b25015!8m2!3d30.2432112!4d-97.7281276",
MOD Pizza,1912 Starr Dr,LIBERTY,MO,64068-7825,8164079482.0,"https://www.google.com/maps/place/MOD+Pizza/@39.2458556,-94.4496637,17z/data=!3m1!4b1!4m5!3m4!1s0x87c0558ffb6f42e1:0x4df6e47fb55d9b48!8m2!3d39.2458556!4d-94.4496637",
MOD Pizza,1801 E 51st St,AUSTIN,TX,78723-3434,5126872670.0,"https://www.google.com/maps/place/MOD+Pizza/@30.3032382,-97.6989346,17z/data=!3m1!4b1!4m5!3m4!1s0x8644ca002054e619:0xf734794a071fc684!8m2!3d30.3032382!4d-97.6989346",
MOD Pizza,17848 Garden Way NE,WOODINVILLE,WA,98072-3527,4254717903.0,"https://www.google.com/maps/place/MOD+Pizza/@47.7569301,-122.154531,17z/data=!3m1!4b1!4m5!3m4!1s0x54900c28222f7795:0x86543bff0c1a9d86!8m2!3d47.7569301!4d-122.154531",
MOD Pizza,1751 Wilmington Pike,GLEN MILLS,PA,19342-4301,4847858145.0,"https://www.google.com/maps/place/MOD+Pizza/@39.8747232,-75.5437725,17z/data=!3m1!4b1!4m5!3m4!1s0x89c6fabae2b3a7d5:0xc165ac9ba513b696!8m2!3d39.8747232!4d-75.5437725",
MOD Pizza,171 Rossanley Dr,MEDFORD,OR,97501-1782,5417733561.0,"https://www.google.com/maps/place/MOD+Pizza/@42.3429012,-122.8833111,17z/data=!3m1!4b1!4m5!3m4!1s0x54cf7bc8ef9710ab:0x5d240bd5ea7d0aaf!8m2!3d42.3429012!4d-122.8833111",
MOD Pizza,16330 Bothell Everett Hwy,MILL CREEK,WA,98012-1226,4255825901.0,"https://www.google.com/maps/place/MOD+Pizza/@47.8506128,-122.2185624,17z/data=!3m1!4b1!4m5!3m4!1s0x549005defeb3ebad:0x48375e1bbac53754!8m2!3d47.8506128!4d-122.2185624",
MOD Pizza,1528 Main St,WARRINGTON,PA,18976-3401,2674882169.0,"https://www.google.com/maps/place/MOD+Pizza/@40.2314189,-75.1367956,17z/data=!3m1!4b1!4m5!3m4!1s0x89c6af4bfddd3191:0x7fa8ec8d99aee8bc!8m2!3d40.2314189!4d-75.1367956",
MOD Pizza,151 Evans Dr,KYLE,TX,78640-3001,5122680319.0,"https://www.google.com/maps/place/MOD+Pizza/@30.0127385,-97.8622356,17z/data=!3m1!4b1!4m5!3m4!1s0x865b569ed111e991:0xda6cf7e7210eeca1!8m2!3d30.0127385!4d-97.8622356",
MOD Pizza,14318 Rivergate View Dr,CHARLOTTE,NC,28273-7257,9804743325.0,"https://www.google.com/maps/place/MOD+Pizza/@35.098994,-80.9889605,17z/data=!3m1!4b1!4m5!3m4!1s0x8856907fd842456d:0xbfaf8c61279dab63!8m2!3d35.098994!4d-80.9889605",
MOD Pizza,1400 Highway 17 N,NORTH MYRTLE BEACH,SC,29582-2274,8432810686.0,"https://www.google.com/maps/place/MOD+Pizza/@33.8414345,-78.6664823,17z/data=!4m5!3m4!1s0x89007d7b3eed4fcd:0x3cdce7968b2033ed!8m2!3d33.8414301!4d-78.6642936?hl=en",
MOD Pizza,1370 S Commons Dr,MYRTLE BEACH,SC,29588-9514,8436682958.0,"https://www.google.com/maps/place/MOD+Pizza/@33.6502681,-78.9829265,17z/data=!3m1!4b1!4m5!3m4!1s0x8900402f955f08d9:0x46706cac9f26a8d2!8m2!3d33.6502681!4d-78.9829265",
MOD Pizza,13061 Lee Jackson Memorial Hwy,FAIRFAX,VA,22033-2003,7036791825.0,"https://www.google.com/maps/place/MOD+Pizza/@38.8806896,-77.3984602,17z/data=!3m1!4b1!4m5!3m4!1s0x89b645e12097371f:0x868c8215f53956e5!8m2!3d38.8806896!4d-77.3984602",
MOD Pizza,1240 N Loop 336 W,CONROE,TX,77301-1033,9364410054.0,"https://www.google.com/maps/place/MOD+Pizza/@30.3345553,-95.4769847,17z/data=!3m1!4b1!4m5!3m4!1s0x86473ea793727efb:0x77c8466deb9a5ef5!8m2!3d30.3345553!4d-95.4769847",
MOD Pizza,114 Pauline Dr,YORK,PA,17402-4624,7174724060.0,"https://www.google.com/maps/place/MOD+Pizza/@39.9313388,-76.6864714,17z/data=!3m1!4b1!4m5!3m4!1s0x89c888d8c825bb19:0xea0e097faa44c697!8m2!3d39.9313388!4d-76.6864714",
MOD Pizza,11048 Lee Hwy,FAIRFAX,VA,22030-5014,7033493076.0,"https://www.google.com/maps/place/MOD+Pizza/@38.8536464,-77.3273949,17z/data=!3m1!4b1!4m5!3m4!1s0x89b64ee6c6fb063b:0x18fcdb740223e392!8m2!3d38.8536464!4d-77.3273949",
MOD Pizza,10815 N Wolfe Rd,CUPERTINO,CA,95014-0611,6692428311.0,"https://www.google.com/maps/place/MOD+Pizza/@37.335642,-122.0146581,17z/data=!3m1!4b1!4m5!3m4!1s0x808fb595e44e245d:0xb7d27f13bf271b34!8m2!3d37.335642!4d-122.0146581",
MOD Pizza,10580 N Oracle Rd,ORO VALLEY,AZ,85737-9440,5204076870.0,"https://www.google.com/maps/place/MOD+Pizza/@32.3981292,-110.9562997,17z/data=!3m1!4b1!4m5!3m4!1s0x86d60cff4deb984f:0xed5f3178556ef2ad!8m2!3d32.3981292!4d-110.9562997",
MOD Pizza,10441B Indianapolis Blvd,HIGHLAND,IN,46322-3511,2193017915.0,"https://www.google.com/maps/place/MOD+Pizza/@41.524346,-87.4705327,17z/data=!3m1!4b1!4m5!3m4!1s0x8811e1255905ebd1:0xb24184559a5f922e!8m2!3d41.524346!4d-87.4705327",
MOD Pizza,1013 Centre Ave,FORT COLLINS,CO,80526-1846,9704843497.0,"https://www.google.com/maps/place/MOD+Pizza/@40.5552195,-105.0956592,17z/data=!3m1!4b1!4m5!3m4!1s0x87694bb0a3ff8c43:0x80de96b0fd1babac!8m2!3d40.5552195!4d-105.0956592",
MOD Pizza,3208 Vandercar Way,CINCINNATI,OH,45209-1012,5133510064.0,"https://www.google.com/maps/place/MOD+Pizza/@39.1585183,-84.4276085,17z/data=!3m1!4b1!4m5!3m4!1s0x8841ad6f860706b5:0xc309677b3b2a12a7!8m2!3d39.1585183!4d-84.4276085",
MOD Pizza,3121 W Peoria Ave,PHOENIX,AZ,85029-5228,6232439724.0,"https://www.google.com/maps/place/MOD+Pizza/@33.5813687,-112.1263059,17z/data=!3m1!4b1!4m5!3m4!1s0x872b6c6cc22a7b5f:0x5b525c65cb3dd910!8m2!3d33.5813687!4d-112.1263059",
MOD Pizza,3104 E Palouse Hwy,SPOKANE,WA,99223-5169,5095707060.0,"https://www.google.com/maps/place/MOD+Pizza/@47.6099388,-117.3651818,17z/data=!3m1!4b1!4m5!3m4!1s0x549e23aaaa65b281:0xd739c659a4add00f!8m2!3d47.6099388!4d-117.3651818",
MOD Pizza,2941 Cochran St,SIMI VALLEY,CA,93065-2789,8058424442.0,"https://www.google.com/maps/place/MOD+Pizza/@34.2798867,-118.7397818,17z/data=!3m1!4b1!4m5!3m4!1s0x80e82919c620b095:0x651bf381fe33e509!8m2!3d34.2798867!4d-118.7397818",
MOD Pizza,28920 Highway 290,CYPRESS,TX,77433-4296,8323345399.0,"https://www.google.com/maps/place/MOD+Pizza/@29.9932029,-95.7535462,17z/data=!4m5!3m4!1s0x86412af1bf3d6a17:0x3b353b17a906d4fa!8m2!3d29.9931983!4d-95.7513575?hl=en",
MOD Pizza,2835 Showplace Dr,NAPERVILLE,IL,60564-5055,6309460300.0,"https://www.google.com/maps/place/MOD+Pizza/@41.712324,-88.2075863,17z/data=!3m1!4b1!4m5!3m4!1s0x880ef70750339505:0xad7cb4f8b2fbd4e9!8m2!3d41.712324!4d-88.2075863",
MOD Pizza,2695 SW Cedar Hills Blvd,BEAVERTON,OR,97005-1392,5035963555.0,"https://www.google.com/maps/place/MOD+Pizza/@45.5005125,-122.8068379,17z/data=!3m1!4b1!4m5!3m4!1s0x54950eba147a388d:0x201fbb759237402c!8m2!3d45.5005125!4d-122.8068379",
MOD Pizza,2682 Pearland Pkwy,PEARLAND,TX,77581-5360,2818105998.0,"https://www.google.com/maps/place/MOD+Pizza/@29.5581467,-95.2622241,17z/data=!3m1!4b1!4m5!3m4!1s0x864090e336c52bb9:0xa0cbe75ac7cf3888!8m2!3d29.5581467!4d-95.2622241",
MOD Pizza,25910 the Old Rd,STEVENSON RANCH,CA,91381-1712,6612881590.0,"https://www.google.com/maps/place/MOD+Pizza/@34.3924042,-118.5729051,17z/data=!3m1!4b1!4m5!3m4!1s0x80c286d6659ab011:0x3459fa1b662487c7!8m2!3d34.3924042!4d-118.5729051",
MOD Pizza,2550 W Nob Hill Blvd,YAKIMA,WA,98902-5149,5097597364.0,"https://www.google.com/maps/place/MOD+Pizza/@46.5850929,-120.5435067,17z/data=!3m1!4b1!4m5!3m4!1s0x54977d6a1eddb019:0x513185842d6e6ed3!8m2!3d46.5850929!4d-120.5435067",
MOD Pizza,2503 W Wellesley Ave,SPOKANE,WA,99205-5017,5093261650.0,"https://www.google.com/maps/place/MOD+Pizza/@47.7003197,-117.4480097,17z/data=!3m1!4b1!4m5!3m4!1s0x549e1973cdf39a87:0xaa6412c401165151!8m2!3d47.7003197!4d-117.4480097",
MOD Pizza,23916A SE Kent Kangley Rd,MAPLE VALLEY,WA,98038-6897,4255789093.0,"https://www.google.com/maps/place/MOD+Pizza/@47.3616159,-122.0223179,17z/data=!3m1!4b1!4m5!3m4!1s0x54908aa0ac9a994b:0xe7ee63aca67d6356!8m2!3d47.3616159!4d-122.0223179",
MOD Pizza,2353 Oak Grove Rd,WALNUT CREEK,CA,94598,9253786435.0,"https://www.google.com/maps/place/MOD+Pizza/@37.9287576,-122.016529,17z/data=!3m1!4b1!4m5!3m4!1s0x8085605e1040bce3:0x5e1635177f103a86!8m2!3d37.9287576!4d-122.016529",
MOD Pizza,2217 War Admiral Way,LEXINGTON,KY,40509-2482,8592630110.0,"https://www.google.com/maps/place/MOD+Pizza/@38.0408006,-84.4281229,17z/data=!3m1!4b1!4m5!3m4!1s0x88424f8d8b640923:0x2abe315752237eb6!8m2!3d38.0408006!4d-84.4281229",
MOD Pizza,21370 SW Langer Farms Pkwy,SHERWOOD,OR,97140-9137,5038625221.0,"https://www.google.com/maps/place/MOD+Pizza/@45.3651818,-122.8358996,17z/data=!3m1!4b1!4m5!3m4!1s0x54956ce3c572e8af:0x8dd76cbc6ed21a27!8m2!3d45.3651818!4d-122.8358996",
MOD Pizza,2071 W Millbrook Rd,RALEIGH,NC,27612-6468,9199873668.0,"https://www.google.com/maps/place/MOD+Pizza/@35.8578703,-78.6802482,17z/data=!3m1!4b1!4m5!3m4!1s0x89acf7b550233193:0x778ad01c0f406f04!8m2!3d35.8578703!4d-78.6802482",
MOD Pizza,19855 Belmont Chase Dr,ASHBURN,VA,20147-3413,7035546964.0,"https://www.google.com/maps/place/MOD+Pizza/@39.0670437,-77.4851998,17z/data=!3m1!4b1!4m5!3m4!1s0x89b63c1a5ad63e1f:0x621eb6728858d9c1!8m2!3d39.0670437!4d-77.4851998",
MOD Pizza,19820 Southwest Fwy,SUGAR LAND,TX,77479-6533,8324495791.0,"https://www.google.com/maps/place/MOD+Pizza/@29.5636629,-95.6841034,17z/data=!3m1!4b1!4m5!3m4!1s0x8640e3d20b15ea9b:0x3a495505582d6787!8m2!3d29.5636629!4d-95.6841034",
MOD Pizza,1905 S 1st St,YAKIMA,WA,98903-2229,5097597315.0,"https://www.google.com/maps/place/MOD+Pizza/@46.5747888,-120.4896167,17z/data=!3m1!4b1!4m5!3m4!1s0x5499d62dfcb9467f:0x7c08528e67bf9621!8m2!3d46.5747888!4d-120.4896167",
MOD Pizza,2009 Main St,LAKEWAY,TX,78734,5129534280.0,"https://www.google.com/maps/place/MOD+Pizza/@30.3464329,-97.9663434,17z/data=!3m1!4b1!4m5!3m4!1s0x865b39da30de7e13:0xc96413aa354f9e40!8m2!3d30.3464329!4d-97.9663434",
MOD Pizza,1812 Sam Rittenberg Blvd,CHARLESTON,SC,29407-4824,8549991872.0,"https://www.google.com/maps/place/MOD+Pizza/@32.8009727,-80.0199595,17z/data=!3m1!4b1!4m5!3m4!1s0x88fe7c7020d9d90d:0xb1e8f7c7cc7b30d5!8m2!3d32.8009727!4d-80.0199595",
MOD Pizza,16421 Sierra Lakes Pkwy,FONTANA,CA,92336-1202,9093025551.0,"https://www.google.com/maps/place/MOD+Pizza/@34.1376787,-117.4476413,17z/data=!3m1!4b1!4m5!3m4!1s0x80c34c02363ad34f:0x37616efaabee68a7!8m2!3d34.1376787!4d-117.4476413",
MOD Pizza,15511 Annapolis Rd,BOWIE,MD,20715-3000,3014640912.0,"https://www.google.com/maps/place/MOD+Pizza/@38.9788743,-76.7332046,17z/data=!3m1!4b1!4m5!3m4!1s0x89b7e9548eb9a5e1:0x3d2860755d782c52!8m2!3d38.9788743!4d-76.7332046",
MOD Pizza,141 Pelham Dr,COLUMBIA,SC,29209-0601,8036679596.0,"https://www.google.com/maps/place/MOD+Pizza/@33.9818824,-80.9667885,17z/data=!3m1!4b1!4m5!3m4!1s0x88f8b015d8d1e4c1:0x4b30ff380aa93555!8m2!3d33.9818824!4d-80.9667885",
MOD Pizza,1310 Polaris Pkwy,COLUMBUS,OH,43240-2038,6142546062.0,"https://www.google.com/maps/place/MOD+Pizza/@40.1420882,-82.9842694,17z/data=!3m1!4b1!4m5!3m4!1s0x8838f47c9b782d31:0xe6a5b01e33044c7c!8m2!3d40.1420882!4d-82.9842694",
MOD Pizza,13030 SE Kent Kangley Rd,KENT,WA,98030,2532167025.0,"https://www.google.com/maps/place/MOD+Pizza/@47.3584569,-122.1667624,17z/data=!3m1!4b1!4m5!3m4!1s0x54905f20c34efd79:0x4f108f4088aca185!8m2!3d47.3584569!4d-122.1667624",
MOD Pizza,1214 SW Scotton Way,BATTLE GROUND,WA,98604-2715,3603428077.0,"https://www.google.com/maps/place/MOD+Pizza/@45.7700498,-122.5502628,17z/data=!3m1!4b1!4m5!3m4!1s0x5495b4780962628f:0x48f9fb878ea3d024!8m2!3d45.7700498!4d-122.5502628",
MOD Pizza,12091 SE Sunnyside Rd,HAPPY VALLEY,OR,97015-8307,5034866309.0,"https://www.google.com/maps/place/MOD+Pizza/@45.4295663,-122.5386484,17z/data=!3m1!4b1!4m5!3m4!1s0x54959e23f44af8d7:0xf8c2a6a653f8c903!8m2!3d45.4295663!4d-122.5386484",
MOD Pizza,11521 N Ranch To Market 620,AUSTIN,TX,78726,5127925555.0,"https://www.google.com/maps/place/MOD+Pizza/@30.4528286,-97.8262882,17z/data=!3m1!4b1!4m5!3m4!1s0x865b32f518481a37:0x9261f185d58ae9dc!8m2!3d30.4528286!4d-97.8262882",
MOD Pizza,1112 NE Coronado Dr,BLUE SPRINGS,MO,64014-2944,8164060963.0,"https://www.google.com/maps/place/MOD+Pizza/@39.025127,-94.2471366,17z/data=!3m1!4b1!4m5!3m4!1s0x87c11a6f61920321:0x78184ef13f12b8aa!8m2!3d39.025127!4d-94.2471366",
MOD Pizza,1068 E Brokaw Rd,SAN JOSE,CA,95131-2309,6692428805.0,"https://www.google.com/maps/place/MOD+Pizza/@37.382477,-121.8970557,17z/data=!3m1!4b1!4m5!3m4!1s0x808fcc0920af4877:0x4d887f7b0db51309!8m2!3d37.382477!4d-121.8970557",
MOD Pizza,10301 156th St E,PUYALLUP,WA,98374-9372,2538646663.0,"https://www.google.com/maps/place/MOD+Pizza/@47.115021,-122.2916393,17z/data=!3m1!4b1!4m5!3m4!1s0x5490fd3a1b73781f:0x55b8aefc59630c2a!8m2!3d47.115021!4d-122.2916393",
MOD Pizza,4540 West Bailey Boswell Rd,FORT WORTH,TX,76179,2149721589.0,"https://www.google.com/maps/place/MOD+Pizza/@32.8813169,-97.3928819,17z/data=!3m1!4b1!4m5!3m4!1s0x864ddffb187a5331:0x67bd4dd24e03e7d3!8m2!3d32.8813169!4d-97.3928819",
MOD Pizza,1658 West Poplar St,WALLA WALLA,WA,99362,5092049625.0,"https://www.google.com/maps/place/MOD+Pizza/@46.0539253,-118.3711368,17z/data=!3m1!4b1!4m5!3m4!1s0x54a26bce55754f25:0xf4a875e83626b0d3!8m2!3d46.0539253!4d-118.3711368",
MOD Pizza,11549 Regency Village Dr,ORLANDO,FL,32821,4072394116.0,"https://www.google.com/maps/place/MOD+Pizza/@28.3940277,-81.4844864,17z/data=!3m1!4b1!4m5!3m4!1s0x88dd812165b5aaeb:0x64aba55e9ff27974!8m2!3d28.3940277!4d-81.4844864",
MOD Pizza,228 South Randall Rd,ALGONQUIN,IL,60102,2242468178.0,"https://www.google.com/maps/place/MOD+Pizza/@42.1727526,-88.3360422,17z/data=!3m1!4b1!4m5!3m4!1s0x880f1331ff0f2309:0xd3739827ee3ad417!8m2!3d42.1727526!4d-88.3360422",
MOD Pizza,1190 South Randall Rd,ELGIN,IL,60123,2242042970.0,"https://www.google.com/maps/place/MOD+Pizza/@42.002351,-88.33689,17z/data=!3m1!4b1!4m5!3m4!1s0x880f1b653fd034a1:0xf9efb44187a3cab1!8m2!3d42.002351!4d-88.33689",
MOD Pizza,300 Northpark Dr,HUMBLE,TX,77339,3463237138.0,"https://www.google.com/maps/place/MOD+Pizza/@30.0696764,-95.2427472,17z/data=!3m1!4b1!4m5!3m4!1s0x86474d4972935a2b:0xed78f1b80518a327!8m2!3d30.0696764!4d-95.2427472",
MOD Pizza,2210 Fm 663,MIDLOTHIAN,TX,76065,2542674349.0,"https://www.google.com/maps/place/MOD+Pizza/@32.4578309,-96.9947518,17z/data=!3m1!4b1!4m5!3m4!1s0x864ef391512ea6b1:0xea7756d52894518a!8m2!3d32.4578309!4d-96.9947518",
MOD Pizza,4578 West Partridge Hill Ln,RIVERTON,UT,84096,3852471056.0,"https://www.google.com/maps/place/MOD+Pizza/@40.5096888,-112.0002455,17z/data=!3m1!4b1!4m5!3m4!1s0x875285a4b1ef1299:0xf55ca2996b062559!8m2!3d40.5096888!4d-112.0002455",
MOD Pizza,100 Eisenhower Dr,HANOVER,PA,17331,7172205399.0,"https://www.google.com/maps/place/MOD+Pizza/@39.8249575,-76.9968471,17z/data=!3m1!4b1!4m5!3m4!1s0x89c859f8464ae1d1:0xf6aa2f489b2817a2!8m2!3d39.8249575!4d-76.9968471",
MOD Pizza,1037 North Dupont Hwy,DOVER,DE,19901,3022440100.0,"https://www.google.com/maps/place/MOD+Pizza/@39.1852003,-75.5341422,17z/data=!3m1!4b1!4m5!3m4!1s0x89c77b42f3b071c1:0x425bf64c5cfcb160!8m2!3d39.1852003!4d-75.5341422",
MOD Pizza,10420 East Independence Blvd,MATTHEWS,NC,28105,7043210310.0,"https://www.google.com/maps/place/MOD+Pizza/@35.1258351,-80.7074929,17z/data=!3m1!4b1!4m5!3m4!1s0x885423f6d8ff2b43:0x7fc7d60540a4687!8m2!3d35.1258351!4d-80.7074929",
MOD Pizza,107 Debo Dr,MYRTLE BEACH,SC,29579,8432360798.0,"https://www.google.com/maps/place/MOD+Pizza/@33.7579295,-78.9689724,17z/data=!3m1!4b1!4m5!3m4!1s0x89006c7cb38b61ad:0x8ab04d646172fd5f!8m2!3d33.7579295!4d-78.9689724",
MOD Pizza,111 East Main St,NEWARK,DE,19711,3027818381.0,"https://www.google.com/maps/place/MOD+Pizza/@39.6018218,-75.9230979,10z/data=!4m8!1m2!2m1!1sMOD+Pizza+111+East+Main+St+NEWARK+DE+19711!3m4!1s0x89c7aa3a821bb1b5:0xbbc5ce8d12cf42ab!8m2!3d39.6832405!4d-75.7486227?hl=en",
MOD Pizza,11255 Pines Blvd,HOLLYWOOD,FL,33026,7544655814.0,"https://www.google.com/maps/place/MOD+Pizza/@26.0083359,-80.2987175,17z/data=!3m1!4b1!4m5!3m4!1s0x88d9a78cfc50cdc5:0x703bb8d5cd59370e!8m2!3d26.0083359!4d-80.2987175",
MOD Pizza,1218 West Irvington Rd,TUCSON,AZ,85714,5202140700.0,"https://www.google.com/maps/place/MOD+Pizza/@32.1639707,-110.9907471,17z/data=!3m1!4b1!4m5!3m4!1s0x86d67b4259179975:0xcea770c7737121e9!8m2!3d32.1639707!4d-110.9907471",
MOD Pizza,12274 Jefferson Ave,NEWPORT NEWS,VA,23602,7579331978.0,"https://www.google.com/maps/place/MOD+Pizza/@37.1114337,-76.4980761,17z/data=!3m1!4b1!4m5!3m4!1s0x89b078d6c04236b9:0xcd031e5460bd9211!8m2!3d37.1114337!4d-76.4980761",
MOD Pizza,1261 Water Tower Pl,ARNOLD,MO,63010,3145827707.0,"https://www.google.com/maps/place/MOD+Pizza/@38.4392967,-90.3757128,17z/data=!3m1!4b1!4m5!3m4!1s0x87d8c51d1e344aed:0xe451447a4462fc67!8m2!3d38.4392967!4d-90.3757128",
MOD Pizza,1301 Hill Rd N,PICKERINGTON,OH,43147,6146827454.0,"https://www.google.com/maps/place/MOD+Pizza/@39.9160621,-82.7811626,17z/data=!3m1!4b1!4m5!3m4!1s0x88387b2a5dd82751:0x745b3a52b9b4ac60!8m2!3d39.9160621!4d-82.7811626",
MOD Pizza,13156 Newcastle Commons Dr,RENTON,WA,98059,4254486602.0,"https://www.google.com/maps/place/MOD+Pizza/@47.5437944,-122.1639272,17z/data=!3m1!4b1!4m5!3m4!1s0x54906987307fb45d:0x46f768e18fbb91b9!8m2!3d47.5437944!4d-122.1639272",
MOD Pizza,140 Vintage Way,NOVATO,CA,94945,6282037170.0,"https://www.google.com/maps/place/MOD+Pizza/@38.0908472,-122.5549731,17z/data=!3m1!4b1!4m5!3m4!1s0x8085bcc0b749d931:0x385a8dd441631483!8m2!3d38.0908472!4d-122.5549731",
MOD Pizza,15089 Hall Rd,UTICA,MI,48315,5864863041.0,"https://www.google.com/maps/place/MOD+Pizza/@42.628226,-82.976592,17z/data=!3m1!4b1!4m5!3m4!1s0x8824de6b5c9af517:0xd474dd7b01d4abab!8m2!3d42.628226!4d-82.976592",
MOD Pizza,163 Plaza Dr,VALLEJO,CA,94591,7073509340.0,"https://www.google.com/maps/place/MOD+Pizza/@38.1324589,-122.2184909,17z/data=!3m1!4b1!4m5!3m4!1s0x808572d66a603b6b:0xe78c163bb4a46735!8m2!3d38.1324589!4d-122.2184909",
MOD Pizza,1816 North Main St,SALINAS,CA,93906,8318007003.0,"https://www.google.com/maps/place/MOD+Pizza/@36.7192985,-121.6511853,17z/data=!3m1!4b1!4m5!3m4!1s0x808dff146cfa2c9d:0x26b243320b3846c1!8m2!3d36.7192985!4d-121.6511853",
MOD Pizza,18767 South Nogales Hwy,SAHUARITA,AZ,85614,5202149914.0,"https://www.google.com/maps/place/MOD+Pizza/@31.9089465,-110.9810618,17z/data=!3m1!4b1!4m5!3m4!1s0x86d6852881915931:0xe92e35464aa238d0!8m2!3d31.9089465!4d-110.9810618",
MOD Pizza,2015 Diamond Blvd,CONCORD,CA,94520,9254526190.0,"https://www.google.com/maps/place/MOD+Pizza/@37.9711934,-122.0568129,17z/data=!3m1!4b1!4m5!3m4!1s0x808566c132a52143:0xfe4e02c9f3ae5c8a!8m2!3d37.9711934!4d-122.0568129",
MOD Pizza,20516 Robal Rd,BEND,OR,97701,4582563165.0,"https://www.google.com/maps/place/MOD+Pizza/@44.1037326,-121.2970573,17z/data=!3m1!4b1!4m5!3m4!1s0x54b8cf278cd1adc3:0xa4791d59ca1b7d5b!8m2!3d44.1037326!4d-121.2970573",
MOD Pizza,2102 South 31St St,TEMPLE,TX,76504,2545982054.0,"https://www.google.com/maps/place/MOD+Pizza/@31.0801432,-97.3659414,17z/data=!3m1!4b1!4m5!3m4!1s0x86456b6929c079ed:0x86a971956f75c6e2!8m2!3d31.0801432!4d-97.3659414",
MOD Pizza,2192 North Susquehanna Trl,SELINSGROVE,PA,17870,5702062310.0,"https://www.google.com/maps/place/MOD+Pizza/@40.8375028,-76.8322138,17z/data=!3m1!4b1!4m5!3m4!1s0x89cf3fc95c6187e1:0x69fd4a0b32e50f86!8m2!3d40.8375028!4d-76.8322138",
MOD Pizza,2249 Zeier Rd,MADISON,WI,53704,6082409650.0,"https://www.google.com/maps/place/MOD+Pizza/@43.1290626,-89.3037913,17z/data=!3m1!4b1!4m5!3m4!1s0x8806568b542c8cd7:0xac3e379816cc1398!8m2!3d43.1290626!4d-89.3037913",
MOD Pizza,229 Robert C Daniel Pkwy,AUGUSTA,GA,30909,7067386748.0,"https://www.google.com/maps/place/MOD+Pizza/@33.4905733,-82.0816322,17z/data=!3m1!4b1!4m5!3m4!1s0x88f9d253008112b7:0x737a6d8734a22e3!8m2!3d33.4905733!4d-82.0816322",
MOD Pizza,25680 Northwest Fwy,CYPRESS,TX,77429,2815031575.0,"https://www.google.com/maps/place/MOD+Pizza/@29.9690598,-95.6898843,17z/data=!3m1!4b1!4m5!3m4!1s0x8640d5a333983835:0x5c1eec9bf791a44!8m2!3d29.9690598!4d-95.6898843",
MOD Pizza,2695 Santa Rosa Ave,SANTA ROSA,CA,95407,7073047051.0,"https://www.google.com/maps/place/MOD+Pizza/@38.4117467,-122.7138674,17z/data=!3m1!4b1!4m5!3m4!1s0x808449f8cf8ea2cd:0xcdb14a548b1e76d!8m2!3d38.4117467!4d-122.7138674",
MOD Pizza,3622 Factoria Boulevard SE,BELLEVUE,WA,98006,4253122860.0,"https://www.google.com/maps/place/MOD+Pizza/@47.5779808,-122.1690855,17z/data=!3m1!4b1!4m5!3m4!1s0x54906c002f715da1:0xc26941c4156a254a!8m2!3d47.5779808!4d-122.1690855",
MOD Pizza,381 South Loop 336 W,CONROE,TX,77304,9368284618.0,"https://www.google.com/maps/place/MOD+Pizza/@30.2784087,-95.4664971,17z/data=!3m1!4b1!4m5!3m4!1s0x8647390b7478e50f:0x506aa863d7441329!8m2!3d30.2784087!4d-95.4664971",
MOD Pizza,403 North Stadium Blvd,COLUMBIA,MO,65203,5732508280.0,"https://www.google.com/maps/place/MOD+Pizza/@38.9600582,-92.3719954,17z/data=!3m1!4b1!4m5!3m4!1s0x87dcb740e7b248f5:0xb1718a35ce53cee9!8m2!3d38.9600582!4d-92.3719954",
MOD Pizza,4177 Highway 90,SIERRA VISTA,AZ,85635,5204620495.0,"https://www.google.com/maps/place/MOD+Pizza/@31.555296,-110.2545104,17z/data=!3m1!4b1!4m5!3m4!1s0x86d72ffa28fa4509:0xc5f9fbfd4384e0a!8m2!3d31.555296!4d-110.2545104",
MOD Pizza,4365 Centerplace Dr,GREELEY,CO,80634,9703301344.0,"https://www.google.com/maps/place/MOD+Pizza/@40.395529,-104.74966,17z/data=!3m1!4b1!4m5!3m4!1s0x876ea14b73cf0945:0x644d7dddb269a8e5!8m2!3d40.395529!4d-104.74966",
MOD Pizza,44940 Street Andrews Church Rd,CALIFORNIA,MD,20619,3012457590.0,"https://www.google.com/maps/place/MOD+Pizza/@38.3030653,-76.522909,17z/data=!3m1!4b1!4m5!3m4!1s0x89b763c2f2116427:0x5137a5d9609e668b!8m2!3d38.3030653!4d-76.522909",
MOD Pizza,453 Los Cerritos Ctr,CERRITOS,CA,90703,5624026880.0,"https://www.google.com/maps/place/MOD+Pizza/@33.860682,-118.0930891,17z/data=!3m1!4b1!4m5!3m4!1s0x80dd2d75be058e41:0xa50c0fae4656e258!8m2!3d33.860682!4d-118.0930891",
MOD Pizza,4537 Kingwood Dr,HUMBLE,TX,77345,2813600036.0,"https://www.google.com/maps/place/MOD+Pizza/@30.0516883,-95.1800912,17z/data=!3m1!4b1!4m5!3m4!1s0x8640acd4039c9c61:0xbb0d6e6d449f4b7!8m2!3d30.0516883!4d-95.1800912",
MOD Pizza,5315 North Antioch Rd,KANSAS CITY,MO,64119,8168755090.0,"https://www.google.com/maps/place/MOD+Pizza/@39.1906419,-94.5483516,17z/data=!3m1!4b1!4m5!3m4!1s0x87c0f9ccccde6895:0x88227584b23667f!8m2!3d39.1906419!4d-94.5483516",
MOD Pizza,5318 Sunset Blvd,LEXINGTON,SC,29072,8035200229.0,"https://www.google.com/maps/place/MOD+Pizza/@34.0041348,-81.2079002,17z/data=!3m1!4b1!4m5!3m4!1s0x88f8979d6278c79f:0x3702b458b6265fae!8m2!3d34.0041348!4d-81.2079002",
MOD Pizza,617 North Redwood Rd,SARATOGA SPRINGS,UT,84045,3852471051.0,"https://www.google.com/maps/place/MOD+Pizza/@40.3734438,-111.9169387,17z/data=!3m1!4b1!4m5!3m4!1s0x874d7fd1beaf0b69:0x6b4779c0a5bc63e6!8m2!3d40.3734438!4d-111.9169387",
MOD Pizza,6181 Sawmill Rd,DUBLIN,OH,43017,6143569717.0,"https://www.google.com/maps/place/MOD+Pizza/@40.0934541,-83.09218,17z/data=!3m1!4b1!4m5!3m4!1s0x883892b07b87e0ab:0x7efea75ce4e28a3e!8m2!3d40.0934541!4d-83.09218",
MOD Pizza,626 Haggen Dr,BURLINGTON,WA,98233,3607070800.0,"https://www.google.com/maps/place/MOD+Pizza/@48.4711018,-122.3364987,17z/data=!3m1!4b1!4m5!3m4!1s0x54856dbc0e4c728b:0x1f4135fc617498eb!8m2!3d48.4711018!4d-122.3364987",
MOD Pizza,6470 East State St,ROCKFORD,IL,61108,8159778941.0,"https://www.google.com/maps/place/MOD+Pizza/@42.2685889,-88.990428,17z/data=!3m1!4b1!4m5!3m4!1s0x8808b8e321c68f9d:0x5fb50737cbac021d!8m2!3d42.2685889!4d-88.990428",
MOD Pizza,657 Brawley School Rd,MOORESVILLE,NC,28117,7042300165.0,"https://www.google.com/maps/place/MOD+Pizza/@35.5816384,-80.8773961,17z/data=!3m1!4b1!4m5!3m4!1s0x88515508f109d4dd:0x3ddc8e98d0c69882!8m2!3d35.5816384!4d-80.8773961",
MOD Pizza,10427 Gravelly Lake Drive SW,LAKEWOOD,WA,98499,2535841586.0,"https://www.google.com/maps/place/MOD+Pizza/@47.1620182,-122.5183727,17z/data=!3m1!4b1!4m5!3m4!1s0x549100df697cec8b:0x4b2e7a25a0aed79d!8m2!3d47.1620182!4d-122.5183727",
MOD Pizza,107 Marketplace Cir,GEORGETOWN,KY,40324,5026038092.0,"https://www.google.com/maps/place/MOD+Pizza/@38.1838689,-84.5670093,17z/data=!3m1!4b1!4m5!3m4!1s0x8842419efb1a0c4d:0xd858163448d87bfb!8m2!3d38.1838689!4d-84.5670093",
MOD Pizza,1329 North Battlefield Blvd,CHESAPEAKE,VA,23320,7573662354.0,"https://www.google.com/maps/place/MOD+Pizza/@36.7657801,-76.2511067,17z/data=!3m1!4b1!4m5!3m4!1s0x89babcbc4c6d6b4d:0x7b6485f82a00f2e8!8m2!3d36.7657801!4d-76.2511067",
MOD Pizza,1419 West Lane Rd,MACHESNEY PARK,IL,61115,8159778946.0,"https://www.google.com/maps/place/MOD+Pizza/@42.3649449,-89.0298631,17z/data=!3m1!4b1!4m5!3m4!1s0x8808bc90d58f4b8d:0xaaf6027f20f0e5c0!8m2!3d42.3649449!4d-89.0298631",
MOD Pizza,1581 Fruitville Pike,LANCASTER,PA,17601,7172194550.0,"https://www.google.com/maps/place/MOD+Pizza/@40.0688905,-76.3140024,17z/data=!3m1!4b1!4m5!3m4!1s0x89c6237facd95555:0x3ef89a801363160c!8m2!3d40.0688905!4d-76.3140024",
MOD Pizza,160 West Town Square Way,OAK CREEK,WI,53154,2623300027.0,"https://www.google.com/maps/place/MOD+Pizza/@42.9008444,-87.9148455,17z/data=!3m1!4b1!4m5!3m4!1s0x8805146a70106959:0x4cf6afea4b951166!8m2!3d42.9008444!4d-87.9148455",
MOD Pizza,19075 Ih 45,CONROE,TX,77385,2815031560.0,"https://www.google.com/maps/place/MOD+Pizza/@30.1826606,-95.4513046,17z/data=!3m1!4b1!4m5!3m4!1s0x8647371e82dcc049:0xb2c15be492adad51!8m2!3d30.1826606!4d-95.4513046",
MOD Pizza,1945 Cobb Parkway NW,KENNESAW,GA,30152,4702640050.0,"https://www.google.com/maps/place/MOD+Pizza/@33.9999598,-84.5915377,17z/data=!3m1!4b1!4m5!3m4!1s0x88f51571d151ba8d:0xcab56e68ce0ae4fb!8m2!3d33.9999598!4d-84.5915377",
MOD Pizza,200 North East Terry Ln,GRANTS PASS,OR,97526,5412043806.0,"https://www.google.com/maps/place/MOD+Pizza/@42.4370153,-123.304148,17z/data=!3m1!4b1!4m5!3m4!1s0x54c5792cee5f3f31:0xd566a012a0985e09!8m2!3d42.4370153!4d-123.304148",
MOD Pizza,2085 West Baseline Rd,UPLAND,CA,91784,9095361885.0,"https://www.google.com/maps/place/MOD+Pizza/@34.1224948,-117.6939051,17z/data=!4m5!3m4!1s0x80c331aad32d98f7:0xae268ffbef5ae540!8m2!3d34.1224904!4d-117.6917164?hl=en",
MOD Pizza,21 Conley Rd,COLUMBIA,MO,65201,5732272545.0,"https://www.google.com/maps/place/MOD+Pizza/@38.948897,-92.296327,17z/data=!3m1!4b1!4m5!3m4!1s0x87dcb8195da6a6ef:0x3f466f536dcc043b!8m2!3d38.948897!4d-92.296327",
MOD Pizza,2425 172Nd Street NE,MARYSVILLE,WA,98271,3606184507.0,"https://www.google.com/maps/place/MOD+Pizza/@48.152507,-122.196945,17z/data=!3m1!4b1!4m5!3m4!1s0x5485505a849435c9:0x23db60560819abe!8m2!3d48.152507!4d-122.196945",
MOD Pizza,2502 Blackmon Dr,DECATUR,GA,30033,6782514625.0,"https://www.google.com/maps/place/MOD+Pizza/@33.7951148,-84.2868692,17z/data=!3m1!4b1!4m5!3m4!1s0x88f507744974c79b:0x56855b916fede64!8m2!3d33.7951148!4d-84.2868692",
MOD Pizza,2801 Queensgate Dr,RICHLAND,WA,99352,5096281515.0,"https://www.google.com/maps/place/MOD+Pizza/@46.2588597,-119.31091,17z/data=!3m1!4b1!4m5!3m4!1s0x54987070597a0a55:0x687ebc6319e47671!8m2!3d46.2588597!4d-119.31091",
MOD Pizza,34817 Snoqualmie Pkwy,SNOQUALMIE,WA,98065,4255532707.0,"https://www.google.com/maps/place/MOD+Pizza/@47.5283935,-121.8741739,17z/data=!3m1!4b1!4m5!3m4!1s0x54907baf4790d239:0x1eab618d2609f251!8m2!3d47.5283935!4d-121.8741739",
MOD Pizza,3780 West Ina Rd,TUCSON,AZ,85741,5208006540.0,"https://www.google.com/maps/place/MOD+Pizza/@32.3389913,-111.0456687,17z/data=!3m1!4b1!4m5!3m4!1s0x86d6752aa6cff2a3:0x313b956800f61d8!8m2!3d32.3389913!4d-111.0456687",
MOD Pizza,3861 North Lakewood Blvd,LONG BEACH,CA,90846,5623174671.0,"https://www.google.com/maps/place/MOD+Pizza/@33.8300786,-118.1431638,17z/data=!3m1!4b1!4m5!3m4!1s0x80dd33a7dfac237d:0xcd5b483bd8f34e46!8m2!3d33.8300786!4d-118.1431638",
MOD Pizza,442 Ohio Pike,CINCINNATI,OH,45255,5134493409.0,"https://www.google.com/maps/place/MOD+Pizza/@39.0728383,-84.311972,17z/data=!3m1!4b1!4m5!3m4!1s0x8841a9a757af6e3f:0x50cee68a9f0ee75a!8m2!3d39.0728383!4d-84.311972",
MOD Pizza,4755 Fauntleroy Way SW,SEATTLE,WA,98126,2067453779.0,"https://www.google.com/maps/place/MOD+Pizza/@47.5594951,-122.381882,17z/data=!3m1!4b1!4m5!3m4!1s0x549040fed3a180c1:0xf53347e5712a3c78!8m2!3d47.5594951!4d-122.381882",
MOD Pizza,4945 South Virginia St,RENO,NV,89502,7758260232.0,"https://www.google.com/maps/place/MOD+Pizza/@39.4804755,-119.7913239,17z/data=!3m1!4b1!4m5!3m4!1s0x80994075d125629d:0x8a5e35ed514a5ecf!8m2!3d39.4804755!4d-119.7913239",
MOD Pizza,5040 El Cerrito Plz,EL CERRITO,CA,94530,5103994960.0,"https://www.google.com/maps/place/MOD+Pizza/@37.9005408,-122.3000029,17z/data=!3m1!4b1!4m5!3m4!1s0x8085792337a07c63:0xa365136252cf4cf8!8m2!3d37.9005408!4d-122.3000029",
MOD Pizza,56619 Van Dyke,UTICA,MI,48316,5866844359.0,"https://www.google.com/maps/place/MOD+Pizza/@42.7106916,-83.0358047,17z/data=!3m1!4b1!4m5!3m4!1s0x8824e6f54c9e0fb9:0x2708720c375977bc!8m2!3d42.7106916!4d-83.0358047",
MOD Pizza,651 East Lincoln Hwy,NEW LENOX,IL,60451,7798038129.0,"https://www.google.com/maps/place/MOD+Pizza/@41.5129301,-87.9507567,17z/data=!3m1!4b1!4m5!3m4!1s0x880e69f496078eeb:0xb79cd7ef02c2095d!8m2!3d41.5129301!4d-87.9507567",
MOD Pizza,6654 Ritchie Hwy,GLEN BURNIE,MD,21061,4106185280.0,"https://www.google.com/maps/place/MOD+Pizza/@39.1946409,-76.6140463,17z/data=!3m1!4b1!4m5!3m4!1s0x89b7fd68ea89b911:0xb25b320ddf336e39!8m2!3d39.1946409!4d-76.6140463",
MOD Pizza,7152 South West Hazel Fern Rd,PORTLAND,OR,97224,9712232065.0,"https://www.google.com/maps/place/MOD+Pizza/@45.3953504,-122.7503661,17z/data=!3m1!4b1!4m5!3m4!1s0x54957383a4f82247:0x96324ebabdc84db8!8m2!3d45.3953504!4d-122.7503661",
MOD Pizza,7470 West State St,MILWAUKEE,WI,53213,4142572577.0,"https://www.google.com/maps/place/MOD+Pizza/@43.049099,-88.005581,17z/data=!3m1!4b1!4m5!3m4!1s0x88051b2e69bd036b:0x8a92b7887974bc39!8m2!3d43.049099!4d-88.005581",
MOD Pizza,924 East Ontario,CORONA,CA,92881,9093127850.0,"https://www.google.com/maps/place/MOD+Pizza/@33.8509688,-117.5511602,17z/data=!3m1!4b1!4m5!3m4!1s0x80dcc7f58f2ffae1:0x57d845949baf6ab3!8m2!3d33.8509688!4d-117.5511602",
MOD Pizza,7001 Mechanicsville Tpke,MECHANICSVILLE,VA,23111,8045370081.0,"https://www.google.com/maps/place/MOD+Pizza/@37.6120544,-77.3364169,17z/data=!3m1!4b1!4m5!3m4!1s0x89b1194be729cc2b:0xa660f1186b25c8f6!8m2!3d37.6120544!4d-77.3364169",
MOD Pizza,750 Janes Ave,BOLINGBROOK,IL,60440,6302838740.0,"https://www.google.com/maps/place/MOD+Pizza/@41.721266,-88.0379343,17z/data=!3m1!4b1!4m5!3m4!1s0x880e5bb3e49d2eb5:0xf1cf1c594ffab367!8m2!3d41.721266!4d-88.0379343",
MOD Pizza,770 East Big Beaver Rd,TROY,MI,48083,2482373221.0,"https://www.google.com/maps/place/MOD+Pizza/@42.5624368,-83.1322067,17z/data=!3m1!4b1!4m5!3m4!1s0x8824c5b0566968df:0xf7aeb22ca9441a1!8m2!3d42.5624368!4d-83.1322067",
MOD Pizza,8671 Quioccasin Rd,RICHMOND,VA,23229,8042933844.0,"https://www.google.com/maps/place/MOD+Pizza/@37.6027208,-77.5668312,17z/data=!3m1!4b1!4m5!3m4!1s0x89b16be63f29cb6d:0xbc2bcf47d2f21107!8m2!3d37.6027208!4d-77.5668312",
MOD Pizza,9135 East Northfield Blvd,DENVER,CO,80230,7202426046.0,"https://www.google.com/maps/place/MOD+Pizza/@39.7865056,-104.8821028,17z/data=!3m1!4b1!4m5!3m4!1s0x876c7b049694f4e9:0x13260933987e3e6f!8m2!3d39.7865056!4d-104.8821028",
MOD Pizza,1551 South West Wilshire Blvd,BURLESON,TX,76028,6822049931.0,"https://www.google.com/maps/place/MOD+Pizza/@32.5184156,-97.3495862,17z/data=!3m1!4b1!4m5!3m4!1s0x864e69d54b88fd05:0x1dbbba395beae2f1!8m2!3d32.5184156!4d-97.3495862",
MOD Pizza,3980 Airport Blvd,MOBILE,AL,36608,2513806365.0,"https://www.google.com/maps/place/MOD+Pizza/@30.6765649,-88.1524024,17z/data=!3m1!4b1!4m5!3m4!1s0x889a4deadcc7a391:0x601d1fdc20830532!8m2!3d30.6765649!4d-88.1524024",
MOD Pizza,12027 Rockville Pike,ROCKVILLE,MD,20852,,"https://www.google.com/maps/place/MOD+Pizza/@39.0546868,-77.117144,17z/data=!3m1!4b1!4m5!3m4!1s0x89b7cc33cdb7d767:0x79bdf72e1759a273!8m2!3d39.0546868!4d-77.117144",
MOD Pizza,3101 Heritage Trace Pkwy,FORT WORTH,TX,76177,8176125440.0,"https://www.google.com/maps/place/MOD+Pizza/@32.9150384,-97.3115358,17z/data=!3m1!4b1!4m5!3m4!1s0x864dd9f044f9f71b:0x2409d9ea4392aef7!8m2!3d32.9150384!4d-97.3115358",
MOD Pizza,4050 Yellowstone Ave,POCATELLO,ID,83202,2084171600.0,"https://www.google.com/maps/place/MOD+Pizza/@42.9068652,-112.4653231,17z/data=!3m1!4b1!4m5!3m4!1s0x53554501042a4fb1:0x8630f3032b6ee52c!8m2!3d42.9068652!4d-112.4653231",
MOD Pizza,485 Marketplace Blvd,FORNEY,TX,75126,4697200098.0,"https://www.google.com/maps/place/MOD+Pizza/@32.7474381,-96.4488582,17z/data=!3m1!4b1!4m5!3m4!1s0x864ead810c7b0369:0xd2e9dc835c0d7180!8m2!3d32.7474381!4d-96.4488582",
MOD Pizza,7015 Sligo Dr,MADISON,WI,53717,6085043890.0,"https://www.google.com/maps/place/MOD+Pizza/@43.061069,-89.5034052,17z/data=!3m1!4b1!4m5!3m4!1s0x8807afb22f0c413b:0xf4f98348da96ed5d!8m2!3d43.061069!4d-89.5034052",
MOD Pizza,65 East Foothill Blvd,UPLAND,CA,91786,9093142025.0,"https://www.google.com/maps/place/MOD+Pizza/@34.1083502,-117.6495238,17z/data=!3m1!4b1!4m5!3m4!1s0x80c3317873e95231:0x754b0e688a13535f!8m2!3d34.1083502!4d-117.6495238",
MOD Pizza,1125 10Th Ave S,GREAT FALLS,MT,59405,4065407251.0,"https://www.google.com/maps/place/MOD+Pizza/@47.4945337,-111.2874227,17z/data=!3m1!4b1!4m5!3m4!1s0x5342373201a31081:0xe729b8128e138c31!8m2!3d47.4945337!4d-111.2874227",
MOD Pizza,683 Blue Lakes Blvd N,TWIN FALLS,ID,83301,2083588280.0,"https://www.google.com/maps/place/MOD+Pizza/@42.5738562,-114.4608466,17z/data=!3m1!4b1!4m5!3m4!1s0x54aca38d9c2dd16f:0x1e5cbed920ea92a3!8m2!3d42.5738562!4d-114.4608466",
MOD Pizza,600 North Milwaukee St,BOISE,ID,83704,,"https://www.google.com/maps/place/MOD+Pizza/@43.6105313,-116.2838307,17z/data=!3m1!4b1!4m5!3m4!1s0x54ae57bdb8643a85:0x224727403822cba3!8m2!3d43.6105313!4d-116.2838307",
MOD Pizza,1450 Capital Dr,PEWAUKEE,WI,53072,2622648284.0,"https://www.google.com/maps/place/MOD+Pizza/@43.082839,-88.2275571,17z/data=!3m1!4b1!4m5!3m4!1s0x8805a95310039427:0x41ca617358ce8b8b!8m2!3d43.082839!4d-88.2275571",
MOD Pizza,281 North Edwards Blvd,LAKE GENEVA,WI,53147,2623745440.0,"https://www.google.com/maps/place/MOD+Pizza/@42.5926518,-88.4136668,17z/data=!3m1!4b1!4m5!3m4!1s0x88058ba565b89439:0x7eea22d4f65a30a3!8m2!3d42.5926518!4d-88.4136668",
MOD Pizza,3411 Fremont Ave N,SEATTLE,WA,98103,2064152509.0,"https://www.google.com/maps/place/MOD+Pizza/@47.649923,-122.3500285,17z/data=!3m1!4b1!4m5!3m4!1s0x549015f6726c9e01:0xa19c983b5b052d89!8m2!3d47.649923!4d-122.3500285",
MOD Pizza,4726 Borgen Blvd,GIG HARBOR,WA,98332,,"https://www.google.com/maps/place/MOD+Pizza/@47.3595085,-122.6019103,17z/data=!3m1!4b1!4m5!3m4!1s0x54904db6c9b69435:0x4f81767435a08345!8m2!3d47.3595085!4d-122.6019103",
MOD Pizza,1330 Fry Rd,HOUSTON,TX,77084,3463481175.0,"https://www.google.com/maps/place/MOD+Pizza/@29.7884988,-95.7183965,17z/data=!3m1!4b1!4m5!3m4!1s0x8640d9d8f5400251:0xc12eb3d964350a8e!8m2!3d29.7884988!4d-95.7183965",
MOD Pizza,485 South Legacy Way,SUN PRAIRIE,WI,53590,,"https://www.google.com/maps/place/MOD+Pizza/@43.1699923,-89.2704181,17z/data=!3m1!4b1!4m5!3m4!1s0x880657dfbeef3375:0xe4db09ed2c71c51!8m2!3d43.1699923!4d-89.2704181",
MOD Pizza,2401 East Market St,YORK,PA,17402,7178191950.0,"https://www.google.com/maps/place/MOD+Pizza/@39.9746796,-76.680015,17z/data=!3m1!4b1!4m5!3m4!1s0x89c88f65cb7de4d3:0x8e9ea5b1112a6134!8m2!3d39.9746796!4d-76.680015",
MOD Pizza,1871 North Lake Forest Dr,MCKINNEY,TX,75071,4695450615.0,"https://www.google.com/maps/place/MOD+Pizza/@33.2169437,-96.6828475,17z/data=!3m1!4b1!4m5!3m4!1s0x864c15e8da910001:0x97d6249ebe37b745!8m2!3d33.2169437!4d-96.6828475",
MOD Pizza,202 Occidental Ave S,SEATTLE,WA,98104,2063387356.0,"https://www.google.com/maps/place/MOD+Pizza/@47.6004919,-122.3324771,17z/data=!3m1!4b1!4m5!3m4!1s0x54906bbc5d5f33b3:0xe2e0f4524a446509!8m2!3d47.6004919!4d-122.3324771",
MOD Pizza,3569 28Th St,GRAND RAPIDS,MI,49512,,"https://www.google.com/maps/place/MOD+Pizza/@42.9128584,-85.5796501,17z/data=!3m1!4b1!4m5!3m4!1s0x88184d975de855a1:0xf20e565173e4c7fe!8m2!3d42.9128584!4d-85.5796501",
MOD Pizza,4914 Old Sardis Rd,CHARLOTTE,NC,28211,,"https://www.google.com/maps/place/MOD+Pizza/@35.1552658,-80.7949905,17z/data=!3m1!4b1!4m5!3m4!1s0x88542131292fd97f:0xf5804d1bf24e8a17!8m2!3d35.1552658!4d-80.7949905",
MOD Pizza,23632 El Toro Rd,LAKE FOREST,CA,92630,,"https://www.google.com/maps/place/MOD+Pizza/@33.6188242,-117.7020396,17z/data=!3m1!4b1!4m5!3m4!1s0x80dce91aa1de3133:0x4fc16d780a52f3e0!8m2!3d33.6188242!4d-117.7020396",
MOD Pizza,3300 Alpine Drive NW,GRAND RAPIDS,MI,49544,6168281313.0,"https://www.google.com/maps/place/MOD+Pizza/@43.023267,-85.688435,17z/data=!3m1!4b1!4m5!3m4!1s0x8819a9316a7f0419:0xfae5f270cb66f5c5!8m2!3d43.023267!4d-85.688435",
MOD Pizza,521 East 1000 N,SPANISH FORK,UT,84660,8015154019.0,"https://www.google.com/maps/place/MOD+Pizza/@40.1239026,-111.6452517,17z/data=!3m1!4b1!4m5!3m4!1s0x874dbdf9564560b1:0xb45eb4f5a8ea6b4!8m2!3d40.1239026!4d-111.6452517",
MOD Pizza,1541 Premium Outlets Blvd,NORFOLK,VA,23502,,"https://www.google.com/maps/place/MOD+Pizza/@36.8785358,-76.1941445,17z/data=!3m1!4b1!4m5!3m4!1s0x89ba97b67120ef35:0x89e99890aa10154e!8m2!3d36.8785358!4d-76.1941445",
MOD Pizza,2878 Kilgore Ave,HAMPTON,VA,23666,,"https://www.google.com/maps/place/MOD+Pizza/@37.0427095,-76.3905801,17z/data=!3m1!4b1!4m5!3m4!1s0x89ba83176ac31fbd:0xafb52ff4845b67c6!8m2!3d37.0427095!4d-76.3905801",
MOD Pizza,12585 Cantu Galleano Ranch Rd,MIRA LOMA,CA,91752,9514563148.0,"https://www.google.com/maps/place/MOD+Pizza/@34.0004628,-117.5565794,17z/data=!3m1!4b1!4m5!3m4!1s0x80dccb6ac70d9bd5:0xcd9261a87d5326c4!8m2!3d34.0004628!4d-117.5565794",
MOD Pizza,3626 Market Place W,TACOMA,WA,98466,2532341432.0,"https://www.google.com/maps/place/MOD+Pizza/@47.2251032,-122.5366099,17z/data=!3m1!4b1!4m5!3m4!1s0x5491ab1b3dcead2d:0xe79489d676f73486!8m2!3d47.2251032!4d-122.5366099",
MOD Pizza,1370 East Main St,CARBONDALE,IL,62901,,"https://www.google.com/maps/place/MOD+Pizza/@37.7362332,-89.1883307,17z/data=!3m1!4b1!4m5!3m4!1s0x887711589cc64c87:0xaa54ae2b76b4f22d!8m2!3d37.7362332!4d-89.1883307",
MOD Pizza,215 North Weber Rd,BOLINGBROOK,IL,60490,6304101013.0,"https://www.google.com/maps/place/MOD+Pizza/@41.7008989,-88.1253277,17z/data=!3m1!4b1!4m5!3m4!1s0x880e5936d61f0e53:0xaed7c7dd5b9c455b!8m2!3d41.7008989!4d-88.1253277",
MOD Pizza,1809 Reiserstown Rd,PIKESVILLE,MD,21208,,"https://www.google.com/maps/place/MOD+Pizza/@39.3881322,-76.7360871,17z/data=!3m1!4b1!4m5!3m4!1s0x89c8173a8b233969:0x1c597bdf3662d759!8m2!3d39.3881322!4d-76.7360871",
MOD Pizza,913 Dana Dr,REDDING,CA,96003-4853,5306054727.0,"https://www.google.com/maps/place/MOD+Pizza/@40.5855348,-122.3564563,17z/data=!3m1!4b1!4m5!3m4!1s0x54d2eccd6a7621ff:0xb9c3ed5ad1656093!8m2!3d40.5855348!4d-122.3564563",
MOD Pizza,8855 Ladue Rd,SAINT LOUIS,MO,63124-2009,3143548120.0,"https://www.google.com/maps/place/MOD+Pizza/@38.65392,-90.3520849,17z/data=!3m1!4b1!4m5!3m4!1s0x87df34cb694423f3:0xb26ec6f04ef196d0!8m2!3d38.65392!4d-90.3520849",
MOD Pizza,851 E Ave,CHICO,CA,95926,5306364862.0,"https://www.google.com/maps/place/MOD+Pizza/@39.760596,-121.8448659,17z/data=!3m1!4b1!4m5!3m4!1s0x8082d870a8468119:0xe291afc4c10fcaad!8m2!3d39.760596!4d-121.8448659",
MOD Pizza,8134 Agora Pkwy,SELMA,TX,78154-1317,2105664560.0,"https://www.google.com/maps/place/MOD+Pizza/@29.5650691,-98.3285306,17z/data=!3m1!4b1!4m5!3m4!1s0x865c8d72fd6c41a3:0xbca23b60903ad67e!8m2!3d29.5650691!4d-98.3285306",
MOD Pizza,7051 Yorktown Ave,HUNTINGTON BEACH,CA,92648-2403,7144776298.0,"https://www.google.com/maps/place/MOD+Pizza/@33.6802106,-118.0048957,17z/data=!3m1!4b1!4m5!3m4!1s0x80dd26b23cbd1a61:0x19d0eea0bb1144b7!8m2!3d33.6802106!4d-118.0048957",
MOD Pizza,70 S Waukegan Rd,DEERFIELD,IL,60015-5216,8477706499.0,"https://www.google.com/maps/place/MOD+Pizza/@42.151937,-87.8354336,17z/data=!3m1!4b1!4m5!3m4!1s0x880fc0bf5596aaab:0x4fdc5a7657d391a5!8m2!3d42.151937!4d-87.8354336",
MOD Pizza,6825 S Fry Rd,KATY,TX,77494-8337,8324375524.0,"https://www.google.com/maps/place/MOD+Pizza/@29.714742,-95.7772127,17z/data=!3m1!4b1!4m5!3m4!1s0x8641210153041345:0xe27530e8c0c2a6eb!8m2!3d29.714742!4d-95.7772127",
MOD Pizza,6447 Grand Ave,GURNEE,IL,60031-1615,2246100766.0,"https://www.google.com/maps/place/MOD+Pizza/@42.3845821,-87.9624583,17z/data=!3m1!4b1!4m5!3m4!1s0x880f8e2560a1c9bb:0x8c5ed8f6d7c1b07!8m2!3d42.3845821!4d-87.9624583",
MOD Pizza,6417 Haven Ave,RANCHO CUCAMONGA,CA,91737,9099445029.0,"https://www.google.com/maps/place/MOD+Pizza/@34.1371003,-117.575529,17z/data=!3m1!4b1!4m5!3m4!1s0x80c3364700e285ef:0x3e93e4c211d8871f!8m2!3d34.1371003!4d-117.575529",
MOD Pizza,6400 Ridge Rd,SYKESVILLE,MD,21784-6248,4436091136.0,"https://www.google.com/maps/place/MOD+Pizza/@39.3980776,-76.9353901,17z/data=!3m1!4b1!4m5!3m4!1s0x89c824b72d1610e9:0xd61df57c5d4b9dc0!8m2!3d39.3980776!4d-76.9353901",
MOD Pizza,6091 Mid Rivers Mall Dr,COTTLEVILLE,MO,63376,6363369000.0,"https://www.google.com/maps/place/MOD+Pizza/@38.7446923,-90.636789,17z/data=!3m1!4b1!4m5!3m4!1s0x87ded67b5f61ca6b:0x32d99f4bab6ea059!8m2!3d38.7446923!4d-90.636789",
MOD Pizza,5777 San Felipe St,HOUSTON,TX,77057-3101,7133434758.0,"https://www.google.com/maps/place/MOD+Pizza/@29.7494828,-95.4786172,17z/data=!3m1!4b1!4m5!3m4!1s0x8640c3e1c2567e89:0x895a91e1b9c1a20!8m2!3d29.7494828!4d-95.4786172",
MOD Pizza,5300 Lankershim Blvd,NORTH HOLLYWOOD,CA,91601-3178,8182557425.0,"https://www.google.com/maps/place/MOD+Pizza/@34.1675378,-118.3755908,17z/data=!3m1!4b1!4m5!3m4!1s0x80c295f1f8fb5765:0xea1143e39035e8ae!8m2!3d34.1675378!4d-118.3755908",
MOD Pizza,5263 Prospect Rd,SAN JOSE,CA,95129-5025,4086105411.0,"https://www.google.com/maps/place/MOD+Pizza/@37.2925491,-121.9941288,17z/data=!3m1!4b1!4m5!3m4!1s0x808fb555bf0a6be3:0x1755927ffbd9d9f3!8m2!3d37.2925491!4d-121.9941288",
MOD Pizza,5230 De Zavala Rd,SAN ANTONIO,TX,78249-1696,2108192991.0,"https://www.google.com/maps/place/MOD+Pizza/@29.5634675,-98.5879159,17z/data=!3m1!4b1!4m5!3m4!1s0x865c66dbf1b11043:0x7715d0bfdf39dfe8!8m2!3d29.5634675!4d-98.5879159",
MOD Pizza,5130 Cherry Ave,SAN JOSE,CA,95118-3778,6694005744.0,"https://www.google.com/maps/place/MOD+Pizza/@37.2581563,-121.874574,17z/data=!3m1!4b1!4m5!3m4!1s0x808e33c36a2ce879:0x707011ba4eb22433!8m2!3d37.2581563!4d-121.874574",
MOD Pizza,5128 Yelm Hwy SE,LACEY,WA,98503-5038,3609180023.0,"https://www.google.com/maps/place/MOD+Pizza/@46.9965139,-122.8172793,17z/data=!3m1!4b1!4m5!3m4!1s0x5491733bce62e02b:0xa520e30d8a260de7!8m2!3d46.9965139!4d-122.8172793",
MOD Pizza,4763 Freemansburg Ave,EASTON,PA,18045-5529,4849350006.0,"https://www.google.com/maps/place/MOD+Pizza/@40.6512226,-75.2951341,17z/data=!3m1!4b1!4m5!3m4!1s0x89c41529e73e7b65:0x605f60fc606d783c!8m2!3d40.6512226!4d-75.2951341",
MOD Pizza,4554 NE Cornell Rd,HILLSBORO,OR,97124-6026,5033725834.0,"https://www.google.com/maps/place/MOD+Pizza/@45.5329567,-122.9350009,17z/data=!3m1!4b1!4m5!3m4!1s0x54950560c58bf7e7:0xb1e947f7ac77dc55!8m2!3d45.5329567!4d-122.9350009",
MOD Pizza,4502 S Steele St,TACOMA,WA,98409-7242,2532740663.0,"https://www.google.com/maps/place/MOD+Pizza/@47.2159349,-122.4672423,17z/data=!3m1!4b1!4m5!3m4!1s0x54910001fb7396a9:0x3669a53af47a3cac!8m2!3d47.2159349!4d-122.4672423",
MOD Pizza,4230 Long Beach Blvd,LONG BEACH,CA,90807-2004,5623361787.0,"https://www.google.com/maps/place/MOD+Pizza/@33.8358144,-118.1885596,17z/data=!3m1!4b1!4m5!3m4!1s0x80dd33761e2e0c23:0x96e8bcf4723088a7!8m2!3d33.8358144!4d-118.1885596",
MOD Pizza,9250 76th St,PLEASANT PRAIRIE,WI,53158-2312,2624844060.0,"https://www.google.com/maps/place/MOD+Pizza/@42.56587,-87.9196412,17z/data=!3m1!4b1!4m5!3m4!1s0x8805619923a83c59:0x484ac4eb638296cc!8m2!3d42.56587!4d-87.9196412",
MOD Pizza,909 Ellsworth Dr,SILVER SPRING,MD,20910-4402,2404851570.0,"https://www.google.com/maps/place/MOD+Pizza/@38.9967415,-77.0262242,17z/data=!3m1!4b1!4m5!3m4!1s0x89b7c8ba6b4308f9:0xc723a919138a1cc9!8m2!3d38.9967415!4d-77.0262242",
MOD Pizza,8605 W Grand River Ave,BRIGHTON,MI,48116,5175860345.0,"https://www.google.com/maps/place/MOD+Pizza/@42.5408443,-83.7855672,17z/data=!3m1!4b1!4m5!3m4!1s0x882345604bbba3f9:0x2658b7d59a6feff7!8m2!3d42.5408443!4d-83.7855672",
MOD Pizza,77 E 29th Ave,EUGENE,OR,97405-3623,5415156554.0,"https://www.google.com/maps/place/MOD+Pizza/@44.026469,-123.0900549,17z/data=!3m1!4b1!4m5!3m4!1s0x54c11e54adba6433:0xaf6e3aa745c27797!8m2!3d44.026469!4d-123.0900549",
MOD Pizza,706 Haddonfield Rd,CHERRY HILL,NJ,08002-2652,8564061476.0,"https://www.google.com/maps/place/MOD+Pizza/@39.929577,-75.0313849,17z/data=!3m1!4b1!4m5!3m4!1s0x89c6cbba2ea91b3d:0xb7be53a4507e41a7!8m2!3d39.929577!4d-75.0313849",
MOD Pizza,701 S Capital of Texas Hwy,WEST LAKE HILLS,TX,78746-5243,5127925423.0,"https://www.google.com/maps/place/MOD+Pizza/@30.2902988,-97.8264645,17z/data=!3m1!4b1!4m5!3m4!1s0x865b4a81015fd953:0xa8e3ea7f5544cff!8m2!3d30.2902988!4d-97.8264645",
MOD Pizza,701 N Milwaukee Ave,VERNON HILLS,IL,60061-1556,8472810177.0,"https://www.google.com/maps/place/MOD+Pizza/@42.2391934,-87.9414282,17z/data=!3m1!4b1!4m5!3m4!1s0x880f96729685343b:0x999f714527510c3a!8m2!3d42.2391934!4d-87.9414282",
MOD Pizza,6401 E Lloyd Expy,EVANSVILLE,IN,47715-2796,8126025525.0,"https://www.google.com/maps/place/MOD+Pizza/@37.9754967,-87.4733379,17z/data=!3m1!4b1!4m5!3m4!1s0x886e2b685fcfd2fd:0x44e07be3689e6b63!8m2!3d37.9754967!4d-87.4733379",
MOD Pizza,6351 E Broadway Blvd,TUCSON,AZ,85710-3510,5209086494.0,"https://www.google.com/maps/place/MOD+Pizza/@32.2214947,-110.8559508,17z/data=!3m1!4b1!4m5!3m4!1s0x86d66fa0219350db:0xa76c58ecdd0a39df!8m2!3d32.2214947!4d-110.8559508",
MOD Pizza,5411 Lone Tree Way,BRENTWOOD,CA,94513-5351,9256262020.0,"https://www.google.com/maps/place/MOD+Pizza/@37.9612985,-121.7497766,17z/data=!3m1!4b1!4m5!3m4!1s0x808ff893df863bed:0xa352ee41966df69c!8m2!3d37.9612985!4d-121.7497766",
MOD Pizza,530 Newhall Dr,SAN JOSE,CA,95110-1147,4084181123.0,"https://www.google.com/maps/place/MOD+Pizza/@37.3506595,-121.9225326,17z/data=!3m1!4b1!4m5!3m4!1s0x808fcb9fb1bf69c1:0x25e75995aec8543!8m2!3d37.3506595!4d-121.9225326",
MOD Pizza,513 State Route 9 NE,LAKE STEVENS,WA,98258-9822,4259035965.0,"https://www.google.com/maps/place/MOD+Pizza/@48.0010164,-122.1053513,17z/data=!3m1!4b1!4m5!3m4!1s0x549aab7c5f63b805:0x868036208b08da18!8m2!3d48.0010164!4d-122.1053513",
MOD Pizza,4541 E Sam Houston Pkwy S,PASADENA,TX,77505-3953,2819297483.0,"https://www.google.com/maps/place/MOD+Pizza/@29.6419408,-95.1575598,17z/data=!3m1!4b1!4m5!3m4!1s0x864096b731d81565:0x29255916f37e51c7!8m2!3d29.6419408!4d-95.1575598",
MOD Pizza,4386 N Oracle Rd,TUCSON,AZ,85705-1656,5204485838.0,"https://www.google.com/maps/place/MOD+Pizza/@32.2859713,-110.9748544,17z/data=!3m1!4b1!4m5!3m4!1s0x86d673ea9fa0127f:0x2ecb04c767d5cbaa!8m2!3d32.2859713!4d-110.9748544",
MOD Pizza,4151 N Oakland Ave,SHOREWOOD,WI,53211-2027,4145098350.0,"https://www.google.com/maps/place/MOD+Pizza/@43.0930027,-87.8877405,17z/data=!3m1!4b1!4m5!3m4!1s0x88051f239a626653:0x776f5b153d9c38a4!8m2!3d43.0930027!4d-87.8877405",
MOD Pizza,370 Town Center Dr,YORK,PA,17408-4800,7178552568.0,"https://www.google.com/maps/place/MOD+Pizza/@39.970069,-76.7694803,17z/data=!3m1!4b1!4m5!3m4!1s0x89c88c65c1b53751:0x5b0cfbb2bfaee036!8m2!3d39.970069!4d-76.7694803",
MOD Pizza,3643 N Western Ave,CHICAGO,IL,60618,8722043855.0,"https://www.google.com/maps/place/MOD+Pizza/@41.9478034,-87.6879942,17z/data=!3m1!4b1!4m5!3m4!1s0x880fd2702f30f82d:0xc5e78383e4433e9b!8m2!3d41.9478034!4d-87.6879942",
MOD Pizza,333 S Hamilton Rd,GAHANNA,OH,43230-3349,6149144693.0,"https://www.google.com/maps/place/MOD+Pizza/@40.0106208,-82.8675951,17z/data=!3m1!4b1!4m5!3m4!1s0x88386181026f04a7:0x8c6cc3b4987cbbd7!8m2!3d40.0106208!4d-82.8675951",
MOD Pizza,4025 Welsh Rd,WILLOW GROVE,PA,19090-2901,2679482180.0,"https://www.google.com/maps/place/MOD+Pizza/@40.156328,-75.1410183,17z/data=!3m1!4b1!4m5!3m4!1s0x89c6b01d66229fad:0xd496d02301aac414!8m2!3d40.156328!4d-75.1410183",
MOD Pizza,4025 E Chandler Blvd,PHOENIX,AZ,85048-8829,6024228875.0,"https://www.google.com/maps/place/MOD+Pizza/@33.3047094,-111.9943317,17z/data=!3m1!4b1!4m5!3m4!1s0x872b04615049cca7:0x28aec0697915e6e7!8m2!3d33.3047094!4d-111.9943317",
MOD Pizza,3965 Alton Pkwy,IRVINE,CA,92606-8276,9492657770.0,"https://www.google.com/maps/place/MOD+Pizza/@33.6823722,-117.8133387,17z/data=!3m1!4b1!4m5!3m4!1s0x80dcdc349c3a2f23:0x190f6e623ccf53fc!8m2!3d33.6823722!4d-117.8133387",
MOD Pizza,3741 W Chester Pike,NEWTOWN SQUARE,PA,19073-2337,4844202895.0,"https://www.google.com/maps/place/MOD+Pizza/@39.987077,-75.4057021,17z/data=!3m1!4b1!4m5!3m4!1s0x89c6eba6f63fcb2d:0xdb3e68a0fa14db7c!8m2!3d39.987077!4d-75.4057021",
MOD Pizza,3721 S Moorland Rd,NEW BERLIN,WI,53151-5148,2629012756.0,"https://www.google.com/maps/place/MOD+Pizza/@42.9772433,-88.1090656,17z/data=!3m1!4b1!4m5!3m4!1s0x880508c28a538c9b:0xc8bd39d274beae79!8m2!3d42.9772433!4d-88.1090656",
MOD Pizza,3622 E Highlands Ranch Pkwy,HIGHLANDS RANCH,CO,80126-8100,3034701049.0,"https://www.google.com/maps/place/MOD+Pizza/@39.54258,-104.94748,17z/data=!3m1!4b1!4m5!3m4!1s0x876c838260531fd3:0x9ba82d6a83f49970!8m2!3d39.54258!4d-104.94748",
MOD Pizza,338 S Kirkwood Rd,KIRKWOOD,MO,63122-6166,3142387055.0,"https://www.google.com/maps/place/MOD+Pizza/@38.5774005,-90.406088,17z/data=!3m1!4b1!4m5!3m4!1s0x87d8cc2e47cf59f9:0xb1394e12f97da87e!8m2!3d38.5774005!4d-90.406088",
MOD Pizza,317 Bellevue Way NE,BELLEVUE,WA,98004-5719,4254550141.0,"https://www.google.com/maps/place/MOD+Pizza/@47.6133376,-122.2019533,17z/data=!3m1!4b1!4m5!3m4!1s0x54906c87ae2a7b51:0xf7118cdfd741524c!8m2!3d47.6133376!4d-122.2019533",
MOD Pizza,3085 Breckenridge Ln,LOUISVILLE,KY,40220-2101,5029157810.0,"https://www.google.com/maps/place/MOD+Pizza/@37.9357202,-88.193931,7z/data=!4m8!1m2!2m1!1sMOD+Pizza+LOUISVILLE+KY!3m4!1s0x88690ac1ef8bc253:0x9905d6aacc82da1c!8m2!3d38.2156454!4d-85.6266369?hl=en",
MOD Pizza,2904 S San Tan Village Pkwy,GILBERT,AZ,85295,4802146305.0,"https://www.google.com/maps/place/MOD+Pizza/@33.2968503,-111.743593,17z/data=!3m1!4b1!4m5!3m4!1s0x872bac640057bb8f:0xfd0fb0ea8c0b04f7!8m2!3d33.2968503!4d-111.743593",
MOD Pizza,2902 164th St SW,LYNNWOOD,WA,98087-3201,4257452209.0,"https://www.google.com/maps/place/MOD+Pizza/@47.8496453,-122.2720844,17z/data=!3m1!4b1!4m5!3m4!1s0x549005ad0b339061:0xc9fa0d68d8b32c93!8m2!3d47.8496453!4d-122.2720844",
MOD Pizza,2875 E League City Pkwy,LEAGUE CITY,TX,77573-7158,2813341005.0,"https://www.google.com/maps/place/MOD+Pizza/@29.5076953,-95.0371571,17z/data=!3m1!4b1!4m5!3m4!1s0x863f7d4a974ca531:0x5ad7241e6fd683b0!8m2!3d29.5076953!4d-95.0371571",
MOD Pizza,305 SE Chkalov Dr,VANCOUVER,WA,98683-5292,3609524915.0,"https://www.google.com/maps/place/MOD+Pizza/@45.6187734,-122.55435,17z/data=!3m1!4b1!4m5!3m4!1s0x5495a51a96825bdd:0xec93a17fc8041620!8m2!3d45.6187734!4d-122.55435",
MOD Pizza,305 Harrison St,SEATTLE,WA,98109-4623,2064286315.0,"https://www.google.com/maps/place/MOD+Pizza/@47.6213059,-122.3508285,17z/data=!3m1!4b1!4m5!3m4!1s0x54901545d5e902b1:0x6d2b24a2247ca9e7!8m2!3d47.6213059!4d-122.3508285",
MOD Pizza,300 Route 73 S,MARLTON,NJ,08053-2067,8565520050.0,"https://www.google.com/maps/place/MOD+Pizza/@39.8907496,-74.923892,17z/data=!3m1!4b1!4m5!3m4!1s0x89c13481017651a1:0x7274c265f851b0ba!8m2!3d39.8907496!4d-74.923892",
MOD Pizza,2830 Pinole Valley Rd,PINOLE,CA,94564-1469,5106623172.0,"https://www.google.com/maps/place/MOD+Pizza/@37.9939244,-122.286,17z/data=!3m1!4b1!4m5!3m4!1s0x8085773d32a4fd8d:0xe70b0141c02d24cd!8m2!3d37.9939244!4d-122.286",
MOD Pizza,272 FM 306,NEW BRAUNFELS,TX,78130-2481,8306099040.0,"https://www.google.com/maps/place/MOD+Pizza/@29.7322729,-98.0800361,17z/data=!3m1!4b1!4m5!3m4!1s0x865ca32dc7c3958b:0xad06db9896bdb2b9!8m2!3d29.7322729!4d-98.0800361",
MOD Pizza,2540 NW 188th Ave,HILLSBORO,OR,97124-7448,9713274379.0,"https://www.google.com/maps/place/MOD+Pizza/@45.5385012,-122.8698191,17z/data=!3m1!4b1!4m5!3m4!1s0x54950f429eebba9d:0x3cbda87bfdc7d182!8m2!3d45.5385012!4d-122.8698191",
MOD Pizza,2298 Gable Rd,SAINT HELENS,OR,97051-3023,5034105218.0,"https://www.google.com/maps/place/MOD+Pizza/@45.8486,-122.830637,17z/data=!3m1!4b1!4m5!3m4!1s0x549451c873169411:0xbbb02e2a13909f25!8m2!3d45.8486!4d-122.830637",
MOD Pizza,2020 E Elliot Rd,TEMPE,AZ,85284-1809,6023148166.0,"https://www.google.com/maps/place/MOD+Pizza/@33.3497983,-111.9015597,17z/data=!3m1!4b1!4m5!3m4!1s0x872b07aa5e5dda6d:0xf9b0e498c77ed1d7!8m2!3d33.3497983!4d-111.9015597",
MOD Pizza,17171 Bothell Way NE,LAKE FOREST PARK,WA,98155-4204,2062047760.0,"https://www.google.com/maps/place/MOD+Pizza/@47.7538425,-122.2803739,17z/data=!3m1!4b1!4m5!3m4!1s0x549011b7d9205251:0x3a86a143159d9b60!8m2!3d47.7538425!4d-122.2803739",
MOD Pizza,1568 Highlands Dr NE,ISSAQUAH,WA,98029-6262,4253134663.0,"https://www.google.com/maps/place/MOD+Pizza/@47.5429921,-122.0186432,17z/data=!3m1!4b1!4m5!3m4!1s0x5490657c8eaa186f:0xb1421140f5cf14e3!8m2!3d47.5429921!4d-122.0186432",
MOD Pizza,14303 E Sam Houston Pkwy N,HOUSTON,TX,77044-6393,3462034125.0,"https://www.google.com/maps/place/MOD+Pizza/@29.9280186,-95.2033271,17z/data=!3m1!4b1!4m5!3m4!1s0x8640ae4eaa7c81a3:0x533e30b189d6e498!8m2!3d29.9280186!4d-95.2033271",
MOD Pizza,1414 NE 42nd St,SEATTLE,WA,98105-6271,2066327111.0,"https://www.google.com/maps/place/MOD+Pizza/@47.6585152,-122.3124349,17z/data=!3m1!4b1!4m5!3m4!1s0x549014f3548a136d:0x9f43b3b05bb71a23!8m2!3d47.6585152!4d-122.3124349",
MOD Pizza,2824 N Ramsey Rd,COEUR D ALENE,ID,83815-9004,2082779500.0,"https://www.google.com/maps/place/MOD+Pizza/@47.7036487,-116.8075366,17z/data=!3m1!4b1!4m5!3m4!1s0x5361c6c9d64d72a9:0x28e93630915b086e!8m2!3d47.7036487!4d-116.8075366",
MOD Pizza,2815 Rogers Rd,WAKE FOREST,NC,27587-3893,9192631211.0,"https://www.google.com/maps/place/MOD+Pizza/@35.9532802,-78.5250026,17z/data=!3m1!4b1!4m5!3m4!1s0x89ac517468427215:0xfb518a98948dd6c7!8m2!3d35.9532802!4d-78.5250026",
MOD Pizza,2710 Heartland Crossing Blvd,OWENSBORO,KY,42303-7671,2702402646.0,"https://www.google.com/maps/place/MOD+Pizza/@37.7575811,-87.073145,17z/data=!3m1!4b1!4m5!3m4!1s0x886fbab98bd36a61:0xeca50ed25fdfe32b!8m2!3d37.7575811!4d-87.073145",
MOD Pizza,2341 Forest Dr,ANNAPOLIS,MD,21401-3855,4433219892.0,"https://www.google.com/maps/place/MOD+Pizza/@38.9798005,-76.5449829,17z/data=!3m1!4b1!4m5!3m4!1s0x89b7f6cc46b1d057:0x9b01f651f5ae6031!8m2!3d38.9798005!4d-76.5449829",
MOD Pizza,2135 Ashley Phosphate Rd,NORTH CHARLESTON,SC,29406-4192,8544445100.0,"https://www.google.com/maps/place/MOD+Pizza/@32.9358143,-80.0408785,17z/data=!3m1!4b1!4m5!3m4!1s0x88fe63c5a2252bcd:0x85871750bede79b1!8m2!3d32.9358143!4d-80.0408785",
MOD Pizza,21295 S Ellsworth Loop Rd,QUEEN CREEK,AZ,85142-9866,6024835075.0,"https://www.google.com/maps/place/MOD+Pizza/@33.2551077,-111.6364764,17z/data=!3m1!4b1!4m5!3m4!1s0x872a4d38321615a9:0x1b291d6054da3e70!8m2!3d33.2551077!4d-111.6364764",
MOD Pizza,2100 Arden Way,SACRAMENTO,CA,95825-2216,9165159834.0,"https://www.google.com/maps/place/MOD+Pizza/@38.5947216,-121.4159634,17z/data=!3m1!4b1!4m5!3m4!1s0x809ada3b9aea15f9:0xce0be37a49cecb40!8m2!3d38.5947216!4d-121.4159634",
MOD Pizza,20505 Rand Rd,KILDEER,IL,60047-3004,8473074030.0,"https://www.google.com/maps/place/MOD+Pizza/@42.1624789,-88.0500344,17z/data=!3m1!4b1!4m5!3m4!1s0x880fa30a8fa32bfd:0xb55e35ebc7a9b5b8!8m2!3d42.1624789!4d-88.0500344",
MOD Pizza,1950 Skibo Rd,FAYETTEVILLE,NC,28314-1514,9103542607.0,"https://www.google.com/maps/place/MOD+Pizza/@35.0641142,-78.9690931,17z/data=!3m1!4b1!4m5!3m4!1s0x89ab6b2c9cd1d55f:0x59dda7fa7b7898b2!8m2!3d35.0641142!4d-78.9690931",
MOD Pizza,19151 SE Mill Plain Blvd,VANCOUVER,WA,98683-9308,3602544663.0,"https://www.google.com/maps/place/MOD+Pizza/@45.6162138,-122.4782205,17z/data=!3m1!4b1!4m5!3m4!1s0x5495bb39972b9c6d:0xb736dfb4019f1d3b!8m2!3d45.6162138!4d-122.4782205",
MOD Pizza,1911 Taylor St,HOUSTON,TX,77007-3990,7138624157.0,"https://www.google.com/maps/place/MOD+Pizza/@29.774733,-95.3827106,17z/data=!3m1!4b1!4m5!3m4!1s0x8640b8b2893d1003:0x677c8f529105bfee!8m2!3d29.774733!4d-95.3827106",
MOD Pizza,18821 Traditions Dr,NORTHVILLE,MI,48168-9495,2482773620.0,"https://www.google.com/maps/place/MOD+Pizza/@42.4238421,-83.4338147,17z/data=!3m1!4b1!4m5!3m4!1s0x8824adeccf17d399:0x7a748381bf9af9d8!8m2!3d42.4238421!4d-83.4338147",
MOD Pizza,1302 6th Ave,SEATTLE,WA,98101-2305,2063320200.0,"https://www.google.com/maps/place/MOD+Pizza/@47.6094935,-122.3348362,17z/data=!4m5!3m4!1s0x54906ab416177325:0xdc617bc887b4785a!8m2!3d47.6094899!4d-122.3326475?hl=en",
MOD Pizza,127 Serramonte Center,DALY CITY,CA,94015,6509938796.0,"https://www.google.com/maps/place/MOD+Pizza/@37.671147,-122.4704968,17z/data=!3m1!4b1!4m5!3m4!1s0x808f7b8d5b9dd477:0x5dd48ff715737cb6!8m2!3d37.671147!4d-122.4704968",
MOD Pizza,12196 SW Scholls Ferry Rd,TIGARD,OR,97223-3334,9712300822.0,"https://www.google.com/maps/place/MOD+Pizza/@45.4428591,-122.8010687,17z/data=!3m1!4b1!4m5!3m4!1s0x54950d0633c8a4cb:0x6f70e2b191cd6467!8m2!3d45.4428591!4d-122.8010687",
MOD Pizza,1137 Diamond Cir,LAFAYETTE,CO,80026-8301,7205023486.0,"https://www.google.com/maps/place/MOD+Pizza/@40.0042949,-105.1057135,17z/data=!4m5!3m4!1s0x876bf48a7f27323d:0xa1d92aba74519756!8m2!3d40.0042908!4d-105.1035248?hl=en",
MOD Pizza,11065 Pacific Crest Pl NW,SILVERDALE,WA,98383-6607,3602045641.0,"https://www.google.com/maps/place/MOD+Pizza/@47.6633649,-122.69645,17z/data=!3m1!4b1!4m5!3m4!1s0x54903ac870cd2c67:0x1c3b5fd08582552f!8m2!3d47.6633649!4d-122.69645",
MOD Pizza,103 S Washington St,NAPERVILLE,IL,60540-5451,6305443471.0,"https://www.google.com/maps/place/MOD+Pizza/@41.773704,-88.148131,17z/data=!3m1!4b1!4m5!3m4!1s0x880e57b87a98709d:0x6641f3aec2b71bbe!8m2!3d41.773704!4d-88.148131",
MOD Pizza,10296 Two Notch Rd,COLUMBIA,SC,29229-4386,8034002467.0,"https://www.google.com/maps/place/MOD+Pizza/@34.1239813,-80.8728932,17z/data=!3m1!4b1!4m5!3m4!1s0x88f8abb4ce5908ad:0xbab322cd1e3d9c53!8m2!3d34.1239813!4d-80.8728932",
MOD Pizza,1015 Broadbeck Dr,THOUSAND OAKS,CA,91320-1225,8052147010.0,"https://www.google.com/maps/place/MOD+Pizza/@34.1923807,-118.9377658,17z/data=!3m1!4b1!4m5!3m4!1s0x80e830bbb5e6a095:0x94c8e877a3aaf037!8m2!3d34.1923807!4d-118.9377658",
MOD Pizza,10123 Louetta Rd,HOUSTON,TX,77070-2160,2818265001.0,"https://www.google.com/maps/place/MOD+Pizza/@29.9996322,-95.5617259,17z/data=!3m1!4b1!4m5!3m4!1s0x8640d281c841782b:0xf30d782b40b8cc50!8m2!3d29.9996322!4d-95.5617259",
MOD Pizza,1878 Airport Rd,ALLENTOWN,PA,18109-9545,4844883800.0,"https://www.google.com/maps/place/MOD+Pizza/@40.6397058,-75.4347671,17z/data=!3m1!4b1!4m5!3m4!1s0x89c43f2cb0fc5f4b:0x805d147f0302f8d9!8m2!3d40.6397058!4d-75.4347671",
MOD Pizza,1844 NW Eastman Pkwy,GRESHAM,OR,97030-3846,5033283620.0,"https://www.google.com/maps/place/MOD+Pizza/@45.5102181,-122.4341258,17z/data=!3m1!4b1!4m5!3m4!1s0x549598881ed5562d:0xb6b2e98e1e23ea04!8m2!3d45.5102181!4d-122.4341258",
MOD Pizza,1804 S Signal Butte Rd,MESA,AZ,85209-2727,6022839836.0,"https://www.google.com/maps/place/MOD+Pizza/@33.382516,-111.6003722,17z/data=!3m1!4b1!4m5!3m4!1s0x872bb114a7953d45:0xfbc4471349be5f50!8m2!3d33.382516!4d-111.6003722",
MOD Pizza,168 Maple Ave W,VIENNA,VA,22180-5727,7036791860.0,"https://www.google.com/maps/place/MOD+Pizza/@38.8995685,-77.2667168,17z/data=!3m1!4b1!4m5!3m4!1s0x89b64bc64b988631:0x9cb704b7a0f7e67a!8m2!3d38.8995685!4d-77.2667168",
MOD Pizza,15809 Fountain Plaza Dr,CHESTERFIELD,MO,63017-7468,6365910111.0,"https://www.google.com/maps/place/MOD+Pizza/@38.6052523,-90.5839614,17z/data=!3m1!4b1!4m5!3m4!1s0x87d8d59f46b54a45:0xfad2e0ab8cd350f1!8m2!3d38.6052523!4d-90.5839614",
MOD Pizza,14911 SE McLoughlin Blvd,MILWAUKIE,OR,97267-2824,5038506608.0,"https://www.google.com/maps/place/MOD+Pizza/@45.415058,-122.6318639,17z/data=!3m1!4b1!4m5!3m4!1s0x5495745f4edea9f5:0x59a6f599d58aeddf!8m2!3d45.415058!4d-122.6318639",
MOD Pizza,14555 Memorial Dr,HOUSTON,TX,77079-5429,8327750134.0,"https://www.google.com/maps/place/MOD+Pizza/@29.7696399,-95.6053369,17z/data=!3m1!4b1!4m5!3m4!1s0x8640db82232e25e1:0x1c917ac533fc07d9!8m2!3d29.7696399!4d-95.6053369",
MOD Pizza,14309 NE 20th St,BELLEVUE,WA,98007-3708,4252149903.0,"https://www.google.com/maps/place/MOD+Pizza/@47.6276517,-122.15044,17z/data=!3m1!4b1!4m5!3m4!1s0x54906d00ac43bd71:0x56789a679ca2de5b!8m2!3d47.6276517!4d-122.15044",
MOD Pizza,13941 Promenade Commons St,GAINESVILLE,VA,20155-4074,5712222088.0,"https://www.google.com/maps/place/MOD+Pizza/@38.7891335,-77.6069245,17z/data=!3m1!4b1!4m5!3m4!1s0x89b667ab59a4995b:0x65bc73c60b330fc!8m2!3d38.7891335!4d-77.6069245",
MOD Pizza,1380 N Litchfield Rd,GOODYEAR,AZ,85395-1375,6028125777.0,"https://www.google.com/maps/place/MOD+Pizza/@33.4622204,-112.3594485,17z/data=!3m1!4b1!4m5!3m4!1s0x872b3897b37900f1:0x88ecc3e9d4f51bd8!8m2!3d33.4622204!4d-112.3594485",
MOD Pizza,13229 Middlebelt Rd,LIVONIA,MI,48150,7342450710.0,"https://www.google.com/maps/place/MOD+Pizza/@42.3793968,-83.3341677,17z/data=!3m1!4b1!4m5!3m4!1s0x8824b49e560187cb:0x1b6846ae33a7f12f!8m2!3d42.3793968!4d-83.3341677",
MOD Pizza,1297 Chess Dr,FOSTER CITY,CA,94404-1144,6503501530.0,"https://www.google.com/maps/place/MOD+Pizza/@37.5619499,-122.279001,17z/data=!3m1!4b1!4m5!3m4!1s0x808f9ec5daa54805:0x700d152c8af356cc!8m2!3d37.5619499!4d-122.279001",
MOD Pizza,12311 NE Halsey St,PORTLAND,OR,97230-1926,9712307440.0,"https://www.google.com/maps/place/MOD+Pizza/@45.5341701,-122.5358851,17z/data=!3m1!4b1!4m5!3m4!1s0x5495a3d5bdc144bd:0x3dbdbad022cb4220!8m2!3d45.5341701!4d-122.5358851",
MOD Pizza,11642 Plaza America Dr,RESTON,VA,20190-4700,7036743599.0,"https://www.google.com/maps/place/MOD+Pizza/@38.9513867,-77.3484767,17z/data=!3m1!4b1!4m5!3m4!1s0x89b64823615e3a2d:0x55018881ac10d46!8m2!3d38.9513867!4d-77.3484767",
MOD Pizza,110 NW Sisemore St,BEND,OR,97703-2871,5413174151.0,"https://www.google.com/maps/place/MOD+Pizza/@44.0518587,-121.3109345,17z/data=!3m1!4b1!4m5!3m4!1s0x54b8c62f189625c3:0xf4a349ee57717e87!8m2!3d44.0518587!4d-121.3109345",
MOD Pizza,10893 N Scottsdale Rd,SCOTTSDALE,AZ,85254-5279,6023148297.0,"https://www.google.com/maps/place/MOD+Pizza/@33.5854415,-111.9246122,17z/data=!3m1!4b1!4m5!3m4!1s0x872b74ec5a8f0365:0x7bbe33fc9172b25f!8m2!3d33.5854415!4d-111.9246122",
MOD Pizza,1031 Cochrane Rd,MORGAN HILL,CA,95037-9075,6692580000.0,"https://www.google.com/maps/place/MOD+Pizza/@37.1546148,-121.6507899,17z/data=!3m1!4b1!4m5!3m4!1s0x808e20b605b1b42f:0xe2f3c9a851acabd4!8m2!3d37.1546148!4d-121.6507899",
MOD Pizza,10000 Town Center Ave,COLUMBIA,MD,21044-5418,2408655607.0,"https://www.google.com/maps/place/MOD+Pizza/@39.2139236,-76.8654391,17z/data=!3m1!4b1!4m5!3m4!1s0x89b7dfa213d8a7ab:0x50c31b701cac71d6!8m2!3d39.2139236!4d-76.8654391",
MOD Pizza,18300 Cottonwood Dr,PARKER,CO,80138,7205868558.0,"https://www.google.com/maps/place/MOD+Pizza/@39.5579052,-104.7777504,17z/data=!3m1!4b1!4m5!3m4!1s0x876c8f7561168cc5:0xb6f5f5c8f26baba3!8m2!3d39.5579052!4d-104.7777504",
MOD Pizza,285 Co Road 6 E,ELKHART,IN,46514,5746964138.0,"https://www.google.com/maps/place/MOD+Pizza/@41.7239433,-85.9757025,17z/data=!3m1!4b1!4m5!3m4!1s0x8816dd5dd7737025:0x4b8c5407a2806684!8m2!3d41.7239433!4d-85.9757025",
MOD Pizza,5097 Century Ave,KALAMAZOO,MI,49006,2692167680.0,"https://www.google.com/maps/place/MOD+Pizza/@42.2703095,-85.6504604,17z/data=!3m1!4b1!4m5!3m4!1s0x881777096838f46d:0x5c376efdcf89fa1d!8m2!3d42.2703095!4d-85.6504604",
MOD Pizza,336 Sembler Ln,CARY,NC,27519,9842087015.0,"https://www.google.com/maps/place/MOD+Pizza/@35.8234624,-78.9037722,17z/data=!3m1!4b1!4m5!3m4!1s0x89acedea93509601:0x447bbe6e76ca1043!8m2!3d35.8234624!4d-78.9037722",
MOD Pizza,18817 Limestone Commercial Dr,PFLUGERVILLE,TX,78660,5126681278.0,"https://www.google.com/maps/place/MOD+Pizza/@30.4689098,-97.5955751,17z/data=!3m1!4b1!4m5!3m4!1s0x8644c5419bb41443:0xedae26b73494ca16!8m2!3d30.4689098!4d-97.5955751",
MOD Pizza,1015 South Jack Kultgen Expy,WACO,TX,76706,2542551455.0,"https://www.google.com/maps/place/MOD+Pizza/@31.544607,-97.1295599,17z/data=!4m5!3m4!1s0x864f83dbea43eba9:0xb8ad0a3c96647332!8m2!3d31.5446024!4d-97.1273712?hl=en",
MOD Pizza,26902 92nd Avenue Nw,STANWOOD,WA,98292,3602059680.0,"https://www.google.com/maps/place/MOD+Pizza/@48.2404721,-122.3569502,17z/data=!3m1!4b1!4m5!3m4!1s0x54855ded76d9b411:0x9948a17a9780b01b!8m2!3d48.2404721!4d-122.3569502",
MOD Pizza,2244 Highway 93 N,KALISPELL,MT,59901,4063005737.0,"https://www.google.com/maps/place/MOD+Pizza/@48.2304427,-114.3313889,17z/data=!3m1!4b1!4m5!3m4!1s0x53665b60a7eea03f:0x3937edd71e3a617f!8m2!3d48.2304427!4d-114.3313889",
MOD Pizza,18931 University Blvd,SUGAR LAND,TX,77479,2818434009.0,"https://www.google.com/maps/place/MOD+Pizza/@29.5498581,-95.582164,17z/data=!3m1!4b1!4m5!3m4!1s0x8640e5e000c91101:0xa5a307e8602efb47!8m2!3d29.5498581!4d-95.582164",
MOD Pizza,820 Bay Area Blvd,WEBSTER,TX,77598,2818434011.0,"https://www.google.com/maps/place/MOD+Pizza/@29.543841,-95.1367065,17z/data=!3m1!4b1!4m5!3m4!1s0x86409d28f96f8d4d:0x39e65376cda1ef59!8m2!3d29.543841!4d-95.1367065",
MOD Pizza,10909 Olson Dr,RANCHO CORDOVA,CA,95670,9164317099.0,"https://www.google.com/maps/place/MOD+Pizza/@38.594872,-121.2841553,17z/data=!3m1!4b1!4m5!3m4!1s0x809add6b67412841:0x51386482530fe0d9!8m2!3d38.594872!4d-121.2841553",
MOD Pizza,1148 Fort Union Blvd,MIDVALE,UT,84047,3852472477.0,"https://www.google.com/maps/place/MOD+Pizza/@40.6241299,-111.8601959,17z/data=!3m1!4b1!4m5!3m4!1s0x87528939f49bff31:0x1009ab6f29e1017!8m2!3d40.6241299!4d-111.8601959",
MOD Pizza,11706 Mukilteo Speedway,MUKILTEO,WA,98275,4255532605.0,"https://www.google.com/maps/place/MOD+Pizza/@47.8904694,-122.2871211,17z/data=!3m1!4b1!4m5!3m4!1s0x5490040849e8a323:0xa16507c402a549bc!8m2!3d47.8904694!4d-122.2871211",
MOD Pizza,1200 Emmet St,CHARLOTTESVILLE,VA,22903,4342026461.0,"https://www.google.com/maps/place/MOD+Pizza/@38.0529316,-78.4986187,17z/data=!3m1!4b1!4m5!3m4!1s0x89b387b448cf3b17:0xc208b5558d2194af!8m2!3d38.0529316!4d-78.4986187",
MOD Pizza,12547 Bartram Park Blvd,JACKSONVILLE,FL,32258,9046665190.0,"https://www.google.com/maps/place/MOD+Pizza/@30.140837,-81.546577,17z/data=!3m1!4b1!4m5!3m4!1s0x88e5cc92ce15d7bf:0xf853d5317ee3cd7b!8m2!3d30.140837!4d-81.546577",
MOD Pizza,12650 Totem Lake Blvd,KIRKLAND,WA,98034,4252434840.0,"https://www.google.com/maps/place/MOD+Pizza/@47.7118483,-122.1818421,17z/data=!3m1!4b1!4m5!3m4!1s0x54900d86a70976bf:0x488c8ef76539ef57!8m2!3d47.7118483!4d-122.1818421",
MOD Pizza,13461 Bass Pro Dr,COLORADO SPRINGS,CO,80921,7194873137.0,"https://www.google.com/maps/place/MOD+Pizza/@39.0266363,-104.8239596,17z/data=!3m1!4b1!4m5!3m4!1s0x87134d4af93b5e23:0x5c341092c7f2986!8m2!3d39.0266363!4d-104.8239596",
MOD Pizza,13800 Smoketown Rd,WOODBRIDGE,VA,22192,5712600066.0,"https://www.google.com/maps/place/MOD+Pizza/@38.6531221,-77.3061339,17z/data=!3m1!4b1!4m5!3m4!1s0x89b657df6ee55ee3:0x4a29948a1594b9d!8m2!3d38.6531221!4d-77.3061339",
MOD Pizza,14201 Hull Street Rd,CHESTERFIELD,VA,23832,8042154966.0,"https://www.google.com/maps/place/MOD+Pizza/@37.4036048,-77.6698106,17z/data=!3m1!4b1!4m5!3m4!1s0x89b176ba3e6aeb13:0x90faf2dd8c54c42c!8m2!3d37.4036048!4d-77.6698106",
MOD Pizza,1435 North Loop 1604 W,SAN ANTONIO,TX,78258,2106108850.0,"https://www.google.com/maps/place/MOD+Pizza/@29.60973,-98.5146564,17z/data=!3m1!4b1!4m5!3m4!1s0x865c8a1d55b28273:0x913821dfdd885104!8m2!3d29.60973!4d-98.5146564",
MOD Pizza,1676 Old School House Rd,OCONOMOWOC,WI,53066,2622952770.0,"https://www.google.com/maps/place/MOD+Pizza/@43.0777216,-88.4701024,17z/data=!3m1!4b1!4m5!3m4!1s0x8805b60ffc2277f1:0x8cc42323cf7a4c04!8m2!3d43.0777216!4d-88.4701024",
MOD Pizza,1709 Missouri Blvd,JEFFERSON CITY,MO,65109,5732984200.0,"https://www.google.com/maps/place/MOD+Pizza/@38.5802876,-92.1985555,17z/data=!3m1!4b1!4m5!3m4!1s0x87db5ee5f9b00001:0xae5fd90323cbd303!8m2!3d38.5802876!4d-92.1985555",
MOD Pizza,2035 North Harris Blvd,LAYTON,UT,84041,8019287028.0,"https://www.google.com/maps/place/MOD+Pizza/@41.0895809,-111.9818915,17z/data=!3m1!4b1!4m5!3m4!1s0x875303334efdc1c5:0x318389382b9184d0!8m2!3d41.0895809!4d-111.9818915",
MOD Pizza,2104 South 320Th St,FEDERAL WAY,WA,98003,2062126850.0,"https://www.google.com/maps/place/MOD+Pizza/@47.3155301,-122.3064303,17z/data=!3m1!4b1!4m5!3m4!1s0x549057827b65713d:0x501e4fe095c033fc!8m2!3d47.3155301!4d-122.3064303",
MOD Pizza,2150 Grass Valley Hwy,AUBURN,CA,95603,5308878098.0,"https://www.google.com/maps/place/MOD+Pizza/@38.9337922,-121.091276,17z/data=!3m1!4b1!4m5!3m4!1s0x809b10087969da0b:0x1ccc6e5ba41bdeed!8m2!3d38.9337922!4d-121.091276",
MOD Pizza,21855 Ventura Blvd,WOODLAND HILLS,CA,91364,8186101445.0,"https://www.google.com/maps/place/MOD+Pizza/@34.1687047,-118.6034059,17z/data=!3m1!4b1!4m5!3m4!1s0x80c29e96269e441d:0x3a4b802689317cdf!8m2!3d34.1687047!4d-118.6034059",
MOD Pizza,2682 Naglee Rd,TRACY,CA,95304,2092780056.0,"https://www.google.com/maps/place/MOD+Pizza/@37.7558973,-121.4638044,17z/data=!3m1!4b1!4m5!3m4!1s0x8090180a3d08dd37:0x3c5cc43a2fb286e4!8m2!3d37.7558973!4d-121.4638044",
MOD Pizza,2945 Gulf Fwy S,LEAGUE CITY,TX,77573,2816788097.0,"https://www.google.com/maps/place/MOD+Pizza/@29.4669046,-95.0941749,17z/data=!3m1!4b1!4m5!3m4!1s0x864082fbdab0916d:0x39e53a2b584f87af!8m2!3d29.4669046!4d-95.0941749",
MOD Pizza,3009 South Custer Rd,MC KINNEY,TX,75070,2542674376.0,"https://www.google.com/maps/place/MOD+Pizza/@33.1735023,-96.7322024,17z/data=!3m1!4b1!4m5!3m4!1s0x864c1508a7f9384f:0x592fac1851a4d1b7!8m2!3d33.1735023!4d-96.7322024",
MOD Pizza,3384 Village Dr,CASTRO VALLEY,CA,94546,5108067650.0,"https://www.google.com/maps/place/MOD+Pizza/@37.6968269,-122.0775457,17z/data=!3m1!4b1!4m5!3m4!1s0x808f9225d8f1b93b:0x40105ec6cded3c46!8m2!3d37.6968269!4d-122.0775457",
MOD Pizza,3820 Rainier Ave S,SEATTLE,WA,98118,2069286959.0,"https://www.google.com/maps/place/MOD+Pizza/@47.56922,-122.2898299,17z/data=!3m1!4b1!4m5!3m4!1s0x54906be3ce59f865:0xd3273a1d880e5cb9!8m2!3d47.56922!4d-122.2898299",
MOD Pizza,1000 West North Ave,CHICAGO,IL,60642,3125354240.0,"https://www.google.com/maps/place/MOD+Pizza/@41.8807509,-88.3994822,9z/data=!4m8!1m2!2m1!1sMOD+Pizza+1000+West+North+Ave+CHICAGO+IL+60642!3m4!1s0x880fd3216a085d89:0x1fd807b8a49e5aae!8m2!3d41.9118429!4d-87.6545316?hl=en",
MOD Pizza,10084 Dunkirk Way,DUNKIRK,MD,20754,4435501007.0,"https://www.google.com/maps/place/MOD+Pizza/@38.7165679,-76.6588286,17z/data=!3m1!4b1!4m5!3m4!1s0x89b79b2c39975b07:0xbb1e23a4bf413fdc!8m2!3d38.7165679!4d-76.6588286",
MOD Pizza,1010 East 2100 S,SALT LAKE CITY,UT,84106,3853930201.0,"https://www.google.com/maps/place/MOD+Pizza/@40.72517,-111.86242,17z/data=!3m1!4b1!4m5!3m4!1s0x87528aa6ac400001:0x1bdfac699bb05de9!8m2!3d40.72517!4d-111.86242",
MOD Pizza,10173 West Grand Pkwy S,RICHMOND,TX,77407,8325585534.0,"https://www.google.com/maps/place/MOD+Pizza/@29.6593402,-95.7115782,17z/data=!3m1!4b1!4m5!3m4!1s0x86411f807c70675b:0x59027bbb40edd94d!8m2!3d29.6593402!4d-95.7115782",
MOD Pizza,1021 North Elmhurst Rd,MOUNT PROSPECT,IL,60056,2248777234.0,"https://www.google.com/maps/place/MOD+Pizza/@42.083972,-87.9363806,17z/data=!3m1!4b1!4m5!3m4!1s0x880fbb8593c751c3:0xd30f50ce46b61df6!8m2!3d42.083972!4d-87.9363806",
MOD Pizza,1022 West Ogden Ave,DOWNERS GROVE,IL,60515,6302866775.0,"https://www.google.com/maps/place/MOD+Pizza/@41.809149,-88.0121644,17z/data=!3m1!4b1!4m5!3m4!1s0x880e4fef64c2b3e5:0x37c226197d46b5b0!8m2!3d41.809149!4d-88.0121644",
MOD Pizza,120 Rohrerstown Rd,LANCASTER,PA,17603,7173845888.0,"https://www.google.com/maps/place/MOD+Pizza/@40.0437256,-76.3641315,17z/data=!3m1!4b1!4m5!3m4!1s0x89c62420a684e20b:0x50999bf3aa099f31!8m2!3d40.0437256!4d-76.3641315",
MOD Pizza,12270 Base Line Rd,RANCHO CUCAMONGA,CA,91739,9093130799.0,"https://www.google.com/maps/place/MOD+Pizza/@34.1218357,-117.5377047,17z/data=!3m1!4b1!4m5!3m4!1s0x80c349f9988ae7b1:0x89948f3b21161bd0!8m2!3d34.1218357!4d-117.5377047",
MOD Pizza,1401 North West Lucie West Blvd,PORT SAINT LUCIE,FL,34986,7722814963.0,"https://www.google.com/maps/place/MOD+Pizza/@27.3158892,-80.3909133,17z/data=!3m1!4b1!4m5!3m4!1s0x88deed99c7ce6d43:0x1e7843f98301efde!8m2!3d27.3158892!4d-80.3909133",
MOD Pizza,14030 Fm 2920,TOMBALL,TX,77377,9362091680.0,"https://www.google.com/maps/place/MOD+Pizza/@30.0905182,-95.6336933,17z/data=!3m1!4b1!4m5!3m4!1s0x86472c649e74c5d3:0x2d3ce80a0e16741d!8m2!3d30.0905182!4d-95.6336933",
MOD Pizza,1429 Center Dr,MEDFORD,OR,97501,5414142990.0,"https://www.google.com/maps/place/MOD+Pizza/@42.3093805,-122.851487,17z/data=!3m1!4b1!4m5!3m4!1s0x54cf7b0dffa128d5:0x6d0e8d0fc105c73a!8m2!3d42.3093805!4d-122.851487",
MOD Pizza,146 Sunset Dr,SAN RAMON,CA,94583,9254715799.0,"https://www.google.com/maps/place/MOD+Pizza/@37.762683,-121.962728,17z/data=!3m1!4b1!4m5!3m4!1s0x808ff29c6e720181:0x28a1a6b0e56ff0e!8m2!3d37.762683!4d-121.962728",
MOD Pizza,150 Purcellville Gateway Dr,PURCELLVILLE,VA,20132,5402082090.0,"https://www.google.com/maps/place/MOD+Pizza/@39.136552,-77.692579,17z/data=!3m1!4b1!4m5!3m4!1s0x89b610f15c8fffff:0xbcff45e7eeb82cc1!8m2!3d39.136552!4d-77.692579",
MOD Pizza,15127 Ballancroft Pkwy,CHARLOTTE,NC,28277,9809994900.0,"https://www.google.com/maps/place/MOD+Pizza/@34.1585091,-84.6772116,6z/data=!4m8!1m2!2m1!1sMOD+Pizza+7150+Market+St+WILMINGTON+NC+28411!3m4!1s0x8856837e8a9975e1:0x7d84cf11897afc06!8m2!3d35.0398285!4d-80.8466385?hl=en",
MOD Pizza,1598 South Jordan Pkwy,SOUTH JORDAN,UT,84095,3852746048.0,"https://www.google.com/maps/place/MOD+Pizza/@40.56279,-111.93647,17z/data=!3m1!4b1!4m5!3m4!1s0x8752870a8f6682bf:0x405b06b211929f23!8m2!3d40.56279!4d-111.93647",
MOD Pizza,1731 East Golf Rd,SCHAUMBURG,IL,60173,7082606670.0,"https://www.google.com/maps/place/MOD+Pizza/@42.0501423,-88.0395644,17z/data=!3m1!4b1!4m5!3m4!1s0x880faf9038f163d5:0x4454ec9efd36aece!8m2!3d42.0501423!4d-88.0395644",
MOD Pizza,1937 Foxwood Dr,RAYMORE,MO,64083,8164061787.0,"https://www.google.com/maps/place/MOD+Pizza/@38.8122551,-94.4933258,17z/data=!3m1!4b1!4m5!3m4!1s0x87c0dbf0cafd4abf:0xf75ddfa544ddb27c!8m2!3d38.8122551!4d-94.4933258",
MOD Pizza,2000 East Rio Salado Pkwy,TEMPE,AZ,85281,4804990440.0,"https://www.google.com/maps/place/MOD+Pizza/@33.4323738,-111.9048939,17z/data=!3m1!4b1!4m5!3m4!1s0x872b09aacb798dcb:0x84c93935011b8a45!8m2!3d33.4323738!4d-111.9048939",
MOD Pizza,215 Marketplace Blvd,DAWSONVILLE,GA,30534,7065310090.0,"https://www.google.com/maps/place/MOD+Pizza/@34.3494412,-84.0496437,17z/data=!3m1!4b1!4m5!3m4!1s0x88f589cf1fd11189:0x3d35f3d0b9460718!8m2!3d34.3494412!4d-84.0496437",
MOD Pizza,2168 Spring Stuebner Rd,SPRING,TX,77389,2812889144.0,"https://www.google.com/maps/place/MOD+Pizza/@30.0834973,-95.4515812,17z/data=!3m1!5s0x864734f09aecf4a1:0x104855825c5b3360!4m5!3m4!1s0x864734fb1c6e5175:0x4b382b253ac22c40!8m2!3d30.0834927!4d-95.4493925?hl=en",
MOD Pizza,2227 Sun Vista Dr,LUTZ,FL,33559,8137775524.0,"https://www.google.com/maps/place/MOD+Pizza/@28.1907554,-82.3955559,17z/data=!3m1!4b1!4m5!3m4!1s0x88c2bbcedb7f03a5:0x1568b0141b6f1b71!8m2!3d28.1907554!4d-82.3955559",
MOD Pizza,2235 South East Tualatin Valley Hwy,HILLSBORO,OR,97123,4582187052.0,"https://www.google.com/maps/place/MOD+Pizza/@45.506958,-122.9584276,17z/data=!4m5!3m4!1s0x549511dd30e2cb51:0x347f85746923eeeb!8m2!3d45.5069543!4d-122.9562389?hl=en",
MOD Pizza,2550 Citywest Blvd,HOUSTON,TX,77042,8329758848.0,"https://www.google.com/maps/place/MOD+Pizza/@29.7375071,-95.5614389,17z/data=!3m1!4b1!4m5!3m4!1s0x8640c334d1ec91df:0x14ec803165d81f7a!8m2!3d29.7375071!4d-95.5614389",
MOD Pizza,2577 South Wildcat Way,WOODS CROSS,UT,84087,8016838258.0,"https://www.google.com/maps/place/MOD+Pizza/@40.8620065,-111.8991488,17z/data=!3m1!4b1!4m5!3m4!1s0x8752f7a6af6f231f:0x894b50b0881496e3!8m2!3d40.8620065!4d-111.8991488",
MOD Pizza,2775 North Reserve St,MISSOULA,MT,59808,4069262770.0,"https://www.google.com/maps/place/MOD+Pizza/@46.8913098,-114.0400069,17z/data=!3m1!4b1!4m5!3m4!1s0x535dce442023ea73:0x35eb03169f990a62!8m2!3d46.8913098!4d-114.0400069",
MOD Pizza,3130 North Recker Rd,MESA,AZ,85215,4802101615.0,"https://www.google.com/maps/place/MOD+Pizza/@33.4724551,-111.7017161,17z/data=!3m1!4b1!4m5!3m4!1s0x872ba5d9d461ddbd:0x7c867dab0b019c70!8m2!3d33.4724551!4d-111.7017161",
MOD Pizza,316 Colonades Way,CARY,NC,27518,9192417200.0,"https://www.google.com/maps/place/MOD+Pizza/@35.7392551,-78.7774573,17z/data=!3m1!4b1!4m5!3m4!1s0x89acf328c76f7bd1:0x4250feed6affb8f!8m2!3d35.7392551!4d-78.7774573",
MOD Pizza,3478 Discovery Creek Blvd,SPRING,TX,77386,2815022506.0,"https://www.google.com/maps/place/MOD+Pizza/@30.1070817,-95.3895655,17z/data=!3m1!4b1!4m5!3m4!1s0x86474bdab9ee7063:0x2aa75fcb52e59522!8m2!3d30.1070817!4d-95.3895655",
MOD Pizza,417 Ramsay Way,KENT,WA,98032,2539878070.0,"https://www.google.com/maps/place/MOD+Pizza/@47.384442,-122.235098,17z/data=!3m1!4b1!4m5!3m4!1s0x54905bfe544f97d7:0x7dc0a8f62c470441!8m2!3d47.384442!4d-122.235098",
MOD Pizza,4310 Century Blvd,PITTSBURG,CA,94565,9254715009.0,"https://www.google.com/maps/place/MOD+Pizza/@38.0064704,-121.8430229,17z/data=!3m1!4b1!4m5!3m4!1s0x80855997b3172989:0x148565417320f0fb!8m2!3d38.0064704!4d-121.8430229",
MOD Pizza,4401 Woodberry St,RIVERDALE,MD,20737,2408254256.0,"https://www.google.com/maps/place/MOD+Pizza/@38.970365,-76.9371653,17z/data=!3m1!4b1!4m5!3m4!1s0x89b7c6c316cc54e7:0xfcf2654b29d00406!8m2!3d38.970365!4d-76.9371653",
MOD Pizza,4465 Venetucci Blvd,COLORADO SPRINGS,CO,80906,7195760168.0,"https://www.google.com/maps/place/MOD+Pizza/@38.7670782,-104.7843135,17z/data=!3m1!4b1!4m5!3m4!1s0x87134393c3e5b85d:0x640264c6be0ad886!8m2!3d38.7670782!4d-104.7843135",
MOD Pizza,4780 West University Dr,PROSPER,TX,75078,2149721583.0,"https://www.google.com/maps/place/MOD+Pizza/@33.2201763,-96.8795615,17z/data=!3m1!4b1!4m5!3m4!1s0x864c15714448e82d:0xd56516adcb54ce3d!8m2!3d33.2201763!4d-96.8795615",
MOD Pizza,509 Mount Hood St,THE DALLES,OR,97058,5412466465.0,"https://www.google.com/maps/place/MOD+Pizza/@45.6053804,-121.1964152,17z/data=!3m1!4b1!4m5!3m4!1s0x54961dd6210189bb:0xcc0168bb601a3e00!8m2!3d45.6053804!4d-121.1964152",
MOD Pizza,5466 Wyndham Forest Dr,GLEN ALLEN,VA,23059,8042150974.0,"https://www.google.com/maps/place/MOD+Pizza/@37.684805,-77.5864011,17z/data=!3m1!4b1!4m5!3m4!1s0x89b140418b218241:0x92cc4e2b29f2fccd!8m2!3d37.684805!4d-77.5864011",
MOD Pizza,5840 Roswell Rd,ATLANTA,GA,30342,4049753455.0,"https://www.google.com/maps/place/MOD+Pizza/@33.9146143,-84.3802864,17z/data=!3m1!4b1!4m5!3m4!1s0x88f50e94bbb8b957:0x500dd4ef5b5f43b6!8m2!3d33.9146143!4d-84.3802864",
MOD Pizza,599 Pacific Dr,AMERICAN FORK,UT,84003,8019800741.0,"https://www.google.com/maps/place/MOD+Pizza/@40.3829384,-111.8140269,17z/data=!3m1!4b1!4m5!3m4!1s0x874d81a19e0f1203:0x5c8c8cbccc21bc7c!8m2!3d40.3829384!4d-111.8140269",
MOD Pizza,600 21St St,LEWISTON,ID,83501,2084941430.0,"https://www.google.com/maps/place/MOD+Pizza/@46.4142062,-117.0028215,17z/data=!3m1!4b1!4m5!3m4!1s0x54a0355015e8dedb:0x38a70fac93a372aa!8m2!3d46.4142062!4d-117.0028215",
MOD Pizza,6157 South State St,SALT LAKE CITY,UT,84107,3853896220.0,"https://www.google.com/maps/place/MOD+Pizza/@40.637057,-111.885086,17z/data=!3m1!4b1!4m5!3m4!1s0x875289bd92be6ead:0xb0ee3b7099975f99!8m2!3d40.637057!4d-111.885086",
MOD Pizza,6360 Garth Rd,BAYTOWN,TX,77521,3462331049.0,"https://www.google.com/maps/place/MOD+Pizza/@29.7953823,-94.9773924,17z/data=!3m1!4b1!4m5!3m4!1s0x863f5956f46754b5:0x1b7d5c487711f8e1!8m2!3d29.7953823!4d-94.9773924",
MOD Pizza,6415 West 104Th Ave,BROOMFIELD,CO,80020,7204177300.0,"https://www.google.com/maps/place/MOD+Pizza/@39.8885494,-105.0685528,17z/data=!3m1!4b1!4m5!3m4!1s0x876b8987f63bc35d:0x1bc55a91eb379ddc!8m2!3d39.8885494!4d-105.0685528",
MOD Pizza,3A Peninsula Ctr,PALOS VERDES PENINSULA,CA,90274,3102650100.0,"https://www.google.com/maps/place/MOD+Pizza/@33.7761083,-118.3757861,17z/data=!3m1!4b1!4m5!3m4!1s0x80dd4b90f67e92d9:0x212c86e52e2ca48e!8m2!3d33.7761083!4d-118.3757861",
MOD Pizza,4807 183 A Toll Rd,CEDAR PARK,TX,78613,5125484087.0,"https://www.google.com/maps/place/MOD+Pizza/@30.531545,-97.8184003,17z/data=!3m1!4b1!4m5!3m4!1s0x865b2d3e53a47417:0xf06323de9c5e0374!8m2!3d30.531545!4d-97.8184003",
MOD Pizza,5001 Peachtree Blvd,ATLANTA,GA,30341,4702684244.0,"https://www.google.com/maps/place/MOD+Pizza/@33.8848452,-84.3142873,17z/data=!3m1!4b1!4m5!3m4!1s0x88f509fef6f146b5:0x29236043e4deaa08!8m2!3d33.8848452!4d-84.3142873",
MOD Pizza,5174 Richmond Ave,HOUSTON,TX,77056,8322907723.0,"https://www.google.com/maps/place/MOD+Pizza/@29.7320377,-95.4661784,17z/data=!3m1!4b1!4m5!3m4!1s0x8640c10341931951:0xc85c6ab15b42013c!8m2!3d29.7320377!4d-95.4661784",
MOD Pizza,553 Ritchie Hwy,SEVERNA PARK,MD,21146,4105441872.0,"https://www.google.com/maps/place/MOD+Pizza/@39.0776904,-76.5447685,17z/data=!3m1!4b1!4m5!3m4!1s0x89b7f97fa1831c89:0x15af1ec789431c7c!8m2!3d39.0776904!4d-76.5447685",
MOD Pizza,6535 North Grand Pkwy W,SPRING,TX,77389,8324101997.0,"https://www.google.com/maps/place/MOD+Pizza/@30.0890441,-95.5205101,17z/data=!3m1!4b1!4m5!3m4!1s0x864732ffdc0913f7:0x6673a203037ef1b4!8m2!3d30.0890441!4d-95.5205101",
MOD Pizza,6622 North Landmark Dr,PARK CITY,UT,84098,4352556300.0,"https://www.google.com/maps/place/MOD+Pizza/@40.7285237,-111.5485216,17z/data=!3m1!4b1!4m5!3m4!1s0x87526bf4b0a6730d:0x433750d454c7ceac!8m2!3d40.7285237!4d-111.5485216",
MOD Pizza,7621 Edinger Ave,HUNTINGTON BEACH,CA,92647,7147098770.0,"https://www.google.com/maps/place/MOD+Pizza/@33.7071944,-118.2255519,10z/data=!3m1!5s0x80dd26683a892a35:0x7edf0a3acfb5fa35!4m8!1m2!2m1!1sMOD+Pizza+7621+Edinger+Ave+HUNTINGTON+BEACH+CA+92647!3m4!1s0x80dd266830a0772f:0x22f2602ba03cbb67!8m2!3d33.7305088!4d-117.9960741?hl=en",
MOD Pizza,771 Ikea Ct,WEST SACRAMENTO,CA,95605,9165720356.0,"https://www.google.com/maps/place/MOD+Pizza/@38.5896272,-121.5501236,17z/data=!3m1!4b1!4m5!3m4!1s0x809ad43ce3dfda47:0x5f52406efff79772!8m2!3d38.5896272!4d-121.5501236",
MOD Pizza,8211 State Highway 151,SAN ANTONIO,TX,78245,2108176665.0,"https://www.google.com/maps/place/MOD+Pizza/@29.438191,-98.647647,17z/data=!3m1!4b1!4m5!3m4!1s0x865c5d9c124f01b5:0x4139325ed3efeb14!8m2!3d29.438191!4d-98.647647",
MOD Pizza,8525 Mills Dr,MIAMI,FL,33183,7863532923.0,"https://www.google.com/maps/place/MOD+Pizza/@25.6879168,-80.3859587,17z/data=!3m1!4b1!4m5!3m4!1s0x88d9c0c2cf80aa39:0x53ee0dba37f44ceb!8m2!3d25.6879168!4d-80.3859587",
MOD Pizza,9315 Spencer Hwy,DEER PARK,TX,77536,8328353137.0,"https://www.google.com/maps/place/MOD+Pizza/@29.6647684,-95.0948787,17z/data=!3m1!4b1!4m5!3m4!1s0x86409fa311f00ca3:0x2279a5b6a4d0ada!8m2!3d29.6647684!4d-95.0948787",
MOD Pizza,970 South Waukegan Rd,WAUKEGAN,IL,60085,2246100218.0,"https://www.google.com/maps/place/MOD+Pizza/@42.3415402,-87.8959209,17z/data=!3m1!4b1!4m5!3m4!1s0x880f925641ced4df:0xd933d89bc8fd4523!8m2!3d42.3415402!4d-87.8959209",
MOD Pizza,6720 Old Monroe Rd,INDIAN TRAIL,NC,28079,7047515566.0,"https://www.google.com/maps/place/MOD+Pizza/@35.047902,-80.6471642,17z/data=!3m1!4b1!4m5!3m4!1s0x88542546c72d5f45:0xe2cbb053d8768db7!8m2!3d35.047902!4d-80.6471642",
MOD Pizza,7060 Lakeland Hills Way,AUBURN,WA,98092,2533877104.0,"https://www.google.com/maps/place/MOD+Pizza/@47.2442074,-122.2082743,17z/data=!3m1!4b1!4m5!3m4!1s0x5490f9d9014df771:0x56260196fef1a95b!8m2!3d47.2442074!4d-122.2082743",
MOD Pizza,711 West 40Th St,BALTIMORE,MD,21211,6672171280.0,"https://www.google.com/maps/place/MOD+Pizza/@39.3363073,-76.630284,17z/data=!3m1!4b1!4m5!3m4!1s0x89c8052f5a555555:0x6466ee05b83d85cd!8m2!3d39.3363073!4d-76.630284",
MOD Pizza,7135 South Kingery Hwy,WILLOWBROOK,IL,60527,6304682099.0,"https://www.google.com/maps/place/MOD+Pizza/@41.7601509,-87.9441618,17z/data=!3m1!4b1!4m5!3m4!1s0x880e4f47cf2dbfad:0x102f8107f4d3c2e1!8m2!3d41.7601509!4d-87.9441618",
MOD Pizza,7171 North State Road 7,POMPANO BEACH,FL,33067,7548121192.0,"https://www.google.com/maps/place/MOD+Pizza/@26.3187477,-80.2033358,17z/data=!3m1!4b1!4m5!3m4!1s0x88d91b761b8fc2e9:0xc05a593c1459686!8m2!3d26.3187477!4d-80.2033358",
MOD Pizza,7616 US Highway 72,MADISON,AL,35758,2569704441.0,"https://www.google.com/maps/place/MOD+Pizza/@34.7559735,-86.7337596,17z/data=!3m1!4b1!4m5!3m4!1s0x8862689909b29c29:0x59e67b6865d2b14c!8m2!3d34.7559735!4d-86.7337596",
MOD Pizza,841 West Riverdale Rd,OGDEN,UT,84405,3853892124.0,"https://www.google.com/maps/place/MOD+Pizza/@41.1783201,-111.9993797,17z/data=!3m1!4b1!4m5!3m4!1s0x87530f7f48c636ab:0xdd50376b594aab22!8m2!3d41.1783201!4d-111.9993797",
MOD Pizza,8505 Keystone Crossing,INDIANAPOLIS,IN,46240,3172150249.0,"https://www.google.com/maps/place/MOD+Pizza/@39.9107712,-86.1099944,17z/data=!3m1!4b1!4m5!3m4!1s0x886b52b6a6b80a8b:0xebbab388b5492c62!8m2!3d39.9107712!4d-86.1099944",
MOD Pizza,8833 West Sura Ln,MILWAUKEE,WI,53228,2623300028.0,"https://www.google.com/maps/place/MOD+Pizza/@42.9596418,-88.0237429,17z/data=!3m1!4b1!4m5!3m4!1s0x88050f0526776623:0x77a1fe7477821542!8m2!3d42.9596418!4d-88.0237429",
MOD Pizza,917 Norland Ave,CHAMBERSBURG,PA,17201,7172871085.0,"https://www.google.com/maps/place/MOD+Pizza/@39.9416162,-77.6310287,17z/data=!3m1!4b1!4m5!3m4!1s0x89c99e42aa16bd5d:0xae4cf5f665563078!8m2!3d39.9416162!4d-77.6310287",
MOD Pizza,9515 Ralston Rd,ARVADA,CO,80002,7205359407.0,"https://www.google.com/maps/place/MOD+Pizza/@39.8022152,-105.1034021,17z/data=!3m1!4b1!4m5!3m4!1s0x876b870945d5ec69:0x2cb7a7e693587545!8m2!3d39.8022152!4d-105.1034021",
MOD Pizza,9540 South Western Ave,EVERGREEN PARK,IL,60805,8722163890.0,"https://www.google.com/maps/place/MOD+Pizza/@41.7195865,-87.6826142,17z/data=!3m1!4b1!4m5!3m4!1s0x880e2540d465e2f9:0xeb57f950cacaeb5c!8m2!3d41.7195865!4d-87.6826142",
MOD Pizza,9600 South Ih 35,AUSTIN,TX,78748,9514054170.0,"https://www.google.com/maps/place/MOD+Pizza/@30.1612133,-97.7918648,17z/data=!3m1!4b1!4m5!3m4!1s0x865b4cd6f9d12645:0x283eb9d33553f6cb!8m2!3d30.1612133!4d-97.7918648",
MOD Pizza,900 University Ave,RIVERSIDE,CA,92507,9514624083.0,"https://www.google.com/maps/place/MOD+Pizza/@33.9745645,-117.3245204,17z/data=!3m1!4b1!4m5!3m4!1s0x80dcafd134a3545d:0x329eaa896e88c454!8m2!3d33.9745645!4d-117.3245204",
MOD Pizza,1999 Campus Dr,EVANSTON,IL,60208,,"https://www.google.com/maps/place/MOD+Pizza/@42.0533926,-87.6726672,17z/data=!3m1!4b1!4m5!3m4!1s0x880fd19f2f759573:0x7b8006fd88d48f12!8m2!3d42.0533926!4d-87.6726672",
MOD Pizza,2300A Troy Rd,EDWARDSVILLE,IL,62025,6188001256.0,"https://www.google.com/maps/place/MOD+Pizza/@38.7850915,-89.9488342,17z/data=!3m1!4b1!4m5!3m4!1s0x8875f905d593b653:0xa4daa25d16920cbf!8m2!3d38.7850915!4d-89.9488342",
MOD Pizza,3360 Milton Ave,JANESVILLE,WI,53545,6087474215.0,"https://www.google.com/maps/place/MOD+Pizza/@42.7214514,-88.9942086,17z/data=!3m1!4b1!4m5!3m4!1s0x88061134d6e65731:0xbb752619762101af!8m2!3d42.7214514!4d-88.9942086",
MOD Pizza,145 Commerce Square Pl,GAITHERSBURG,MD,20878,2405529850.0,"https://www.google.com/maps/place/MOD+Pizza/@39.1222581,-77.2342901,17z/data=!3m1!4b1!4m5!3m4!1s0x89b62df59cf0f5ab:0x6bec0f5d5b31a6f5!8m2!3d39.1222581!4d-77.2342901",
MOD Pizza,2200 Market Place Dr,MONTEBELLO,CA,90640,3235974402.0,"https://www.google.com/maps/place/MOD+Pizza/@34.0359092,-118.1042575,17z/data=!3m1!4b1!4m5!3m4!1s0x80c2d1f595fd8a71:0xe5572525ba9afa94!8m2!3d34.0359092!4d-118.1042575",
MOD Pizza,407 West Loop 1604 S,SAN ANTONIO,TX,78245,7267778141.0,"https://www.google.com/maps/place/MOD+Pizza/@29.4278831,-98.7124018,17z/data=!3m1!4b1!4m5!3m4!1s0x865c438e5cfba43f:0x1b075af85e8f2dc5!8m2!3d29.4278831!4d-98.7124018",
MOD Pizza,1013 University Blvd,SUFFOLK,VA,23435,7575387590.0,"https://www.google.com/maps/place/MOD+Pizza/@36.8737975,-76.4226061,17z/data=!3m1!4b1!4m5!3m4!1s0x89babcbc4c2b544b:0x747ea6a6003d1635!8m2!3d36.8737975!4d-76.4226061",
MOD Pizza,1555 Deerfield Pkwy,BUFFALO GROVE,IL,60089,8474254515.0,"https://www.google.com/maps/place/MOD+Pizza/@42.167474,-87.92282,17z/data=!3m1!4b1!4m5!3m4!1s0x880fbf7337a66619:0x66f75020a8dc5ad0!8m2!3d42.167474!4d-87.92282",
MOD Pizza,3119 North Highway 67,FLORISSANT,MO,63033,3143258572.0,"https://www.google.com/maps/place/MOD+Pizza/@38.8098752,-90.2987033,17z/data=!3m1!4b1!4m5!3m4!1s0x87df49e34075f239:0x9f218a7f2b86baf6!8m2!3d38.8098752!4d-90.2987033",
MOD Pizza,1675 East Broad St,MANSFIELD,TX,76063,,"https://www.google.com/maps/place/MOD+Pizza/@32.5696141,-97.1150197,17z/data=!3m1!4b1!4m5!3m4!1s0x864e614f8f8f7001:0xb955b291227cf94c!8m2!3d32.5696141!4d-97.1150197",
MOD Pizza,11440 Midlothian Tpke,RICHMOND,VA,23235,8046217401.0,"https://www.google.com/maps/place/MOD+Pizza/@37.5444184,-77.7832961,10z/data=!4m8!1m2!2m1!1sMOD+Pizza+11440+Midlothian+Tpke+RICHMOND+VA+23235!3m4!1s0x89b16d00293ec851:0xb2316dc5034510ee!8m2!3d37.5060509!4d-77.607084?hl=en",
MOD Pizza,20212 Champion Forest Dr,SPRING,TX,77379,,"https://www.google.com/maps/place/MOD+Pizza/@30.0557628,-95.5735331,17z/data=!3m1!4b1!4m5!3m4!1s0x86472dbc102e64cb:0x5541df83a460755!8m2!3d30.0557628!4d-95.5735331",
MOD Pizza,494 Elden St,HERNDON,VA,20170,,"https://www.google.com/maps/place/MOD+Pizza/@38.9688946,-77.3770121,17z/data=!3m1!4b1!4m5!3m4!1s0x89b637ff48555555:0xb89cb76d0d38296b!8m2!3d38.9688946!4d-77.3770121",
MOD Pizza,19550 Molalla Ave,OREGON CITY,OR,97045,5039085790.0,"https://www.google.com/maps/place/MOD+Pizza/@45.3241382,-122.5796094,17z/data=!3m1!4b1!4m5!3m4!1s0x5495712d3728efff:0x442af7e6ad879236!8m2!3d45.3241382!4d-122.5796094",
MOD Pizza,710 West Pullman Rd,MOSCOW,ID,83843,,"https://www.google.com/maps/place/MOD+Pizza/@46.733881,-117.0106579,17z/data=!3m1!4b1!4m5!3m4!1s0x54a02783f2ec0fdb:0x36d4776203c6e4a6!8m2!3d46.733881!4d-117.0106579",
MOD Pizza,2204 General Booth Blvd,VIRGINIA BEACH,VA,23454,7579383025.0,"https://www.google.com/maps/place/MOD+Pizza/@36.7644752,-76.0148465,17z/data=!3m1!4b1!4m5!3m4!1s0x89bac1bb0fa5eac5:0xb61a8832030595aa!8m2!3d36.7644752!4d-76.0148465",
MOD Pizza,6125 East Sam Houston Pkwy N,HOUSTON,TX,77049,,"https://www.google.com/maps/place/MOD+Pizza/@29.8116543,-95.1647232,17z/data=!3m1!4b1!4m5!3m4!1s0x8640a52636e1148d:0x540e0bc338a21514!8m2!3d29.8116543!4d-95.1647232",
MOD Pizza,8399 Leesburg Pike,VIENNA,VA,22182,7036915855.0,"https://www.google.com/maps/place/MOD+Pizza/@38.923304,-77.2368464,17z/data=!3m1!4b1!4m5!3m4!1s0x89b64b01c29d80eb:0x88f7c446b75eadf8!8m2!3d38.923304!4d-77.2368464",
MOD Pizza,2303 North Pearl St,TACOMA,WA,98406,,"https://www.google.com/maps/place/MOD+Pizza/@47.2691579,-122.5154616,17z/data=!3m1!4b1!4m5!3m4!1s0x549055ba92dc314b:0xcb3dbd25c9b2a3c4!8m2!3d47.2691579!4d-122.5154616",
MOD Pizza,7011 Fm 1960 Rd E,HUMBLE,TX,77346,8329951475.0,"https://www.google.com/maps/place/MOD+Pizza/@29.9989214,-95.1722132,17z/data=!3m1!4b1!4m5!3m4!1s0x8640ad54fac5ce67:0xd78a60614666d706!8m2!3d29.9989214!4d-95.1722132",
MOD Pizza,1090 East Lanca,DOWNINGTOWN,PA,19335,,"https://www.google.com/maps/place/MOD+Pizza/@40.0180581,-75.6771272,17z/data=!3m1!4b1!4m5!3m4!1s0x89c6f5ca8b42eb73:0x5cd22b3db775533!8m2!3d40.0180581!4d-75.6771272",
MOD Pizza,11655 Fm 2154,COLLEGE STATION,TX,77840,9796395540.0,"https://www.google.com/maps/place/MOD+Pizza/@30.5839661,-96.324384,17z/data=!3m1!4b1!4m5!3m4!1s0x864683ef9c31cb05:0x7495da252b216754!8m2!3d30.5839661!4d-96.324384",
MOD Pizza,390 South Capitol Blvd,BOISE,ID,83702,,"https://www.google.com/maps/place/MOD+Pizza/@43.6129264,-116.2038902,17z/data=!3m1!4b1!4m5!3m4!1s0x54aef9fcf8de8213:0xf20357261f716694!8m2!3d43.6129264!4d-116.2038902",
MOD Pizza,3100 Fm 544,WYLIE,TX,75098,,"https://www.google.com/maps/place/MOD+Pizza/@33.0107598,-96.5892541,17z/data=!3m1!4b1!4m5!3m4!1s0x864c1bca345457e1:0xeee2e416d48dd35c!8m2!3d33.0107598!4d-96.5892541",
MOD Pizza,3007 North Glassford Hill Rd,PRESCOTT VALLEY,AZ,86314,,"https://www.google.com/maps/place/MOD+Pizza/@34.5855712,-112.3409652,17z/data=!3m1!4b1!4m5!3m4!1s0x872d25e215d33ce1:0x2b3f1eb3497366a5!8m2!3d34.5855712!4d-112.3409652",
MOD Pizza,2735 Town Center Blvd,SUGAR LAND,TX,77479,,"https://www.google.com/maps/place/MOD+Pizza/@29.5934836,-95.6241527,17z/data=!4m5!3m4!1s0x8640e702162b002d:0x92c232d8f81def17!8m2!3d29.593479!4d-95.621964?hl=en",
MOD Pizza,6622 Fannin St,HOUSTON,TX,77030,,"https://www.google.com/maps/place/MOD+Pizza/@29.7094261,-95.4013742,17z/data=!3m1!4b1!4m5!3m4!1s0x8640c1f9cd20f04d:0x9fcae4c9d97438b1!8m2!3d29.7094261!4d-95.4013742",
MOD Pizza,4300 North 5Th Street Hwy,TEMPLE,PA,19560,,"https://www.google.com/maps/place/MOD+Pizza/@40.3980086,-75.9269452,17z/data=!3m1!4b1!4m5!3m4!1s0x89c677fdc83227ef:0xc64103ec4e374c85!8m2!3d40.3980086!4d-75.9269452",
MOD Pizza,1901 North Goliad St,ROCKWALL,TX,75087,9729475848.0,"https://www.google.com/maps/place/MOD+Pizza/@32.9485983,-96.4625036,17z/data=!3m1!4b1!4m5!3m4!1s0x864c01fca7022b63:0x3a599b35240e9c1e!8m2!3d32.9485983!4d-96.4625036",
MOD Pizza,1003 West University Ave,GEORGETOWN,TX,78628,,"https://www.google.com/maps/place/MOD+Pizza/@30.6324196,-97.6932232,17z/data=!3m1!4b1!4m5!3m4!1s0x8644d7cb75dcfca3:0xa6a8a7a8f0c0d887!8m2!3d30.6324196!4d-97.6932232",
MOD Pizza,3350 North 7Th Ave,PHOENIX,AZ,85013,6026006163.0,"https://www.google.com/maps/place/MOD+Pizza/@33.4870649,-112.0843274,17z/data=!3m1!4b1!4m5!3m4!1s0x872b13302fd6cb61:0xc1069607331907e9!8m2!3d33.4870649!4d-112.0843274",
MOD Pizza,7150 Market St,WILMINGTON,NC,28411,9107822899.0,"https://www.google.com/maps/place/MOD+Pizza/@34.1585091,-84.6772116,6z/data=!4m8!1m2!2m1!1sMOD+Pizza+7150+Market+St+WILMINGTON+NC+28411!3m4!1s0x89a98d1f5fc2e977:0x8d07dbea131eb4e9!8m2!3d34.2709759!4d-77.8196385?hl=en",
