Company Name,Address 1,City,State,Zip,Phone,Google Link,Status
Mountain Mike's Pizza,2306 Almaden Rd,SAN JOSE,CA,95125-2138,4089790900.0,"https://www.google.com/maps/place/Mountain+Mike's+Pizza/@37.290365,-121.8803061,17z/data=!3m1!4b1!4m5!3m4!1s0x808e3373167a578b:0x45f37c1f4ad77218!8m2!3d37.290365!4d-121.8803061",
Mountain Mike's Pizza,550 S Cherokee Ln,LODI,CA,95240-4255,2093330173.0,"https://www.google.com/maps/place/Mountain+Mike's+Pizza/@38.1283472,-121.2615616,17z/data=!4m5!3m4!1s0x809a9ff9019e83e3:0xa8d2d230a69a1bf5!8m2!3d38.128343!4d-121.2593729?hl=en",
Mountain Mike's Pizza,2751 Shaffer Rd,ATWATER,CA,95301-2226,2093585000.0,"https://www.google.com/maps/place/Mountain+Mike's+Pizza/@37.361572,-120.596079,17z/data=!3m1!4b1!4m5!3m4!1s0x80916b12bcb79809:0xe54a6c4c1f9f0bd9!8m2!3d37.361572!4d-120.596079",
Mountain Mike's Pizza,151 W McKnight Way,GRASS VALLEY,CA,95945,5302729066.0,"https://www.google.com/maps/place/Mountain+Mike's+Pizza/@39.1990877,-121.0627104,17z/data=!3m1!4b1!4m5!3m4!1s0x809b71c9517bfbab:0xc6d48061ef416424!8m2!3d39.1990877!4d-121.0627104",
Mountain Mike's Pizza,2520 Bell Rd,AUBURN,CA,95603-2502,5308888050.0,"https://www.google.com/maps/place/Mountain+Mike's+Pizza/@38.9439658,-121.0915789,17z/data=!3m1!4b1!4m5!3m4!1s0x809b1010694cc85d:0x58742d1e761ca97d!8m2!3d38.9439658!4d-121.0915789",
Mountain Mike's Pizza,2640 E Barnett Rd,MEDFORD,OR,97504-4301,5417794599.0,"https://www.google.com/maps/place/Mountain+Mike's+Pizza/@42.314935,-122.833926,17z/data=!3m1!4b1!4m5!3m4!1s0x54cf7a76a76d3a3b:0x28ac76c7d989e3f0!8m2!3d42.314935!4d-122.833926",
Mountain Mike's Pizza,1451 Southwest Blvd,ROHNERT PARK,CA,94928-5546,7077954433.0,"https://www.google.com/maps/place/Mountain+Mike's+Pizza/@38.4222391,-122.8888199,11z/data=!4m8!1m2!2m1!1sMountain+Mike's+Pizza+1051+Vine+St+HEALDSBURG+CA+95448-4829!3m4!1s0x80844a5a18d55a6f:0x540add0968fe9cab!8m2!3d38.3384907!4d-122.6867491?hl=en",
Mountain Mike's Pizza,2150 Marina Blvd,SAN LEANDRO,CA,94577-3210,5103525954.0,"https://www.google.com/maps/place/Mountain+Mike's+Pizza/@37.7048861,-122.1794567,17z/data=!3m1!4b1!4m5!3m4!1s0x808f85599d63768b:0x6adafcb7cd06c590!8m2!3d37.7048861!4d-122.1794567",
Mountain Mike's Pizza,699 Lewelling Blvd,SAN LEANDRO,CA,94579-1848,5103511100.0,"https://www.google.com/maps/place/Mountain+Mike's+Pizza/@37.6895825,-122.1399352,17z/data=!3m1!5s0x808f903657ad5f5b:0x7edf0a3ae47bcc85!4m5!3m4!1s0x808f9036213a9713:0xe6bea9ee540ed72c!8m2!3d37.6895783!4d-122.1377465?hl=en",
Mountain Mike's Pizza,130 Hartz Ave,DANVILLE,CA,94526-3315,9255527071.0,"https://www.google.com/maps/place/Mountain+Mike's+Pizza/@37.824089,-122.002119,17z/data=!3m1!4b1!4m5!3m4!1s0x808f8b57c7acb36d:0xf12b3e25f208cfe7!8m2!3d37.824089!4d-122.002119",
Mountain Mike's Pizza,5358 Clayton Rd,CONCORD,CA,94521-3205,9256894965.0,"https://www.google.com/maps/place/Mountain+Mike's+Pizza/@37.952507,-121.959907,17z/data=!3m1!4b1!4m5!3m4!1s0x80855e4d744be759:0x8a0108d1d0e3cb97!8m2!3d37.952507!4d-121.959907",
Mountain Mike's Pizza,1160 Arnold Dr,MARTINEZ,CA,94553-6839,9252299090.0,"https://www.google.com/maps/place/Mountain+Mike's+Pizza/@37.9934086,-122.1022947,17z/data=!3m1!4b1!4m5!3m4!1s0x808565c61095b81b:0xf768aea460891795!8m2!3d37.9934086!4d-122.1022947",
Mountain Mike's Pizza,266 Reservation Rd,MARINA,CA,93933-3181,8318832242.0,"https://www.google.com/maps/place/Mountain+Mike's+Pizza/@36.6847768,-121.7948544,17z/data=!3m1!4b1!4m5!3m4!1s0x808dfcdbd6213763:0x284b108e3782cad3!8m2!3d36.6847768!4d-121.7948544",
Mountain Mike's Pizza,3785 W South Jordan Pkwy,SOUTH JORDAN,UT,84095,8018781551.0,"https://www.google.com/maps/place/Mountain+Mike's+Pizza/@40.5608062,-111.9812622,17z/data=!3m1!4b1!4m5!3m4!1s0x87528f61f5a7fb93:0xf25f5941d5122d94!8m2!3d40.5608062!4d-111.9812622",
Mountain Mike's Pizza,1561 S Novato Blvd,NOVATO,CA,94947-4114,4158988800.0,"https://www.google.com/maps/place/Mountain+Mike's+Pizza/@38.1001192,-122.5739727,17z/data=!3m1!5s0x8085bc84aed1db6f:0x88bd1db0a62d14b1!4m5!3m4!1s0x8085bc84a8d2a7b9:0x179694128adb3be!8m2!3d38.100115!4d-122.571784?hl=en",
Mountain Mike's Pizza,85 N Milpitas Blvd,MILPITAS,CA,95035-4402,4089469401.0,"https://www.google.com/maps/place/Mountain+Mike's+Pizza/@37.4343389,-121.9019056,17z/data=!3m1!4b1!4m5!3m4!1s0x808fcf2b271981c5:0xd91cbd6e1a213e82!8m2!3d37.4343389!4d-121.9019056",
Mountain Mike's Pizza,5005 Lone Tree Way,ANTIOCH,CA,94531-8692,9257554343.0,"https://www.google.com/maps/place/Mountain+Mike's+Pizza/@37.9631371,-121.7589152,17z/data=!3m1!4b1!4m5!3m4!1s0x808ff88f5563877d:0x2f47647d0db9ea3e!8m2!3d37.9631371!4d-121.7589152",
Mountain Mike's Pizza,5640 Auburn Blvd,SACRAMENTO,CA,95841-2904,9163311150.0,"https://www.google.com/maps/place/Mountain+Mike's+Pizza/@38.668621,-121.334694,17z/data=!3m1!4b1!4m5!3m4!1s0x809adedf058703d3:0x67c8ac042e359107!8m2!3d38.668621!4d-121.334694",
Mountain Mike's Pizza,3989 Foothills Blvd,ROSEVILLE,CA,95747-8080,9167827575.0,"https://www.google.com/maps/place/Mountain+Mike's+Pizza/@38.750758,-121.307753,17z/data=!3m1!4b1!4m5!3m4!1s0x809b20ff9a0e2f3d:0x3bf439ccdcf8674c!8m2!3d38.750758!4d-121.307753",
Mountain Mike's Pizza,7777 Sunrise Blvd,CITRUS HEIGHTS,CA,95610-2371,9167281111.0,"https://www.google.com/maps/place/Mountain+Mike's+Pizza/@38.7072105,-121.2726821,17z/data=!3m1!4b1!4m5!3m4!1s0x809adfdd465fcb19:0x4ebf2fb57d179708!8m2!3d38.7072105!4d-121.2726821",
Mountain Mike's Pizza,747 1st St,GILROY,CA,95020-4918,4088461900.0,"https://www.google.com/maps/place/Mountain+Mike's+Pizza/@37.0144387,-121.5837001,17z/data=!3m1!4b1!4m5!3m4!1s0x8091e3ccde57f91f:0xdd1e44e08d8c6162!8m2!3d37.0144387!4d-121.5837001",
Mountain Mike's Pizza,261 McCray St,HOLLISTER,CA,95023-4109,8316380401.0,"https://www.google.com/maps/place/Mountain+Mike's+Pizza/@36.8540883,-121.4008475,17z/data=!4m5!3m4!1s0x8091f62cdf4d37e9:0xd1f66688fbbcaba1!8m2!3d36.854084!4d-121.3986588?hl=en",
Mountain Mike's Pizza,7660 La Riviera Dr,SACRAMENTO,CA,95826-5704,9163838300.0,"https://www.google.com/maps/place/Mountain+Mike's+Pizza/@38.556708,-121.409922,17z/data=!3m1!4b1!4m5!3m4!1s0x809adae6150801af:0xad182d14a13312c4!8m2!3d38.556708!4d-121.409922",
Mountain Mike's Pizza,2260 W Grant Line Rd,TRACY,CA,95377-7328,2098368900.0,"https://www.google.com/maps/place/Mountain+Mike's+Pizza/@37.7537537,-121.45841,17z/data=!3m1!4b1!4m5!3m4!1s0x809022a7ca9b3f1d:0x839d09db5c6f274c!8m2!3d37.7537537!4d-121.45841",
Mountain Mike's Pizza,3501 Clayton Rd,CONCORD,CA,94519-2421,9256769000.0,"https://www.google.com/maps/place/Mountain+Mike's+Pizza/@37.971129,-122.012374,17z/data=!3m1!4b1!4m5!3m4!1s0x808560b4e3ed2eeb:0x434ada46aaa1e5b7!8m2!3d37.971129!4d-122.012374",
Mountain Mike's Pizza,12850 Saratoga Sunnyvale Rd,SARATOGA,CA,95070-4221,4087418400.0,"https://www.google.com/maps/place/Mountain+Mike's+Pizza/@37.2817178,-122.0313633,17z/data=!3m1!4b1!4m5!3m4!1s0x808fb52c8b4d1847:0x1b17511e21853617!8m2!3d37.2817178!4d-122.0313633",
Mountain Mike's Pizza,717 E Bidwell St,FOLSOM,CA,95630-3331,9169833331.0,"https://www.google.com/maps/place/Mountain+Mike's+Pizza/@38.6695132,-121.1625464,17z/data=!3m1!5s0x809ae41a3e3b1649:0xe8c76fea4776f560!4m5!3m4!1s0x809ae41729d7b16b:0x4403ab119bd162b0!8m2!3d38.669509!4d-121.1603577?hl=en",
Mountain Mike's Pizza,410 W Harder Rd,HAYWARD,CA,94544-2130,5102640387.0,"https://www.google.com/maps/place/Mountain+Mike's+Pizza/@37.647086,-122.087743,17z/data=!3m1!4b1!4m5!3m4!1s0x808f915445e6cb0f:0xc138977e3442008d!8m2!3d37.647086!4d-122.087743",
Mountain Mike's Pizza,7808 Gerber Rd,SACRAMENTO,CA,95828-4302,9166883737.0,"https://www.google.com/maps/place/Mountain+Mike's+Pizza/@38.4812639,-121.4126703,17z/data=!3m1!4b1!4m5!3m4!1s0x809ac5ba1a573569:0xb06120606cc3f60b!8m2!3d38.4812639!4d-121.4126703",
Mountain Mike's Pizza,1015 Sperry Ave,PATTERSON,CA,95363-9268,2098928400.0,"https://www.google.com/maps/place/Mountain+Mike's+Pizza/@37.4654686,-121.1412812,17z/data=!3m1!4b1!4m5!3m4!1s0x8091b3d8b8c61a31:0x317e0f421211c2ce!8m2!3d37.4654686!4d-121.1412812",
Mountain Mike's Pizza,1304 1st St,LIVERMORE,CA,94550-4202,9259609555.0,"https://www.google.com/maps/place/Mountain+Mike's+Pizza/@37.678884,-121.779786,17z/data=!3m1!4b1!4m5!3m4!1s0x808fe796317bd8b5:0xbf68043150ad1af3!8m2!3d37.678884!4d-121.779786",
Mountain Mike's Pizza,3089 Clairemont Dr,SAN DIEGO,CA,92117-6973,6192756453.0,"https://www.google.com/maps/place/Mountain+Mike's+Pizza/@32.7960639,-117.1925563,17z/data=!3m1!4b1!4m5!3m4!1s0x80dc00193a0b9c39:0x871881e4c8101835!8m2!3d32.7960639!4d-117.1925563",
Mountain Mike's Pizza,8690 Elk Grove Blvd,ELK GROVE,CA,95624-1787,9166855107.0,"https://www.google.com/maps/place/Mountain+Mike's+Pizza/@38.408618,-121.3844685,17z/data=!4m5!3m4!1s0x809ac76b5bd4e9f1:0xa1d4aa72a873cc01!8m2!3d38.4086138!4d-121.3822798?hl=en",
Mountain Mike's Pizza,1348 W Olive Ave,MERCED,CA,95348-1664,2097232142.0,"https://www.google.com/maps/place/Mountain+Mike's+Pizza/@37.3179436,-120.4929575,17z/data=!3m1!4b1!4m5!3m4!1s0x809142488043586f:0x45bccdd1071f1435!8m2!3d37.3179436!4d-120.4929575",
Mountain Mike's Pizza,1722 Mangrove Ave,CHICO,CA,95926-2300,5308931923.0,"https://www.google.com/maps/place/Mountain+Mike's+Pizza/@39.7486751,-121.8423868,17z/data=!3m1!4b1!4m5!3m4!1s0x8083278faf6f250f:0x6ce5abfe0cb3f1a4!8m2!3d39.7486751!4d-121.8423868",
Mountain Mike's Pizza,1901 Oro Dam Blvd E,OROVILLE,CA,95965,5305339660.0,"https://www.google.com/maps/place/Mountain+Mike's+Pizza/@39.5035235,-121.5503357,17z/data=!3m1!4b1!4m5!3m4!1s0x809cb5223f8e8d27:0xa6363100987efbf3!8m2!3d39.5035235!4d-121.5503357",
Mountain Mike's Pizza,972 Admiral Callaghan Ln,VALLEJO,CA,94591-8662,7075156930.0,"https://www.google.com/maps/place/Mountain+Mike's+Pizza/@38.103356,-122.2974448,12z/data=!3m1!5s0x8085732a4bc8d34b:0x7edf0a3a54f4f0b5!4m8!1m2!2m1!1sMountain+Mike's+Pizza+2001+2111+Siolano+Ave+VALLEJO+CA+94590!3m4!1s0x8085732a23799597:0xd29d8cb393ea5ceb!8m2!3d38.1335142!4d-122.2224535?hl=en",
Mountain Mike's Pizza,12178 Yosemite Blvd,WATERFORD,CA,95386-9163,2098745200.0,"https://www.google.com/maps/place/Mountain+Mike's+Pizza/@37.637846,-120.7674559,17z/data=!3m1!4b1!4m5!3m4!1s0x8091026508c96bc5:0x26d03ea28d1186d1!8m2!3d37.637846!4d-120.7674559",
Mountain Mike's Pizza,714 Central Ave,ALAMEDA,CA,94501-3819,5107499499.0,"https://www.google.com/maps/place/Mountain+Mike's+Pizza/@37.771226,-122.276083,17z/data=!3m1!4b1!4m5!3m4!1s0x808f812f7a95aae5:0xab406062708ece62!8m2!3d37.771226!4d-122.276083",
Mountain Mike's Pizza,1051 Vine St,HEALDSBURG,CA,95448-4829,7074332911.0,"https://www.google.com/maps/place/Mountain+Mike's+Pizza/@38.4222391,-122.8888199,11z/data=!4m8!1m2!2m1!1sMountain+Mike's+Pizza+1051+Vine+St+HEALDSBURG+CA+95448-4829!3m4!1s0x80841736c0820a17:0xc86d408be09d0e0c!8m2!3d38.60838!4d-122.872976?hl=en",
Mountain Mike's Pizza,3612 Lone Tree Way,ANTIOCH,CA,94509-6001,9257573080.0,"https://www.google.com/maps/place/Mountain+Mike's+Pizza/@37.9866667,-121.8075,17z/data=!3m1!4b1!4m5!3m4!1s0x80855788db0eac11:0x95f84f63237d7794!8m2!3d37.9866667!4d-121.8075",
Mountain Mike's Pizza,6745 Watt Ave,NORTH HIGHLANDS,CA,95660-3624,9163318077.0,"https://www.google.com/maps/place/Mountain+Mike's+Pizza/@38.690032,-121.384432,17z/data=!3m1!4b1!4m5!3m4!1s0x809ad89c4254d25f:0xdf4b94ebefdb3dd5!8m2!3d38.690032!4d-121.384432",
Mountain Mike's Pizza,509 Pacheco Blvd,LOS BANOS,CA,93635-4229,2098270555.0,"https://www.google.com/maps/place/Mountain+Mike's+Pizza/@37.0566355,-120.8523242,17z/data=!3m1!4b1!4m5!3m4!1s0x80917f1daea43e75:0xed1c81ac6b5ef2e1!8m2!3d37.0566355!4d-120.8523242",
Mountain Mike's Pizza,5019 El Camino Ave,CARMICHAEL,CA,95608-4651,9164861010.0,"https://www.google.com/maps/place/Mountain+Mike's+Pizza/@38.610406,-121.347121,17z/data=!3m1!4b1!4m5!3m4!1s0x809adc0cb83d538b:0x96a3f9e3a6423039!8m2!3d38.610406!4d-121.347121",
Mountain Mike's Pizza,1319 Fulton Ave,SACRAMENTO,CA,95825-3603,9164858314.0,"https://www.google.com/maps/place/Mountain+Mike's+Pizza/@38.5896847,-121.4018173,17z/data=!3m1!4b1!4m5!3m4!1s0x809ada4b0de83e87:0x224befc7650225ae!8m2!3d38.5896847!4d-121.4018173",
Mountain Mike's Pizza,3918 Middlefield Rd,PALO ALTO,CA,94303-4733,6508567855.0,"https://www.google.com/maps/place/Mountain+Mike's+Pizza/@37.4189855,-122.1103602,17z/data=!3m1!4b1!4m5!3m4!1s0x808fba6db10863c5:0x68219b182540723f!8m2!3d37.4189855!4d-122.1103602",
Mountain Mike's Pizza,32170 Dyer St,UNION CITY,CA,94587,5104717171.0,"https://www.google.com/maps/place/Mountain+Mike's+Pizza/@37.598791,-122.070371,17z/data=!3m1!4b1!4m5!3m4!1s0x808f95c51c7bd68f:0x8530f2dbc20b7c9!8m2!3d37.598791!4d-122.070371",
Mountain Mike's Pizza,1120 N Main St,MANTECA,CA,95336-3208,2098231166.0,"https://www.google.com/maps/place/Mountain+Mike's+Pizza/@37.8123016,-121.2155761,17z/data=!3m1!4b1!4m5!3m4!1s0x80904034adbdbbb1:0x64968fb0ee6c64ec!8m2!3d37.8123016!4d-121.2155761",
Mountain Mike's Pizza,3526 Manthey Rd,STOCKTON,CA,95206-5301,2099831853.0,"https://www.google.com/maps/place/Mountain+Mike's+Pizza/@37.9113555,-121.2925139,17z/data=!3m1!4b1!4m5!3m4!1s0x8090131a0d972261:0x9d11dc9052703ac1!8m2!3d37.9113555!4d-121.2925139",
Mountain Mike's Pizza,1532 Branham Ln,SAN JOSE,CA,95118-2301,4087233701.0,"https://www.google.com/maps/place/Mountain+Mike's+Pizza/@37.255792,-121.896919,17z/data=!3m1!4b1!4m5!3m4!1s0x808e33f41a8445a3:0x7f3cd636eac69a3b!8m2!3d37.255792!4d-121.896919",
Mountain Mike's Pizza,26541 Carmel Rancho Blvd,CARMEL,CA,93923,8316241007.0,"https://www.google.com/maps/place/Mountain+Mike's+Pizza/@36.5418326,-121.9061081,17z/data=!3m1!4b1!4m5!3m4!1s0x808de601b30e5cbb:0x9e48ab8f92341c01!8m2!3d36.5418326!4d-121.9061081",
Mountain Mike's Pizza,8951 San Ramon Rd,DUBLIN,CA,94568-1061,9258291670.0,"https://www.google.com/maps/place/Mountain+Mike's+Pizza/@37.7228731,-121.9413855,17z/data=!3m1!4b1!4m5!3m4!1s0x808fec540bcd5c39:0xe6234422b547b82a!8m2!3d37.7228731!4d-121.9413855",
Mountain Mike's Pizza,5424 Sunol Blvd,PLEASANTON,CA,94566-7705,9258463222.0,"https://www.google.com/maps/place/Mountain+Mike's+Pizza/@37.6510381,-121.8786853,17z/data=!3m1!4b1!4m5!3m4!1s0x808fe99540cc046b:0xf2dc3c369ac14c13!8m2!3d37.6510381!4d-121.8786853",
Mountain Mike's Pizza,8801 Greenback Ln,ORANGEVALE,CA,95662-4000,9169896677.0,"https://www.google.com/maps/place/Mountain+Mike's+Pizza/@38.6789517,-121.23004,17z/data=!3m1!4b1!4m5!3m4!1s0x809ae0c315e1f177:0xd70564d6d4978b48!8m2!3d38.6789517!4d-121.23004",
Mountain Mike's Pizza,11000 Brimhall Rd,BAKERSFIELD,CA,93312-3022,6615888818.0,"https://www.google.com/maps/place/Mountain+Mike's+Pizza/@35.369259,-119.125737,17z/data=!3m1!4b1!4m5!3m4!1s0x80ea43c084d418c3:0x3c8ba1865ce5d6bc!8m2!3d35.369259!4d-119.125737",
Mountain Mike's Pizza,2650 Cameron Park Dr,CAMERON PARK,CA,95682-7960,5306769600.0,"https://www.google.com/maps/place/Mountain+Mike's+Pizza/@38.6985554,-120.9969344,17z/data=!3m1!4b1!4m5!3m4!1s0x809afbd3d215519f:0x880eeac58dc811b6!8m2!3d38.6985554!4d-120.9969344",
Mountain Mike's Pizza,1850 Douglas Blvd,ROSEVILLE,CA,95661-3669,9167874300.0,"https://www.google.com/maps/place/Mountain+Mike's+Pizza/@38.7431068,-121.2573013,17z/data=!3m1!4b1!4m5!3m4!1s0x809b1ff6d306913b:0xb49d32a01e724916!8m2!3d38.7431068!4d-121.2573013",
Mountain Mike's Pizza,22942 Ridge Route Dr,LAKE FOREST,CA,92630-3628,9495864141.0,"https://www.google.com/maps/place/Mountain+Mike's+Pizza/@33.628696,-117.7043933,17z/data=!3m1!4b1!4m5!3m4!1s0x80dce85990d46219:0x15f73c49ee101d06!8m2!3d33.628696!4d-117.7043933",
Mountain Mike's Pizza,140 W Ontario Ave,CORONA,CA,92882-5271,9512798000.0,"https://www.google.com/maps/place/Mountain+Mike's+Pizza/@33.8557593,-117.5710728,17z/data=!3m1!4b1!4m5!3m4!1s0x80dcc7e7165bd8e7:0xff91e261bd7f6dc6!8m2!3d33.8557593!4d-117.5710728",
Mountain Mike's Pizza,5632 Stockdale Hwy,BAKERSFIELD,CA,93309-2506,6618692300.0,"https://www.google.com/maps/place/Mountain+Mike's+Pizza/@35.3551879,-119.0644306,17z/data=!3m1!4b1!4m5!3m4!1s0x80ea41f4095e3861:0xb58448a562a0d784!8m2!3d35.3551879!4d-119.0644306",
Mountain Mike's Pizza,2637 Jensen Ave,SANGER,CA,93657-9799,5598759000.0,"https://www.google.com/maps/place/Mountain+Mike's+Pizza/@36.7065086,-119.574707,17z/data=!3m1!4b1!4m5!3m4!1s0x8094f846079f3075:0x5075c5c8f977d772!8m2!3d36.7065086!4d-119.574707",
Mountain Mike's Pizza,1049 Mono Way,SONORA,CA,95370-5282,2095321235.0,"https://www.google.com/maps/place/Mountain+Mike's+Pizza/@37.974758,-120.364998,17z/data=!3m1!4b1!4m5!3m4!1s0x8090c594f4fafc07:0x43f3237f667ba180!8m2!3d37.974758!4d-120.364998",
Mountain Mike's Pizza,3715 Portola Dr,SANTA CRUZ,CA,95062-5151,8314777760.0,"https://www.google.com/maps/place/Mountain+Mike's+Pizza/@36.9638234,-121.967832,17z/data=!3m1!4b1!4m5!3m4!1s0x808e151670e679b7:0x3c6310992d752761!8m2!3d36.9638234!4d-121.967832",
Mountain Mike's Pizza,7440 Laguna Blvd,ELK GROVE,CA,95758-5070,9166847888.0,"https://www.google.com/maps/place/Mountain+Mike's+Pizza/@38.4223977,-121.4180738,17z/data=!4m5!3m4!1s0x809ac64c03705003:0xa0e91a187a5a6fc1!8m2!3d38.4223935!4d-121.4158851?hl=en",
Mountain Mike's Pizza,8965 N Cedar Ave,FRESNO,CA,93720-1890,5592614111.0,"https://www.google.com/maps/place/Mountain+Mike's+Pizza/@36.865314,-119.75832,17z/data=!3m1!4b1!4m5!3m4!1s0x809442e8fc4ab5b1:0xbbe4ebf85d588270!8m2!3d36.865314!4d-119.75832",
Mountain Mike's Pizza,6811 Douglas Blvd,GRANITE BAY,CA,95746-6257,9167730909.0,"https://www.google.com/maps/place/Mountain+Mike's+Pizza/@38.7439589,-121.1737779,17z/data=!3m1!4b1!4m5!3m4!1s0x809ae1f65663c523:0x43a3cc2156a197bf!8m2!3d38.7439589!4d-121.1737779",
Mountain Mike's Pizza,7319 Milliken Ave,RANCHO CUCAMONGA,CA,91730-6794,9094668011.0,"https://www.google.com/maps/place/Mountain+Mike's+Pizza/@34.1208022,-117.5579951,17z/data=!3m1!4b1!4m5!3m4!1s0x80c33604558024fb:0xc9e83c5764353e27!8m2!3d34.1208022!4d-117.5579951",
Mountain Mike's Pizza,302 Davis St,SAN LEANDRO,CA,94577-2861,5106148696.0,"https://www.google.com/maps/place/Mountain+Mike's+Pizza/@37.7254865,-122.1584394,17z/data=!3m1!4b1!4m5!3m4!1s0x808f8f91287e68eb:0xc25d935d05d15c80!8m2!3d37.7254865!4d-122.1584394",
Mountain Mike's Pizza,2100 4th St,SAN RAFAEL,CA,94901-2683,4154544300.0,"https://www.google.com/maps/place/Mountain+Mike's+Pizza/@37.976005,-122.546446,17z/data=!3m1!4b1!4m5!3m4!1s0x8085975c9ad8046f:0x9d367a34b3a2b5bc!8m2!3d37.976005!4d-122.546446",
Mountain Mike's Pizza,1516 Fitzgerald Dr,PINOLE,CA,94564-2229,5102231900.0,"https://www.google.com/maps/place/Mountain+Mike's+Pizza/@37.9903329,-122.3031375,17z/data=!3m1!4b1!4m5!3m4!1s0x80857705d36f79bb:0x95845212c3734306!8m2!3d37.9903329!4d-122.3031375",
Mountain Mike's Pizza,1255 Lillian Ave,ESCALON,CA,95320-1685,2098388200.0,"https://www.google.com/maps/place/Mountain+Mike's+Pizza/@37.798839,-120.997589,17z/data=!3m1!4b1!4m5!3m4!1s0x80905be6404361a1:0x9900f88dec5bdffb!8m2!3d37.798839!4d-120.997589",
Mountain Mike's Pizza,1962 Contra Costa Blvd,PLEASANT HILL,CA,94523-3306,9253633494.0,"https://www.google.com/maps/place/Mountain+Mike's+Pizza/@37.9483961,-122.0582929,17z/data=!3m1!4b1!4m5!3m4!1s0x80856137ee3b9bfb:0x68a220d4ff5743e2!8m2!3d37.9483961!4d-122.0582929",
Mountain Mike's Pizza,2938 Aborn Square Rd,SAN JOSE,CA,95121-1504,4083000554.0,"https://www.google.com/maps/place/Mountain+Mike's+Pizza/@37.3120999,-121.8099774,17z/data=!3m1!4b1!4m5!3m4!1s0x808e2d7d80c249ff:0xe83e2b1e6e44b9a8!8m2!3d37.3120999!4d-121.8099774",
Mountain Mike's Pizza,1610 San Pablo Ave,BERKELEY,CA,94702-1318,5105241000.0,"https://www.google.com/maps/place/Mountain+Mike's+Pizza/@37.874898,-122.294338,17z/data=!3m1!4b1!4m5!3m4!1s0x80857ec5d49fd4fb:0x4552b232e19d8aa9!8m2!3d37.874898!4d-122.294338",
Mountain Mike's Pizza,173 Sunset Ave,SUISUN CITY,CA,94585-2063,7073999895.0,"https://www.google.com/maps/place/Mountain+Mike's+Pizza/@38.245517,-122.0221285,17z/data=!4m5!3m4!1s0x808515a347c4c9e5:0x52c07f49832154b0!8m2!3d38.2455128!4d-122.0199398?hl=en",
Mountain Mike's Pizza,6580 Hembree Ln,WINDSOR,CA,95492-6884,7078361700.0,"https://www.google.com/maps/place/Mountain+Mike's+Pizza/@38.5269561,-122.7895489,17z/data=!3m1!4b1!4m5!3m4!1s0x80843e8a4266d801:0x98e5a2c3ca872a65!8m2!3d38.5269561!4d-122.7895489",
Mountain Mike's Pizza,2610 Gateway Oaks Dr,SACRAMENTO,CA,95833-3938,9166498000.0,"https://www.google.com/maps/place/Mountain+Mike's+Pizza/@38.6136595,-121.5157182,17z/data=!3m1!4b1!4m5!3m4!1s0x809ad68b22631f5b:0xb1d7fb04844caa29!8m2!3d38.6136595!4d-121.5157182",
Mountain Mike's Pizza,3842 W Shaw Ave,FRESNO,CA,93711-3214,5592770777.0,"https://www.google.com/maps/place/Mountain+Mike's+Pizza/@36.8098068,-119.8621216,17z/data=!3m1!4b1!4m5!3m4!1s0x8094661ec9aacf79:0x2019b0de6a56f79f!8m2!3d36.8098068!4d-119.8621216",
Mountain Mike's Pizza,2828 Country Club Blvd,STOCKTON,CA,95204-3987,2096454040.0,"https://www.google.com/maps/place/Mountain+Mike's+Pizza/@37.9634353,-121.3384708,17z/data=!3m1!4b1!4m5!3m4!1s0x80900de9c1f91da5:0x8c345a6dd29a171!8m2!3d37.9634353!4d-121.3384708",
Mountain Mike's Pizza,1460 E Yosemite Ave,MADERA,CA,93638-1974,5596744487.0,"https://www.google.com/maps/place/Mountain+Mike's+Pizza/@36.9719829,-120.0425337,17z/data=!3m1!4b1!4m5!3m4!1s0x80940c69d73726a5:0x376f46a905f04d0d!8m2!3d36.9719829!4d-120.0425337",
Mountain Mike's Pizza,2011 Naglee Ave,SAN JOSE,CA,95128-4801,4082805070.0,"https://www.google.com/maps/place/Mountain+Mike's+Pizza/@37.327748,-121.932949,17z/data=!3m1!4b1!4m5!3m4!1s0x808fcb1648094807:0x5451c11476f8986f!8m2!3d37.327748!4d-121.932949",
Mountain Mike's Pizza,301 E Hamilton Ave,CAMPBELL,CA,95008-0247,4083789090.0,"https://www.google.com/maps/place/Mountain+Mike's+Pizza/@37.294628,-121.944527,17z/data=!3m1!4b1!4m5!3m4!1s0x808e34d7789d5925:0xbf13d6ed310f1deb!8m2!3d37.294628!4d-121.944527",
Mountain Mike's Pizza,3000 N Dinuba Blvd,VISALIA,CA,93291-8728,5597392800.0,"https://www.google.com/maps/place/Mountain+Mike's+Pizza/@36.3565707,-119.2962419,17z/data=!3m1!4b1!4m5!3m4!1s0x809525be1dc7b363:0xcb8b525a3c2ca97a!8m2!3d36.3565707!4d-119.2962419",
Mountain Mike's Pizza,4339 E Morada Ln,STOCKTON,CA,95212-1633,2099524141.0,"https://www.google.com/maps/place/Mountain+Mike's+Pizza/@38.039192,-121.259469,17z/data=!3m1!4b1!4m5!3m4!1s0x80907352fbdd668b:0x8ee1243f3ddcb9b2!8m2!3d38.039192!4d-121.259469",
Mountain Mike's Pizza,1000 W Robinhood Dr,STOCKTON,CA,95207-5604,2094747470.0,"https://www.google.com/maps/place/Mountain+Mike's+Pizza/@37.999833,-121.317616,17z/data=!3m1!4b1!4m5!3m4!1s0x80900c5aeb2cf27d:0x4e80b0481568ee2f!8m2!3d37.999833!4d-121.317616",
Mountain Mike's Pizza,8441 Elk Grove Florin Rd,ELK GROVE,CA,95624-9518,9166816878.0,"https://www.google.com/maps/place/Mountain+Mike's+Pizza/@38.450884,-121.370211,17z/data=!3m1!4b1!4m5!3m4!1s0x809ac6bf4a6afdcf:0xddedd267f3989d65!8m2!3d38.450884!4d-121.370211",
Mountain Mike's Pizza,1020 N Davis Rd,SALINAS,CA,93907-1944,8317570444.0,"https://www.google.com/maps/place/Mountain+Mike's+Pizza/@36.6949388,-121.6671758,17z/data=!3m1!4b1!4m5!3m4!1s0x808dff2954ec7be7:0xe5526d22cf5f2e27!8m2!3d36.6949388!4d-121.6671758",
Mountain Mike's Pizza,315 E Alisal St,SALINAS,CA,93901-4302,8314245568.0,"https://www.google.com/maps/place/Mountain+Mike's+Pizza/@36.67497,-121.644827,17z/data=!3m1!4b1!4m5!3m4!1s0x808df8967b47a1a5:0x29768e6576dd7b9e!8m2!3d36.67497!4d-121.644827",
Mountain Mike's Pizza,1670 N Main St,SALINAS,CA,93906-5102,8314499000.0,"https://www.google.com/maps/place/Mountain+Mike's+Pizza/@36.71602,-121.652639,17z/data=!3m1!4b1!4m5!3m4!1s0x808dff3efe02ab1d:0x194796b6399479b!8m2!3d36.71602!4d-121.652639",
Mountain Mike's Pizza,1105 W 5th St,CHICO,CA,95928-4925,5308999115.0,"https://www.google.com/maps/place/Mountain+Mike's+Pizza/@39.721674,-121.847367,17z/data=!3m1!4b1!4m5!3m4!1s0x808327add3cb68ab:0xa52e607fdf4c4a99!8m2!3d39.721674!4d-121.847367",
Mountain Mike's Pizza,16810 Placer Hills Rd,MEADOW VISTA,CA,95722-9531,5308781865.0,"https://www.google.com/maps/place/Mountain+Mike's+Pizza/@38.996027,-121.022675,17z/data=!3m1!4b1!4m5!3m4!1s0x809b0efb2486d169:0xe2a4ee02a79c273c!8m2!3d38.996027!4d-121.022675",
Mountain Mike's Pizza,2280 Santa Rosa Ave,SANTA ROSA,CA,95407-7623,7075442828.0,"https://www.google.com/maps/place/Mountain+Mike's+Pizza/@38.4166879,-122.7126672,17z/data=!3m1!4b1!4m5!3m4!1s0x808448219dd94097:0xec67d80935357c60!8m2!3d38.4166879!4d-122.7126672",
Mountain Mike's Pizza,2130 Columbus Pkwy,BENICIA,CA,94510-5402,7077467522.0,"https://www.google.com/maps/place/Mountain+Mike's+Pizza/@38.0815148,-122.1937191,17z/data=!3m1!4b1!4m5!3m4!1s0x80857216e612a2ad:0x431dd4522b6a24fc!8m2!3d38.0815148!4d-122.1937191",
Mountain Mike's Pizza,504 Center St,MORAGA,CA,94556-2207,9253776453.0,"https://www.google.com/maps/place/Mountain+Mike's+Pizza/@37.8582306,-122.1258548,17z/data=!3m1!4b1!4m5!3m4!1s0x808f89d467ad5a6d:0x7725a931d16c7783!8m2!3d37.8582306!4d-122.1258548",
Mountain Mike's Pizza,1817 Ygnacio Valley Rd,WALNUT CREEK,CA,94598-3214,9259374411.0,"https://www.google.com/maps/place/Mountain+Mike's+Pizza/@37.917396,-122.03755,17z/data=!3m1!4b1!4m5!3m4!1s0x80856052a7cd1ae5:0x1cd5aa47a63e7cb8!8m2!3d37.917396!4d-122.03755",
Mountain Mike's Pizza,606 J St,MARYSVILLE,CA,95901-5413,5307439991.0,"https://www.google.com/maps/place/Mountain+Mike's+Pizza/@39.140818,-121.599155,17z/data=!3m1!4b1!4m5!3m4!1s0x809b536cf3476229:0x7f4ad145244be2cc!8m2!3d39.140818!4d-121.599155",
Mountain Mike's Pizza,7377 Jackson Dr,SAN DIEGO,CA,92119-2316,6194696453.0,"https://www.google.com/maps/place/Mountain+Mike's+Pizza/@32.8028343,-117.043828,17z/data=!3m1!4b1!4m5!3m4!1s0x80d95647d444bba7:0xeec2a4974f775685!8m2!3d32.8028343!4d-117.043828",
Mountain Mike's Pizza,3340 San Pablo Dam Rd,SAN PABLO,CA,94803-2860,5102629000.0,"https://www.google.com/maps/place/Mountain+Mike's+Pizza/@37.961246,-122.3262143,17z/data=!3m1!4b1!4m5!3m4!1s0x8085778e0f4768d5:0xb3d5fef5ac5e2509!8m2!3d37.961246!4d-122.3262143",
Mountain Mike's Pizza,20261 Patio Dr,CASTRO VALLEY,CA,94546-4300,5105371400.0,"https://www.google.com/maps/place/Mountain+Mike's+Pizza/@37.6975211,-122.0763998,17z/data=!3m1!4b1!4m5!3m4!1s0x808f9225b1363c3d:0x19067446a4a9a25c!8m2!3d37.6975211!4d-122.0763998",
Mountain Mike's Pizza,1971 Alamo Dr,VACAVILLE,CA,95687-6169,7074484007.0,"https://www.google.com/maps/place/Mountain+Mike's+Pizza/@38.3358202,-121.9735797,17z/data=!4m5!3m4!1s0x80853d72c4245eaf:0x941af0a2ca3daf43!8m2!3d38.335816!4d-121.971391?hl=en",
Mountain Mike's Pizza,645 Elmira Rd,VACAVILLE,CA,95687-4655,7074519854.0,"https://www.google.com/maps/place/Mountain+Mike's+Pizza/@38.3525684,-121.9526226,17z/data=!4m5!3m4!1s0x80853d1f6e52d69b:0x9652defb0e78127a!8m2!3d38.3525642!4d-121.9504339?hl=en",
Mountain Mike's Pizza,5505 Whitney Blvd,ROCKLIN,CA,95677-2263,9166250777.0,"https://www.google.com/maps/place/Mountain+Mike's+Pizza/@38.7875762,-121.2517435,17z/data=!3m1!4b1!4m5!3m4!1s0x809b1f67c4893c59:0xf72ae6f004a5ac5f!8m2!3d38.7875762!4d-121.2517435",
Mountain Mike's Pizza,11974 State Highway 88,JACKSON,CA,95642-9314,2092230200.0,"https://www.google.com/maps/place/Mountain+Mike's+Pizza/@38.3621882,-120.8040587,17z/data=!4m5!3m4!1s0x809a7bd82b1d37c1:0x2791893e66b5eb15!8m2!3d38.362184!4d-120.80187?hl=en",
Mountain Mike's Pizza,6333 Oakdale Rd,RIVERBANK,CA,95367-9645,2098696200.0,"https://www.google.com/maps/place/Mountain+Mike's+Pizza/@37.731477,-120.959439,17z/data=!3m1!4b1!4m5!3m4!1s0x8090576b7b97308f:0xbbdbf80466b8ed6e!8m2!3d37.731477!4d-120.959439",
Mountain Mike's Pizza,10750 San Pablo Ave,EL CERRITO,CA,94530-2622,5105266000.0,"https://www.google.com/maps/place/Mountain+Mike's+Pizza/@37.9139297,-122.3093437,17z/data=!3m1!4b1!4m5!3m4!1s0x8085790271d74bf7:0x27258db3765cd10f!8m2!3d37.9139297!4d-122.3093437",
Mountain Mike's Pizza,1819 N Texas St,FAIRFIELD,CA,94533-3872,7074226000.0,"https://www.google.com/maps/place/Mountain+Mike's+Pizza/@38.2627363,-122.0377609,17z/data=!4m5!3m4!1s0x808515d3aa746ab1:0xe5e20c13c7b1536b!8m2!3d38.2627321!4d-122.0355722?hl=en",
Mountain Mike's Pizza,3952 Washington Blvd,FREMONT,CA,94538-4954,5104904007.0,"https://www.google.com/maps/place/Mountain+Mike's+Pizza/@37.5319834,-121.9581982,17z/data=!3m1!4b1!4m5!3m4!1s0x808fc0d278dee0fd:0x9f82de5bfaade819!8m2!3d37.5319834!4d-121.9581982",
Mountain Mike's Pizza,2091 Main St,OAKLEY,CA,94561-3302,9256250770.0,"https://www.google.com/maps/place/Mountain+Mike's+Pizza/@38.00244,-121.733744,17z/data=!3m1!4b1!4m5!3m4!1s0x8085566dd99773db:0x462bfc7c03a275ab!8m2!3d38.00244!4d-121.733744",
Mountain Mike's Pizza,1185 2nd St,BRENTWOOD,CA,94513-2229,9253084544.0,"https://www.google.com/maps/place/Mountain+Mike's+Pizza/@37.937631,-121.699135,17z/data=!3m1!4b1!4m5!3m4!1s0x808ffec19c5a57e1:0x8d6682c92bc5f107!8m2!3d37.937631!4d-121.699135",
Mountain Mike's Pizza,4207 Elverta Rd,ANTELOPE,CA,95843-4735,9167262929.0,"https://www.google.com/maps/place/Mountain+Mike's+Pizza/@38.715314,-121.3662243,17z/data=!3m1!4b1!4m5!3m4!1s0x809b27462d1a5e27:0xb27f4b1da9d6cecc!8m2!3d38.715314!4d-121.3662243",
Mountain Mike's Pizza,431 Blossom Hill Rd,SAN JOSE,CA,95123-1609,4086293232.0,"https://www.google.com/maps/place/Mountain+Mike's+Pizza/@37.251824,-121.828926,17z/data=!3m1!4b1!4m5!3m4!1s0x808e31f20c88bfdb:0xe78535c5dc22a4b9!8m2!3d37.251824!4d-121.828926",
Mountain Mike's Pizza,774 El Camino Real,REDWOOD CITY,CA,94070,6503669090.0,"https://www.google.com/maps/place/Mountain+Mike's+Pizza/@37.5048489,-122.2577645,17z/data=!3m1!4b1!4m5!3m4!1s0x808fa2386cb329cb:0x9fc53aeaf71887b1!8m2!3d37.5048489!4d-122.2577645",
Mountain Mike's Pizza,2410 Geer Rd,TURLOCK,CA,95382-1426,2096326400.0,"https://www.google.com/maps/place/Mountain+Mike's+Pizza/@37.5148602,-120.8476849,17z/data=!3m1!4b1!4m5!3m4!1s0x809106fe63fccf59:0x328d4d1d9f475567!8m2!3d37.5148602!4d-120.8476849",
Mountain Mike's Pizza,870 W Schulte Rd,TRACY,CA,95376-6714,2098364141.0,"https://www.google.com/maps/place/Mountain+Mike's+Pizza/@37.7247856,-121.4372224,17z/data=!3m1!4b1!4m5!3m4!1s0x80903d28315061f7:0xbe6ca427beefdd6!8m2!3d37.7247856!4d-121.4372224",
Mountain Mike's Pizza,3120 Santa Rita Rd,PLEASANTON,CA,94566-8301,9254854242.0,"https://www.google.com/maps/place/Mountain+Mike's+Pizza/@37.6903664,-121.8771704,17z/data=!3m1!4b1!4m5!3m4!1s0x808fe93f90ed0fc9:0x3b372485c53f170!8m2!3d37.6903664!4d-121.8771704",
Mountain Mike's Pizza,1472 N Vasco Rd,LIVERMORE,CA,94551-9213,9254558999.0,"https://www.google.com/maps/place/Mountain+Mike's+Pizza/@37.7184574,-121.7257685,17z/data=!3m1!4b1!4m5!3m4!1s0x808fe6d43dc8c107:0x3e803106f4248632!8m2!3d37.7184574!4d-121.7257685",
Mountain Mike's Pizza,2919 W Capitol Ave,WEST SACRAMENTO,CA,95691-2910,9163728984.0,"https://www.google.com/maps/place/Mountain+Mike's+Pizza/@38.578512,-121.549138,17z/data=!3m1!4b1!4m5!3m4!1s0x809ad4106d428ee1:0x6705d884c19203c!8m2!3d38.578512!4d-121.549138",
Mountain Mike's Pizza,6191 Santa Teresa Blvd,SAN JOSE,CA,95123-4421,4082265885.0,"https://www.google.com/maps/place/Mountain+Mike's+Pizza/@37.2362419,-121.8043204,17z/data=!3m1!4b1!4m5!3m4!1s0x808e2e2ed0d84af3:0xc2225aa506972d09!8m2!3d37.2362419!4d-121.8043204",
Mountain Mike's Pizza,1417 Freedom Blvd,WATSONVILLE,CA,95076-2742,8317280411.0,"https://www.google.com/maps/place/Mountain+Mike's+Pizza/@36.926823,-121.766271,17z/data=!3m1!4b1!4m5!3m4!1s0x808e1b02098b0635:0xb011548cfb15b70e!8m2!3d36.926823!4d-121.766271",
Mountain Mike's Pizza,201 Tennant Sta,MORGAN HILL,CA,95037-5462,4087796900.0,"https://www.google.com/maps/place/Mountain+Mike's+Pizza/@37.1118673,-121.6432877,17z/data=!4m5!3m4!1s0x808e20702623f4a5:0x88896e6779bf5700!8m2!3d37.111863!4d-121.641099?hl=en",
Mountain Mike's Pizza,1540 Butte House Rd,YUBA CITY,CA,95993-2238,5307512525.0,"https://www.google.com/maps/place/Mountain+Mike's+Pizza/@39.1468645,-121.6422584,17z/data=!3m1!4b1!4m5!3m4!1s0x8084ab59a1387969:0x17069c5d27080a48!8m2!3d39.1468645!4d-121.6422584",
Mountain Mike's Pizza,2069 Arena Blvd,SACRAMENTO,CA,95834-2320,9164194434.0,"https://www.google.com/maps/place/Mountain+Mike's+Pizza/@38.647772,-121.510765,17z/data=!3m1!4b1!4m5!3m4!1s0x809ad62319f26759:0xd5b73693928a4b12!8m2!3d38.647772!4d-121.510765",
Mountain Mike's Pizza,4141 Manzanita Ave,CARMICHAEL,CA,95608-1766,9164887676.0,"https://www.google.com/maps/place/Mountain+Mike's+Pizza/@38.6406051,-121.3282905,17z/data=!3m1!4b1!4m5!3m4!1s0x809ade98e04072ff:0x29e77cee69faf370!8m2!3d38.6406051!4d-121.3282905",
Mountain Mike's Pizza,390 El Camino Real,BELMONT,CA,94002-2006,6505081100.0,"https://www.google.com/maps/place/Mountain+Mike's+Pizza/@37.526978,-122.284619,17z/data=!3m1!4b1!4m5!3m4!1s0x808f9f408374ff75:0xb4d7160dad8f24b2!8m2!3d37.526978!4d-122.284619",
Mountain Mike's Pizza,5333 Thornton Ave,NEWARK,CA,94560-3237,5104948177.0,"https://www.google.com/maps/place/Mountain+Mike's+Pizza/@37.5446056,-122.0250972,17z/data=!3m1!4b1!4m5!3m4!1s0x808fbf08c26a1f2d:0x738d19f011072533!8m2!3d37.5446056!4d-122.0250972",
Mountain Mike's Pizza,3801 Yosemite Blvd,MODESTO,CA,95357-0528,2095269000.0,"https://www.google.com/maps/place/Mountain+Mike's+Pizza/@37.6393929,-120.9261187,17z/data=!3m1!4b1!4m5!3m4!1s0x8090550956a669ab:0x1516f7300e24ff12!8m2!3d37.6393929!4d-120.9261187",
Mountain Mike's Pizza,4623 Mack Rd,SACRAMENTO,CA,95823-4547,9163926445.0,"https://www.google.com/maps/place/Mountain+Mike's+Pizza/@38.47532,-121.448073,17z/data=!3m1!4b1!4m5!3m4!1s0x809acf62dbfd5a43:0x3dc62829b39a05b7!8m2!3d38.47532!4d-121.448073",
Mountain Mike's Pizza,2908 Alum Rock Ave,SAN JOSE,CA,95127-2805,4082514000.0,"https://www.google.com/maps/place/Mountain+Mike's+Pizza/@37.3636559,-121.831233,17z/data=!3m1!4b1!4m5!3m4!1s0x808fcd6d1d32adeb:0x92088354b1540f61!8m2!3d37.3636559!4d-121.831233",
Mountain Mike's Pizza,5267 Sunrise Blvd,FAIR OAKS,CA,95628-3538,9169614000.0,"https://www.google.com/maps/place/Mountain+Mike's+Pizza/@38.661719,-121.273231,17z/data=!3m1!4b1!4m5!3m4!1s0x809ade1ae95617d1:0x19963f53fdb3fea8!8m2!3d38.661719!4d-121.273231",
Mountain Mike's Pizza,1221 E Orangeburg Ave,MODESTO,CA,95350-4654,2095291555.0,"https://www.google.com/maps/place/Mountain+Mike's+Pizza/@37.6639234,-120.9775492,17z/data=!3m1!4b1!4m5!3m4!1s0x8090540324bde9a1:0x39b0676c2703a9ba!8m2!3d37.6639234!4d-120.9775492",
Mountain Mike's Pizza,10419 Folsom Blvd,RANCHO CORDOVA,CA,95670-4611,9163630393.0,"https://www.google.com/maps/place/Mountain+Mike's+Pizza/@38.590607,-121.300955,17z/data=!3m1!4b1!4m5!3m4!1s0x809add1958d28b21:0x67a548e1d13e956a!8m2!3d38.590607!4d-121.300955",
Mountain Mike's Pizza,31083 Mission Blvd,HAYWARD,CA,94544-7601,5104876453.0,"https://www.google.com/maps/place/Mountain+Mike's+Pizza/@37.6191785,-122.0370047,17z/data=!3m1!4b1!4m5!3m4!1s0x808f9500488034b7:0x87f9446d138facc!8m2!3d37.6191785!4d-122.0370047",
Mountain Mike's Pizza,1633 E Hatch Rd,MODESTO,CA,95351-5080,2095388500.0,"https://www.google.com/maps/place/Mountain+Mike's+Pizza/@37.610438,-120.967719,17z/data=!3m1!4b1!4m5!3m4!1s0x809054be535d2977:0x11d764d356a82052!8m2!3d37.610438!4d-120.967719",
Mountain Mike's Pizza,901 N Carpenter Rd,MODESTO,CA,95351-1191,2095290500.0,"https://www.google.com/maps/place/Mountain+Mike's+Pizza/@37.6480331,-121.0321346,17z/data=!3m1!4b1!4m5!3m4!1s0x809053d4dfdbe863:0xc6502e3c1bbeca01!8m2!3d37.6480331!4d-121.0321346",
Mountain Mike's Pizza,3020 Floyd Ave,MODESTO,CA,95355-9801,2095511776.0,"https://www.google.com/maps/place/Mountain+Mike's+Pizza/@37.6774759,-120.93763,17z/data=!3m1!4b1!4m5!3m4!1s0x809055d50b4011b9:0xaf127d1297bf668d!8m2!3d37.6774759!4d-120.93763",
Mountain Mike's Pizza,1201 W Main St,RIPON,CA,95366-3027,2095993345.0,"https://www.google.com/maps/place/Mountain+Mike's+Pizza/@37.7406158,-121.1375579,17z/data=!3m1!4b1!4m5!3m4!1s0x8090444dfff2a74f:0xdff07c4a57047453!8m2!3d37.7406158!4d-121.1375579",
Mountain Mike's Pizza,2720 McHenry Ave,MODESTO,CA,95350-2332,2095214403.0,"https://www.google.com/maps/place/Mountain+Mike's+Pizza/@37.6797158,-120.9931414,17z/data=!3m1!4b1!4m5!3m4!1s0x8090514a20af85b7:0xf3c06a893f813fe3!8m2!3d37.6797158!4d-120.9931414",
Mountain Mike's Pizza,3609 Bradshaw Rd,SACRAMENTO,CA,95827-3275,9163663609.0,"https://www.google.com/maps/place/Mountain+Mike's+Pizza/@38.556446,-121.3345504,17z/data=!3m1!4b1!4m5!3m4!1s0x809adcb4d4b786f5:0xf5b943b6f4062a6e!8m2!3d38.556446!4d-121.3345504",
Mountain Mike's Pizza,2101 Standiford Ave,MODESTO,CA,95350-0162,2095442323.0,"https://www.google.com/maps/place/Mountain+Mike's+Pizza/@37.690037,-121.0318757,17z/data=!3m1!4b1!4m5!3m4!1s0x809050ffeb6adcc7:0xe99dc5c2a9d63dee!8m2!3d37.690037!4d-121.0318757",
Mountain Mike's Pizza,6314 Commerce Blvd,ROHNERT PARK,CA,94928-2404,7073037474.0,"https://www.google.com/maps/place/Mountain+Mike's+Pizza/@38.3481128,-122.7107775,17z/data=!4m5!3m4!1s0x80844a0d1d108d4f:0x2118ecb13f91c760!8m2!3d38.3481086!4d-122.7085888?hl=en",
Mountain Mike's Pizza,1555 Riverlake Rd,DISCOVERY BAY,CA,94505-9334,9252406966.0,"https://www.google.com/maps/place/Mountain+Mike's+Pizza/@37.9035438,-121.6037925,17z/data=!3m1!4b1!4m5!3m4!1s0x809002f56b981d1d:0x320020a46eb8e123!8m2!3d37.9035438!4d-121.6037925",
Mountain Mike's Pizza,1116 Forest Ave,PACIFIC GROVE,CA,93950-5147,8316426000.0,"https://www.google.com/maps/place/Mountain+Mike's+Pizza/@36.6078691,-121.9231777,17z/data=!3m1!4b1!4m5!3m4!1s0x808fb57e5ffc870f:0xca144670d0fc28bb!8m2!3d36.6078691!4d-121.9231777",
Mountain Mike's Pizza,4501 Montgomery Dr,SANTA ROSA,CA,95409-5336,7078905033.0,"https://www.google.com/maps/place/Mountain+Mike's+Pizza/@38.4576722,-122.6715186,17z/data=!3m1!4b1!4m5!3m4!1s0x8084462c95d99791:0x1124692b482500c4!8m2!3d38.4576722!4d-122.6715186",
Mountain Mike's Pizza,5103 W Walnut Ave,VISALIA,CA,93277-3472,5597335600.0,"https://www.google.com/maps/place/Mountain+Mike's+Pizza/@36.312087,-119.347141,17z/data=!3m1!4b1!4m5!3m4!1s0x809528bd6859df37:0xaf2781d4272c6aa1!8m2!3d36.312087!4d-119.347141",
Mountain Mike's Pizza,1055 E Herndon Ave,FRESNO,CA,93720-3165,5594395898.0,"https://www.google.com/maps/place/Mountain+Mike's+Pizza/@36.8363921,-119.7735635,17z/data=!4m5!3m4!1s0x80945d4b7fb6efff:0x45c19d438cb2a46f!8m2!3d36.8363878!4d-119.7713748?hl=en",
Mountain Mike's Pizza,2180 W Cleveland Ave,MADERA,CA,93637-8760,5596649990.0,"https://www.google.com/maps/place/Mountain+Mike's+Pizza/@36.9739772,-120.0830048,17z/data=!3m1!4b1!4m5!3m4!1s0x80940bee9851fecb:0xf92f6d9e664b8485!8m2!3d36.9739772!4d-120.0830048",
Mountain Mike's Pizza,919 Lakeville St,PETALUMA,CA,94952-3329,7077698989.0,"https://www.google.com/maps/place/Mountain+Mike's+Pizza/@38.235727,-122.624497,17z/data=!3m1!4b1!4m5!3m4!1s0x8085b1547f56ae17:0xa9a56c64593fee80!8m2!3d38.235727!4d-122.624497",
Mountain Mike's Pizza,2509 Somersville Rd,ANTIOCH,CA,94509-4408,9257553000.0,"https://www.google.com/maps/place/Mountain+Mike's+Pizza/@38.0012749,-121.8394491,17z/data=!3m1!4b1!4m5!3m4!1s0x808559bb8381a4a5:0x3b8288ba450925bf!8m2!3d38.0012749!4d-121.8394491",
Mountain Mike's Pizza,848 Willow Ave,HERCULES,CA,94547-3854,5102451100.0,"https://www.google.com/maps/place/Mountain+Mike's+Pizza/@38.0206932,-122.2610907,17z/data=!3m1!4b1!4m5!3m4!1s0x808571320bbc0f21:0x63db97a810e9c290!8m2!3d38.0206932!4d-122.2610907",
Mountain Mike's Pizza,1798 Ashlan Ave,CLOVIS,CA,93611-5191,5592919999.0,"https://www.google.com/maps/place/Mountain+Mike's+Pizza/@36.7928186,-119.6824746,17z/data=!3m1!4b1!4m5!3m4!1s0x80945be50353a995:0xdd80b7f320a2e4b!8m2!3d36.7928186!4d-119.6824746",
Mountain Mike's Pizza,1724 Miramonte Ave,MOUNTAIN VIEW,CA,94040-3763,6509889090.0,"https://www.google.com/maps/place/Mountain+Mike's+Pizza/@37.373051,-122.088476,17z/data=!3m1!4b1!4m5!3m4!1s0x808fb12b8689359d:0x616ee90e162ac637!8m2!3d37.373051!4d-122.088476",
Mountain Mike's Pizza,10400 Twin Cities Rd,GALT,CA,95632-9034,2097454544.0,"https://www.google.com/maps/place/Mountain+Mike's+Pizza/@38.2896976,-121.3078334,17z/data=!3m1!4b1!4m5!3m4!1s0x809abd02fd7a82e1:0xe7e41270e03be583!8m2!3d38.2896976!4d-121.3078334",
Mountain Mike's Pizza,1170 N Capitol Ave,SAN JOSE,CA,95123,4089267133.0,"https://www.google.com/maps/place/Mountain+Mike's+Pizza/@37.387833,-121.8602984,17z/data=!3m1!4b1!4m5!3m4!1s0x808fcc35be266391:0xf6f5e25e07cd1b14!8m2!3d37.387833!4d-121.8602984",
Mountain Mike's Pizza,4870 Telegraph Ave,OAKLAND,CA,94609,5104281000.0,"https://www.google.com/maps/place/Mountain+Mike's+Pizza/@37.8356005,-122.2622427,17z/data=!3m1!4b1!4m5!3m4!1s0x80857de1a05ddb11:0xc002bbb469532547!8m2!3d37.8356005!4d-122.2622427",
Mountain Mike's Pizza,1125 S Mission Rd,FALLBROOK,CA,92028,7606450505.0,"https://www.google.com/maps/place/Mountain+Mike's+Pizza/@33.3723811,-117.2554027,17z/data=!3m1!4b1!4m5!3m4!1s0x80dc7fcc38d84cdf:0x977064ba06d5c634!8m2!3d33.3723811!4d-117.2554027",
Mountain Mike's Pizza,9320 Elk Grove Blvd,ELK GROVE,CA,95624,9168960880.0,"https://www.google.com/maps/place/Mountain+Mike's+Pizza/@38.4082882,-121.3536053,17z/data=!4m5!3m4!1s0x809ac0ad627c5753:0x3818ff64a520dd12!8m2!3d38.408284!4d-121.3514166?hl=en",
Mountain Mike's Pizza,2220 Gold Springs Ct,GOLD RIVER,CA,95670,9169175511.0,"https://www.google.com/maps/place/Mountain+Mike's+Pizza/@38.6219847,-121.265945,17z/data=!3m1!4b1!4m5!3m4!1s0x809add8659b8675f:0x24752badcd9aba5c!8m2!3d38.6219847!4d-121.265945",
Mountain Mike's Pizza,2222 Francisco Dr,EL DORADO HILLS,CA,95762,9169340262.0,"https://www.google.com/maps/place/Mountain+Mike's+Pizza/@38.7108009,-121.0863321,17z/data=!3m1!4b1!4m5!3m4!1s0x809ae3541853edc3:0x56eba9af4fa855ca!8m2!3d38.7108009!4d-121.0863321",
Mountain Mike's Pizza,5010 Elk Grove Blvd,ELK GROVE,CA,95758,9166840808.0,"https://www.google.com/maps/place/Mountain+Mike's+Pizza/@38.4083404,-121.4498694,17z/data=!4m5!3m4!1s0x809ac9f2d0c654af:0x22eb7144bfb879!8m2!3d38.4083362!4d-121.4476807?hl=en",
Mountain Mike's Pizza,2042 MOUNTAIN BLVD,OAKLAND,CA,94611,5107359555.0,"https://www.google.com/maps/place/Mountain+Mike's+Pizza/@37.8268802,-122.2095463,17z/data=!3m1!4b1!4m5!3m4!1s0x808f87a913b2b719:0xc7f4b0e6afa74147!8m2!3d37.8268802!4d-122.2095463",
Mountain Mike's Pizza,1900 South St,SACRAMENTO,CA,95811,9163994580.0,"https://www.google.com/maps/place/Mountain+Mike's+Pizza/@38.5666622,-121.4852943,17z/data=!3m1!4b1!4m5!3m4!1s0x809ad141b60634db:0x3a0f92471cf8dc66!8m2!3d38.5666622!4d-121.4852943",
Mountain Mike's Pizza,25970 Iris Ave,MORENO VALLEY,CA,92551,9514553900.0,"https://www.google.com/maps/place/Mountain+Mike's+Pizza/@33.8915423,-117.2076682,17z/data=!3m1!4b1!4m5!3m4!1s0x80dca7018ac76d81:0x7e064765fdbaf980!8m2!3d33.8915423!4d-117.2076682",
Mountain Mike's Pizza,2912 East Whitmore Ave,CERES,CA,95307,2095377777.0,"https://www.google.com/maps/place/Mountain+Mike's+Pizza/@37.5932235,-120.9409236,17z/data=!3m1!4b1!4m5!3m4!1s0x8091abbd146fd663:0x6c6d88e6614826d1!8m2!3d37.5932235!4d-120.9409236",
Mountain Mike's Pizza,3900 Decoto Rd,FREMONT,CA,94555,5107137100.0,"https://www.google.com/maps/place/Mountain+Mike's+Pizza/@37.5709417,-122.0307742,17z/data=!3m1!4b1!4m5!3m4!1s0x808fbf1702f9800d:0xcebc89db12f8289a!8m2!3d37.5709417!4d-122.0307742",
Mountain Mike's Pizza,3601 Pelandale Ave,MODESTO,CA,95356,2094976799.0,"https://www.google.com/maps/place/Mountain+Mike's+Pizza/@37.7007132,-121.0632574,17z/data=!3m1!4b1!4m5!3m4!1s0x809051d76a342553:0x15fab3b8a5d223d8!8m2!3d37.7007132!4d-121.0632574",
Mountain Mike's Pizza,25075 Blue Ravine Rd,FOLSOM,CA,95630,,"https://www.google.com/maps/place/Mountain+Mike's+Pizza/@38.6894266,-121.1210815,17z/data=!3m1!4b1!4m5!3m4!1s0x809ae5b10bcbdec1:0x43d86a11a2957f56!8m2!3d38.6894266!4d-121.1210815",
Mountain Mike's Pizza,898 South Main St,FORT BRAGG,CA,95437,7079649999.0,"https://www.google.com/maps/place/Mountain+Mike's+Pizza/@39.4296945,-123.8058415,17z/data=!3m1!4b1!4m5!3m4!1s0x80804bbbc16ce3f7:0x54af280e4e0b83eb!8m2!3d39.4296945!4d-123.8058415",
Mountain Mike's Pizza,1441 North St,NEWMAN,CA,95360,,"https://www.google.com/maps/place/Mountain+Mike's+Pizza/@37.3138316,-121.021191,17z/data=!3m1!4b1!4m5!3m4!1s0x8091a362032a92d5:0x1fb3b3f5ca17c6bc!8m2!3d37.3138316!4d-121.021191",
Mountain Mike's Pizza,678 North Wilson Way,STOCKTON,CA,95210,2099412256.0,"https://www.google.com/maps/place/Mountain+Mike's+Pizza/@37.9628473,-121.2715751,17z/data=!3m1!4b1!4m5!3m4!1s0x809013fb524be553:0x16c536e758c960f6!8m2!3d37.9628473!4d-121.2715751",
Mountain Mike's Pizza,29101 Newport Rd,MENIFEE,CA,92584,,"https://www.google.com/maps/place/Mountain+Mike's+Pizza/@33.6838902,-117.1519808,17z/data=!3m1!4b1!4m5!3m4!1s0x80db63782d70fb19:0xfef41c80d85da8b2!8m2!3d33.6838902!4d-117.1519808",
Mountain Mike's Pizza,7011 Schaefer Ave,CHINO,CA,91710-9103,9096286000.0,"https://www.google.com/maps/place/Mountain+Mike's+Pizza/@34.003548,-117.6521255,17z/data=!3m1!4b1!4m5!3m4!1s0x80dcccadccbeb281:0x2d5520215b70760d!8m2!3d34.003548!4d-117.6521255",
Mountain Mike's Pizza,6006 La Madrona Dr,SCOTTS VALLEY,CA,95060-1052,8314387400.0,"https://www.google.com/maps/place/Mountain+Mike's+Pizza/@37.0364357,-122.0225659,17z/data=!3m1!4b1!4m5!3m4!1s0x808e40c436f0f63b:0xf1409da0161bc7e3!8m2!3d37.0364357!4d-122.0225659",
Mountain Mike's Pizza,721 E Prosperity Ave,TULARE,CA,93274-2142,5596888800.0,"https://www.google.com/maps/place/Mountain+Mike's+Pizza/@36.225597,-119.338032,17z/data=!3m1!4b1!4m5!3m4!1s0x80952b8d435b970b:0x2d592d39e9da81c7!8m2!3d36.225597!4d-119.338032",
Mountain Mike's Pizza,5150 E Kings Canyon Rd,FRESNO,CA,93727-3988,5592551100.0,"https://www.google.com/maps/place/Mountain+Mike's+Pizza/@36.735407,-119.720452,17z/data=!3m1!4b1!4m5!3m4!1s0x80945f1ffb5ff9fd:0x6cca05d5c17f273c!8m2!3d36.735407!4d-119.720452",
Mountain Mike's Pizza,5700 Stine Rd,BAKERSFIELD,CA,93313-3315,6618342022.0,"https://www.google.com/maps/place/Mountain+Mike's+Pizza/@35.3030148,-119.0563583,17z/data=!3m1!4b1!4m5!3m4!1s0x80ea4022959e7da3:0x322a98fa91a591c6!8m2!3d35.3030148!4d-119.0563583",
Mountain Mike's Pizza,1950 Yosemite Pkwy,MERCED,CA,95341-5203,2093498549.0,"https://www.google.com/maps/place/Mountain+Mike's+Pizza/@37.2945063,-120.4534379,17z/data=!3m1!4b1!4m5!3m4!1s0x80905509390f87db:0x2ecd9f6cc95f97c3!8m2!3d37.2945063!4d-120.4534379",
Mountain Mike's Pizza,17597 Vierra Canyon Rd,PRUNEDALE,CA,93907-3312,8316635000.0,"https://www.google.com/maps/place/Mountain+Mike's+Pizza/@36.7924609,-121.6638821,17z/data=!3m1!4b1!4m5!3m4!1s0x808e005c905ed0c1:0x2f6006a6540ae069!8m2!3d36.7924609!4d-121.6638821",
Mountain Mike's Pizza,30 Golf Club Rd,PLEASANT HILL,CA,94523-1567,9258265101.0,"https://www.google.com/maps/place/Mountain+Mike's+Pizza/@37.9721603,-122.0649593,17z/data=!3m1!4b1!4m5!3m4!1s0x808566bed019b289:0x33b1a7c3f39ca0be!8m2!3d37.9721603!4d-122.0649593",
Mountain Mike's Pizza,820 W Lacey Blvd,HANFORD,CA,93230-4382,5595851135.0,"https://www.google.com/maps/place/Mountain+Mike's+Pizza/@36.3284292,-119.655905,17z/data=!3m1!4b1!4m5!3m4!1s0x8094c384b4322481:0x447da6863410d3c4!8m2!3d36.3284292!4d-119.655905",
Mountain Mike's Pizza,1448 High St,OAKLAND,CA,94601-4534,5104367988.0,"https://www.google.com/maps/place/Mountain+Mike's+Pizza/@37.7726185,-122.2137561,17z/data=!3m1!4b1!4m5!3m4!1s0x808f86640053fa7f:0x147aee5c6105e1e6!8m2!3d37.7726185!4d-122.2137561",
Mountain Mike's Pizza,1290 Franklin Mall,SANTA CLARA,CA,95050-4807,4082463900.0,"https://www.google.com/maps/place/Mountain+Mike's+Pizza/@37.3485489,-121.9477844,17z/data=!3m1!4b1!4m5!3m4!1s0x808fca52de897cc9:0xb02895c170f980c5!8m2!3d37.3485489!4d-121.9477844",
Mountain Mike's Pizza,39415 Fremont Blvd,FREMONT,CA,94538-2116,5104907500.0,"https://www.google.com/maps/place/Mountain+Mike's+Pizza/@37.544572,-121.9813021,17z/data=!3m1!4b1!4m5!3m4!1s0x808fc099d58af4bd:0xc44bc3bc9f9be08f!8m2!3d37.544572!4d-121.9813021",
Mountain Mike's Pizza,378 Atlantic Ave,PITTSBURG,CA,94565-5234,9254274700.0,"https://www.google.com/maps/place/Mountain+Mike's+Pizza/@38.007462,-121.887629,17z/data=!3m1!4b1!4m5!3m4!1s0x808559584948a275:0x64258e8793bed911!8m2!3d38.007462!4d-121.887629",
Mountain Mike's Pizza,380 W Country Club Dr,BRENTWOOD,CA,94513-4235,9255135939.0,"https://www.google.com/maps/place/Mountain+Mike's+Pizza/@37.9262778,-121.7532366,17z/data=!3m1!4b1!4m5!3m4!1s0x808ff91004fb31d3:0xce7732235b57dc40!8m2!3d37.9262778!4d-121.7532366",
Mountain Mike's Pizza,880 Broadway Ave,SEASIDE,CA,93955-4308,8318997900.0,"https://www.google.com/maps/place/Mountain+Mike's+Pizza/@36.6089821,-121.8463135,17z/data=!3m1!4b1!4m5!3m4!1s0x808de4f0400881f7:0x3d7bec35b998ca71!8m2!3d36.6089821!4d-121.8463135",
Mountain Mike's Pizza,1830 Webster St,OAKLAND,CA,94612-3414,5102688226.0,"https://www.google.com/maps/place/Mountain+Mike's+Pizza/@37.8066448,-122.2664799,17z/data=!3m1!4b1!4m5!3m4!1s0x808f80b3249bf93f:0x857b27a04784da87!8m2!3d37.8066448!4d-122.2664799",
Mountain Mike's Pizza,7465 Rush River Dr,SACRAMENTO,CA,95831-5255,9169705360.0,"https://www.google.com/maps/place/Mountain+Mike's+Pizza/@38.4865492,-121.5362233,17z/data=!3m1!4b1!4m5!3m4!1s0x809ace086f60f37f:0xb3d4875b09415947!8m2!3d38.4865492!4d-121.5362233",
Mountain Mike's Pizza,728 W Kettleman Ln,LODI,CA,95240-6051,2096258380.0,"https://www.google.com/maps/place/Mountain+Mike's+Pizza/@38.1139709,-121.2847172,17z/data=!4m5!3m4!1s0x80900aa087c67a93:0x1f9eae839366283e!8m2!3d38.1139667!4d-121.2825285?hl=en",
Mountain Mike's Pizza,2205 San Ramon Valley Blvd,SAN RAMON,CA,94583-1243,9253149600.0,"https://www.google.com/maps/place/Mountain+Mike's+Pizza/@37.7816611,-121.9792417,17z/data=!3m1!4b1!4m5!3m4!1s0x808ff2c52fd8369b:0xb86ea706874d9aa!8m2!3d37.7816611!4d-121.9792417",
Mountain Mike's Pizza,1580 Constitution Blvd,SALINAS,CA,93905-3803,8314491200.0,"https://www.google.com/maps/place/Mountain+Mike's+Pizza/@36.6996089,-121.6187154,17z/data=!3m1!4b1!4m5!3m4!1s0x8092074e1ee90ebf:0xe36d1e81133df668!8m2!3d36.6996089!4d-121.6187154",
Mountain Mike's Pizza,1746 Solano Ave,BERKELEY,CA,94707-2213,5105581111.0,"https://www.google.com/maps/place/Mountain+Mike's+Pizza/@37.8944464,-122.3126922,14z/data=!4m8!1m2!2m1!1sMountain+Mike's+Pizza+1746+Solano+Ave+BERKELEY+CA+94707-2213!3m4!1s0x8085794cb5fb1c33:0x4e49de95e9b15d29!8m2!3d37.8910492!4d-122.2810216?hl=en",
Mountain Mike's Pizza,4116 Monterey Hwy,SAN JOSE,CA,95111-3626,4086224755.0,"https://www.google.com/maps/place/Mountain+Mike's+Pizza/@37.2793112,-121.8335097,17z/data=!3m1!4b1!4m5!3m4!1s0x808e323f8dc51b01:0xd2cb2c4b20a12bc0!8m2!3d37.2793112!4d-121.8335097",
Mountain Mike's Pizza,455 College Blvd,OCEANSIDE,CA,92057-5438,7602953121.0,"https://www.google.com/maps/place/Mountain+Mike's+Pizza/@33.2455356,-117.2928987,17z/data=!3m1!4b1!4m5!3m4!1s0x80dc70eac395299b:0x269942082c8bd9d!8m2!3d33.2455356!4d-117.2928987",
Mountain Mike's Pizza,401 E Monte Vista Ave,VACAVILLE,CA,95688-2814,7074470123.0,"https://www.google.com/maps/place/Mountain+Mike's+Pizza/@38.3594203,-121.9907636,17z/data=!4m5!3m4!1s0x80853d54c7f10213:0xa469d722e83e3508!8m2!3d38.3594161!4d-121.9885749?hl=en",
Mountain Mike's Pizza,251 Pittman Rd,FAIRFIELD,CA,94534-4267,7078641700.0,"https://www.google.com/maps/place/Mountain+Mike's+Pizza/@38.2201163,-122.1276951,17z/data=!3m1!4b1!4m5!3m4!1s0x808513b4e74f5d85:0xeee9cefca8695821!8m2!3d38.2201163!4d-122.1276951",
Mountain Mike's Pizza,4380 Sonoma Blvd,VALLEJO,CA,94589-2266,7079806696.0,"https://www.google.com/maps/place/Mountain+Mike's+Pizza/@38.103356,-122.2974448,12z/data=!4m8!1m2!2m1!1sMountain+Mike's+Pizza+2001+2111+Siolano+Ave+VALLEJO+CA+94590!3m4!1s0x80850ca567f7de15:0xf31ddba16a2ca865!8m2!3d38.1368005!4d-122.2553856?hl=en",
Mountain Mike's Pizza,14080 Blossom Hill Rd,LOS GATOS,CA,95032,4082127800.0,"https://www.google.com/maps/place/Mountain+Mike's+Pizza/@37.2352903,-121.9137804,17z/data=!3m1!4b1!4m5!3m4!1s0x808e37f991c3de0d:0x197aef5e36a974a7!8m2!3d37.2352903!4d-121.9137804",
Mountain Mike's Pizza,996 Pleasant Grove Blvd,ROSEVILLE,CA,95678,9167806453.0,"https://www.google.com/maps/place/Mountain+Mike's+Pizza/@38.7792147,-121.2890268,17z/data=!3m1!4b1!4m5!3m4!1s0x809b21959a34f9ab:0x63e209ea4b1065e0!8m2!3d38.7792147!4d-121.2890268",
Mountain Mike's Pizza,1089 East Shaw Ave,FRESNO,CA,93710,5592417210.0,"https://www.google.com/maps/place/Mountain+Mike's+Pizza/@36.8082186,-119.7702801,17z/data=!3m1!4b1!4m5!3m4!1s0x80945d72368bf0ad:0x662e7422877f27e4!8m2!3d36.8082186!4d-119.7702801",
Mountain Mike's Pizza,111 South Maag Ave,OAKDALE,CA,95361,2098474701.0,"https://www.google.com/maps/place/Mountain+Mike's+Pizza/@37.772667,-120.828585,17z/data=!3m1!4b1!4m5!3m4!1s0x8090f9c223fbfbff:0x49feacafb631187d!8m2!3d37.772667!4d-120.828585",
Mountain Mike's Pizza,34533 Alvarado Niles Rd,UNION CITY,CA,94587,5104751475.0,"https://www.google.com/maps/place/Mountain+Mike's+Pizza/@37.5864869,-122.0225915,17z/data=!4m5!3m4!1s0x808fbf9dda432911:0xa362673f471250bd!8m2!3d37.5864827!4d-122.0204028?hl=en",
Mountain Mike's Pizza,410 Napa Junction Rd,AMERICAN CANYON,CA,94503,7075635505.0,"https://www.google.com/maps/place/Mountain+Mike's+Pizza/@38.185333,-122.2535575,17z/data=!3m1!4b1!4m5!3m4!1s0x80850c12a3e441f9:0xa83036dbebccf8b1!8m2!3d38.185333!4d-122.2535575",
Mountain Mike's Pizza,1090 South State St,UKIAH,CA,95482,7076219292.0,"https://www.google.com/maps/place/Mountain+Mike's+Pizza/@39.1364325,-123.2057294,17z/data=!3m1!4b1!4m5!3m4!1s0x8081657379bff04f:0x3680529acb631c00!8m2!3d39.1364325!4d-123.2057294",
Mountain Mike's Pizza,1129 Catalina Dr,LIVERMORE,CA,94550,2098254331.0,"https://www.google.com/maps/place/Mountain+Mike's+Pizza/@37.6624768,-121.7816278,17z/data=!3m1!4b1!4m5!3m4!1s0x808fe7b347ac76c9:0x3c5b3cffc14bbfbf!8m2!3d37.6624768!4d-121.7816278",
Mountain Mike's Pizza,1688 North Perris Blvd,PERRIS,CA,92571,,"https://www.google.com/maps/place/Mountain+Mike's+Pizza/@33.8026082,-117.2283925,17z/data=!3m1!4b1!4m5!3m4!1s0x80dca15c4512167f:0x9dfdb4e94a683bd9!8m2!3d33.8026082!4d-117.2283925",
Mountain Mike's Pizza,201 E LOUISE AVE,LATHROP,CA,95330,2098581444.0,"https://www.google.com/maps/place/Mountain+Mike's+Pizza/@37.8123511,-121.2945081,17z/data=!4m5!3m4!1s0x809015527f1e722d:0x589889a4a843daf2!8m2!3d37.8123469!4d-121.2923194?hl=en",
Mountain Mike's Pizza,825 S HIGHWAY 65,LINCOLN,CA,95648,9165439997.0,"https://www.google.com/maps/place/Mountain+Mike's+Pizza/@38.8711926,-121.2987808,17z/data=!3m1!5s0x809b3d2d568f8ca7:0xe8c76fea5e76e2e0!4m5!3m4!1s0x809b3d16c57cf269:0x156aa4aa8085fd3b!8m2!3d38.8711884!4d-121.2965921?hl=en",
Mountain Mike's Pizza,724 Abrego St,MONTEREY,CA,93940,,"https://www.google.com/maps/place/Mountain+Mike's+Pizza/@36.5947284,-121.8925675,17z/data=!3m1!4b1!4m5!3m4!1s0x808de5642536fefb:0xdc675f7f607b4814!8m2!3d36.5947284!4d-121.8925675",
Mountain Mike's Pizza,3121 Jefferson Ave,REDWOOD CITY,CA,94062,6507809622.0,"https://www.google.com/maps/place/Mountain+Mike's+Pizza/@37.4696932,-122.2464187,17z/data=!3m1!4b1!4m5!3m4!1s0x808fa30c251fe0a9:0x100603119a70ef0e!8m2!3d37.4696932!4d-122.2464187",
Mountain Mike's Pizza,8211 Bruceville Rd,SACRAMENTO,CA,95823,,"https://www.google.com/maps/place/Mountain+Mike's+Pizza/@38.459719,-121.4167757,17z/data=!3m1!4b1!4m5!3m4!1s0x809ac56a41ebe775:0x69ceb5384ed3d20e!8m2!3d38.459719!4d-121.4167757",
