Company Name,Address 1,City,State,Zip,Phone,Google Link,Status
Old Chicago Pizza & Taproom,802 Gervais St,COLUMBIA,SC,29201-3126,8032523100.0,"https://www.google.com/maps/place/Old+Chicago/@33.999229,-81.039606,17z/data=!3m1!4b1!4m5!3m4!1s0x88f8bb2dd1a5f8e7:0x3f8112838a71bf6f!8m2!3d33.999229!4d-81.039606",
Old Chicago Pizza & Taproom,2815 Wilma Rudolph Blvd,CLARKSVILLE,TN,37040-5002,9312453300.0,"https://www.google.com/maps/place/Old+Chicago/@36.588791,-87.292499,17z/data=!3m1!4b1!4m5!3m4!1s0x886520afef7a86cd:0xaad630ad2de813fb!8m2!3d36.588791!4d-87.292499",
Old Chicago Pizza & Taproom,1835 Old Fort Pkwy,MURFREESBORO,TN,37129-3364,6152253200.0,"https://www.google.com/maps/place/Old+Chicago/@35.8955388,-86.9045983,10z/data=!4m8!1m2!2m1!1sOld+Chicago+Pizza+%26+Taproom+1835+Old+Fort+Pkwy+MURFREESBORO+TN+37129-3364!3m4!1s0x8863f7f3fa429f0d:0xeb8cb10c1ee73772!8m2!3d35.8452707!4d-86.4242366?hl=en",
Old Chicago Pizza & Taproom,250 Northgate Mall Dr,CHATTANOOGA,TN,37415-6906,4238773450.0,"https://www.google.com/maps/place/Old+Chicago/@35.130718,-85.240636,17z/data=!3m1!4b1!4m5!3m4!1s0x88608a85308f9197:0x21f1097b1165be37!8m2!3d35.130718!4d-85.240636",
Old Chicago Pizza & Taproom,10601 Fischer Park Dr,LOUISVILLE,KY,40241-4138,5026575700.0,"https://www.google.com/maps/place/Old+Chicago/@38.9700449,-86.4701003,9z/data=!4m8!1m2!2m1!1sOld+Chicago+Pizza+%26+Taproom+9010+Taylorsville+Rd+LOUISVILLE+KY+40299-1750!3m4!1s0x88699ef4ab54f701:0x230577d1d8230445!8m2!3d38.2957496!4d-85.5562771?hl=en",
Old Chicago Pizza & Taproom,15231 Trenton Rd,SOUTHGATE,MI,48195-3167,7342828111.0,"https://www.google.com/maps/place/Old+Chicago/@42.19764,-83.192638,17z/data=!3m1!4b1!4m5!3m4!1s0x883b3764258fb495:0x281359cca184dbe1!8m2!3d42.19764!4d-83.192638",
Old Chicago Pizza & Taproom,1924 Pavillon Way,LEXINGTON,KY,40509-2210,8599774640.0,"https://www.google.com/maps/place/Old+Chicago/@38.020409,-84.41603,17z/data=!3m1!4b1!4m5!3m4!1s0x88424fe75f50371d:0xbc18e3a41efcf60a!8m2!3d38.020409!4d-84.41603",
Old Chicago Pizza & Taproom,6550 E Lloyd Expy,EVANSVILLE,IN,47715-2724,8124011400.0,"https://www.google.com/maps/place/Old+Chicago/@37.97726,-87.472185,17z/data=!3m1!4b1!4m5!3m4!1s0x886e2b68cfc4c415:0x45a9cf9024175721!8m2!3d37.97726!4d-87.472185",
Old Chicago Pizza & Taproom,1938 W Grand River Ave,OKEMOS,MI,48864-1702,5173471111.0,"https://www.google.com/maps/place/Old+Chicago/@42.7208409,-84.4186992,17z/data=!3m1!4b1!4m5!3m4!1s0x8822dd5da020dd83:0x6e54df3d234f64c2!8m2!3d42.7208409!4d-84.4186992",
Old Chicago Pizza & Taproom,2495 S Oneida St,GREEN BAY,WI,54304-5201,9208841112.0,"https://www.google.com/maps/place/Old+Chicago/@44.4828312,-88.0690627,17z/data=!3m1!4b1!4m5!3m4!1s0x8802fbb8c4099585:0xc5b3d42532d571ed!8m2!3d44.4828312!4d-88.0690627",
Old Chicago Pizza & Taproom,2100 Snelling Ave N,ROSEVILLE,MN,55113-6000,6516390303.0,"https://www.google.com/maps/place/Old+Chicago/@45.005096,-93.16564,17z/data=!3m1!4b1!4m5!3m4!1s0x52b32b97f1c4a8a5:0x48bf3cc114dfee16!8m2!3d45.005096!4d-93.16564",
Old Chicago Pizza & Taproom,327 S Lake Ave,DULUTH,MN,55802-2473,2187202966.0,"https://www.google.com/maps/place/Old+Chicago/@46.7832406,-92.0958948,17z/data=!3m1!4b1!4m5!3m4!1s0x52ae53f1eadf60d5:0xf13388cf07b09aeb!8m2!3d46.7832406!4d-92.0958948",
Old Chicago Pizza & Taproom,1940 N 19th Ave,BOZEMAN,MT,59718-7252,4065879404.0,"https://www.google.com/maps/place/Old+Chicago/@45.698443,-111.063178,17z/data=!3m1!4b1!4m5!3m4!1s0x5345450c09c99e3f:0x73235a5abad70c3!8m2!3d45.698443!4d-111.063178",
Old Chicago Pizza & Taproom,2732 SE Delaware Ave,ANKENY,IA,50021-9322,5159638686.0,"https://www.google.com/maps/place/Old+Chicago/@41.7007469,-93.5818514,17z/data=!3m1!4b1!4m5!3m4!1s0x87ee9aaa1396ad33:0x59918ae77dad7584!8m2!3d41.7007469!4d-93.5818514",
Old Chicago Pizza & Taproom,5030 Sergeant Rd,SIOUX CITY,IA,51106-4708,7122240700.0,"https://www.google.com/maps/place/Old+Chicago/@42.445109,-96.340459,17z/data=!3m1!4b1!4m5!3m4!1s0x878dff64a15c44cd:0x16e636746edef9ae!8m2!3d42.445109!4d-96.340459",
Old Chicago Pizza & Taproom,12300 Singletree Ln,EDEN PRAIRIE,MN,55344-7915,9529461400.0,"https://www.google.com/maps/place/Old+Chicago/@44.8578166,-93.4326635,17z/data=!3m1!4b1!4m5!3m4!1s0x87f618bdcb3dacf1:0xa8d425c63ad7d59a!8m2!3d44.8578166!4d-93.4326635",
Old Chicago Pizza & Taproom,2551 45th St S,FARGO,ND,58104-8622,7013568277.0,"https://www.google.com/maps/place/Old+Chicago/@45.8315732,-97.3907836,7z/data=!4m8!1m2!2m1!1sOld+Chicago+Pizza+%26+Taproom+2551+45th+St+S+FARGO+ND+58104-8622!3m4!1s0x52c8ccbb0f7bb8cb:0xc6a75f635dee2deb!8m2!3d46.8415533!4d-96.8635217?hl=en",
Old Chicago Pizza & Taproom,6280 E State St,ROCKFORD,IL,61108-2516,8152274040.0,"https://www.google.com/maps/place/Old+Chicago/@42.268877,-88.994197,17z/data=!3m1!4b1!4m5!3m4!1s0x8808b8e15f571d29:0x7733ec3ad5af23e5!8m2!3d42.268877!4d-88.994197",
Old Chicago Pizza & Taproom,2643 S 144th St,OMAHA,NE,68144-3258,4023309001.0,"https://www.google.com/maps/place/Old+Chicago/@41.234468,-96.137658,17z/data=!3m1!4b1!4m5!3m4!1s0x8793f3cc440e1953:0x80f1176297cba99a!8m2!3d41.234468!4d-96.137658",
Old Chicago Pizza & Taproom,13110 Birch Dr,OMAHA,NE,68164-4160,4024459393.0,"https://www.google.com/maps/place/Old+Chicago/@41.291633,-96.119012,17z/data=!3m1!4b1!4m5!3m4!1s0x8793ed9afa5f5a2b:0xb042942ca0443b38!8m2!3d41.291633!4d-96.119012",
Old Chicago Pizza & Taproom,826 P St,LINCOLN,NE,68508-1328,4024772277.0,"https://www.google.com/maps/place/Old+Chicago/@40.7792682,-96.72937,13z/data=!4m8!1m2!2m1!1sOld+Chicago+Pizza+%26+Taproom+826+P+St+LINCOLN+NE+68508-1328!3m4!1s0x8796bf1d26f9e093:0xa84ea6a5af14bd39!8m2!3d40.8150999!4d-96.7090962?hl=en",
Old Chicago Pizza & Taproom,115 2nd Ave E,KEARNEY,NE,68847-7857,3082344531.0,"https://www.google.com/maps/place/Old+Chicago/@40.673872,-99.084594,17z/data=!3m1!4b1!4m5!3m4!1s0x879949420ce902cd:0x4270a00c6cd9d7e2!8m2!3d40.673872!4d-99.084594",
Old Chicago Pizza & Taproom,1380 W Centerville Rd,GARLAND,TX,75041-5907,9726816260.0,"https://www.google.com/maps/place/Old+Chicago/@32.7491329,-97.5421135,9z/data=!4m8!1m2!2m1!1sOld+Chicago+Pizza+%26+Taproom+5319+E+Mockingbird+Ln+DALLAS+TX+75206-5247!3m4!1s0x864ea6d8b6bdea59:0xcd01c317ef25f156!8m2!3d32.854191!4d-96.64448?hl=en",
Old Chicago Pizza & Taproom,24515 Katy Fwy,KATY,TX,77494-1340,2813470090.0,"https://www.google.com/maps/place/Old+Chicago/@31.3282519,-98.5552575,7z/data=!4m8!1m2!2m1!1sOld+Chicago+Pizza+%26+Taproom+24515+Katy+Fwy+KATY+TX+77494-1340!3m4!1s0x864126912243ffb9:0x5fbd0d1f87e9b071!8m2!3d29.784465!4d-95.795514?hl=en",
Old Chicago Pizza & Taproom,8711 Wadsworth Blvd,WESTMINSTER,CO,80003-0907,3034317707.0,"https://www.google.com/maps/place/Old+Chicago/@39.85386,-105.08237,17z/data=!3m1!4b1!4m5!3m4!1s0x876b8906ff2a6d8b:0x257b00a52260c917!8m2!3d39.85386!4d-105.08237",
Old Chicago Pizza & Taproom,16990 E Iliff Ave,AURORA,CO,80013-1518,3033380144.0,"https://www.google.com/maps/place/Old+Chicago/@39.673057,-104.789535,17z/data=!3m1!4b1!4m5!3m4!1s0x876c89d1d7aae019:0x918b5de1ed805917!8m2!3d39.673057!4d-104.789535",
Old Chicago Pizza & Taproom,1280 E 1st Ave,BROOMFIELD,CO,80020-3703,3034665834.0,"https://www.google.com/maps/place/Old+Chicago/@39.91484,-105.055071,17z/data=!3m1!4b1!4m5!3m4!1s0x876b8a6a1aca468f:0x774bd39be780a82a!8m2!3d39.91484!4d-105.055071",
Old Chicago Pizza & Taproom,3909 E 120th Ave,THORNTON,CO,80233-1644,3032521113.0,"https://www.google.com/maps/place/Old+Chicago/@39.915083,-104.941852,17z/data=!3m1!4b1!4m5!3m4!1s0x876c7407d369b167:0xac39d2ff1111eb19!8m2!3d39.915083!4d-104.941852",
Old Chicago Pizza & Taproom,4709 S Timberline Rd,FORT COLLINS,CO,80528-3020,9702079456.0,"https://www.google.com/maps/place/Old+Chicago/@40.521761,-105.040287,17z/data=!3m1!4b1!4m5!3m4!1s0x87694cb1bfe3b641:0xff3c35172854bc33!8m2!3d40.521761!4d-105.040287",
Old Chicago Pizza & Taproom,3190 New Center Pt,COLORADO SPRINGS,CO,80922-2812,7195918994.0,"https://www.google.com/maps/place/Old+Chicago/@38.879412,-104.719256,17z/data=!3m1!4b1!4m5!3m4!1s0x8713462787fb45ad:0xbe6ef59995b84d97!8m2!3d38.879412!4d-104.719256",
Old Chicago Pizza & Taproom,8251 N Booth Ave,KANSAS CITY,MO,64158-7202,8167818336.0,"https://www.google.com/maps/place/Old+Chicago/@39.243303,-94.476678,17z/data=!3m1!4b1!4m5!3m4!1s0x87c0ff54a2ea17bb:0xbdb42fc9110c9dea!8m2!3d39.243303!4d-94.476678",
Old Chicago Pizza & Taproom,2001 Tower Clock Plz,MANHATTAN,KS,66503-3703,7855373322.0,"https://www.google.com/maps/place/Old+Chicago/@39.204011,-96.634235,17z/data=!3m1!4b1!4m5!3m4!1s0x87bdd26041dde5e3:0x8cc9fc3b0c62d206!8m2!3d39.204011!4d-96.634235",
Old Chicago Pizza & Taproom,2918 Pine Lake Rd,LINCOLN,NE,68516-6010,4024213388.0,"https://www.google.com/maps/place/Old+Chicago/@40.743317,-96.679605,17z/data=!3m1!4b1!4m5!3m4!1s0x879695c228c16d6d:0x31d429eadd81955c!8m2!3d40.743317!4d-96.679605",
Old Chicago Pizza & Taproom,436 N Highway 67,CEDAR HILL,TX,75104-2135,9722915706.0,"https://www.google.com/maps/place/Old+Chicago/@32.5967763,-96.9376637,17z/data=!3m1!4b1!4m5!3m4!1s0x864e8deb7a7cb753:0xfb2aad4b6e2fc4db!8m2!3d32.5967763!4d-96.9376637",
Old Chicago Pizza & Taproom,3550 S Wadsworth Blvd,LAKEWOOD,CO,80235-2004,3039883414.0,"https://www.google.com/maps/place/Old+Chicago/@39.65064,-105.080725,17z/data=!3m1!4b1!4m5!3m4!1s0x876b81d35d588f0b:0x518694562cd951c6!8m2!3d39.65064!4d-105.080725",
Old Chicago Pizza & Taproom,4110 N Academy Blvd,COLORADO SPRINGS,CO,80918-6620,7195360633.0,"https://www.google.com/maps/place/Old+Chicago/@38.891394,-104.757567,17z/data=!3m1!4b1!4m5!3m4!1s0x8713436cc3388beb:0xe9fcb50643a1f084!8m2!3d38.891394!4d-104.757567",
Old Chicago Pizza & Taproom,3580 E 2nd St,CASPER,WY,82609-2279,3074731900.0,"https://www.google.com/maps/place/Old+Chicago/@42.849459,-106.279019,17z/data=!3m1!4b1!4m5!3m4!1s0x8760bb8a7cbfeb75:0x7491e30b64083a1d!8m2!3d42.849459!4d-106.279019",
Old Chicago Pizza & Taproom,1100 E Boxelder Rd,GILLETTE,WY,82718-5514,3076823303.0,"https://www.google.com/maps/place/Old+Chicago/@44.27642,-105.487811,17z/data=!3m1!4b1!4m5!3m4!1s0x5334967fb6d3c3e9:0x972bae8fb1257fdc!8m2!3d44.27642!4d-105.487811",
Old Chicago Pizza & Taproom,350 N Milwaukee St,BOISE,ID,83704-9123,2083210033.0,"https://www.google.com/maps/place/Old+Chicago/@43.6075205,-116.279134,17z/data=!3m1!4b1!4m5!3m4!1s0x54ae566a914b807d:0x81ba48768a4a52ae!8m2!3d43.6075205!4d-116.279134",
Old Chicago Pizza & Taproom,440 Cool Springs Blvd,FRANKLIN,TN,37067-2685,6152248380.0,"https://www.google.com/maps/place/Old+Chicago/@35.945345,-86.824594,17z/data=!3m1!4b1!4m5!3m4!1s0x88647eb39e250e5b:0x3ab0604de17ced36!8m2!3d35.945345!4d-86.824594",
Old Chicago Pizza & Taproom,740 E 81st Ave,MERRILLVILLE,IN,46410-5537,2194720616.0,"https://www.google.com/maps/place/Old+Chicago/@41.4719288,-87.3326657,17z/data=!4m5!3m4!1s0x8811eec2c0624fcf:0x79be3d4f662ce4eb!8m2!3d41.4719248!4d-87.330477?hl=en",
Old Chicago Pizza & Taproom,3333 28th St SE,GRAND RAPIDS,MI,49512-1677,6169401111.0,"https://www.google.com/maps/place/Old+Chicago/@42.912994,-85.584508,17z/data=!3m1!4b1!4m5!3m4!1s0x88184d3f1ab9530d:0x62cbfbfa14e06b81!8m2!3d42.912994!4d-85.584508",
Old Chicago Pizza & Taproom,1610 S Kellogg Ave,AMES,IA,50010-8000,5152326900.0,"https://www.google.com/maps/place/Old+Chicago/@42.007512,-93.610898,17z/data=!3m1!4b1!4m5!3m4!1s0x87ee7bedfc015f39:0xe9a4feedafe04444!8m2!3d42.007512!4d-93.610898",
Old Chicago Pizza & Taproom,75 2nd St,CORALVILLE,IA,52241-2603,3192481220.0,"https://www.google.com/maps/place/Old+Chicago/@41.6683057,-91.5629204,17z/data=!3m1!4b1!4m5!3m4!1s0x87e4417e5d722c93:0x3b28ffa396485b6f!8m2!3d41.6683057!4d-91.5629204",
Old Chicago Pizza & Taproom,14998 Glazier Ave,APPLE VALLEY,MN,55124-7439,9528914600.0,"https://www.google.com/maps/place/Old+Chicago/@44.8691482,-93.5793309,10z/data=!4m8!1m2!2m1!1sOld+Chicago+Pizza+%26+Taproom+14998+Glazier+Ave+APPLE+VALLEY+MN+55124-7439!3m4!1s0x87f6312a8aa1b6af:0x34b3d56edd8d3dc4!8m2!3d44.732912!4d-93.217157?hl=en",
Old Chicago Pizza & Taproom,920 S 24th St W,BILLINGS,MT,59102-6404,4066558122.0,"https://www.google.com/maps/place/Old+Chicago/@45.753231,-108.576757,17z/data=!3m1!4b1!4m5!3m4!1s0x53486328ecace015:0x7a9e99055d7ef8c2!8m2!3d45.753231!4d-108.576757",
Old Chicago Pizza & Taproom,1910 N Neil St,CHAMPAIGN,IL,61820-7818,2176071489.0,"https://www.google.com/maps/place/Old+Chicago+Pizza+%26+Tap+Room/@40.3484385,-92.9756087,6z/data=!4m8!1m2!2m1!1sOld+Chicago+Pizza+%26+Taproom+CHAMPAIGN+IL!3m4!1s0x880cd9f859f6e8b1:0x2ed044362687111!8m2!3d40.1399704!4d-88.2441788?hl=en",
Old Chicago Pizza & Taproom,11969 S Strang Line Rd,OLATHE,KS,66062-5287,9137649850.0,"https://www.google.com/maps/place/Old+Chicago/@38.909319,-94.767239,17z/data=!3m1!4b1!4m5!3m4!1s0x87c095750f508815:0x48cf507c10fb5585!8m2!3d38.909319!4d-94.767239",
Old Chicago Pizza & Taproom,1231 SW Wanamaker Rd,TOPEKA,KS,66604-3810,7852735522.0,"https://www.google.com/maps/place/Old+Chicago/@39.044323,-95.763546,17z/data=!3m1!4b1!4m5!3m4!1s0x87befd055f083671:0xcb579f942f60cf4a!8m2!3d39.044323!4d-95.763546",
Old Chicago Pizza & Taproom,2240 N Tyler Rd,WICHITA,KS,67205-8757,3167290002.0,"https://www.google.com/maps/place/Old+Chicago/@37.724256,-97.443963,17z/data=!3m1!4b1!4m5!3m4!1s0x87badfe72d8b128b:0xc5fc3d6a5f5e709c!8m2!3d37.724256!4d-97.443963",
Old Chicago Pizza & Taproom,7626 E Kellogg Dr,WICHITA,KS,67207-1614,3166853111.0,"https://www.google.com/maps/place/Old+Chicago/@37.680093,-97.248431,17z/data=!3m1!4b1!4m5!3m4!1s0x87bafca349cc56d5:0x71a5441eb126fb53!8m2!3d37.680093!4d-97.248431",
Old Chicago Pizza & Taproom,1010 Main St,CONWAY,AR,72032-5426,5013296262.0,"https://www.google.com/maps/place/Old+Chicago+Pizza+%26+Taproom/@35.0902594,-92.4405308,17z/data=!4m8!1m2!2m1!1sOld+Chicago+Pizza+%26+Taproom+1010+Main+St+CONWAY+AR+72032-5426!3m4!1s0x87d2823d18b85493:0x4ac76c5c1d7b500f!8m2!3d35.0902251!4d-92.4382012?hl=en",
Old Chicago Pizza & Taproom,4305 Warden Rd,NORTH LITTLE ROCK,AR,72116-8056,5018126262.0,"https://www.google.com/maps/place/Old+Chicago/@36.1950003,-117.0711748,4z/data=!4m8!1m2!2m1!1sOld+Chicago+Pizza+%26+Taproom+NORTH+LITTLE+ROCK+AR!3m4!1s0x87d2be81c1501a5d:0x984b82cf00919e19!8m2!3d34.7941726!4d-92.2225045?hl=en",
Old Chicago Pizza & Taproom,5319 E Mockingbird Ln,DALLAS,TX,75206-5247,2148215700.0,"https://www.google.com/maps/place/Old+Chicago/@32.7491329,-97.5421135,9z/data=!4m8!1m2!2m1!1sOld+Chicago+Pizza+%26+Taproom+5319+E+Mockingbird+Ln+DALLAS+TX+75206-5247!3m4!1s0x864e9c240f99802b:0x6428726dae0f1ee!8m2!3d32.8384836!4d-96.7766112?hl=en",
Old Chicago Pizza & Taproom,2901 E Central Texas Expy,KILLEEN,TX,76543-7305,2548335061.0,"https://www.google.com/maps/place/Old+Chicago/@31.086521,-97.708563,17z/data=!3m1!4b1!4m5!3m4!1s0x86454bce2d1dd4c1:0x50ff3b25ca8e661a!8m2!3d31.086521!4d-97.708563",
Old Chicago Pizza & Taproom,4641 S Jack Kultgen Expy,WACO,TX,76711,2546620950.0,"https://www.google.com/maps/place/Old+Chicago/@31.4978696,-97.1517027,17z/data=!4m5!3m4!1s0x864f816d12e38d29:0xdc720b81992966bd!8m2!3d31.497865!4d-97.149514?hl=en",
Old Chicago Pizza & Taproom,6105 S Main St,AURORA,CO,80016-5360,3036171442.0,"https://www.google.com/maps/place/Old+Chicago/@39.6343617,-104.8250595,12z/data=!3m1!5s0x876c8c7c5c94a0e3:0x7edf0a3ac1c27c95!4m8!1m2!2m1!1sOld+Chicago+Pizza+%26+Taproom+6105+S+Main+St+AURORA+CO+80016-5360!3m4!1s0x876c8c7cf62c6517:0x413a3affce206f1f!8m2!3d39.6059265!4d-104.7095296?hl=en",
Old Chicago Pizza & Taproom,1436 Hahns Peak Dr,LOVELAND,CO,80538-9061,9705931003.0,"https://www.google.com/maps/place/Old+Chicago/@40.407953,-105.010368,17z/data=!3m1!4b1!4m5!3m4!1s0x876eacdd15246999:0x585948bfab6e37a7!8m2!3d40.407953!4d-105.010368",
Old Chicago Pizza & Taproom,2960 N Campbell Ave,TUCSON,AZ,85719-2813,5203276200.0,"https://www.google.com/maps/place/Old+Chicago/@32.769795,-111.927238,9z/data=!4m8!1m2!2m1!1sOld+Chicago+Pizza+%26+Taproom+2960+N+Campbell+Ave+TUCSON+AZ+85719-2813!3m4!1s0x86d67184b2fb277f:0xbc638a6d1fb86944!8m2!3d32.260227!4d-110.943309?hl=en",
Old Chicago Pizza & Taproom,11211 SE 82nd Ave,PORTLAND,OR,97086-7624,5037865009.0,"https://www.google.com/maps/place/Old+Chicago/@45.4884699,-122.9900744,10z/data=!4m8!1m2!2m1!1sOld+Chicago+Pizza+%26+Taproom+10300+SE+Washington+St+PORTLAND+OR+97216-2805!3m4!1s0x5495757b29c7d4eb:0x3837c3a48061258c!8m2!3d45.441624!4d-122.5799679?hl=en",
Old Chicago Pizza & Taproom,4157 Western Blvd,JACKSONVILLE,NC,28546-7000,9103537900.0,"https://www.google.com/maps/place/Old+Chicago/@34.798442,-77.415108,17z/data=!3m1!4b1!4m5!3m4!1s0x89a910e88e5c06c9:0xbd44038f92496910!8m2!3d34.798442!4d-77.415108",
Old Chicago Pizza & Taproom,9010 Taylorsville Rd,LOUISVILLE,KY,40299-1750,5023017700.0,"https://www.google.com/maps/place/Old+Chicago/@38.9700449,-86.4701003,9z/data=!3m1!5s0x8869a01295106331:0x3333a570f8f2b9c0!4m8!1m2!2m1!1sOld+Chicago+Pizza+%26+Taproom+9010+Taylorsville+Rd+LOUISVILLE+KY+40299-1750!3m4!1s0x8869a012f3a77ac7:0xdbb1a092972206a1!8m2!3d38.214331!4d-85.590417?hl=en",
Old Chicago Pizza & Taproom,3030 Utica Ridge Rd,BETTENDORF,IA,52722-2977,5633559494.0,"https://www.google.com/maps/place/Old+Chicago/@41.55413,-90.51898,17z/data=!3m1!4b1!4m5!3m4!1s0x87e2368433770c73:0xe1457f26e56489fb!8m2!3d41.55413!4d-90.51898",
Old Chicago Pizza & Taproom,4040 2nd St S,SAINT CLOUD,MN,56301-6504,3202591103.0,"https://www.google.com/maps/place/Old+Chicago/@45.5492191,-94.2098078,17z/data=!4m8!1m2!2m1!1sOld+Chicago+Pizza+%26+Taproom+4040+2nd+St+S+SAINT+CLOUD+MN+56301-6504!3m4!1s0x52b45f0f1de23a51:0x99a25c623a22198a!8m2!3d45.549264!4d-94.207452?hl=en",
Old Chicago Pizza & Taproom,7610 N Grand Prairie Dr,PEORIA,IL,61615-9240,3096911885.0,"https://www.google.com/maps/place/Old+Chicago/@40.7804862,-89.6753428,17z/data=!3m1!4b1!4m5!3m4!1s0x880a5d3c6fc509b7:0xc4783f62cf7f1a9f!8m2!3d40.7804862!4d-89.6753428",
Old Chicago Pizza & Taproom,300 N Mead St,WICHITA,KS,67202-2744,3162642057.0,"https://www.google.com/maps/place/Old+Chicago/@37.68996,-97.328719,17z/data=!3m1!4b1!4m5!3m4!1s0x87bae3bf0baa1eeb:0xb8138ef63c19c32c!8m2!3d37.68996!4d-97.328719",
Old Chicago Pizza & Taproom,1010 Stone Creek Dr,GARDEN CITY,KS,67846-9112,6208055086.0,"https://www.google.com/maps/place/Old+Chicago+Pizza+And+Taproom/@37.9735982,-100.8376108,17z/data=!3m1!4b1!4m5!3m4!1s0x8709efd1cdc6f707:0x20cd4f8636ddedd5!8m2!3d37.9735982!4d-100.8376108",
Old Chicago Pizza & Taproom,7506 Olson Dr,PAPILLION,NE,68046-4801,4025922739.0,"https://www.google.com/maps/place/Old+Chicago/@41.2146379,-96.1523497,12z/data=!4m8!1m2!2m1!1sOld+Chicago+Pizza+%26+Taproom+7506+Olson+Dr+PAPILLION+NE+68046-4801!3m4!1s0x87938a89eb2421e9:0x12ce040ad427b8de!8m2!3d41.137427!4d-96.026962?hl=en",
Old Chicago Pizza & Taproom,425 N 78th St,OMAHA,NE,68114-3638,4023848355.0,"https://www.google.com/maps/place/Old+Chicago/@41.262856,-96.0364912,17z/data=!3m1!4b1!4m5!3m4!1s0x87938d12bc8154e3:0x590a843a006221e6!8m2!3d41.262856!4d-96.0364912",
Old Chicago Pizza & Taproom,405 W Southwest Loop 323,TYLER,TX,75701-9426,9035346580.0,"https://www.google.com/maps/place/Old+Chicago/@32.5873581,-98.5552001,7z/data=!4m8!1m2!2m1!1sOld+Chicago+Pizza+%26+Taproom+405+W+Southwest+Loop+323+TYLER+TX+75701-9426!3m4!1s0x8649cc70c792ba23:0xc50d59a05b138715!8m2!3d32.303652!4d-95.304758?hl=en",
Old Chicago Pizza & Taproom,8933 North Fwy,FORT WORTH,TX,76177-7613,8178477170.0,"https://www.google.com/maps/place/Old+Chicago/@32.901673,-97.318878,17z/data=!3m1!4b1!4m5!3m4!1s0x864dd8fb2eb309ed:0x3e33c4ea9fbef14e!8m2!3d32.901673!4d-97.318878",
Old Chicago Pizza & Taproom,6676 S Parker Rd,AURORA,CO,80016-1084,3034000876.0,"https://www.google.com/maps/place/Old+Chicago/@39.595444,-104.80051,17z/data=!3m1!4b1!4m5!3m4!1s0x876c8f298eebb6f1:0x95305020522a7751!8m2!3d39.595444!4d-104.80051",
Old Chicago Pizza & Taproom,1280 S Colorado Blvd,DENVER,CO,80246-2904,3037530824.0,"https://www.google.com/maps/place/Old+Chicago/@39.7345588,-105.241775,10z/data=!4m8!1m2!2m1!1sOld+Chicago+Pizza+%26+Taproom+1280+S+Colorado+Blvd+DENVER+CO+80246-2904!3m4!1s0x876c7e778caf32a9:0xf6dba23355e967!8m2!3d39.693523!4d-104.940184?hl=en",
Old Chicago Pizza & Taproom,145 Union Blvd,LAKEWOOD,CO,80228-2265,3039885990.0,"https://www.google.com/maps/place/Old+Chicago/@39.717238,-105.133652,17z/data=!3m1!4b1!4m5!3m4!1s0x876b83f8c3e6efdb:0xa9e6233bff4dc259!8m2!3d39.717238!4d-105.133652",
Old Chicago Pizza & Taproom,10180 Grant St,THORNTON,CO,80229-2051,3034505301.0,"https://www.google.com/maps/place/Old+Chicago/@39.880976,-104.981663,17z/data=!3m1!4b1!4m5!3m4!1s0x876c768b3e8df04d:0x868ec6f443e25e9!8m2!3d39.880976!4d-104.981663",
Old Chicago Pizza & Taproom,1805 Industrial Cir,LONGMONT,CO,80501-6523,3036517000.0,"https://www.google.com/maps/place/Old+Chicago/@40.0583038,-105.4861305,9z/data=!4m8!1m2!2m1!1sOld+Chicago+Pizza+%26+Taproom+1805+Industrial+Cir+LONGMONT+CO+80501-6523!3m4!1s0x876bf9898282697f:0xe531bddc3ddaab02!8m2!3d40.14747!4d-105.123427?hl=en",
Old Chicago Pizza & Taproom,2349 W 29th St,GREELEY,CO,80631-8513,9703301116.0,"https://www.google.com/maps/place/Old+Chicago/@40.391056,-104.717766,17z/data=!3m1!4b1!4m5!3m4!1s0x876ea1120c32c2cd:0x5003e45b788593ff!8m2!3d40.391056!4d-104.717766",
Old Chicago Pizza & Taproom,7115 Commerce Center Dr,COLORADO SPRINGS,CO,80919-2633,7195937678.0,"https://www.google.com/maps/place/Old+Chicago/@38.934999,-104.813882,17z/data=!3m1!4b1!4m5!3m4!1s0x87134e6e95d4bca3:0x6fb7ee19e7de259a!8m2!3d38.934999!4d-104.813882",
Old Chicago Pizza & Taproom,3204 N Elizabeth St,PUEBLO,CO,81008-1141,7192951695.0,"https://www.google.com/maps/place/Old+Chicago/@38.302472,-104.6147976,17z/data=!3m1!4b1!4m5!3m4!1s0x8713a23379b343e1:0x1b214a2e713eca11!8m2!3d38.302472!4d-104.6147976",
Old Chicago Pizza & Taproom,120 North Ave,GRAND JUNCTION,CO,81501-7539,9702448383.0,"https://www.google.com/maps/place/Old+Chicago/@39.077597,-108.570174,17z/data=!3m1!4b1!4m5!3m4!1s0x87471cf80701326b:0x430cf918f03b9939!8m2!3d39.077597!4d-108.570174",
Old Chicago Pizza & Taproom,1734 Meadowland Dr,CHEYENNE,WY,82009-7313,3076343400.0,"https://www.google.com/maps/place/Old+Chicago/@41.159127,-104.799054,17z/data=!3m1!4b1!4m5!3m4!1s0x876f3a554bacf2c7:0x7f35c36ac2189b80!8m2!3d41.159127!4d-104.799054",
Old Chicago Pizza & Taproom,730 W Idaho St,BOISE,ID,83702-5811,2083630037.0,"https://www.google.com/maps/place/Old+Chicago/@43.6119957,-116.3106939,12z/data=!4m8!1m2!2m1!1sOld+Chicago+Pizza+%26+Taproom+730+W+Idaho+St+BOISE+ID+83702-5811!3m4!1s0x54aef8e481e56b0f:0x808e6b3a49bd876e!8m2!3d43.6162651!4d-116.2021745?hl=en",
Old Chicago Pizza & Taproom,10300 SE Washington St,PORTLAND,OR,97216-2805,9719980058.0,"https://www.google.com/maps/place/Old+Chicago/@45.4884699,-122.9900744,10z/data=!4m8!1m2!2m1!1sOld+Chicago+Pizza+%26+Taproom+10300+SE+Washington+St+PORTLAND+OR+97216-2805!3m4!1s0x5495a1a223fa1605:0x2faff19df0501975!8m2!3d45.518146!4d-122.557231?hl=en",
