Company Name,Address 1,City,State,Zip,Phone,Google Link,Company Name Processed,Status
Pizza Inn,1001 Joe Clifton Dr,PADUCAH,KY,42001,2704427105.0,"https://www.google.com/maps/place/Pizza+Inn+Buffet/@37.082565,-88.637412,17z/data=!3m1!4b1!4m5!3m4!1s0x887a1a83badae0bd:0x3694ff9fc3b621f7!8m2!3d37.082565!4d-88.637412",pizza_inn,
Pizza Inn,1031 Kingold Blvd,SNOW HILL,NC,28580,2527477115.0,"https://www.google.com/maps/place/Pizza+Inn+Express/@35.440681,-77.663761,17z/data=!3m1!4b1!4m5!3m4!1s0x89aeb0b08b4aa865:0x80b548db78117ce!8m2!3d35.440681!4d-77.663761",pizza_inn,
Pizza Inn,1108 Asheville Hwy,SPARTANBURG,SC,29303-2158,8645854281.0,"https://www.google.com/maps/place/Pizza+Inn+Buffet/@34.97067,-81.95403,17z/data=!3m1!4b1!4m5!3m4!1s0x8857767551c6d48b:0x34b28486e8503593!8m2!3d34.97067!4d-81.95403",pizza_inn,
Pizza Inn,1107 N Main St,LANCASTER,SC,29720-2192,8032833357.0,"https://www.google.com/maps/place/Pizza+Inn+Buffet/@34.733755,-80.776952,17z/data=!3m1!4b1!4m5!3m4!1s0x8855d7b2a9147177:0xe8a204dbdf88bf6f!8m2!3d34.733755!4d-80.776952",pizza_inn,
Pizza Inn,1208 S Caraway Rd,JONESBORO,AR,72401,8709321010.0,"https://www.google.com/maps/place/Pizza+Inn+Buffet/@35.8317321,-90.6770287,17z/data=!3m1!4b1!4m5!3m4!1s0x87d42bfdfe68af57:0xbcdf00ed7e14379e!8m2!3d35.8317321!4d-90.6770287",pizza_inn,
Pizza Inn,1210 W Pierce St,CARLSBAD,NM,88220-4017,5758877566.0,"https://www.google.com/maps/place/Pizza+Inn+Buffet/@32.436189,-104.242183,17z/data=!3m1!4b1!4m5!3m4!1s0x86e3782cf0cfd145:0x81cc144df615c55f!8m2!3d32.436189!4d-104.242183",pizza_inn,
Pizza Inn,127 E Dixon Blvd,SHELBY,NC,28152-6760,7044822441.0,"https://www.google.com/maps/place/Pizza+Inn+Buffet/@35.278389,-81.539796,17z/data=!3m1!4b1!4m5!3m4!1s0x88572022f0830f2b:0xed816844e52774ea!8m2!3d35.278389!4d-81.539796",pizza_inn,
Pizza Inn,1463 Sunset Dr,GRENADA,MS,38901,6622263330.0,"https://www.google.com/maps/place/Pizza+Inn+Buffet/@33.781714,-89.830569,17z/data=!3m1!4b1!4m5!3m4!1s0x8881cd4628e377fd:0x4441cbaaf8f2f7a0!8m2!3d33.781714!4d-89.830569",pizza_inn,
Pizza Inn,1404 Church St,CONWAY,SC,29526-4104,8432489216.0,"https://www.google.com/maps/place/Pizza+Inn+Buffet/@33.843906,-79.06094,17z/data=!3m1!4b1!4m5!3m4!1s0x89000d7e257b355f:0x36fb684b200c9b3f!8m2!3d33.843906!4d-79.06094",pizza_inn,
Pizza Inn,1441 S Pollock St,SELMA,NC,27576,9199654400.0,"https://www.google.com/maps/place/Pizza+Inn+Buffet/@35.523765,-78.30105,17z/data=!3m1!4b1!4m5!3m4!1s0x89ac6d5133e923f5:0x648f48379a9af80b!8m2!3d35.523765!4d-78.30105",pizza_inn,
Pizza Inn,150 NC Highway 43,VANCEBORO,NC,28586-8904,2522441666.0,"https://www.google.com/maps/place/Pizza+Inn+Carryout/@35.307492,-77.156825,17z/data=!3m1!4b1!4m5!3m4!1s0x89af2a2f3d3441a9:0x1fa9286b41923cef!8m2!3d35.307492!4d-77.156825",pizza_inn,
Pizza Inn,1517 E Main St,DUNCAN,SC,29334,8644338447.0,"https://www.google.com/maps/place/Pizza+Inn+Buffet/@34.911841,-82.104203,17z/data=!3m1!4b1!4m5!3m4!1s0x885783b508cef103:0xed3993c5827807e4!8m2!3d34.911841!4d-82.104203",pizza_inn,
Pizza Inn,1711 Bypass 72 NE,GREENWOOD,SC,29649-1608,8642290592.0,"https://www.google.com/maps/place/Pizza+Inn/@34.2173137,-82.1611673,17z/data=!3m1!4b1!4m5!3m4!1s0x88f80189aa10152b:0x42657c39ba0d0ede!8m2!3d34.2173137!4d-82.1611673",pizza_inn,
Pizza Inn,1605 Herring Ave NE,WILSON,NC,27893-6723,2522917551.0,"https://www.google.com/maps/place/Pizza+Inn+Express/@35.735498,-77.887613,17z/data=!3m1!4b1!4m5!3m4!1s0x89ae9e7f51da8dcf:0xf82d025e16f65db!8m2!3d35.735498!4d-77.887613",pizza_inn,
Pizza Inn,1915 N Westwood Blvd,POPLAR BLUFF,MO,63901,5736861191.0,"https://www.google.com/maps/place/Pizza+Inn+Poplar+Bluff/@36.774878,-90.421478,17z/data=!3m1!4b1!4m5!3m4!1s0x87d7b07a011c36df:0xdb854853a1705a45!8m2!3d36.774878!4d-90.421478",pizza_inn,
Pizza Inn,2211 Saint Andrew St,TARBORO,NC,27886-2118,2528231018.0,"https://www.google.com/maps/place/Pizza+Inn+Buffet/@35.915185,-77.543634,17z/data=!3m1!4b1!4m5!3m4!1s0x89aef4df5ee22559:0xc12264f54789b779!8m2!3d35.915185!4d-77.543634",pizza_inn,
Pizza Inn,2406 W Kingshighway,PARAGOULD,AR,72450,8702361300.0,"https://www.google.com/maps/place/Pizza+Inn+Buffet/@36.05924,-90.517703,17z/data=!3m1!4b1!4m5!3m4!1s0x87d67b640dc0cf77:0xd05e4b6f3bbb3f81!8m2!3d36.05924!4d-90.517703",pizza_inn,
Pizza Inn,275 E Andrew Johnson Hwy,GREENEVILLE,TN,37745-9042,4236382000.0,"https://www.google.com/maps/place/Pizza+Inn+Buffet/@36.180518,-82.81768,17z/data=!3m1!4b1!4m5!3m4!1s0x885a4e7e523a2003:0x749454c39d07ee5f!8m2!3d36.180518!4d-82.81768",pizza_inn,
Pizza Inn,101 Jersey St,AHOSKIE,NC,27910,2523325036.0,"https://www.google.com/maps/place/Pizza+Inn+Buffet/@36.276213,-76.975559,17z/data=!3m1!4b1!4m5!3m4!1s0x89ac209e97073537:0xaa388f1718534e3!8m2!3d36.276213!4d-76.975559",pizza_inn,
Pizza Inn,101 Hudson Dr,ELIZABETHTON,TN,37643-2801,4235426800.0,"https://www.google.com/maps/place/Pizza+Inn+Buffet/@36.3457142,-82.2462609,17z/data=!4m8!1m2!2m1!1sPizza+Inn+101+Hudson+Dr+ELIZABETHTON+TN+37643-2801!3m4!1s0x885a7fc4c921c7bb:0x30b97652e7b18bf7!8m2!3d36.346357!4d-82.244102?hl=en",pizza_inn,
Pizza Inn,1035 E Main St,BLYTHEVILLE,AR,72315-2525,8708242660.0,"https://www.google.com/maps/place/Pizza+Inn+Buffet/@35.928509,-89.881606,17z/data=!3m1!4b1!4m5!3m4!1s0x8878ad260d17bd93:0x69a5c014efdddf89!8m2!3d35.928509!4d-89.881606",pizza_inn,
Pizza Inn,100 Brighton Park Blvd,FRANKFORT,KY,40601-3714,5026954102.0,"https://www.google.com/maps/place/Pizza+Inn+Buffet/@38.1965695,-84.828647,17z/data=!3m1!4b1!4m5!3m4!1s0x884273310c2f8d95:0xbb660233161025af!8m2!3d38.1965695!4d-84.828647",pizza_inn,
Pizza Inn,110 W Fairfield Rd,HIGH POINT,NC,27263-1924,3364342138.0,"https://www.google.com/maps/place/Pizza+Inn+Buffet/@35.924166,-79.983977,17z/data=!3m1!4b1!4m5!3m4!1s0x88530c2236023a57:0x47338709523d7a77!8m2!3d35.924166!4d-79.983977",pizza_inn,
Pizza Inn,1103 Sunset Ave,CLINTON,NC,28328-3819,9105903100.0,"https://www.google.com/maps/place/Pizza+Inn+Buffet/@34.993087,-78.341326,17z/data=!3m1!4b1!4m5!3m4!1s0x89aec2e3491d13f3:0x1881b7a3e030aa3a!8m2!3d34.993087!4d-78.341326",pizza_inn,
Pizza Inn,1107 N York St,MUSKOGEE,OK,74403,9186823407.0,"https://www.google.com/maps/place/Pizza+Inn+Buffet/@35.754548,-95.340794,17z/data=!3m1!4b1!4m5!3m4!1s0x87b5e1a7c79412b5:0xdf814985562a8b05!8m2!3d35.754548!4d-95.340794",pizza_inn,
Pizza Inn,3003 N Galloway Ave,MESQUITE,TX,75150-4751,9726867861.0,"https://www.google.com/maps/place/Pizza+Inn/@32.806915,-96.611657,17z/data=!3m1!4b1!4m5!3m4!1s0x864ea5d0ed1acd41:0x8afe29012f8047d9!8m2!3d32.806915!4d-96.611657",pizza_inn,
Pizza Inn,3005 National Parks Hwy,CARLSBAD,NM,88220-5340,5758875049.0,"https://www.google.com/maps/place/Pizza+Inn+Buffet/@32.388947,-104.220634,17z/data=!3m1!4b1!4m5!3m4!1s0x86e3791247987461:0x72d131f0068bd0c1!8m2!3d32.388947!4d-104.220634",pizza_inn,
Pizza Inn,1108 S Main St,SALEM,MO,65560,5737298585.0,"https://www.google.com/maps/place/Pizza+Inn+Buffet/@37.635247,-91.534765,17z/data=!3m1!4b1!4m5!3m4!1s0x87da401bdf891d0f:0x742bc76854fbf451!8m2!3d37.635247!4d-91.534765",pizza_inn,
Pizza Inn,114 N Cedar Ridge Dr,DUNCANVILLE,TX,75116,9722965258.0,"https://www.google.com/maps/place/Pizza+Inn+Buffet/@32.652423,-96.925281,17z/data=!3m1!4b1!4m5!3m4!1s0x864e8e28bb00f531:0x1742cd5387b8f337!8m2!3d32.652423!4d-96.925281",pizza_inn,
Pizza Inn,115 W Wade Hampton Blvd,GREER,SC,29650-1657,8648777779.0,"https://www.google.com/maps/place/Pizza+Inn+Buffet/@34.947924,-82.226879,17z/data=!3m1!4b1!4m5!3m4!1s0x88f88f43716cdcff:0xc1f4a33de5416fc!8m2!3d34.947924!4d-82.226879",pizza_inn,
Pizza Inn,3207 Highway 65 N,MC GEHEE,AR,71654-9448,8702225292.0,"https://www.google.com/maps/place/Pizza+Inn+Buffet/@33.633606,-91.387542,17z/data=!3m1!4b1!4m5!3m4!1s0x862c6e3860a7c509:0x559f0b3c7b57ed3c!8m2!3d33.633606!4d-91.387542",pizza_inn,
Pizza Inn,1227 S Main St,LAURINBURG,NC,28352-5029,9102766565.0,"https://www.google.com/maps/place/Pizza+Inn+Buffet/@34.760915,-79.469938,17z/data=!3m1!4b1!4m5!3m4!1s0x8854d5fe2ef17b8f:0x98923fb372927885!8m2!3d34.760915!4d-79.469938",pizza_inn,
Pizza Inn,358 Southwest Dr,JONESBORO,AR,72401-5853,8709321011.0,"https://www.google.com/maps/place/Pizza+Inn+Buffet/@35.818753,-90.708378,17z/data=!3m1!4b1!4m5!3m4!1s0x87d42ed1095f0ad3:0x947b7c52625d02b6!8m2!3d35.818753!4d-90.708378",pizza_inn,
Pizza Inn,1320 Mockingbird Ln,SULPHUR SPRINGS,TX,75482,9038851549.0,"https://www.google.com/maps/place/Pizza+Inn+Buffet/@33.114647,-95.591982,17z/data=!3m1!4b1!4m5!3m4!1s0x864a2fc63aa4ba6f:0xf594cafe26130b5a!8m2!3d33.114647!4d-95.591982",pizza_inn,
Pizza Inn,1250 Coble Blvd,HENDERSON,NC,27536-3039,2524922144.0,"https://www.google.com/maps/place/Pizza+Inn+Buffet/@36.3315558,-78.4314642,17z/data=!3m1!4b1!4m5!3m4!1s0x89adbcf5e13178f3:0xbd3e94e2adcff63f!8m2!3d36.3315558!4d-78.4314642",pizza_inn,
Pizza Inn,1261 Schillinger Rd N,MOBILE,AL,36608-5219,2516337164.0,"https://www.google.com/maps/place/Pizza+Inn+Express/@30.717184,-88.2257821,17z/data=!3m1!4b1!4m5!3m4!1s0x889bad935827f92d:0xcbdaeb1328b4705b!8m2!3d30.717184!4d-88.2257821",pizza_inn,
Pizza Inn,12640 Highway 188,GRAND BAY,AL,36541,2518650090.0,"https://www.google.com/maps/place/Pizza+Inn+Express/@30.478685,-88.336084,17z/data=!3m1!4b1!4m5!3m4!1s0x808f9161b1dac7cf:0xe4a6e7a9b78f6601!8m2!3d30.478685!4d-88.336084",pizza_inn,
Pizza Inn,3906 N Duke St,DURHAM,NC,27704-1730,9192946700.0,"https://www.google.com/maps/place/Pizza+Inn+Buffet/@36.053494,-78.903968,17z/data=!3m1!4b1!4m5!3m4!1s0x89ace24a5b3d176d:0xdfeaccf65e8a61a8!8m2!3d36.053494!4d-78.903968",pizza_inn,
Pizza Inn,1352 E Broad Ave,ROCKINGHAM,NC,28379,9109975696.0,"https://www.google.com/maps/place/Pizza+Inn+Buffet/@34.920603,-79.74882,17z/data=!3m1!4b1!4m5!3m4!1s0x8854e784ffed81f9:0x33e694ca458e607c!8m2!3d34.920603!4d-79.74882",pizza_inn,
Pizza Inn,4102 Clay St,VICKSBURG,MS,39183-3436,6016385061.0,"https://www.google.com/maps/place/Pizza+Inn+Buffet/@32.343386,-90.836388,17z/data=!3m1!4b1!4m5!3m4!1s0x8628e1faf3f9a937:0xcef218a3c93e0569!8m2!3d32.343386!4d-90.836388",pizza_inn,
Pizza Inn,411 Summit St,WINONA,MS,38967,6622834801.0,"https://www.google.com/maps/place/Pizza+Inn+Buffet/@33.482019,-89.733343,17z/data=!3m1!4b1!4m5!3m4!1s0x8881c055fc41f87d:0x818ad53920340975!8m2!3d33.482019!4d-89.733343",pizza_inn,
Pizza Inn,1509 Carolina Ave,WASHINGTON,NC,27889-3361,2529460149.0,"https://www.google.com/maps/place/Pizza+Inn+Buffet/@35.56396,-77.061763,17z/data=!3m1!4b1!4m5!3m4!1s0x89af1881ff502a55:0xef65174d6a6ba71b!8m2!3d35.56396!4d-77.061763",pizza_inn,
Pizza Inn,1501 Magnolia Ave,PORT NECHES,TX,77651-4025,4097224600.0,"https://www.google.com/maps/place/Pizza+Inn+Buffet/@29.983306,-93.968162,17z/data=!3m1!4b1!4m5!3m4!1s0x863eb13ff04f6ac5:0xbb5a64ddf97bc760!8m2!3d29.983306!4d-93.968162",pizza_inn,
Pizza Inn,1503 Beulah Ave,TYLERTOWN,MS,39667-2514,6018762003.0,"https://www.google.com/maps/place/Pizza+Inn+Buffet/@31.116318,-90.150138,17z/data=!3m1!4b1!4m5!3m4!1s0x86279035279285f3:0x46bb703abcdb4514!8m2!3d31.116318!4d-90.150138",pizza_inn,
Pizza Inn,502 Ann St,PICKENS,SC,29671,8648787918.0,"https://www.google.com/maps/place/Pizza+Inn+Buffet/@34.894278,-82.709794,17z/data=!3m1!4b1!4m5!3m4!1s0x88584e6b0806d39f:0xdff625c301e1aee5!8m2!3d34.894278!4d-82.709794",pizza_inn,
Pizza Inn,1586 N Broad St,TAZEWELL,TN,37879,4236267258.0,"https://www.google.com/maps/place/Pizza+Inn+Buffet/@36.449145,-83.571992,17z/data=!3m1!4b1!4m5!3m4!1s0x885b7f933c534dbb:0x8a59c61e929c6a02!8m2!3d36.449145!4d-83.571992",pizza_inn,
Pizza Inn,1611 Washington St,FRANKLINTON,LA,70438-2128,9858396305.0,"https://www.google.com/maps/place/Pizza+Inn+Buffet/@30.847527,-90.145469,17z/data=!3m1!4b1!4m5!3m4!1s0x862779d51aa89e7f:0xd88495022cfbede0!8m2!3d30.847527!4d-90.145469",pizza_inn,
Pizza Inn,515 Roe Center Ct,TRAVELERS REST,SC,29690-1856,8648341090.0,"https://www.google.com/maps/place/Pizza+Inn+Buffet/@34.960169,-82.43609,17z/data=!3m1!4b1!4m5!3m4!1s0x885833210a955d8b:0x86166b1f7632d2bb!8m2!3d34.960169!4d-82.43609",pizza_inn,
Pizza Inn,5296 State Highway 276,ROYSE CITY,TX,75189,9727222820.0,"https://www.google.com/maps/place/Pizza+Inn+Pizza+Express/@32.8786689,-96.7041566,10z/data=!4m8!1m2!2m1!1sPizza+Inn+5296+State+Highway+276+ROYSE+CITY+TX+75189!3m4!1s0x86495576c2b7429d:0x738ea8a095b04877!8m2!3d32.902346!4d-96.368671?hl=en",pizza_inn,
Pizza Inn,170 N Trade Days Blvd,CANTON,TX,75103,9035677711.0,"https://www.google.com/maps/place/%23N%2FA/@32.4645493,-96.307357,9z/data=!4m8!1m2!2m1!1sPizza+Inn+170+N+Trade+Days+Blvd+CANTON+TX+75103!3m4!1s0x86490d1f2606cdc5:0xcee5eeb0ba77e36!8m2!3d32.556674!4d-95.860738?hl=en",pizza_inn,
Pizza Inn,7902 Emerald Dr,EMERALD ISLE,NC,28594-2811,2523544468.0,"https://www.google.com/maps/place/Pizza+Inn+Carryout/@34.665695,-77.032575,17z/data=!3m1!4b1!4m5!3m4!1s0x89a8fa9324e03859:0x9308dc6b65328020!8m2!3d34.665695!4d-77.032575",pizza_inn,
Pizza Inn,801 S Main St,ANAHUAC,TX,77514-2492,4092676151.0,"https://www.google.com/maps/place/Pizza+Inn+Express/@29.765458,-94.6824543,17z/data=!3m1!4b1!4m5!3m4!1s0x863f3ee3177b4083:0xb4ead7d0d5a14e9c!8m2!3d29.765458!4d-94.6824543",pizza_inn,
Pizza Inn,419 E South Ave,MCALESTER,OK,74501,9184238280.0,"https://www.google.com/maps/place/Pizza+Inn+Buffet/@34.9215086,-95.7449012,17z/data=!3m1!4b1!4m5!3m4!1s0x87b4fd43e8459ff1:0x4d25af6953c23f9b!8m2!3d34.9215086!4d-95.7449012",pizza_inn,
Pizza Inn,794 W Main St,ABINGDON,VA,24210-2424,2766230444.0,"https://www.google.com/maps/place/Pizza+Inn+Buffet/@36.704855,-81.996828,17z/data=!3m1!4b1!4m5!3m4!1s0x885012df8bbeb61d:0x1b0df6f0ec0d1e22!8m2!3d36.704855!4d-81.996828",pizza_inn,
Pizza Inn,1801 Mangum Rd,HOUSTON,TX,77092,7138612389.0,"https://www.google.com/maps/place/Pizza+Inn+Buffet/@29.801883,-95.458986,17z/data=!3m1!4b1!4m5!3m4!1s0x8640c692f46113d9:0xc3fa6844f7a6bfb8!8m2!3d29.801883!4d-95.458986",pizza_inn,
Pizza Inn,1840 SE Greenville Blvd,GREENVILLE,NC,27858-4926,2527586266.0,"https://www.google.com/maps/place/Pizza+Inn+Buffet/@35.6773848,-77.9231968,9z/data=!4m8!1m2!2m1!1sPizza+Inn+3750+S+Memorial+Dr+GREENVILLE+NC+27834!3m4!1s0x89aee781397cfac1:0x92799982225560d!8m2!3d35.596559!4d-77.337327?hl=en",pizza_inn,
Pizza Inn,190 N Franklin St,CHRISTIANSBURG,VA,24073,5403824989.0,"https://www.google.com/maps/place/Pizza+Inn+Buffet/@37.132036,-80.412341,17z/data=!3m1!4b1!4m5!3m4!1s0x884d9307c4e199b7:0xba3bf87fc9789664!8m2!3d37.132036!4d-80.412341",pizza_inn,
Pizza Inn,1905 E Malone Ave,SIKESTON,MO,63801-3631,5734718590.0,"https://www.google.com/maps/place/Pizza+Inn+Buffet/@36.885701,-89.555772,17z/data=!3m1!4b1!4m5!3m4!1s0x887846191f7262af:0xca5d051cb6d24dad!8m2!3d36.885701!4d-89.555772",pizza_inn,
Pizza Inn,196 Drury Ln,JACKSON,MO,63755,5732432218.0,"https://www.google.com/maps/place/Pizza+Inn+Buffet/@37.4283076,-89.6424571,17z/data=!3m1!4b1!4m5!3m4!1s0x88778db55e463c6f:0xcecc395d25b4edc2!8m2!3d37.4283076!4d-89.6424571",pizza_inn,
Pizza Inn,8605 Memorial Dr,HOUSTON,TX,77024,7136863761.0,"https://www.google.com/maps/place/Pizza+Inn+Express/@29.772937,-95.457001,17z/data=!3m1!4b1!4m5!3m4!1s0x8640c6b58880cb1b:0xa4440cb81b93bbd3!8m2!3d29.772937!4d-95.457001",pizza_inn,
Pizza Inn,1943 N Grimes St,HOBBS,NM,88240-2722,5753970505.0,"https://www.google.com/maps/place/Pizza+Inn+Buffet/@32.721479,-103.145213,17z/data=!3m1!4b1!4m5!3m4!1s0x86fc953dde284d67:0x3c65f212b7264a17!8m2!3d32.721479!4d-103.145213",pizza_inn,
Pizza Inn,9700 FM 1641,TERRELL,TX,75160,9725529317.0,"https://www.google.com/maps/place/Pizza+Inn+Pizza+Express/@32.6950341,-96.4003769,17z/data=!4m8!1m2!2m1!1sPizza+Inn+9700+FM+1641+TERRELL+TX+75160!3m4!1s0x863eb77ced76cd0d:0x184328dcb9c34372!8m2!3d32.695016!4d-96.398203?hl=en",pizza_inn,
Pizza Inn,2001 Woodruff Rd,GREENVILLE,SC,29607-5940,8642810929.0,"https://www.google.com/maps/place/Pizza+Inn+Buffet/@34.820444,-82.261153,17z/data=!3m1!4b1!4m5!3m4!1s0x885828f681b4e31d:0x70a23f0d8ff2f5dc!8m2!3d34.820444!4d-82.261153",pizza_inn,
Pizza Inn,9910 Tanner Williams Rd,MOBILE,AL,36608,2516452444.0,"https://www.google.com/maps/place/Pizza+Inn+Express/@30.7110353,-88.2765347,17z/data=!3m1!4b1!4m5!3m4!1s0x889bae2fc20ed375:0x1735e787c543df75!8m2!3d30.7110353!4d-88.2765347",pizza_inn,
Pizza Inn,3750 S Memorial Dr,GREENVILLE,NC,27834,2527569646.0,"https://www.google.com/maps/place/Pizza+Inn/@35.6773848,-77.9231968,9z/data=!4m8!1m2!2m1!1sPizza+Inn+3750+S+Memorial+Dr+GREENVILLE+NC+27834!3m4!1s0x89aec2e136926969:0x83baa1194f241916!8m2!3d35.561685!4d-77.405759?hl=en",pizza_inn,
Pizza Inn,3461 Cypress Mill Rd,BRUNSWICK,GA,31520-2857,9122652899.0,"https://www.google.com/maps/place/Pizza+Inn+Buffet/@31.195169,-81.483668,17z/data=!3m1!4b1!4m5!3m4!1s0x88e4d7bad8ffc85d:0xbd991a85904bf142!8m2!3d31.195169!4d-81.483668",pizza_inn,
Pizza Inn,358 NE Center St,FAISON,NC,28341,9102679281.0,"https://www.google.com/maps/place/Pizza+Inn+Express/@35.121341,-78.133584,17z/data=!3m1!4b1!4m5!3m4!1s0x89abef987838ab07:0xb23abb9fac35816b!8m2!3d35.121341!4d-78.133584",pizza_inn,
Pizza Inn,337 Main St N,ALLENDALE,SC,29810-3713,8035841616.0,"https://www.google.com/maps/place/Pizza+Inn+Express/@33.00982,-81.307274,17z/data=!3m1!4b1!4m5!3m4!1s0x88f96e4fd9f59665:0xd243d5761292d246!8m2!3d33.00982!4d-81.307274",pizza_inn,
Pizza Inn,3907 College Ave,SNYDER,TX,79549,3255733542.0,"https://www.google.com/maps/place/Pizza+Inn/@32.702417,-100.919526,17z/data=!3m1!4b1!4m5!3m4!1s0x86ff496f57be1d09:0x1fb5ef3844254a6e!8m2!3d32.702417!4d-100.919526",pizza_inn,
Pizza Inn,429 E Broad St,MONTICELLO,MS,39654,6015874041.0,"https://www.google.com/maps/place/Pizza+Inn+Buffet/@31.5550595,-90.1117904,17z/data=!3m1!4b1!4m5!3m4!1s0x8627fc61e5b32495:0x655186dc93e7363!8m2!3d31.5550595!4d-90.1117904",pizza_inn,
Pizza Inn,4304 Live Oak St,DALLAS,TX,75204-6717,2148268855.0,"https://www.google.com/maps/place/Pizza+Inn+Buffet/@32.79791,-96.777691,17z/data=!3m1!4b1!4m5!3m4!1s0x864e98cee8872fad:0xfbbb20165b7d6e9c!8m2!3d32.79791!4d-96.777691",pizza_inn,
Pizza Inn,4710 W Keiser Ave,OSCEOLA,AR,72370,8705634928.0,"https://www.google.com/maps/place/Pizza+Inn+Express/@35.698661,-90.047964,17z/data=!3m1!4b1!4m5!3m4!1s0x889bae2fc20ed375:0xcbb91909cec9449f!8m2!3d35.698661!4d-90.047964",pizza_inn,
Pizza Inn,521 N 3rd St,MABANK,TX,75147,9038878987.0,"https://www.google.com/maps/place/Pizza+Inn+Pizza+Express/@32.3722427,-96.1007817,17z/data=!4m8!1m2!2m1!1sPizza+Inn+521+N+3rd+St+MABANK+TX+75147!3m4!1s0x864922c342ea3387:0x91560eb553365ee5!8m2!3d32.372294!4d-96.098569?hl=en",pizza_inn,
Pizza Inn,49 Farmers Market Dr,HILLSVILLE,VA,24343,2767282799.0,"https://www.google.com/maps/place/Pizza+Inn/@36.7446132,-80.7746514,17z/data=!3m1!4b1!4m5!3m4!1s0x88521d184f2584c1:0x37e66e42d87dc197!8m2!3d36.7446132!4d-80.7746514",pizza_inn,
Pizza Inn,520 W Main St,HAMILTON,TX,76531-1830,2543868903.0,"https://www.google.com/maps/place/Pizza+Inn+Express/@31.704791,-98.129339,17z/data=!3m1!4b1!4m5!3m4!1s0x8650313c3bfc03ab:0x66630074d1ae7c20!8m2!3d31.704791!4d-98.129339",pizza_inn,
Pizza Inn,617 W Main St,NEWBERN,TN,38059,7316272551.0,"https://www.google.com/maps/place/Pizza+Inn+Express/@36.0885823,-89.6641168,9z/data=!4m8!1m2!2m1!1sPizza+Inn+617+W+Main+St+NEWBERN+TN+38059!3m4!1s0x8879250d105ee1f9:0xc9fa7e0c425e20b4!8m2!3d36.110622!4d-89.277117?hl=en",pizza_inn,
Pizza Inn,624 W Broadway St,WINNSBORO,TX,75494,9033429192.0,"https://www.google.com/maps/place/Pizza+Inn+Buffet/@32.962674,-95.298534,17z/data=!3m1!4b1!4m5!3m4!1s0x86474152723184bd:0x6628a3ef52eb75fd!8m2!3d32.962674!4d-95.298534",pizza_inn,
Pizza Inn,6900 Boulevard 26,RICHLAND HILLS,TX,76180,8172849359.0,"https://www.google.com/maps/place/Pizza+Inn+Buffet/@32.818359,-97.234451,17z/data=!3m1!4b1!4m5!3m4!1s0x864e79b1f35806e5:0xd69a1c970c351eaf!8m2!3d32.818359!4d-97.234451",pizza_inn,
Pizza Inn,700 Ward Blvd,WILSON,NC,27893-1832,2522912105.0,"https://www.google.com/maps/place/Pizza+Inn+Buffet/@35.714632,-77.932268,17z/data=!3m1!4b1!4m5!3m4!1s0x89ac209e96c4a993:0x185da839891f92dc!8m2!3d35.714632!4d-77.932268",pizza_inn,
Pizza Inn,801 E Main St,FLOYD,VA,24091-3750,5407457499.0,"https://www.google.com/maps/place/Pizza+Inn+Floyd/@36.915194,-80.311096,17z/data=!3m1!4b1!4m5!3m4!1s0x884d8830eccd1d69:0x98a210cf0e893261!8m2!3d36.915194!4d-80.311096",pizza_inn,
Pizza Inn,920 Tsalagi Rd,CHEROKEE,NC,28719,8284979143.0,"https://www.google.com/maps/place/Pizza+Inn+Buffet/@35.475708,-83.3195078,17z/data=!3m1!4b1!4m5!3m4!1s0x88594400d964e655:0xadaa016fd29653e4!8m2!3d35.475708!4d-83.3195078",pizza_inn,
Pizza Inn,924 Highway 82 W,GREENWOOD,MS,38930-2726,6624552734.0,"https://www.google.com/maps/place/Pizza+Inn+Buffet/@33.524181,-90.203883,17z/data=!3m1!4b1!4m5!3m4!1s0x862a6e63d99f03ff:0x83738490a42d23d2!8m2!3d33.524181!4d-90.203883",pizza_inn,
Pizza Inn,530 Central Ave W,WIGGINS,MS,39577,6019289000.0,"https://www.google.com/maps/place/Pizza+Inn+Buffet/@30.85062,-89.142669,17z/data=!3m1!4b1!4m5!3m4!1s0x889c5f05c7f2ece5:0xdb88d0a063b950e4!8m2!3d30.85062!4d-89.142669",pizza_inn,
Pizza Inn,Junction Hwy 19 & 63 S,THAYER,MO,65791,4172643800.0,"https://www.google.com/maps/place/Pizza+Inn+Carryout/@36.5169029,-91.5424834,17z/data=!3m1!4b1!4m5!3m4!1s0x87d11f35b4619211:0xff69561805c116bf!8m2!3d36.5169029!4d-91.5424834",pizza_inn,
Pizza Inn,5420 Clinton Hwy,KNOXVILLE,TN,37912-3451,8653577499.0,"https://www.google.com/maps/place/Pizza+Inn+Buffet/@36.005186,-83.9835,17z/data=!3m1!4b1!4m5!3m4!1s0x885c3c37c0bca41f:0x7570eb0ff09277c4!8m2!3d36.005186!4d-83.9835",pizza_inn,
Pizza Inn,5355 Fm 156,CADDO MILLS,TX,75135-7421,9035275820.0,"https://www.google.com/maps/place/Pizza+Inn+Express/@33.0324534,-96.3458514,12z/data=!4m8!1m2!2m1!1sPizza+Inn+5355+Fm+156+CADDO+MILLS+TX+75135-7421!3m4!1s0x864be52f683ad727:0xc10b07117651fb8e!8m2!3d33.002865!4d-96.236288?hl=en",pizza_inn,
Pizza Inn,110 Goldsboro St,PIKEVILLE,NC,27863,9197094316.0,"https://www.google.com/maps/place/Pizza+Inn+Carryout/@35.4961249,-77.9822274,17z/data=!3m1!4b1!4m5!3m4!1s0x89ac1cda7232e2ab:0x1b38c2086e6c1656!8m2!3d35.4961249!4d-77.9822274",pizza_inn,
Pizza Inn,1138 W Broad St,DUNN,NC,28334-4605,9108927151.0,"https://www.google.com/maps/place/Pizza+Inn+Buffet/@35.317113,-78.623709,17z/data=!3m1!4b1!4m5!3m4!1s0x89ab81bca7b836af:0x6b526438880af012!8m2!3d35.317113!4d-78.623709",pizza_inn,
Pizza Inn,310 N Highway 67,MIDLOTHIAN,TX,76065-5011,9727755511.0,"https://www.google.com/maps/place/Pizza+Inn+Buffet/@32.484116,-97.008787,17z/data=!3m1!4b1!4m5!3m4!1s0x864ef482258ff3b7:0xe8ee5eb1ad34f976!8m2!3d32.484116!4d-97.008787",pizza_inn,
Pizza Inn,1114 State Highway 77,MARION,AR,72364-9027,8707354496.0,"https://www.google.com/maps/place/Pizza+Inn+Carryout/@35.183363,-90.183929,17z/data=!3m1!4b1!4m5!3m4!1s0x87d577b25ef0c279:0xda006df60feed547!8m2!3d35.183363!4d-90.183929",pizza_inn,
Pizza Inn,6757 W Port Arthur Rd,PORT ARTHUR,TX,77640-1484,4097363960.0,"https://www.google.com/maps/place/Pizza+Inn+Express/@29.916878,-94.019305,17z/data=!3m1!4b1!4m5!3m4!1s0x863eb77ced76cd0d:0xd55792df2cf0a08c!8m2!3d29.916878!4d-94.019305",pizza_inn,
Pizza Inn,200 N Interstate 35 Rd,RED OAK,TX,75154-4241,9726177400.0,"https://www.google.com/maps/place/Pizza+Inn+Buffet/@32.5164952,-96.820889,17z/data=!3m1!4b1!4m5!3m4!1s0x864eeb4474fb967f:0x8254c8c2aedc5400!8m2!3d32.5164952!4d-96.820889",pizza_inn,
Pizza Inn,2225 E Main St,SPARTANBURG,SC,29307-1452,8645791115.0,"https://www.google.com/maps/place/Pizza+Inn+Buffet/@34.976145,-81.876406,17z/data=!3m1!4b1!4m5!3m4!1s0x88570b188a1dfd87:0x1399600798e394c5!8m2!3d34.976145!4d-81.876406",pizza_inn,
Pizza Inn,915 Early Blvd,EARLY,TX,76802-2238,3256460801.0,"https://www.google.com/maps/place/Pizza+Inn+Express/@31.740985,-98.947506,17z/data=!3m1!4b1!4m5!3m4!1s0x8650c6ea1bdf0963:0x478035cdfb95b652!8m2!3d31.740985!4d-98.947506",pizza_inn,
Pizza Inn,3701 S Division St,BLYTHEVILLE,AR,72315-7877,8707622424.0,"https://www.google.com/maps/place/Pizza+Inn+Express/@35.889136,-89.919282,17z/data=!3m1!4b1!4m5!3m4!1s0x887f536694733593:0x399a6472a31ac7b9!8m2!3d35.889136!4d-89.919282",pizza_inn,
Pizza Inn,1501 Oak Ridge Tpke,OAK RIDGE,TN,37830-6208,8654825656.0,"https://www.google.com/maps/place/Pizza+Inn+Buffet/@36.011259,-84.265811,17z/data=!3m1!4b1!4m5!3m4!1s0x885c3333ebe0815b:0xff43547fd63207be!8m2!3d36.011259!4d-84.265811",pizza_inn,
Pizza Inn,104 N 1st St,GLENWOOD,AR,71943,8703567466.0,"https://www.google.com/maps/place/Pizza+Inn+Express/@34.326498,-93.551339,17z/data=!3m1!4b1!4m5!3m4!1s0x86334e4d64d3f7bb:0x5f5a12ef63404214!8m2!3d34.326498!4d-93.551339",pizza_inn,
Pizza Inn,104 E 13th St,MURFREESBORO,AR,71958-9527,8702854146.0,"https://www.google.com/maps/place/Pizza+Inn+Express/@34.07029,-93.688528,17z/data=!3m1!4b1!4m5!3m4!1s0x863360ec1da2790d:0x58c400923f4a57c4!8m2!3d34.07029!4d-93.688528",pizza_inn,
Pizza Inn,8301 N Eldridge Pkwy,HOUSTON,TX,77041-1236,2818909046.0,"https://www.google.com/maps/place/Pizza+Inn+Express/@29.9028944,-95.712001,10z/data=!4m8!1m2!2m1!1sPizza+Inn+HOUSTON+TX!3m4!1s0x8640d0f8351e1a8d:0x6ef6d4b83c06fd92!8m2!3d30.0322534!4d-95.6151768?hl=en",pizza_inn,
Pizza Inn,874 S Main St,BAXLEY,GA,31513-0154,9127857018.0,"https://www.google.com/maps/place/Pizza+Inn+Buffet/@31.766793,-82.354135,17z/data=!3m1!4b1!4m5!3m4!1s0x88f072d25ad9ccdf:0xb59ea73f645fd0fc!8m2!3d31.766793!4d-82.354135",pizza_inn,
Pizza Inn,1611 N Reynolds Rd,BRYANT,AR,72022,5018479340.0,"https://www.google.com/maps/place/Pizza+Inn/@34.6154474,-92.5007043,16z/data=!4m8!1m2!2m1!1sPizza+Inn+1611+N+Reynolds+Rd+BRYANT+AR+72022!3m4!1s0x87cd56516a12bdbf:0x4de070d366e6fdf1!8m2!3d34.6093695!4d-92.4937637?hl=en",pizza_inn,
Pizza Inn,261 Highway 18 E,MANILA,AR,72442,8705611870.0,"https://www.google.com/maps/place/Pizza+Inn+Express/@35.878923,-90.177944,17z/data=!3m1!4b1!4m5!3m4!1s0x87d5e2e34c479edf:0xd18965cbadcb3af5!8m2!3d35.878923!4d-90.177944",pizza_inn,
Pizza Inn,902A Mississippi Dr,WAYNESBORO,MS,39367-2464,6017355600.0,"https://www.google.com/maps/place/Pizza+Inn+Buffet/@31.679338,-88.64361,17z/data=!3m1!4b1!4m5!3m4!1s0x8884ad8556c10cf9:0xfb9a63aa794f7da8!8m2!3d31.679338!4d-88.64361",pizza_inn,
Pizza Inn,1249 Sunset Blvd,JESUP,GA,31546,9123852165.0,"https://www.google.com/maps/place/Pizza+Inn+Buffet/@31.603675,-81.906952,17z/data=!3m1!4b1!4m5!3m4!1s0x88fab8fef5ff325f:0xf803b6286c566890!8m2!3d31.603675!4d-81.906952",pizza_inn,
Pizza Inn,190 Riverwind Dr,PEARL,MS,39208-3386,6018825591.0,"https://www.google.com/maps/place/Pizza+Inn+Buffet/@32.2686843,-90.1305389,17z/data=!3m1!4b1!4m5!3m4!1s0x86282dde2924a0af:0x9a45193d5898dd81!8m2!3d32.2686843!4d-90.1305389",pizza_inn,
Pizza Inn,60 Son Lan Pkwy,GARNER,NC,27529-7815,9193224290.0,"https://www.google.com/maps/place/Pizza+Inn+Buffet/@35.610105,-78.561154,17z/data=!3m1!4b1!4m5!3m4!1s0x89ac640b3d373785:0xce8483c503ec75b0!8m2!3d35.610105!4d-78.561154",pizza_inn,
Pizza Inn,100 East Main St,MONETTE,AR,72447,8704862739.0,"https://www.google.com/maps/place/Pizza+Inn+Express/@35.890701,-90.340927,17z/data=!3m1!4b1!4m5!3m4!1s0x87d5df0b73b3756b:0x582a26be328675ed!8m2!3d35.890701!4d-90.340927",pizza_inn,
Pizza Inn,700 East FM 700,BIG SPRING,TX,79720,4322631381.0,"https://www.google.com/maps/place/Pizza+Inn+Buffet/@32.232557,-101.460898,17z/data=!3m1!4b1!4m5!3m4!1s0x86f922536804182f:0xde285fc0977e3762!8m2!3d32.232557!4d-101.460898",pizza_inn,
Pizza Inn,13309 Highway 21 W,NORTH ZULCH,TX,77872-7055,9363992356.0,"https://www.google.com/maps/place/Pizza+Inn+Express/@30.913459,-96.112433,17z/data=!3m1!4b1!4m5!3m4!1s0x86466635728b0175:0x337a5991e26e9589!8m2!3d30.913459!4d-96.112433",pizza_inn,
Pizza Inn,1127 Highway 62 E,MOUNTAIN HOME,AR,72653-3317,8707015061.0,"https://www.google.com/maps/place/Pizza+Inn+Buffet/@36.3512392,-92.3681515,17z/data=!4m8!1m2!2m1!1sPizza+Inn+1127+Highway+62+E+MOUNTAIN+HOME+AR+72653-3317!3m4!1s0x87d1dbc17bbe84e7:0x9cf27e6444095a2a!8m2!3d36.3511111!4d-92.3658333?hl=en",pizza_inn,
Pizza Inn,1473 Hunter Hill Rd,ROCKY MOUNT,NC,27804-1765,2529372323.0,"https://www.google.com/maps/place/Pizza+Inn+Buffet/@35.972224,-77.822695,17z/data=!3m1!4b1!4m5!3m4!1s0x89ae8745b1e848eb:0xe70c6c5f6bd9e094!8m2!3d35.972224!4d-77.822695",pizza_inn,
Pizza Inn,1935 Stateline Rd W,SOUTHAVEN,MS,38671-1218,6625102866.0,"https://www.google.com/maps/place/Pizza+Inn+Express/@34.991445,-90.02426,17z/data=!3m1!4b1!4m5!3m4!1s0x87d562592350abad:0x577f4acf3f42b601!8m2!3d34.991445!4d-90.02426",pizza_inn,
Pizza Inn,101 S Elm St,GURDON,AR,71743-1007,8703532746.0,"https://www.google.com/maps/place/Pizza+Inn+Express/@33.920916,-93.153646,17z/data=!3m1!4b1!4m5!3m4!1s0x863303399dc21225:0x2a7f97d0ae87264d!8m2!3d33.920916!4d-93.153646",pizza_inn,
Pizza Inn,2074 Evening Shade Dr,EVENING SHADE,AR,72532-9234,8702663030.0,"https://www.google.com/maps/place/Pizza+Inn+Express/@36.068833,-91.614006,17z/data=!3m1!4b1!4m5!3m4!1s0x87d1650af67f360d:0x470754221bf1b327!8m2!3d36.068833!4d-91.614006",pizza_inn,
Pizza Inn,406 SW Front St,WALNUT RIDGE,AR,72476-2319,8708865129.0,"https://www.google.com/maps/place/Pizza+Inn+Carryout/@36.06638,-90.959279,17z/data=!3m1!4b1!4m5!3m4!1s0x87d6a33e603739b3:0xefdf71bc79c3c08c!8m2!3d36.06638!4d-90.959279",pizza_inn,
Pizza Inn,816 S. Main St,RECTOR,AR,72461,8705953871.0,"https://www.google.com/maps/place/Pizza+Inn+Express/@36.259283,-90.293334,17z/data=!3m1!4b1!4m5!3m4!1s0x87d61556ee114d9f:0x1255a78ddc2e4d7d!8m2!3d36.259283!4d-90.293334",pizza_inn,
Pizza Inn,506 E Broad St,OAKWOOD,TX,75855-5369,9035451954.0,"https://www.google.com/maps/place/Pizza+Inn+Express/@31.5915873,-95.8431252,17z/data=!3m1!4b1!4m5!3m4!1s0x86488585a14d4603:0x757b1c9db1361a70!8m2!3d31.5915873!4d-95.8431252",pizza_inn,
Pizza Inn,3816 Hwy. 367 N,BALD KNOB,AR,72010-9650,5017245410.0,"https://www.google.com/maps/place/Pizza+Inn+Express/@35.320983,-91.560673,17z/data=!3m1!4b1!4m5!3m4!1s0x87d3a24e59866d4f:0xf3c127f9c86929ff!8m2!3d35.320983!4d-91.560673",pizza_inn,
Pizza Inn,1130 A West Main St,LEWISVILLE,TX,75067,4699688000.0,"https://www.google.com/maps/place/Pizza+Inn/@32.4649652,-98.678024,8z/data=!4m8!1m2!2m1!1sPizza+Inn+1130+A+West+Main+St+LEWISVILLE+TX+75067!3m4!1s0x864c2dab1bcdcda7:0xf89760729c365e8!8m2!3d33.040836!4d-97.02264?hl=en",pizza_inn,
Pizza Inn,2762 Huntsville Hwy,FAYETTEVILLE,TN,37334,9314333828.0,"https://www.google.com/maps/place/Pizza+Inn+Buffet/@35.0757472,-86.5709593,17z/data=!3m1!4b1!4m5!3m4!1s0x886237752abd9ed9:0x128baa55f53d66eb!8m2!3d35.0757472!4d-86.5709593",pizza_inn,
Pizza Inn,204 West Viggie St,HEBBRONVILLE,TX,78361,3615274488.0,"https://www.google.com/maps/place/Pizza+Inn+Carryout/@27.3128671,-98.6793246,17z/data=!3m1!4b1!4m5!3m4!1s0x8666ed6dc9e8ad87:0x5b9c6c56c74788a4!8m2!3d27.3128671!4d-98.6793246",pizza_inn,
Pizza Inn,502 N Main St,CAVE CITY,AR,72521,8702835696.0,"https://www.google.com/maps/place/Pizza+Inn+Carryout/@35.9478599,-91.5480628,17z/data=!3m1!4b1!4m5!3m4!1s0x87d160583840284d:0xd366876497215a7f!8m2!3d35.9478599!4d-91.5480628",pizza_inn,
Pizza Inn,390 W Cook St,JOSEPHINE,TX,75164,9726942121.0,"https://www.google.com/maps/place/Pizza+Inn+Express/@33.061793,-96.315335,17z/data=!3m1!4b1!4m5!3m4!1s0x864bfa2e8c9f4965:0x45bc81e3268a61a6!8m2!3d33.061793!4d-96.315335",pizza_inn,
Pizza Inn,3148 Interstate 55,MARION,AR,72364-2141,8707395646.0,"https://www.google.com/maps/place/Pizza+Inn+Express/@35.209136,-90.204827,17z/data=!3m1!4b1!4m5!3m4!1s0x87d59df574315edb:0x8c5f3d8cd616fedd!8m2!3d35.209136!4d-90.204827",pizza_inn,
Pizza Inn,707 Norwood Ave,GOLDSBORO,NC,27534,9197362185.0,"https://www.google.com/maps/place/Pizza+Inn+Buffet/@35.400365,-77.97869,17z/data=!3m1!4b1!4m5!3m4!1s0x89ac022a125cea3d:0xa30d52ceb63e24c3!8m2!3d35.400365!4d-77.97869",pizza_inn,
Pizza Inn,11003 Antoine Dr,HOUSTON,TX,77086-1428,2815868299.0,"https://www.google.com/maps/place/Pizza+Inn/@29.936665,-95.483641,17z/data=!3m1!4b1!4m5!3m4!1s0x8640ceb15b6ac04d:0xaff2c4617cfb005f!8m2!3d29.936665!4d-95.483641",pizza_inn,
Pizza Inn,5660 Hwy 64 at Hwy 75,PARKIN,AR,72373,8707552660.0,"https://www.google.com/maps/place/Pizza+Inn+Express/@35.2725276,-90.5575496,17z/data=!4m8!1m2!2m1!1sPizza+Inn+5660+Hwy+64+at+Hwy+75+PARKIN+AR+72373!3m4!1s0x87d5aba4958b6c61:0x2206e7c33fdd96a5!8m2!3d35.272842!4d-90.555341?hl=en",pizza_inn,
Pizza Inn,1250 Truman Baker Dr,SEARCY,AR,72143-8347,5013052676.0,"https://www.google.com/maps/place/Pizza+Inn+Express/@35.234474,-91.698794,17z/data=!3m1!4b1!4m5!3m4!1s0x87d3a84315d023f9:0x52ad11a8ffa8ad55!8m2!3d35.234474!4d-91.698794",pizza_inn,
Pizza Inn,301 W Second St,HICO,TX,76457,2547964838.0,"https://www.google.com/maps/place/Pizza+Inn+Express/@31.982434,-98.033202,17z/data=!3m1!4b1!4m5!3m4!1s0x8650313c3bfc0259:0x157821a1d75069b9!8m2!3d31.982434!4d-98.033202",pizza_inn,
Pizza Inn,9101 N Council Rd,OKLAHOMA CITY,OK,73132-1300,4056032550.0,"https://www.google.com/maps/place/Pizza+Inn+Buffet/@35.562596,-97.656742,17z/data=!3m1!4b1!4m5!3m4!1s0x87b2045fd842bf9d:0x36ae27368f99e5a2!8m2!3d35.562596!4d-97.656742",pizza_inn,
Pizza Inn,HWY-62 W & US-167,ASH FLAT,AR,72513,8709947441.0,"https://www.google.com/maps/place/Pizza+Inn+Express/@36.2369973,-91.5997147,17z/data=!4m5!3m4!1s0x87d16b58ba2fe8dd:0xcbc8ad8d580a02cd!8m2!3d36.236993!4d-91.597526?hl=en",pizza_inn,
Pizza Inn,759 Heber Springs Rd,BATESVILLE,AR,72501-8061,8702512403.0,"https://www.google.com/maps/place/Pizza+Inn+Carryout/@35.733414,-91.65648,17z/data=!3m1!4b1!4m5!3m4!1s0x87d3daca0b4d7447:0x5b3719fa966a8c72!8m2!3d35.733414!4d-91.65648",pizza_inn,
Pizza Inn,501 City Blvd,WAYCROSS,GA,31501-8003,9128092411.0,"https://www.google.com/maps/place/Pizza+Inn+Buffet/@31.207888,-82.333636,17z/data=!3m1!4b1!4m5!3m4!1s0x88eff09ac2ef6f57:0x22c69eb574eec529!8m2!3d31.207888!4d-82.333636",pizza_inn,
Pizza Inn,6911 FM 521 Rd,ARCOLA,TX,77583-3543,2819729498.0,"https://www.google.com/maps/place/Pizza+Inn+Express/@29.4838245,-95.4699437,17z/data=!3m1!4b1!4m5!3m4!1s0x8640f2044c8169b3:0xaa9fe97ce9c3fafd!8m2!3d29.4838245!4d-95.4699437",pizza_inn,
Pizza Inn,1245 Atascocita Rd,HUMBLE,TX,77396-3634,8326445471.0,"https://www.google.com/maps/place/Pizza+Inn+Express/@29.962231,-95.248455,17z/data=!3m1!4b1!4m5!3m4!1s0x8640b3b550a1e693:0xec59498367195f9a!8m2!3d29.962231!4d-95.248455",pizza_inn,
Pizza Inn,910 Magnolia St,JONESBORO,AR,72401,8709330516.0,"https://www.google.com/maps/place/Pizza+Inn+Express/@35.8722316,-90.6943,17z/data=!3m1!4b1!4m5!3m4!1s0x87d429a053b3a925:0x35683259eb9c1be0!8m2!3d35.8722316!4d-90.6943",pizza_inn,
Pizza Inn,2500 West Fort Macon Rd,ATLANTIC BEACH,NC,28512,2522224852.0,"https://www.google.com/maps/place/Pizza+Inn/@34.6986209,-76.7777216,17z/data=!3m1!4b1!4m5!3m4!1s0x89a893cb6ebfff67:0xca5198519499b0e5!8m2!3d34.6986209!4d-76.7777216",pizza_inn,
Pizza Inn,3201 South Holleman Dr,COLLEGE STATION,TX,77845,9792180761.0,"https://www.google.com/maps/place/Pizza+Inn/@30.5693082,-96.3249461,17z/data=!3m1!4b1!4m5!3m4!1s0x86468312f01a8001:0xc018bb333965b158!8m2!3d30.5693082!4d-96.3249461",pizza_inn,
