Company Name,Address 1,City,State,Zip,Phone,Google Link,Company Name Processed,Status
Pizza Plus,744 N Beaver Dam Ave,DAMASCUS,VA,24236,2764759053.0,"https://www.google.com/maps/place/Pizza+Plus/@36.6414301,-81.7998175,17z/data=!3m1!4b1!4m5!3m4!1s0x885040dbab4ac49d:0xce034f065c3e3f6a!8m2!3d36.6414301!4d-81.7998175",pizza_plus,
Pizza Plus,12235 Grapefield Rd,BASTIAN,VA,24314-4598,2766883332.0,"https://www.google.com/maps/place/Pizza+Plus/@37.1775999,-81.1446889,17z/data=!3m1!4b1!4m5!3m4!1s0x884e17ccc41cb421:0x37de9a6e530b7f33!8m2!3d37.1775999!4d-81.1446889",pizza_plus,
Pizza Plus,106 Grayson Ave,INDEPENDENCE,VA,24348-3848,2767732377.0,"https://www.google.com/maps/place/Pizza+Plus/@36.6212543,-81.1451722,17z/data=!4m5!3m4!1s0x8851954aebf16497:0x72ad14a787327d31!8m2!3d36.62125!4d-81.1429835?hl=en",pizza_plus,
Pizza Plus,14480 W Andrew Johnson Hwy,BULLS GAP,TN,37711-2528,4232359200.0,"https://www.google.com/maps/place/Pizza+Plus/@36.2282281,-83.0543805,17z/data=!3m1!4b1!4m5!3m4!1s0x885bb02523455b9b:0x6e08cd0173a66a64!8m2!3d36.2282281!4d-83.0543805",pizza_plus,
Pizza Plus,3934 Highway 66 S,ROGERSVILLE,TN,37857-3112,4232727171.0,"https://www.google.com/maps/place/Pizza+Plus/@36.3936289,-83.0106826,17z/data=!3m1!4b1!4m5!3m4!1s0x885ba9e8a2d6507f:0xbaec50ec8766d73f!8m2!3d36.3936289!4d-83.0106826",pizza_plus,
Pizza Plus,4735 TN-36,JOHNSON CITY,TN,37615,4232823080.0,"https://www.google.com/maps/place/Pizza+Plus/@36.3920044,-82.4117761,17z/data=!3m1!4b1!4m5!3m4!1s0x885a8840384635e3:0x386cef2e215f46a9!8m2!3d36.3920044!4d-82.4117761",pizza_plus,
Pizza Plus,3270 TN-126,BLOUNTVILLE,TN,37617,4233235555.0,"https://www.google.com/maps/place/Pizza+Plus/@36.534,-82.3207,17z/data=!3m1!4b1!4m5!3m4!1s0x885a84b4d81146a9:0xf94d7c8fc4d1ce23!8m2!3d36.534!4d-82.3207",pizza_plus,
Pizza Plus,6305 W Andrew Johnson Hwy,MOSHEIM,TN,37743,4236390400.0,"https://www.google.com/maps/place/Pizza+Plus/@36.1809825,-82.9278084,17z/data=!3m1!4b1!4m5!3m4!1s0x885bb321b55afc19:0x6883b8cddad2a46d!8m2!3d36.1809825!4d-82.9278084",pizza_plus,
Pizza Plus,1637 S Shady St,MOUNTAIN CITY,TN,37683-2015,4237278477.0,"https://www.google.com/maps/place/Pizza+Plus/@36.4559,-81.7986,17z/data=!3m1!4b1!4m5!3m4!1s0x88505c60399384bb:0x1a2b4d4d25bd52d0!8m2!3d36.4559!4d-81.7986",pizza_plus,
Pizza Plus,1602 Jackson Love Hwy,ERWIN,TN,37650-9230,4237437121.0,"https://www.google.com/maps/place/Pizza+Plus/@36.1272441,-82.4295422,17z/data=!3m1!4b1!4m5!3m4!1s0x885a6e617fa10c8d:0xe5e9225b5bcccf0!8m2!3d36.1272441!4d-82.4295422",pizza_plus,
Pizza Plus,211 Headtown Rd,JONESBOROUGH,TN,37659-4735,4237883522.0,"https://www.google.com/maps/place/Pizza+Plus/@36.306759,-82.4485741,17z/data=!3m1!4b1!4m5!3m4!1s0x885a63bc4a0afcdb:0xea9763df30b4b66!8m2!3d36.306759!4d-82.4485741",pizza_plus,
Pizza Plus,158 Virginia Ave,RICH CREEK,VA,24147,5407263100.0,"https://www.google.com/maps/place/Pizza+Plus/@37.384162,-80.8240949,17z/data=!3m1!4b1!4m5!3m4!1s0x884e761726abb28b:0xad95c2ddd4849ad!8m2!3d37.384162!4d-80.8240949",pizza_plus,
Pizza Plus,3605 Andersonville Hwy,ANDERSONVILLE,TN,37705-3825,8654989889.0,"https://www.google.com/maps/place/Pizza+Plus/@36.1969431,-84.041892,17z/data=!3m1!4b1!4m5!3m4!1s0x885c469eb7d79897:0x36f82371c0d6223f!8m2!3d36.1969431!4d-84.041892",pizza_plus,
Pizza Plus,507 N Main St,PEARISBURG,VA,24134-1526,5409213100.0,"https://www.google.com/maps/place/Pizza+Plus/@37.3308447,-80.7395541,17z/data=!3m1!4b1!4m5!3m4!1s0x884dde9237764e3b:0xd3017875f9f20cac!8m2!3d37.3308447!4d-80.7395541",pizza_plus,
Pizza Plus,597 Kane St,GATE CITY,VA,24251,2763866991.0,"https://www.google.com/maps/place/Pizza+Plus/@36.6385757,-82.5756863,17z/data=!3m1!4b1!4m5!3m4!1s0x885aeb58284e76e1:0xd7aaaf09e4eec783!8m2!3d36.6385757!4d-82.5756863",pizza_plus,
Pizza Plus,248 W Main St,SALTVILLE,VA,24370-3122,2764965100.0,"https://www.google.com/maps/place/Pizza+Plus/@36.8769524,-81.7679371,17z/data=!3m1!4b1!4m5!3m4!1s0x885023621ea0cd5d:0x736064009484b435!8m2!3d36.8769524!4d-81.7679371",pizza_plus,
Pizza Plus,2705 Lee Hwy,BRISTOL,VA,24202-5874,2766695506.0,"https://www.google.com/maps/place/Pizza+Plus/@36.6310212,-82.1370508,17z/data=!3m1!4b1!4m5!3m4!1s0x8850746d5e7ecfb1:0x79083e43bca054b1!8m2!3d36.6310212!4d-82.1370508",pizza_plus,
Pizza Plus,645 E Riverside Dr,NORTH TAZEWELL,VA,24630-9577,2769799797.0,"https://www.google.com/maps/place/Pizza+Plus/@37.133939,-81.4953699,17z/data=!3m1!4b1!4m5!3m4!1s0x884e2d3da3a91429:0xa52b0635b2f6b621!8m2!3d37.133939!4d-81.4953699",pizza_plus,
Pizza Plus,2492 TN-75,BLOUNTVILLE,TN,37617,4232122600.0,"https://www.google.com/maps/place/Pizza+Plus,+Airport+Parkway/@36.4823624,-82.4113025,17z/data=!3m1!4b1!4m5!3m4!1s0x885a8f134f41c1cb:0x6fc4061183117798!8m2!3d36.4823624!4d-82.4113025",pizza_plus,
Pizza Plus,6309 Carters Valley Rd,CHURCH HILL,TN,37642,4232452400.0,"https://www.google.com/maps/place/Pizza+Plus/@36.5873772,-82.6447693,17z/data=!3m1!4b1!4m5!3m4!1s0x885aedd76277273b:0xf312298851dc0407!8m2!3d36.5873772!4d-82.6447693",pizza_plus,
Pizza Plus,2703 Bloomingdale Rd,KINGSPORT,TN,37660-1854,4232888808.0,"https://www.google.com/maps/place/Pizza+Plus/@36.5806873,-82.4979416,17z/data=!3m1!4b1!4m5!3m4!1s0x885a924833ee0f97:0xd445e00bc9527618!8m2!3d36.5806873!4d-82.4979416",pizza_plus,
Pizza Plus,3400 Highway 11W,SURGOINSVILLE,TN,37873,4233454040.0,"https://www.google.com/maps/place/Pizza+Plus/@36.485038,-82.847891,17z/data=!3m1!4b1!4m5!3m4!1s0x885afc26cd1fcb25:0xb03391bb2ce55f2c!8m2!3d36.485038!4d-82.847891",pizza_plus,
Pizza Plus,2002 Old Parrottsville Hwy,PARROTTSVILLE,TN,37843-2595,4236234343.0,"https://www.google.com/maps/place/Pizza+Plus/@36.010199,-83.0968205,17z/data=!4m5!3m4!1s0x885bc84d649fe5b7:0x69631ba739ddfc17!8m2!3d36.0101947!4d-83.0946318?hl=en",pizza_plus,
Pizza Plus,1462 Main St,SNEEDVILLE,TN,37869-3648,4237338500.0,"https://www.google.com/maps/place/Pizza+Plus/@36.5309984,-83.2152611,17z/data=!3m1!4b1!4m5!3m4!1s0x885b0cf111d39bf9:0xe10e511693f7e3e2!8m2!3d36.5309984!4d-83.2152611",pizza_plus,
Pizza Plus,Highway 25 East State St,WHITE PINE,TN,37890-3322,8656747900.0,"https://www.google.com/maps/place/Pizza+Plus/@36.1117004,-83.2845692,17z/data=!3m1!4b1!4m5!3m4!1s0x885b9505b867c783:0xb46502d8b286854!8m2!3d36.1117004!4d-83.2845692",pizza_plus,
Pizza Plus,210 Andrew Johnson Hwy,KNOXVILLE,TN,37924-4913,8659334001.0,"https://www.google.com/maps/place/Pizza+Plus/@36.0279653,-83.732397,17z/data=!3m1!4b1!4m5!3m4!1s0x885c0dc5cef009b1:0x479bc6331d89f382!8m2!3d36.0279653!4d-83.732397",pizza_plus,
Pizza Plus,29 Finney St,LEBANON,VA,24266,2768895501.0,"https://www.google.com/maps/place/Pizza+Plus/@36.9012909,-82.0826492,17z/data=!3m1!4b1!4m5!3m4!1s0x8850051d1ccb342b:0xf6d77fdd4894b61b!8m2!3d36.9012909!4d-82.0826492",pizza_plus,
Pizza Plus,6912 Duffield Pattonsville Rd,DUFFIELD,VA,24244,2764311515.0,"https://www.google.com/maps/place/Pizza+Plus/@36.7103936,-82.8014439,17z/data=!3m1!4b1!4m5!3m4!1s0x885ae7204ee1043f:0xe263b5dc80b6734b!8m2!3d36.7103936!4d-82.8014439",pizza_plus,
Pizza Plus,5130 Memorial Blvd,KINGSPORT,TN,37664,4232887724.0,"https://www.google.com/maps/place/Pizza+Plus/@36.5498887,-82.4464803,17z/data=!3m1!4b1!4m5!3m4!1s0x885a91dbbed53d49:0xe649104e4f2d27f9!8m2!3d36.5498887!4d-82.4464803",pizza_plus,
Pizza Plus,State Route 80 South,HONAKER,VA,24260,2768734600.0,"https://www.google.com/maps/place/Pizza+Plus+Inc/@37.016613,-81.955542,17z/data=!3m1!4b1!4m5!3m4!1s0x88501df2b8d59267:0x520274b3ec82c54c!8m2!3d37.016613!4d-81.955542",pizza_plus,
Pizza Plus,Rt 1 Box 121,ROSE HILL,VA,24281,2764455701.0,"https://www.google.com/maps/place/Pizza+Plus/@36.4184965,-83.9069366,9z/data=!4m8!1m2!2m1!1sPizza+Plus+ROSE+HILL+VA!3m4!1s0x885b6ec5468b0835:0x2b8752e8c83e484c!8m2!3d36.6717539!4d-83.3674041?hl=en",pizza_plus,
Pizza Plus,606 E 5th St N,BIG STONE GAP,VA,24219-2402,2765230100.0,"https://www.google.com/maps/place/Pizza+Plus/@36.8721755,-82.7790959,17z/data=!3m1!4b1!4m5!3m4!1s0x885ada57cad4fe8d:0xfead4781b42e5b0c!8m2!3d36.8721755!4d-82.7790959",pizza_plus,
Pizza Plus,518 N Main St,RURAL RETREAT,VA,24368-3123,2766868686.0,"https://www.google.com/maps/place/Pizza+Plus/@36.9009975,-81.2735574,17z/data=!3m1!4b1!4m5!3m4!1s0x8851d967f8f9a669:0x627943c9038a38f7!8m2!3d36.9009975!4d-81.2735574",pizza_plus,
Pizza Plus,1141 Plaza Drive,GRUNDY,VA,24614-9584,2769351616.0,"https://www.google.com/maps/place/Pizza+Plus/@37.256869,-82.1069707,17z/data=!3m1!4b1!4m5!3m4!1s0x884ff1692aeb8101:0x5597c9838340c83f!8m2!3d37.256869!4d-82.1069707",pizza_plus,
Pizza Plus,408 TN-93,FALL BRANCH,TN,37656,4233481320.0,"https://www.google.com/maps/place/Pizza+Plus/@36.3830899,-82.6178912,17z/data=!3m1!4b1!4m5!3m4!1s0x885af58845f19201:0x8e30b1f9b576cc31!8m2!3d36.3830899!4d-82.6178912",pizza_plus,
Pizza Plus,1013 Johnson City Hwy,BLUFF CITY,TN,37618-2701,4235385155.0,"https://www.google.com/maps/place/Pizza+Plus/@36.471972,-82.2688188,17z/data=!3m1!4b1!4m5!3m4!1s0x885a83b74dba5b19:0xdcc7efbca9aeea4a!8m2!3d36.471972!4d-82.2688188",pizza_plus,
Pizza Plus,14760 Regina Belcher Hwy,BELCHER,KY,41522-8339,6067540777.0,"https://www.google.com/maps/place/Pizza+Plus/@37.3404851,-82.3795511,17z/data=!3m1!4b1!4m5!3m4!1s0x88455cd0253cb3ff:0x989f25827318c014!8m2!3d37.3404851!4d-82.3795511",pizza_plus,
Pizza Plus,7739 Rutledge Pike,RUTLEDGE,TN,37861-3024,8658288880.0,"https://www.google.com/maps/place/Pizza+Plus/@36.2789734,-83.5258559,17z/data=!3m1!4b1!4m5!3m4!1s0x885b87e0f876641b:0x1609d934d2b571ab!8m2!3d36.2789734!4d-83.5258559",pizza_plus,
Pizza Plus,863 Rutledge Pike,BLAINE,TN,37709-2324,8659339499.0,"https://www.google.com/maps/place/Pizza+Plus/@36.152781,-83.7061664,17z/data=!3m1!4b1!4m5!3m4!1s0x885c73bb31db7805:0xd6a673f78bf14fb3!8m2!3d36.152781!4d-83.7061664",pizza_plus,
Pizza Plus,3153 Highway 61 E,LUTTRELL,TN,37779-2103,8659929923.0,"https://www.google.com/maps/place/Pizza+Plus/@36.2091,-83.7448,17z/data=!3m1!4b1!4m5!3m4!1s0x885c71c1c49272b9:0xc88fd90ce5643a69!8m2!3d36.2091!4d-83.7448",pizza_plus,
Pizza Plus,RT 1 BOX 621,PENNINGTON GAP,VA,24277,2763460000.0,"https://www.google.com/maps/place/Pizza+Plus/@36.726517,-83.0932063,17z/data=!3m1!4b1!4m5!3m4!1s0x885b178a96c0d151:0x5512351ff57eebcc!8m2!3d36.726517!4d-83.0932063",pizza_plus,
Pizza Plus,33437 Lee Hwy,GLADE SPRING,VA,24340-5101,2764292007.0,"https://www.google.com/maps/place/Pizza+Plus/@36.769808,-81.780675,17z/data=!3m1!4b1!4m5!3m4!1s0x88503c09b25200e5:0x90ec7772c55f6440!8m2!3d36.769808!4d-81.780675",pizza_plus,
Pizza Plus,VA -71,NICKELSVILLE,VA,24271,2764792200.0,"https://www.google.com/maps/place/Pizza+Plus/@36.7491618,-82.422033,17z/data=!3m1!4b1!4m5!3m4!1s0x885abd1e616d9dc9:0xe28fbac1592eb971!8m2!3d36.7491618!4d-82.422033",pizza_plus,
Pizza Plus,24461 E Main St,ABINGDON,VA,24210,2766284138.0,"https://www.google.com/maps/place/Pizza+Plus+Inc/@42.0511936,-93.611946,15z/data=!4m5!3m4!1s0x885014f2afb0556d:0xcbe3bd0522228ba5!8m2!3d36.7133643!4d-81.9310869?hl=en",pizza_plus,
Pizza Plus,16415 Wise St,SAINT PAUL,VA,24283,2767627688.0,"https://www.google.com/maps/place/Pizza+Plus/@36.906,-82.3168,17z/data=!3m1!4b1!4m5!3m4!1s0x885aaf3b966c2e0d:0xcb244cefaf6c16c9!8m2!3d36.906!4d-82.3168",pizza_plus,
Pizza Plus,8132 Main St,POUND,VA,24279,2767969200.0,"https://www.google.com/maps/place/Pizza+Plus/@37.124584,-82.6147745,17z/data=!3m1!4b1!4m5!3m4!1s0x8845344e919660d1:0x171d6ece4994fc43!8m2!3d37.124584!4d-82.6147745",pizza_plus,
Pizza Plus,404 Main Street,HAYSI,VA,24256,2768654400.0,"https://www.google.com/maps/place/Pizza+Plus/@37.2049193,-82.2925232,17z/data=!3m1!4b1!4m5!3m4!1s0x8845575c78c4e93b:0xea76231a91a5834b!8m2!3d37.2049193!4d-82.2925232",pizza_plus,
Pizza Plus,18473 US 19,ROSEDALE,VA,24280,2768802067.0,"https://www.google.com/maps/place/Pizza+Plus/@36.9593629,-81.9324658,17z/data=!3m1!4b1!4m5!3m4!1s0x88501e9544c64b43:0x7efbae2c500a0a88!8m2!3d36.9593629!4d-81.9324658",pizza_plus,
Pizza Plus,RT2 BOX 15 NEW PEOPLES PLAZA,CLINTWOOD,VA,24228,2769268500.0,"https://www.google.com/maps/place/Pizza+Plus/@37.1509838,-82.4751699,17z/data=!3m1!4b1!4m5!3m4!1s0x88454eaccb0e2875:0x90422c5646865af2!8m2!3d37.1509838!4d-82.4751699",pizza_plus,
Pizza Plus,400 Lynn Garden Dr,KINGSPORT,TN,37660-3173,4232477177.0,"https://www.google.com/maps/place/Pizza+Plus/@36.5554776,-82.5685761,17z/data=!3m1!4b1!4m5!3m4!1s0x885aed514e1d459f:0xb96e43e66bb08fe4!8m2!3d36.5554776!4d-82.5685761",pizza_plus,
Pizza Plus,5272 E Andrew Johnson Hwy,RUSSELLVILLE,TN,37860-9467,4235873778.0,"https://www.google.com/maps/place/Pizza+Plus/@36.2459442,-83.2194058,17z/data=!3m1!4b1!4m5!3m4!1s0x885ba2cd6be675ff:0x838dfc2f6b4d71b3!8m2!3d36.2459442!4d-83.2194058",pizza_plus,
Pizza Plus,101 S Broad St,NEW TAZEWELL,TN,37825-7307,4236266600.0,"https://www.google.com/maps/place/Pizza+Plus/@36.4423,-83.5998,17z/data=!3m1!4b1!4m5!3m4!1s0x885c80068c676cdb:0xb3033718130cfaff!8m2!3d36.4423!4d-83.5998",pizza_plus,
Pizza Plus,2109 Weaver Pike,BRISTOL,TN,37620-5437,4239899009.0,"https://www.google.com/maps/place/Pizza+Plus/@36.5569317,-82.178597,17z/data=!3m1!4b1!4m5!3m4!1s0x885077a59233122d:0xf5a1facf1f031508!8m2!3d36.5569317!4d-82.178597",pizza_plus,
Pizza Plus,1031 Highway 92 S,DANDRIDGE,TN,37725,8653976111.0,"https://www.google.com/maps/place/Pizza+Plus/@36.017197,-83.4232332,17z/data=!3m1!4b1!4m5!3m4!1s0x885bf20ac4eed3f5:0x64d19aa366bb19f!8m2!3d36.017197!4d-83.4232332",pizza_plus,
Pizza Plus,1205 Hwy 11-W,BEAN STATION,TN,37708,8659935001.0,"https://www.google.com/maps/place/Pizza+Plus/@36.3440627,-83.2699182,17z/data=!3m1!4b1!4m5!3m4!1s0x885b9f49e8fbdbb9:0xb978d9b6e896a718!8m2!3d36.3440627!4d-83.2699182",pizza_plus,
Pizza Plus,3400 Highway 11W,SURGOINSVILLE,TN,37873,4233454040.0,"https://www.google.com/maps/place/Pizza+Plus/@36.485038,-82.847891,17z/data=!3m1!4b1!4m5!3m4!1s0x885afc26cd1fcb25:0xb03391bb2ce55f2c!8m2!3d36.485038!4d-82.847891",pizza_plus,
Pizza Plus,610 Van Hill Rd,GREENEVILLE,TN,37745,4232340488.0,"https://www.google.com/maps/place/Pizza+Plus/@36.3308121,-82.8384178,17z/data=!3m1!4b1!4m5!3m4!1s0x885a543e2434bbd9:0xf97b21c9b4dab148!8m2!3d36.3308121!4d-82.8384178",pizza_plus,
Pizza Plus,2603 Sullivan Gardens Pkwy,KINGSPORT,TN,37660,4233495565.0,"https://www.google.com/maps/place/Pizza+Plus/@36.4951915,-82.5665068,17z/data=!3m1!4b1!4m5!3m4!1s0x885af3323d3f4435:0xde9d77ca603fd9c4!8m2!3d36.4951915!4d-82.5665068",pizza_plus,
Pizza Plus,29 Finney St,LEBANON,VA,24266,2768895501.0,"https://www.google.com/maps/place/Pizza+Plus/@36.9012909,-82.0826492,17z/data=!3m1!4b1!4m5!3m4!1s0x8850051d1ccb342b:0xf6d77fdd4894b61b!8m2!3d36.9012909!4d-82.0826492",pizza_plus,
Pizza Plus,6912 Duffield Pattonsville Rd,DUFFIELD,VA,24244,2764311515.0,"https://www.google.com/maps/place/Pizza+Plus/@36.7103936,-82.8014439,17z/data=!3m1!4b1!4m5!3m4!1s0x885ae7204ee1043f:0xe263b5dc80b6734b!8m2!3d36.7103936!4d-82.8014439",pizza_plus,
Pizza Plus,610 Van Hill Rd,GREENEVILLE,TN,37745,4232340488.0,"https://www.google.com/maps/place/Pizza+Plus/@36.3308121,-82.8384178,17z/data=!3m1!4b1!4m5!3m4!1s0x885a543e2434bbd9:0xf97b21c9b4dab148!8m2!3d36.3308121!4d-82.8384178",pizza_plus,
Pizza Plus,Rt 2 Box 1170,CEDAR BLUFF,VA,24609,2769633330.0,"https://www.google.com/maps/place/Pizza+Plus/@37.0690984,-81.7552578,17z/data=!3m1!4b1!4m5!3m4!1s0x884fd9475a387149:0x9d99bb74361fd0b4!8m2!3d37.0690984!4d-81.7552578",pizza_plus,
Pizza Plus,Highway 11 West Oakwood Sc,CHURCH HILL,TN,37642,4233577777.0,"https://www.google.com/maps/place/Pizza+Plus/@36.5364016,-82.8864137,11z/data=!4m8!1m2!2m1!1sPizza+Plus+Highway+11+West+Oakwood+Sc+CHURCH+HILL+TN+37642!3m4!1s0x885aedd76277273b:0x451695d3d23eac9c!8m2!3d36.5209935!4d-82.6993971?hl=en",pizza_plus,
