Company Name,Address 1,City,State,Zip,Phone,Google Link
The Pizza Ranch,104 W Erie St,MISSOURI VALLEY,IA,51555-1535,7126425050.0,"https://www.google.com/maps/place/Pizza+Ranch/@41.5558763,-95.8949535,17z/data=!3m1!4b1!4m5!3m4!1s0x8793a4cc40164c87:0x8c994e30d1e6a135!8m2!3d41.5558763!4d-95.8949535"
The Pizza Ranch,1110 3rd Ave N,WAHPETON,ND,58075-4104,7016727492.0,"https://www.google.com/maps/place/Pizza+Ranch/@46.2663965,-96.616728,17z/data=!3m1!4b1!4m5!3m4!1s0x52c94922c9c093e1:0x5c3eba716b832f2f!8m2!3d46.2663965!4d-96.616728"
The Pizza Ranch,1010 6th Ave SE,ABERDEEN,SD,57401-6321,6057252525.0,"https://www.google.com/maps/place/Pizza+Ranch/@45.4588334,-98.4727213,17z/data=!3m1!4b1!4m5!3m4!1s0x52d244e9a08d48a9:0x86d71ba06dd1d995!8m2!3d45.4588334!4d-98.4727213"
The Pizza Ranch,634 Main St,ACKLEY,IA,50601-1438,6418472244.0,"https://www.google.com/maps/place/Pizza+Ranch/@42.5539496,-93.0536879,17z/data=!3m1!4b1!4m5!3m4!1s0x87f02babe7a84ddb:0xa7562700764f89b4!8m2!3d42.5539496!4d-93.0536879"
The Pizza Ranch,706 Washington Ave,IOWA FALLS,IA,50126-2115,6416483322.0,"https://www.google.com/maps/place/Pizza+Ranch/@42.5199146,-93.2658133,17z/data=!3m1!4b1!4m5!3m4!1s0x87f1d81978fec01f:0x7fd92c2dff6d4ec2!8m2!3d42.5199146!4d-93.2658133"
The Pizza Ranch,1580 2nd Ave NW,STEWARTVILLE,MN,55976-1606,5075330117.0,"https://www.google.com/maps/place/Pizza+Ranch/@43.8675987,-92.489267,17z/data=!3m1!4b1!4m5!3m4!1s0x87f7564533a8f601:0x84f740738bc6192c!8m2!3d43.8675987!4d-92.489267"
The Pizza Ranch,1131 East Frontage Road,LAKE DELTON,WI,53940,6082548200.0,"https://www.google.com/maps/place/Pizza+Ranch/@43.5761705,-89.7754548,17z/data=!3m1!4b1!4m5!3m4!1s0x880745ca87ccbf1d:0xf65eb9bbe25f6b7d!8m2!3d43.5761705!4d-89.7754548"
The Pizza Ranch,11 Central Ave SW,LE MARS,IA,51031-3520,7125467272.0,"https://www.google.com/maps/place/Pizza+Ranch/@42.7928944,-96.1668525,17z/data=!3m1!4b1!4m5!3m4!1s0x878dc416f87b7109:0xeffc34f06cf53381!8m2!3d42.7928944!4d-96.1668525"
The Pizza Ranch,204 1st St,SERGEANT BLUFF,IA,51054-8588,7129437499.0,"https://www.google.com/maps/place/Pizza+Ranch/@42.3992598,-96.3617679,17z/data=!3m1!4b1!4m5!3m4!1s0x878dff094bb15b93:0x5329caf26168bfb4!8m2!3d42.3992598!4d-96.3617679"
The Pizza Ranch,944 Center Ave,OOSTBURG,WI,53070-1354,9205646333.0,"https://www.google.com/maps/place/Pizza+Ranch/@43.6233141,-87.7986009,17z/data=!3m1!4b1!4m5!3m4!1s0x8804a336ff02b9a1:0x594c45b7f8ce3671!8m2!3d43.6233141!4d-87.7986009"
The Pizza Ranch,1235 W Johnson St,FOND DU LAC,WI,54935,9209298800.0,"https://www.google.com/maps/place/Pizza+Ranch/@43.7851524,-88.4909432,17z/data=!3m1!4b1!4m5!3m4!1s0x8803f55982b9a37d:0xf3f4a752c8daf0fc!8m2!3d43.7851524!4d-88.4909432"
The Pizza Ranch,3000 W 18th Ave,EMPORIA,KS,66801-6191,6203438646.0,"https://www.google.com/maps/place/Pizza+Ranch/@38.4222282,-96.22107,17z/data=!3m1!4b1!4m5!3m4!1s0x87b94dee9c4ac24d:0xd652ed6b325b922f!8m2!3d38.4222282!4d-96.22107"
The Pizza Ranch,1132 Oxford St,WORTHINGTON,MN,56187-1775,5073763711.0,"https://www.google.com/maps/place/Pizza+Ranch/@43.6308355,-95.599551,17z/data=!3m1!4b1!4m5!3m4!1s0x878c82f414946f8b:0xa9fbda8e8c8a8e7e!8m2!3d43.6308355!4d-95.599551"
The Pizza Ranch,219 W 4th St,VINTON,IA,52349-1123,3194724000.0,"https://www.google.com/maps/place/Pizza+Ranch/@42.1679699,-92.0265938,17z/data=!3m1!4b1!4m5!3m4!1s0x87e5171d42ffd157:0x6ca06da7f37956d4!8m2!3d42.1679699!4d-92.0265938"
The Pizza Ranch,202 Lemieur St,LITTLE FALLS,MN,56345-3382,3206328333.0,"https://www.google.com/maps/place/Pizza+Ranch/@45.9730295,-94.3384516,17z/data=!3m1!4b1!4m5!3m4!1s0x52b43b32bb0ef703:0xeff8becff6e1a018!8m2!3d45.9730295!4d-94.3384516"
The Pizza Ranch,201 Wiley Ave S,WASHINGTON,IA,52353,3196535553.0,"https://www.google.com/maps/place/Pizza+Ranch/@41.2974797,-91.6643392,17z/data=!3m1!4b1!4m5!3m4!1s0x87e4284f9749127b:0xeae602dc9789f95!8m2!3d41.2974797!4d-91.6643392"
The Pizza Ranch,708 N Grand Ave,MOUNT PLEASANT,IA,52641-3115,3199862222.0,"https://www.google.com/maps/place/Pizza+Ranch/@40.9754491,-91.5371416,17z/data=!3m1!4b1!4m5!3m4!1s0x87e6956c7acbd177:0x9d609960a82eba34!8m2!3d40.9754491!4d-91.5371416"
The Pizza Ranch,1513 14th St,ROCK VALLEY,IA,51247-1206,7124769930.0,"https://www.google.com/maps/place/Pizza+Ranch/@43.2043956,-96.2961502,17z/data=!3m1!4b1!4m5!3m4!1s0x878c2448ae12158f:0xd1a6b41c7e58ae6a!8m2!3d43.2043956!4d-96.2961502"
The Pizza Ranch,2502 E Beltline,HIBBING,MN,55746-2302,2184401371.0,"https://www.google.com/maps/place/Pizza+Ranch/@47.4202424,-92.9225001,17z/data=!3m1!4b1!4m5!3m4!1s0x52baa75b5e2455fb:0x45b4835bcc1161dc!8m2!3d47.4202424!4d-92.9225001"
The Pizza Ranch,505 E Oak St,MONTICELLO,IA,52310-1737,3194656000.0,"https://www.google.com/maps/place/Pizza+Ranch/@42.2340944,-91.1830792,17z/data=!3m1!4b1!4m5!3m4!1s0x87e35fd9e86e49f9:0xd2dd1f25b32d10a!8m2!3d42.2340944!4d-91.1830792"
The Pizza Ranch,106 Ford Ave,MUSCATINE,IA,52761-5623,5632633535.0,"https://www.google.com/maps/place/Pizza+Ranch/@41.4488089,-91.029482,17z/data=!3m1!4b1!4m5!3m4!1s0x87e3ef9a8bd57d89:0x5d5730e3eae2731d!8m2!3d41.4488089!4d-91.029482"
The Pizza Ranch,405 State St,GARNER,IA,50438-1334,6419236042.0,"https://www.google.com/maps/place/Pizza+Ranch/@43.1012492,-93.6039341,17z/data=!4m5!3m4!1s0x87f1829582058359:0x8cf36aa5c26f3bf4!8m2!3d43.1012453!4d-93.6017454?hl=en"
The Pizza Ranch,502 E Norway Ave,MITCHELL,SD,57301-4781,6059968009.0,"https://www.google.com/maps/place/Pizza+Ranch/@43.6952917,-98.0185225,17z/data=!3m1!4b1!4m5!3m4!1s0x878611a3f15cb30d:0xf1ce4fec5ab8f5b3!8m2!3d43.6952917!4d-98.0185225"
The Pizza Ranch,2003 18th St,SPIRIT LAKE,IA,51360-1061,7123361419.0,"https://www.google.com/maps/place/Pizza+Ranch/@43.4219555,-95.120935,17z/data=!3m1!4b1!4m5!3m4!1s0x878cb440d6a9251b:0x89892eb5cf9577c2!8m2!3d43.4219555!4d-95.120935"
The Pizza Ranch,103 1st St SE,PRIMGHAR,IA,51245-7701,7129570053.0,"https://www.google.com/maps/place/Pizza+Ranch/@43.0860862,-95.6282094,17z/data=!3m1!4b1!4m5!3m4!1s0x878cfc39b8d536ad:0x903086cea054ffa2!8m2!3d43.0860862!4d-95.6282094"
The Pizza Ranch,900 W Main St,WAUPUN,WI,53963-1201,9203249000.0,"https://www.google.com/maps/place/Pizza+Ranch/@43.6337604,-88.7519914,17z/data=!3m1!4b1!4m5!3m4!1s0x880402d4531c3925:0xf6a5cc8603b5ee29!8m2!3d43.6337604!4d-88.7519914"
The Pizza Ranch,212 College Dr,DECORAH,IA,52101-1305,5633828744.0,"https://www.google.com/maps/place/Pizza+Ranch/@43.3074109,-91.7962,17z/data=!3m1!4b1!4m5!3m4!1s0x87fbad799607babb:0x600f8dd4b8e86d46!8m2!3d43.3074109!4d-91.7962"
The Pizza Ranch,206 3rd St,JACKSON,MN,56143-1605,5078475555.0,"https://www.google.com/maps/place/Pizza+Ranch/@43.6197493,-94.988367,17z/data=!3m1!4b1!4m5!3m4!1s0x87f35410c9e70d31:0xe74756ee9c2211c4!8m2!3d43.6197493!4d-94.988367"
The Pizza Ranch,1101 N State St,FAIRMONT,MN,56031-3740,5072358822.0,"https://www.google.com/maps/place/Pizza+Ranch/@43.6635409,-94.4504793,17z/data=!4m5!3m4!1s0x87f37ef9b9cb310d:0xbfb96b24a3a0836f!8m2!3d43.663537!4d-94.4482906?hl=en"
The Pizza Ranch,202 S Splitrock Blvd,BRANDON,SD,57005-1654,6055826322.0,"https://www.google.com/maps/place/Pizza+Ranch/@43.5930551,-96.5714496,17z/data=!3m1!4b1!4m5!3m4!1s0x878ead5125580573:0xd65d67a6d753b07c!8m2!3d43.5930551!4d-96.5714496"
The Pizza Ranch,3809 E 10th St,SIOUX FALLS,SD,57103-2111,6052759777.0,"https://www.google.com/maps/place/Pizza+Ranch/@43.5447362,-96.6789938,17z/data=!3m1!4b1!4m5!3m4!1s0x878eb46f28cbd98f:0xb0474fd416dd3350!8m2!3d43.5447362!4d-96.6789938"
The Pizza Ranch,721 Lincoln Ave,HARVEY,ND,58341-1519,7013242332.0,"https://www.google.com/maps/place/Pizza+Ranch/@47.7704872,-99.9343642,17z/data=!3m1!4b1!4m5!3m4!1s0x52dbc8e1ad1b8241:0xf020ad0349df4f90!8m2!3d47.7704872!4d-99.9343642"
The Pizza Ranch,1111 NW 2nd St,MADISON,SD,57042-6779,6052563333.0,"https://www.google.com/maps/place/Pizza+Ranch/@44.0070651,-97.129821,17z/data=!3m1!4b1!4m5!3m4!1s0x8788e2ddedfbe231:0xfeb833be5da48295!8m2!3d44.0070651!4d-97.129821"
The Pizza Ranch,613 Court St,HARLAN,IA,51537-1440,7127552262.0,"https://www.google.com/maps/place/Pizza+Ranch/@41.6575682,-95.3183723,17z/data=!3m1!4b1!4m5!3m4!1s0x8793235d7bf90a07:0x97169887ce5aafee!8m2!3d41.6575682!4d-95.3183723"
The Pizza Ranch,124 N 2nd St,LE SUEUR,MN,56058-1824,5076652222.0,"https://www.google.com/maps/place/Pizza+Ranch/@44.4618594,-93.913862,17z/data=!3m1!4b1!4m5!3m4!1s0x87f5cfdcf5c776b3:0xf72cbb2ef9af1ba6!8m2!3d44.4618594!4d-93.913862"
The Pizza Ranch,120 W Hwy 38,HARTFORD,SD,57033,6055283663.0,"https://www.google.com/maps/place/Pizza+Ranch/@43.631909,-96.9468674,17z/data=!3m1!4b1!4m5!3m4!1s0x87892dbda76af3b7:0x8c7888fcfd07d87c!8m2!3d43.631909!4d-96.9468674"
The Pizza Ranch,500 W 4th St,DELL RAPIDS,SD,57022-1839,6054285967.0,"https://www.google.com/maps/place/Pizza+Ranch/@43.8241977,-96.7269209,17z/data=!4m5!3m4!1s0x878940cae6341689:0xb8347235d1e1836d!8m2!3d43.8241939!4d-96.7247322?hl=en"
The Pizza Ranch,730 4th Ave S,CARRINGTON,ND,58421-2337,7016523232.0,"https://www.google.com/maps/place/Pizza+Ranch/@47.441016,-99.1182872,17z/data=!3m1!4b1!4m5!3m4!1s0x52daeda7a2ffcbd5:0x50fc1ffd00a29b49!8m2!3d47.441016!4d-99.1182872"
The Pizza Ranch,903 W Jackson St,MORTON,IL,61550-1567,3092631200.0,"https://www.google.com/maps/place/Pizza+Ranch/@40.6199909,-89.4652215,17z/data=!3m1!4b1!4m5!3m4!1s0x880aff5b3a5460b3:0x9ec708a7daf8d37b!8m2!3d40.6199909!4d-89.4652215"
The Pizza Ranch,638 Front St,CASSELTON,ND,58012-3300,7013474099.0,"https://www.google.com/maps/place/Pizza+Ranch/@46.9008564,-97.2118845,17z/data=!3m1!4b1!4m5!3m4!1s0x52cf3f7a3f9af785:0xe4356166aa1db26!8m2!3d46.9008564!4d-97.2118845"
The Pizza Ranch,508 Main St,PELLA,IA,50219-1832,6416288844.0,"https://www.google.com/maps/place/Pizza+Ranch/@41.4035032,-92.9161701,17z/data=!3m1!4b1!4m5!3m4!1s0x87ef3075699260a1:0x2e3fcb175552f642!8m2!3d41.4035032!4d-92.9161701"
The Pizza Ranch,1500 W 18th St S,NEWTON,IA,50208-4381,6417923447.0,"https://www.google.com/maps/place/Pizza+Ranch/@41.6863167,-93.0761437,17z/data=!3m1!4b1!4m5!3m4!1s0x87ef1d0ceb77cd55:0x72da80398c169aff!8m2!3d41.6863167!4d-93.0761437"
The Pizza Ranch,3492 Chicago Dr,HUDSONVILLE,MI,49426-1428,6166697030.0,"https://www.google.com/maps/place/Pizza+Ranch/@42.8661685,-85.8684427,17z/data=!3m1!4b1!4m5!3m4!1s0x8819bea03d7315f9:0x91fa8e8ffa7ab742!8m2!3d42.8661685!4d-85.8684427"
The Pizza Ranch,916 Gateway Dr,BARABOO,WI,53913-9293,6084482215.0,"https://www.google.com/maps/place/Pizza+Ranch/@43.4582786,-89.7765197,17z/data=!3m1!4b1!4m5!3m4!1s0x88076a071dee9b5d:0xe2964e414e27770!8m2!3d43.4582786!4d-89.7765197"
The Pizza Ranch,723 Central Ave,HAWARDEN,IA,51023-2224,7125512455.0,"https://www.google.com/maps/place/Pizza+Ranch/@42.9940826,-96.485635,17z/data=!3m1!4b1!4m5!3m4!1s0x878e80a9aa7be1af:0xb1380cb48d9c479b!8m2!3d42.9940826!4d-96.485635"
The Pizza Ranch,251 N Main Ave,SIOUX CENTER,IA,51250-1873,7127223988.0,"https://www.google.com/maps/place/Pizza+Ranch/@43.0791666,-96.1773926,17z/data=!3m1!4b1!4m5!3m4!1s0x878c33dc5c1a7fe1:0x71e01c1e975c996f!8m2!3d43.0791666!4d-96.1773926"
The Pizza Ranch,316 9th St,SIBLEY,IA,51249-1802,7127544196.0,"https://www.google.com/maps/place/Pizza+Ranch/@43.3994789,-95.7499762,17z/data=!3m1!4b1!4m5!3m4!1s0x878c61ead973708d:0xd26843977dd0b991!8m2!3d43.3994789!4d-95.7499762"
The Pizza Ranch,108 E Michigan Ave,GEORGE,IA,51237-7751,7124752865.0,"https://www.google.com/maps/place/Pizza+Ranch/@43.3439163,-96.0016625,17z/data=!3m1!4b1!4m5!3m4!1s0x878c6a15040db86d:0xa07809d38d714799!8m2!3d43.3439163!4d-96.0016625"
The Pizza Ranch,16137 State 34,PARK RAPIDS,MN,56470-1803,2187324030.0,"https://www.google.com/maps/place/Pizza+Ranch/@46.9215652,-95.0309309,17z/data=!3m1!4b1!4m5!3m4!1s0x52b7b8e26f521775:0x3e59738298e1f4dd!8m2!3d46.9215652!4d-95.0309309"
The Pizza Ranch,2625 E Colorado Blvd,SPEARFISH,SD,57783-3206,6056424422.0,"https://www.google.com/maps/place/Pizza+Ranch/@44.4750574,-103.8148992,17z/data=!3m1!4b1!4m5!3m4!1s0x53329892f6947c1f:0xe2f0217489892392!8m2!3d44.4750574!4d-103.8148992"
The Pizza Ranch,125 1st Ave SE,OELWEIN,IA,50662-2320,3192835858.0,"https://www.google.com/maps/place/Pizza+Ranch/@42.6758255,-91.9113472,17z/data=!3m1!4b1!4m5!3m4!1s0x87fad0b4846a3a03:0xb74555e81d91774c!8m2!3d42.6758255!4d-91.9113472"
The Pizza Ranch,2430 Bridge Ave,ALBERT LEA,MN,56007-2005,5073772166.0,"https://www.google.com/maps/place/Pizza+Ranch/@43.6813874,-93.3567175,17z/data=!3m1!4b1!4m5!3m4!1s0x87f13415f9212311:0x37d841878c1fc8e0!8m2!3d43.6813874!4d-93.3567175"
The Pizza Ranch,7 E 5th St,MORRIS,MN,56267-1307,3205892102.0,"https://www.google.com/maps/place/Pizza+Ranch/@45.5865673,-95.9134501,17z/data=!3m1!4b1!4m5!3m4!1s0x52cbad717452fdef:0xcb08f24912c59ecc!8m2!3d45.5865673!4d-95.9134501"
The Pizza Ranch,2451 Truax Blvd,EAU CLAIRE,WI,54703-6953,7155144143.0,"https://www.google.com/maps/place/Pizza+Ranch/@44.8318571,-91.5431821,17z/data=!3m1!4b1!4m5!3m4!1s0x87f897f372da710f:0x6b63a51f3de9cdc!8m2!3d44.8318571!4d-91.5431821"
The Pizza Ranch,1015 Main St,HULL,IA,51239-7733,7124391853.0,"https://www.google.com/maps/place/Pizza+Ranch/@43.187992,-96.1341098,17z/data=!3m1!4b1!4m5!3m4!1s0x878c3995b1161489:0x26292c88fdc0b0e7!8m2!3d43.187992!4d-96.1341098"
The Pizza Ranch,106 Jefferson St S,WADENA,MN,56482-1546,2186312145.0,"https://www.google.com/maps/place/Pizza+Ranch/@46.4407376,-95.1367562,17z/data=!3m1!4b1!4m5!3m4!1s0x52b63ce23e00a7c7:0x9cb796892919b3d6!8m2!3d46.4407376!4d-95.1367562"
The Pizza Ranch,14 Minnesota Ave E,GLENWOOD,MN,56334-1675,3206344261.0,"https://www.google.com/maps/place/Pizza+Ranch/@45.6499696,-95.3893693,17z/data=!3m1!4b1!4m5!3m4!1s0x52ca6fc71606b9bf:0x350f94521958dd47!8m2!3d45.6499696!4d-95.3893693"
The Pizza Ranch,2020 W Bremer Ave,WAVERLY,IA,50677-2029,3193522222.0,"https://www.google.com/maps/place/Pizza+Ranch/@42.7259248,-92.496313,17z/data=!3m1!4b1!4m5!3m4!1s0x87f009a93e6b16e9:0xf088c358de582bb0!8m2!3d42.7259248!4d-92.496313"
The Pizza Ranch,1000 Blunt Pkwy,CHARLES CITY,IA,50616-2802,6412284100.0,"https://www.google.com/maps/place/Pizza+Ranch/@43.0670457,-92.6743874,17z/data=!3m1!4b1!4m5!3m4!1s0x87f0638a18ec8609:0xb46a83d2ce9caaf9!8m2!3d43.0670457!4d-92.6743874"
The Pizza Ranch,801 East Brian Street,TEA,SD,57064,6053685588.0,"https://www.google.com/maps/place/Pizza+Ranch/@43.453425,-96.8254545,17z/data=!3m1!4b1!4m5!3m4!1s0x878ec8ca6f53a169:0x5c8cfc9232aa47b0!8m2!3d43.453425!4d-96.8254545"
The Pizza Ranch,109 N Main St,MARCUS,IA,51035-7707,7123762168.0,"https://www.google.com/maps/place/Pizza+Ranch/@42.8233697,-95.8076475,17z/data=!3m1!4b1!4m5!3m4!1s0x878da69b3790b1c5:0xd6d90971b632281a!8m2!3d42.8233697!4d-95.8076475"
The Pizza Ranch,245 S Main St,WEST POINT,NE,68788-1834,4023725099.0,"https://www.google.com/maps/place/Pizza+Ranch/@41.8385344,-96.712448,17z/data=!3m1!4b1!4m5!3m4!1s0x89c2ccf2948f012f:0x663051af94f72bbf!8m2!3d41.8385344!4d-96.712448"
The Pizza Ranch,604 Frontier Dr,FERGUS FALLS,MN,56537-1026,2187395888.0,"https://www.google.com/maps/place/Pizza+Ranch/@46.2909002,-96.1176547,17z/data=!3m1!4b1!4m5!3m4!1s0x52c973f5d4f6e619:0xe949b8e055720749!8m2!3d46.2909002!4d-96.1176547"
The Pizza Ranch,815 Burrel Ave SW,COOPERSTOWN,ND,58425,7017972800.0,"https://www.google.com/maps/place/Pizza+Ranch/@47.444822,-98.1241079,17z/data=!3m1!4b1!4m5!3m4!1s0x52c56b02fc833949:0x62297577dfdc1efc!8m2!3d47.444822!4d-98.1241079"
The Pizza Ranch,201 N Sibley Ave,LITCHFIELD,MN,55355-2140,3206939393.0,"https://www.google.com/maps/place/Pizza+Ranch/@45.1278334,-94.530361,17z/data=!4m8!1m2!2m1!1sThe+Pizza+Ranch+201+N+Sibley+Ave+LITCHFIELD+MN+55355-2140!3m4!1s0x52b5240e60c03159:0x28872334bf1e6bec!8m2!3d45.1275641!4d-94.5284444?hl=en"
The Pizza Ranch,1102 1st St NE,NEW PRAGUE,MN,56071-2196,9527589440.0,"https://www.google.com/maps/place/Pizza+Ranch/@44.5442928,-93.560383,17z/data=!3m1!4b1!4m5!3m4!1s0x87f66e4786b0b0dd:0xe98b6f8dd6b89b50!8m2!3d44.5442928!4d-93.560383"
The Pizza Ranch,108 W Main St,PIPESTONE,MN,56164-1652,5075622222.0,"https://www.google.com/maps/place/Pizza+Ranch/@44.0002948,-96.3202467,17z/data=!4m5!3m4!1s0x878bd952356e0605:0xcdaaf3d28af1d25e!8m2!3d44.000291!4d-96.318058?hl=en"
The Pizza Ranch,1511 N Broadway St,RED OAK,IA,51566-1026,7126232332.0,"https://www.google.com/maps/place/Pizza+Ranch/@41.018457,-95.2348134,17z/data=!3m1!4b1!4m5!3m4!1s0x8794a55c1660aa49:0xe4ea68c84fda205b!8m2!3d41.018457!4d-95.2348134"
The Pizza Ranch,1360 E Bridge St,REDWOOD FALLS,MN,56283-1904,5076445936.0,"https://www.google.com/maps/place/Pizza+Ranch/@44.5408747,-95.0936571,17z/data=!3m1!4b1!4m5!3m4!1s0x878acb05757065f3:0x928849277bd67bc9!8m2!3d44.5408747!4d-95.0936571"
The Pizza Ranch,1501 Broadway Ave,YANKTON,SD,57078-2010,6056651222.0,"https://www.google.com/maps/place/Pizza+Ranch/@42.88382,-97.3993884,17z/data=!4m5!3m4!1s0x878fa1a722aa0c95:0x33372d9a6e2c79b5!8m2!3d42.8838161!4d-97.3971997?hl=en"
The Pizza Ranch,28 W Hidden Trl,ELKHORN,WI,53121-4543,2627237880.0,"https://www.google.com/maps/place/Pizza+Ranch/@42.6945841,-88.5434692,17z/data=!3m1!4b1!4m5!3m4!1s0x8805f208ab9c7ecd:0x5d7ef485d921a07f!8m2!3d42.6945841!4d-88.5434692"
The Pizza Ranch,3010 S 84th St,OMAHA,NE,68124-3215,4029344888.0,"https://www.google.com/maps/place/Pizza+Ranch/@41.2311122,-96.0456077,17z/data=!3m1!4b1!4m5!3m4!1s0x87938ce8e2219eed:0x1a1a72a45d41af9d!8m2!3d41.2311122!4d-96.0456077"
The Pizza Ranch,1300 18th Ave NW,AUSTIN,MN,55912-1856,5073962677.0,"https://www.google.com/maps/place/Pizza+Ranch/@43.6855905,-92.9927872,17z/data=!4m5!3m4!1s0x87f0d3c4d2fcb3db:0xdd1be8d30837b2eb!8m2!3d43.6855866!4d-92.9905985?hl=en"
The Pizza Ranch,2266 33rd Ave,COLUMBUS,NE,68601-3155,4025648131.0,"https://www.google.com/maps/place/Pizza+Ranch/@41.4380897,-97.3686142,17z/data=!3m1!4b1!4m5!3m4!1s0x8790ebf3dbad8d61:0x92aae383c133fced!8m2!3d41.4380897!4d-97.3686142"
The Pizza Ranch,1220 Highway 25 S,MONTICELLO,MN,55362-4672,7632956500.0,"https://www.google.com/maps/place/Pizza+Ranch/@45.2932372,-93.8013336,17z/data=!3m1!4b1!4m5!3m4!1s0x52b49e17ac66cd4f:0xc99afbdf0ba9d4be!8m2!3d45.2932372!4d-93.8013336"
The Pizza Ranch,2711 Lazelle St,STURGIS,SD,57785-2934,6053473400.0,"https://www.google.com/maps/place/Pizza+Ranch/@44.4177794,-103.5379751,17z/data=!3m1!4b1!4m5!3m4!1s0x532d5c0a8c2a9827:0xd02a5d47d44352d5!8m2!3d44.4177794!4d-103.5379751"
The Pizza Ranch,2184 2nd Ave W,DICKINSON,ND,58601-6508,7014830008.0,"https://www.google.com/maps/place/Pizza+Ranch/@46.9059969,-102.7876192,17z/data=!3m1!4b1!4m5!3m4!1s0x53263d5c33971b95:0xb5a317e89c7ab31c!8m2!3d46.9059969!4d-102.7876192"
The Pizza Ranch,4302 University Ave,CEDAR FALLS,IA,50613-6255,3192662555.0,"https://www.google.com/maps/place/Pizza+Ranch/@42.507273,-92.4086611,17z/data=!3m1!4b1!4m5!3m4!1s0x87e554c283b50b3b:0xb76ef7c50bfba24e!8m2!3d42.507273!4d-92.4086611"
The Pizza Ranch,3750 32nd Ave S,GRAND FORKS,ND,58201-5998,7017752222.0,"https://www.google.com/maps/place/Pizza+Ranch/@47.8908677,-97.0824157,17z/data=!3m1!4b1!4m5!3m4!1s0x52c680f0c0077c95:0x767d34e292061a0b!8m2!3d47.8908677!4d-97.0824157"
The Pizza Ranch,880 Lincoln Rd,BETTENDORF,IA,52722-4292,5633559400.0,"https://www.google.com/maps/place/Pizza+Ranch/@41.5370126,-90.5203042,17z/data=!3m1!4b1!4m5!3m4!1s0x87e236a3d834f49b:0xd227ac2b8222214e!8m2!3d41.5370126!4d-90.5203042"
The Pizza Ranch,12443 Champlin Dr,CHAMPLIN,MN,55316-1907,7634212558.0,"https://www.google.com/maps/place/Pizza+Ranch/@45.2000073,-93.4227224,12z/data=!4m8!1m2!2m1!1sThe+Pizza+Ranch+12443+Champlin+Dr+CHAMPLIN+MN+55316-1907!3m4!1s0x52b33ece6672d287:0x55e53429f6cff93c!8m2!3d45.1793682!4d-93.3945889?hl=en"
The Pizza Ranch,1513 Broad St,STORY CITY,IA,50248-1581,5157334111.0,"https://www.google.com/maps/place/Pizza+Ranch/@42.1880357,-93.5772783,17z/data=!3m1!4b1!4m5!3m4!1s0x87ee12a9a98a6d27:0x8e4d441b43eeb1b1!8m2!3d42.1880357!4d-93.5772783"
The Pizza Ranch,1556 Luna Ave,RAPID CITY,SD,57701-6949,6053489114.0,"https://www.google.com/maps/place/Pizza+Ranch/@44.0996115,-103.1953491,17z/data=!3m1!4b1!4m5!3m4!1s0x877d424f0ddfb60f:0xe8a68b76eb5e8e1f!8m2!3d44.0996115!4d-103.1953491"
The Pizza Ranch,3212 Calumet Ave,MANITOWOC,WI,54220-5424,9207690015.0,"https://www.google.com/maps/place/Pizza+Ranch/@44.0856642,-87.6880163,17z/data=!3m1!4b1!4m5!3m4!1s0x880337ee2708d879:0x9a0c0fa23af7ce63!8m2!3d44.0856642!4d-87.6880163"
The Pizza Ranch,1709 N Jefferson Way,INDIANOLA,IA,50125-1459,5159617492.0,"https://www.google.com/maps/place/Pizza+Ranch/@41.3784609,-93.5595435,17z/data=!3m1!4b1!4m5!3m4!1s0x87eeb0727e2a7423:0x55cb67dba4eae137!8m2!3d41.3784609!4d-93.5595435"
The Pizza Ranch,613 West St S,GRINNELL,IA,50112-8103,6412608020.0,"https://www.google.com/maps/place/Pizza+Ranch/@41.722607,-92.7283108,17z/data=!3m1!4b1!4m5!3m4!1s0x87ef6d8896eb936f:0x13a0f65a9044f1fe!8m2!3d41.722607!4d-92.7283108"
The Pizza Ranch,4954 86th St,URBANDALE,IA,50322-1049,5153314610.0,"https://www.google.com/maps/place/Pizza+Ranch/@41.6498075,-93.7372506,17z/data=!3m1!4b1!4m5!3m4!1s0x87ee9d8f5d438fcb:0x808512f5013b2e24!8m2!3d41.6498075!4d-93.7372506"
The Pizza Ranch,520 Main St,LISBON,ND,58054-4144,7016834017.0,"https://www.google.com/maps/place/Pizza+Ranch/@46.4407477,-97.681805,17z/data=!3m1!4b1!4m5!3m4!1s0x52ce5047f89c037d:0xaf5218bd2893fff5!8m2!3d46.4407477!4d-97.681805"
The Pizza Ranch,1700 Market Ln,NORFOLK,NE,68701-0303,4023164015.0,"https://www.google.com/maps/place/Pizza+Ranch/@42.0206866,-97.4310915,17z/data=!3m1!4b1!4m5!3m4!1s0x87903fdc02d53a1b:0x596d999ca0964032!8m2!3d42.0206866!4d-97.4310915"
The Pizza Ranch,8810 S 71st Plz,PAPILLION,NE,68133-2144,4028842468.0,"https://www.google.com/maps/place/Pizza+Ranch/@41.1706732,-96.0229164,17z/data=!3m1!4b1!4m5!3m4!1s0x87938ba9a7dedd57:0xc52838b5eda1296c!8m2!3d41.1706732!4d-96.0229164"
The Pizza Ranch,15662 Pilot Knob Rd,APPLE VALLEY,MN,55124-7293,9524313333.0,"https://www.google.com/maps/place/Pizza+Ranch/@44.7216647,-93.1761226,17z/data=!3m1!4b1!4m5!3m4!1s0x87f634021fa41a77:0x3984998ab0a8043!8m2!3d44.7216647!4d-93.1761226"
The Pizza Ranch,734 E 16th St,HOLLAND,MI,49423-3884,6164993900.0,"https://www.google.com/maps/place/Pizza+Ranch/@42.782772,-86.0757648,17z/data=!3m1!4b1!4m5!3m4!1s0x8819ed472173d525:0x6c17af117768985b!8m2!3d42.782772!4d-86.0757648"
The Pizza Ranch,510 Highway 39,DENISON,IA,51442-2700,7123933333.0,"https://www.google.com/maps/place/Pizza+Ranch/@42.0214779,-95.3670785,17z/data=!3m1!4b1!4m5!3m4!1s0x8792c23cb9b21a11:0x57c03a3a70dab285!8m2!3d42.0214779!4d-95.3670785"
The Pizza Ranch,116 N Stewart Ct,LIBERTY,MO,64068-1000,8167921111.0,"https://www.google.com/maps/place/Pizza+Ranch/@39.2454696,-94.4537625,17z/data=!3m1!4b1!4m5!3m4!1s0x87c05591e6a45927:0x34c0b472ced51f49!8m2!3d39.2454696!4d-94.4537625"
The Pizza Ranch,1051 S Washburn St,OSHKOSH,WI,54904-8052,9202353360.0,"https://www.google.com/maps/place/Pizza+Ranch/@44.0093522,-88.5842543,17z/data=!3m1!4b1!4m5!3m4!1s0x8803eecd5ab93c2f:0x1d53c46149ebb326!8m2!3d44.0093522!4d-88.5842543"
The Pizza Ranch,139 Eisenhower Dr,APPLETON,WI,54915,9207348800.0,"https://www.google.com/maps/place/Pizza+Ranch/@44.2448233,-88.3473676,17z/data=!3m1!4b1!4m5!3m4!1s0x8803b07212334e75:0x6eb20a897662f29d!8m2!3d44.2448233!4d-88.3473676"
The Pizza Ranch,1001 Lejune Dr,SPRINGFIELD,IL,62703-4541,2176798844.0,"https://www.google.com/maps/place/Pizza+Ranch/@39.746031,-89.6433279,17z/data=!3m1!4b1!4m5!3m4!1s0x88753947be127b4f:0x7764cbd4f3dca67d!8m2!3d39.746031!4d-89.6433279"
The Pizza Ranch,682 S Grand Ave,SUN PRAIRIE,WI,53590-9832,6088256900.0,"https://www.google.com/maps/place/Pizza+Ranch/@43.1707381,-89.266177,17z/data=!3m1!4b1!4m5!3m4!1s0x88f4077c1d2dd8cf:0xfe6e61ac1ed5f1ab!8m2!3d43.1707381!4d-89.266177"
The Pizza Ranch,1845 County Road D E,MAPLEWOOD,MN,55109-5331,6517774500.0,"https://www.google.com/maps/place/Pizza+Ranch/@45.0364092,-93.0244024,17z/data=!3m1!4b1!4m5!3m4!1s0x52b2d1553d434b4f:0x6e6062873500fd59!8m2!3d45.0364092!4d-93.0244024"
The Pizza Ranch,2450 Westdale Dr SW,CEDAR RAPIDS,IA,52404-6319,3193656800.0,"https://www.google.com/maps/place/Pizza+Ranch/@41.9547352,-91.7221692,17z/data=!3m1!4b1!4m5!3m4!1s0x87e4f905bd5c5071:0xf7cb2c7d18a6f304!8m2!3d41.9547352!4d-91.7221692"
The Pizza Ranch,511 McCall Rd,MANHATTAN,KS,66502,7855372200.0,"https://www.google.com/maps/place/Pizza+Ranch/@39.1901349,-96.5509579,17z/data=!3m1!4b1!4m5!3m4!1s0x87bdd244b8a5a181:0x482de360e5707782!8m2!3d39.1901349!4d-96.5509579"
The Pizza Ranch,1805 E 17th Ave,HUTCHINSON,KS,67501-1102,6206622066.0,"https://www.google.com/maps/place/Pizza+Ranch/@38.0712307,-97.8957493,17z/data=!3m1!4b1!4m5!3m4!1s0x87a4b63f96693909:0x4fc0729a97e8f3d3!8m2!3d38.0712307!4d-97.8957493"
The Pizza Ranch,405 E Stumer Rd,RAPID CITY,SD,57701-6423,6057915255.0,"https://www.google.com/maps/place/Pizza+Ranch/@44.0326732,-103.2103937,17z/data=!3m1!4b1!4m5!3m4!1s0x877d5d3fd019cf25:0x4a21678bd3219e23!8m2!3d44.0326732!4d-103.2103937"
The Pizza Ranch,2206 Main St,GREEN BAY,WI,54302-3714,9204683555.0,"https://www.google.com/maps/place/Pizza+Ranch/@44.4868993,-87.9722071,17z/data=!3m1!4b1!4m5!3m4!1s0x8802e457c5511333:0x55a6a19f5a9234e0!8m2!3d44.4868993!4d-87.9722071"
The Pizza Ranch,3451 Mountain Lion Dr,LOVELAND,CO,80537-8817,9706198787.0,"https://www.google.com/maps/place/Pizza+Ranch/@40.4068137,-105.0287309,17z/data=!3m1!4b1!4m5!3m4!1s0x876eacd24c0b5cdd:0x8ab19187677f6005!8m2!3d40.4068137!4d-105.0287309"
The Pizza Ranch,3007 N Belt Hwy,SAINT JOSEPH,MO,64506-1557,8162595260.0,"https://www.google.com/maps/place/Pizza+Ranch/@39.7959306,-94.8120134,17z/data=!3m1!4b1!4m5!3m4!1s0x87c01bfe466549c5:0xc9063e196b551765!8m2!3d39.7959306!4d-94.8120134"
The Pizza Ranch,215 Che Drive,MARYVILLE,MO,64468,6602242185.0,"https://www.google.com/maps/place/Pizza+Ranch/@40.3471069,-94.8531341,17z/data=!3m1!4b1!4m5!3m4!1s0x87eac51e1267626d:0xd4e696607eb8463d!8m2!3d40.3471069!4d-94.8531341"
The Pizza Ranch,5785 Minnesota Ave N,OAK PARK HEIGHTS,MN,55082,6513512150.0,"https://www.google.com/maps/place/Pizza+Ranch/@45.0319616,-92.8515938,17z/data=!3m1!4b1!4m5!3m4!1s0x52b2cbe5cbd178db:0x742d52b37b86d6d1!8m2!3d45.0319616!4d-92.8515938"
The Pizza Ranch,100 Keenan Ct,VERONA,WI,53593,6088483600.0,"https://www.google.com/maps/place/Pizza+Ranch/@42.9946399,-89.5180741,17z/data=!3m1!4b1!4m5!3m4!1s0x8807b049337a866f:0x1a2d644d2c7ec7a1!8m2!3d42.9946399!4d-89.5180741"
The Pizza Ranch,801 E 7th St,PLATTE,SD,57369,6053373250.0,"https://www.google.com/maps/place/Pizza+Ranch/@43.384556,-98.8354599,17z/data=!4m8!1m2!2m1!1sThe+Pizza+Ranch+801+E+7th+St+PLATTE+SD+57369!3m4!1s0x878421e31b5e4333:0x83a58476971abd6e!8m2!3d43.3844914!4d-98.8334368?hl=en"
The Pizza Ranch,448 SE University Ave,WAUKEE,IA,50263-8121,5159786603.0,"https://www.google.com/maps/place/Pizza+Ranch/@41.5997409,-93.8649565,17z/data=!3m1!4b1!4m5!3m4!1s0x87ec239e3cbb9ffb:0x3889b60dbefb1b77!8m2!3d41.5997409!4d-93.8649565"
The Pizza Ranch,2670 E Main St,REEDSBURG,WI,53959-8710,6087685555.0,"https://www.google.com/maps/place/Pizza+Ranch/@43.5318037,-89.9689722,17z/data=!3m1!4b1!4m5!3m4!1s0x88075f1b3356e16b:0x167ef0e090308b2f!8m2!3d43.5318037!4d-89.9689722"
The Pizza Ranch,223 Reed St,AKRON,IA,51001-7740,7125683506.0,"https://www.google.com/maps/place/Pizza+Ranch/@42.8288713,-96.559149,17z/data=!3m1!4b1!4m5!3m4!1s0x878e700b0f3f8483:0x54ffe09c5b021d5c!8m2!3d42.8288713!4d-96.559149"
The Pizza Ranch,1505 8th St SE,ORANGE CITY,IA,51041-7447,7127373711.0,"https://www.google.com/maps/place/Pizza+Ranch/@42.9979894,-96.0385294,17z/data=!3m1!4b1!4m5!3m4!1s0x878db53ddd01457f:0x73286b7cfa9fe1eb!8m2!3d42.9979894!4d-96.0385294"
The Pizza Ranch,520 Livingston Ave,CRESTON,IA,50801-3401,6417827337.0,"https://www.google.com/maps/place/Pizza+Ranch/@41.0513707,-94.3706217,17z/data=!3m1!4b1!4m5!3m4!1s0x87eb82c49b245ac5:0x98171c7da04c865e!8m2!3d41.0513707!4d-94.3706217"
The Pizza Ranch,4797 Bluestem Rd,ROSCOE,IL,61073-6100,8156233800.0,"https://www.google.com/maps/place/Pizza+Ranch/@42.4333534,-89.023783,17z/data=!3m1!4b1!4m5!3m4!1s0x8808a383f248316f:0x5f52902ae03d3c9c!8m2!3d42.4333534!4d-89.023783"
The Pizza Ranch,120 High Ave W,OSKALOOSA,IA,52577,6416720222.0,"https://www.google.com/maps/place/Pizza+Ranch/@41.2952446,-92.6460677,17z/data=!3m1!4b1!4m5!3m4!1s0x87ef4da69bdd3deb:0x339454804d048025!8m2!3d41.2952446!4d-92.6460677"
The Pizza Ranch,1347 11th Ave N,CLINTON,IA,52732-3358,5632423598.0,"https://www.google.com/maps/place/Pizza+Ranch/@41.8607858,-90.2109153,17z/data=!3m1!4b1!4m5!3m4!1s0x87e263c20df170f9:0x827c3eb5f77edbdd!8m2!3d41.8607858!4d-90.2109153"
The Pizza Ranch,110 2nd St S,WAITE PARK,MN,56387-1665,3202038646.0,"https://www.google.com/maps/place/Pizza+Ranch/@45.5485439,-94.2161297,17z/data=!3m1!4b1!4m5!3m4!1s0x52b45f10e60731cf:0x123ae17998af0a9c!8m2!3d45.5485439!4d-94.2161297"
The Pizza Ranch,528 Grand Ave,SPENCER,IA,51301-3912,7122626262.0,"https://www.google.com/maps/place/Pizza+Ranch/@43.1434486,-95.1446056,17z/data=!3m1!4b1!4m5!3m4!1s0x878cd6aa1091fc15:0xecc5a5a6a850fb51!8m2!3d43.1434486!4d-95.1446056"
The Pizza Ranch,1617 S Monroe Ave,MASON CITY,IA,50401-5618,6414233100.0,"https://www.google.com/maps/place/Pizza+Ranch/@43.1360872,-93.21045,17z/data=!3m1!4b1!4m5!3m4!1s0x87f1077b0ac719cf:0xfc09ea12c674fd6!8m2!3d43.1360872!4d-93.21045"
The Pizza Ranch,1325 Highway 169 N,ALGONA,IA,50511-1006,5152956995.0,"https://www.google.com/maps/place/Pizza+Ranch/@43.0803573,-94.2376046,17z/data=!3m1!4b1!4m5!3m4!1s0x87f252a6d9f4cc07:0x2e51f7a5e0baab4d!8m2!3d43.0803573!4d-94.2376046"
The Pizza Ranch,1848 E Sherman Blvd,MUSKEGON,MI,49444-1963,2317393300.0,"https://www.google.com/maps/place/Pizza+Ranch/@43.2072696,-86.1991621,17z/data=!3m1!4b1!4m5!3m4!1s0x88197c3e2d73b977:0xcba385829bf75b79!8m2!3d43.2072696!4d-86.1991621"
The Pizza Ranch,4480 23rd Ave S,FARGO,ND,58104-8723,7013564141.0,"https://www.google.com/maps/place/Pizza+Ranch/@46.8427611,-96.8610048,17z/data=!3m1!4b1!4m5!3m4!1s0x52c8cca338ea1fb1:0xb166eb420dd83a1f!8m2!3d46.8427611!4d-96.8610048"
The Pizza Ranch,1103 W Burlington Ave,FAIRFIELD,IA,52556-4403,6414720123.0,"https://www.google.com/maps/place/Pizza+Ranch/@41.0067448,-91.9771929,17z/data=!3m1!4b1!4m5!3m4!1s0x87e6661747751723:0x432063d543dfdf9a!8m2!3d41.0067448!4d-91.9771929"
The Pizza Ranch,416 W Jackson St,SIGOURNEY,IA,52591-1123,6416229990.0,"https://www.google.com/maps/place/Pizza+Ranch/@41.3372776,-92.2100542,17z/data=!3m1!4b1!4m5!3m4!1s0x87e5e14c709cc243:0xe74efc4bab605ca4!8m2!3d41.3372776!4d-92.2100542"
The Pizza Ranch,1914 Edgington Ave,ELDORA,IA,50627-1128,6418582323.0,"https://www.google.com/maps/place/Pizza+Ranch/@42.3608072,-93.1075428,17z/data=!3m1!4b1!4m5!3m4!1s0x87ee2d500a2b0123:0xcd3f33d64c4f603f!8m2!3d42.3608072!4d-93.1075428"
The Pizza Ranch,465 Center Pl SW,ALTOONA,IA,50009-2586,5159678800.0,"https://www.google.com/maps/place/Pizza+Ranch/@41.6429367,-93.4689894,17z/data=!3m1!4b1!4m5!3m4!1s0x87ee939a17b8ae7b:0x256b1032256d3912!8m2!3d41.6429367!4d-93.4689894"
The Pizza Ranch,1512 E 7th St,ATLANTIC,IA,50022-1962,7122432552.0,"https://www.google.com/maps/place/Pizza+Ranch/@41.4049033,-94.9912757,17z/data=!3m1!4b1!4m5!3m4!1s0x87ecb3f21ab08825:0xf654569a372fd2fd!8m2!3d41.4049033!4d-94.9912757"
The Pizza Ranch,110 E Main St,LUVERNE,MN,56156-1831,5072832379.0,"https://www.google.com/maps/place/Pizza+Ranch/@43.6539472,-96.2089947,17z/data=!3m1!4b1!4m5!3m4!1s0x878bf7a444892e43:0x7b375ac69a663109!8m2!3d43.6539472!4d-96.2089947"
The Pizza Ranch,1927 S Broadway St,NEW ULM,MN,56073-3747,5073547772.0,"https://www.google.com/maps/place/Pizza+Ranch/@44.2935559,-94.4412647,17z/data=!3m1!4b1!4m5!3m4!1s0x87f4fe4a88e4dc5b:0x400381e4ebd35d1f!8m2!3d44.2935559!4d-94.4412647"
The Pizza Ranch,1612 Lakeland Dr SE,WILLMAR,MN,56201-5484,3202223663.0,"https://www.google.com/maps/place/Pizza+Ranch/@45.1056557,-95.0229836,17z/data=!3m1!4b1!4m5!3m4!1s0x52b559506bf9e2c3:0x53fc0203dd686f6f!8m2!3d45.1056557!4d-95.0229836"
The Pizza Ranch,142 W Broadway St,OWATONNA,MN,55060-2302,5074469990.0,"https://www.google.com/maps/place/Pizza+Ranch/@44.0850766,-93.2278374,17z/data=!3m1!4b1!4m5!3m4!1s0x87f6e7adebb445fd:0xc7e26f8dcff654ba!8m2!3d44.0850766!4d-93.2278374"
The Pizza Ranch,1209 10th St W,MOBRIDGE,SD,57601-1111,6058452700.0,"https://www.google.com/maps/place/Pizza+Ranch/@45.542282,-100.449793,17z/data=!3m1!4b1!4m5!3m4!1s0x52d5c579a575f325:0xebfe008bf59cd353!8m2!3d45.542282!4d-100.449793"
The Pizza Ranch,205 S Union St,ROCK RAPIDS,IA,51246-1337,7124723258.0,"https://www.google.com/maps/place/Pizza+Ranch/@43.4304,-96.1760329,17z/data=!3m1!4b1!4m5!3m4!1s0x878c110ae3e6567b:0x355db515de07e967!8m2!3d43.4304!4d-96.1760329"
The Pizza Ranch,2306 Broadway Ave,SLAYTON,MN,56172-1141,5078368856.0,"https://www.google.com/maps/place/Pizza+Ranch/@43.9908636,-95.7569298,17z/data=!3m1!4b1!4m5!3m4!1s0x878ba0f5d8743085:0xf2f6ca592602ea8d!8m2!3d43.9908636!4d-95.7569298"
The Pizza Ranch,805 20th St SW,JAMESTOWN,ND,58401-6132,7019522000.0,"https://www.google.com/maps/place/Pizza+Ranch/@46.8879183,-98.7200197,17z/data=!3m1!4b1!4m5!3m4!1s0x52d0138f1515488f:0x627b4e0d7590d341!8m2!3d46.8879183!4d-98.7200197"
The Pizza Ranch,425 W US Highway 30,CARROLL,IA,51401-2263,7127923456.0,"https://www.google.com/maps/place/Pizza+Ranch/@42.0665934,-94.8732435,17z/data=!3m1!4b1!4m5!3m4!1s0x87ed399000059889:0x8d2fb73b67e7fd1b!8m2!3d42.0665934!4d-94.8732435"
The Pizza Ranch,1404 Boston Ave,AMES,IA,50010-8776,5152321999.0,"https://www.google.com/maps/place/Pizza+Ranch/@42.0358869,-93.5819989,17z/data=!3m1!4b1!4m5!3m4!1s0x87ee701d93e9479f:0x64881ed38398d168!8m2!3d42.0358869!4d-93.5819989"
The Pizza Ranch,395 Beaver Kreek Ctr,NORTH LIBERTY,IA,52317-9252,3196267999.0,"https://www.google.com/maps/place/Pizza+Ranch/@41.7430656,-91.5912232,17z/data=!3m1!4b1!4m5!3m4!1s0x87e4435116aca63d:0x5e9247348ae96c5!8m2!3d41.7430656!4d-91.5912232"
The Pizza Ranch,1900 1st St W,INDEPENDENCE,IA,50644-2328,3193349000.0,"https://www.google.com/maps/place/Pizza+Ranch/@42.4689501,-91.9190855,17z/data=!3m1!4b1!4m5!3m4!1s0x87e52c0fcdc722f9:0x80463b86ee200cad!8m2!3d42.4689501!4d-91.9190855"
The Pizza Ranch,306 S Main St,MILBANK,SD,57252-1811,6054325200.0,"https://www.google.com/maps/place/Pizza+Ranch/@45.2196685,-96.6363189,17z/data=!3m1!4b1!4m5!3m4!1s0x52cc9af8a69b0b29:0xb512e05f029eded3!8m2!3d45.2196685!4d-96.6363189"
The Pizza Ranch,217 10th St NW,WATERTOWN,SD,57201-3217,6058824040.0,"https://www.google.com/maps/place/Pizza+Ranch/@44.9043003,-97.1318635,17z/data=!3m1!4b1!4m5!3m4!1s0x52cd2823908cde7f:0x66232d215cfafe32!8m2!3d44.9043003!4d-97.1318635"
The Pizza Ranch,211 N Main St,POCAHONTAS,IA,50574-1623,7123354555.0,"https://www.google.com/maps/place/Pizza+Ranch/@42.734779,-94.6692456,17z/data=!3m1!4b1!4m5!3m4!1s0x87f294f479d121eb:0xca884d22c8e41bbe!8m2!3d42.734779!4d-94.6692456"
The Pizza Ranch,2120 11th St,EMMETSBURG,IA,50536-2482,7128522222.0,"https://www.google.com/maps/place/Pizza+Ranch/@43.1099616,-94.6783948,17z/data=!3m1!4b1!4m5!3m4!1s0x87f31e504d73ef05:0xed4e530dc1b530fc!8m2!3d43.1099616!4d-94.6783948"
The Pizza Ranch,2305 S Center St,MARSHALLTOWN,IA,50158-5962,6417537711.0,"https://www.google.com/maps/place/Pizza+Ranch/@42.0182583,-92.9130313,17z/data=!3m1!4b1!4m5!3m4!1s0x87efa51680c3d0e7:0x775fe4ea6f9be920!8m2!3d42.0182583!4d-92.9130313"
The Pizza Ranch,1100 W Main St,MANCHESTER,IA,52057-2300,5639274600.0,"https://www.google.com/maps/place/Pizza+Ranch/@42.4834107,-91.4727951,17z/data=!3m1!4b1!4m5!3m4!1s0x87e4b447e08fa98b:0x25d21d437f93a26c!8m2!3d42.4834107!4d-91.4727951"
The Pizza Ranch,719 E 5th St,CANTON,SD,57013-1829,6059870099.0,"https://www.google.com/maps/place/Pizza+Ranch/@43.3003723,-96.5837124,17z/data=!3m1!4b1!4m5!3m4!1s0x878ebd516ed056d5:0xe805277314a29dc0!8m2!3d43.3003723!4d-96.5837124"
The Pizza Ranch,102 S Main St,CLARION,IA,50525-1416,5155323215.0,"https://www.google.com/maps/place/Pizza+Ranch/@42.7314404,-93.7331356,17z/data=!3m1!4b1!4m5!3m4!1s0x87f1f5e4ce55633b:0x4d5bb2456c745ec5!8m2!3d42.7314404!4d-93.7331356"
The Pizza Ranch,212 17th Ave NE,WASECA,MN,56093-2753,5078339080.0,"https://www.google.com/maps/place/Pizza+Ranch/@44.0940618,-93.5052234,17z/data=!3m1!4b1!4m5!3m4!1s0x87f6969bff277467:0x3d8bf9af6e546dfc!8m2!3d44.0940618!4d-93.5052234"
The Pizza Ranch,1522 Broadway St,ALEXANDRIA,MN,56308-2538,3207624010.0,"https://www.google.com/maps/place/Pizza+Ranch/@45.8745404,-95.3786383,17z/data=!3m1!4b1!4m5!3m4!1s0x52ca0e5d1ff5cf21:0xe380c5a757d8e79!8m2!3d45.8745404!4d-95.3786383"
The Pizza Ranch,107 W 7th St,SANBORN,IA,51248-1110,7127295402.0,"https://www.google.com/maps/place/Pizza+Ranch/@43.1857685,-95.65632,17z/data=!3m1!4b1!4m5!3m4!1s0x878cf9fcb6a9ecd7:0xac531ea45af6825d!8m2!3d43.1857685!4d-95.65632"
The Pizza Ranch,104 N Runger,SHELDON,IA,51201-8547,7123244800.0,"https://www.google.com/maps/place/Pizza+Ranch/@43.1869505,-95.8163291,17z/data=!3m1!4b1!4m5!3m4!1s0x88c2ea2a519b750b:0x2c3cb0b8cc61cb!8m2!3d43.1869505!4d-95.8163291"
The Pizza Ranch,720 3rd Ave SE,PERHAM,MN,56573-1742,2183467890.0,"https://www.google.com/maps/place/Pizza+Ranch/@46.5861234,-95.5751782,17z/data=!3m1!4b1!4m5!3m4!1s0x52c9ce1553fdde4d:0x4a6724a54634d9fa!8m2!3d46.5861234!4d-95.5751782"
The Pizza Ranch,1504 Center Ave W,DILWORTH,MN,56529-1351,2182876001.0,"https://www.google.com/maps/place/Pizza+Ranch/@46.875823,-96.7221937,17z/data=!3m1!4b1!4m5!3m4!1s0x52c8c8bc11d46ced:0x51f263982b968fdf!8m2!3d46.875823!4d-96.7221937"
The Pizza Ranch,321 E Hustan Ave,FORT PIERRE,SD,57532-5201,6052239114.0,"https://www.google.com/maps/place/Pizza+Ranch/@44.3692067,-100.37321,17z/data=!3m1!4b1!4m5!3m4!1s0x878011dd4c7e6f93:0x93efd9b118d17499!8m2!3d44.3692067!4d-100.37321"
The Pizza Ranch,2020 Radford Rd,DUBUQUE,IA,52002-2535,5635564488.0,"https://www.google.com/maps/place/Pizza+Ranch/@42.5070448,-90.7492187,17z/data=!3m1!4b1!4m5!3m4!1s0x87e32d819fb0cc6d:0xa4aeca030c5a2380!8m2!3d42.5070448!4d-90.7492187"
The Pizza Ranch,305 E Main St,MANDAN,ND,58554-3372,7016675400.0,"https://www.google.com/maps/place/Pizza+Ranch/@46.8266487,-100.8852866,17z/data=!3m1!4b1!4m5!3m4!1s0x52d785ba1b27fad5:0x2f4a0025e39b04e!8m2!3d46.8266487!4d-100.8852866"
The Pizza Ranch,305 37th Ave SW,MINOT,ND,58701-7301,7018523663.0,"https://www.google.com/maps/place/Pizza+Ranch/@48.1960374,-101.2981964,17z/data=!3m1!4b1!4m5!3m4!1s0x52df2afa37f96add:0x1033a72d56f1aa64!8m2!3d48.1960374!4d-101.2981964"
The Pizza Ranch,624 College Dr S,DEVILS LAKE,ND,58301-3508,7016656565.0,"https://www.google.com/maps/place/Pizza+Ranch/@48.1028388,-98.8632417,17z/data=!3m1!4b1!4m5!3m4!1s0x52db4bd668965c25:0xffb85ecd74dcbc3c!8m2!3d48.1028388!4d-98.8632417"
The Pizza Ranch,1551 Tullamore St,MANKATO,MN,56001-4816,5073867077.0,"https://www.google.com/maps/place/Pizza+Ranch/@44.1674115,-93.9671098,17z/data=!3m1!4b1!4m5!3m4!1s0x87f43a6d24679c53:0x6609bc2dd8b5f2f6!8m2!3d44.1674115!4d-93.9671098"
The Pizza Ranch,1420 Boyer Dr,MARSHALL,MN,56258-2683,5075370000.0,"https://www.google.com/maps/place/Pizza+Ranch/@44.4302844,-95.7672027,17z/data=!3m1!4b1!4m5!3m4!1s0x878a590c1beaf8f9:0xbc49b4dd38ca207b!8m2!3d44.4302844!4d-95.7672027"
The Pizza Ranch,1703 S Story St,BOONE,IA,50036-5228,5154322222.0,"https://www.google.com/maps/place/Pizza+Ranch/@42.0371619,-93.8804725,17z/data=!3m1!4b1!4m5!3m4!1s0x87eddaec6bccde89:0x13693ca22446a014!8m2!3d42.0371619!4d-93.8804725"
The Pizza Ranch,19141 Freeport St NW,ELK RIVER,MN,55330-1253,7634413000.0,"https://www.google.com/maps/place/Pizza+Ranch/@45.315364,-93.5611082,17z/data=!3m1!4b1!4m5!3m4!1s0x52b36eb4b22c863f:0x52143274e9a32de6!8m2!3d45.315364!4d-93.5611082"
The Pizza Ranch,14643 Edgewood Dr,BAXTER,MN,56425-9770,2184543290.0,"https://www.google.com/maps/place/Pizza+Ranch/@46.3643633,-94.2459968,17z/data=!3m1!4b1!4m5!3m4!1s0x52b6be79e93e8b79:0x1ae7d547104370b!8m2!3d46.3643633!4d-94.2459968"
The Pizza Ranch,3518 Kohler Memorial Dr,SHEBOYGAN,WI,53081-3687,9203952506.0,"https://www.google.com/maps/place/Pizza+Ranch/@43.7569183,-87.7542709,17z/data=!3m1!4b1!4m5!3m4!1s0x8804a7685551808f:0x99860dd49951a7d6!8m2!3d43.7569183!4d-87.7542709"
The Pizza Ranch,3505 Metro Dr,COUNCIL BLUFFS,IA,51501-7733,7122567701.0,"https://www.google.com/maps/place/Pizza+Ranch/@41.2250606,-95.8385373,17z/data=!3m1!4b1!4m5!3m4!1s0x8793843cd40b6501:0xe8a5aff90f1a1a29!8m2!3d41.2250606!4d-95.8385373"
The Pizza Ranch,1791 Venture Dr,OTTUMWA,IA,52501-3776,6416840800.0,"https://www.google.com/maps/place/Pizza+Ranch/@41.0166843,-92.4514826,17z/data=!3m1!4b1!4m5!3m4!1s0x87e61dfe763ce15d:0x63308aecccde7731!8m2!3d41.0166843!4d-92.4514826"
The Pizza Ranch,16995 Kenyon Ave,LAKEVILLE,MN,55044-4468,9528983333.0,"https://www.google.com/maps/place/Pizza+Ranch/@44.7026239,-93.2871974,17z/data=!3m1!4b1!4m5!3m4!1s0x87f639bb03cd3e37:0x3175fa225bab2640!8m2!3d44.7026239!4d-93.2871974"
The Pizza Ranch,2505 King Ave W,BILLINGS,MT,59102-6425,4062943663.0,"https://www.google.com/maps/place/Pizza+Ranch/@45.7558118,-108.5792568,17z/data=!3m1!4b1!4m5!3m4!1s0x53486329a00959a3:0xfae7b32d86db0c4e!8m2!3d45.7558118!4d-108.5792568"
The Pizza Ranch,233 Legacy Dr,BURLINGTON,IA,52601-1972,3197545555.0,"https://www.google.com/maps/place/Pizza+Ranch/@40.8129434,-91.1406388,17z/data=!3m1!4b1!4m5!3m4!1s0x87e1322205de05bb:0x45d583c25cc345ab!8m2!3d40.8129434!4d-91.1406388"
The Pizza Ranch,3541 Harrison Ave,BUTTE,MT,59701-3547,4064942822.0,"https://www.google.com/maps/place/Pizza+Ranch/@45.9737789,-112.5087962,17z/data=!3m1!4b1!4m5!3m4!1s0x535b07dfccdfd9af:0x698d78917237fc79!8m2!3d45.9737789!4d-112.5087962"
The Pizza Ranch,2020 W Washington St,WEST BEND,WI,53095,2623340685.0,"https://www.google.com/maps/place/Pizza+Ranch/@43.4275426,-88.2035446,17z/data=!3m1!4b1!4m5!3m4!1s0x88045f016aae2035:0x661345b3a94f174a!8m2!3d43.4275426!4d-88.2035446"
The Pizza Ranch,1726 S. Church St.,WATERTOWN,WI,53094,9203902782.0,"https://www.google.com/maps/place/Pizza+Ranch/@43.1710795,-88.73308,17z/data=!3m1!4b1!4m5!3m4!1s0x88042b3448cbc5cb:0xdc969f1bb550dc57!8m2!3d43.1710795!4d-88.73308"
The Pizza Ranch,1320 Hwy 15 South,HUTCHINSON,MN,55350,3205870123.0,"https://www.google.com/maps/place/Pizza+Ranch/@44.8700981,-94.3782197,17z/data=!3m1!4b1!4m5!3m4!1s0x87f581b792ee635d:0xabc464b7ac733d59!8m2!3d44.8700981!4d-94.3782197"
The Pizza Ranch,5526 W Broadway Ave,CRYSTAL,MN,55428,7634323656.0,"https://www.google.com/maps/place/Pizza+Ranch/@45.0535455,-93.3629245,17z/data=!3m1!4b1!4m5!3m4!1s0x52b337ee9955c1c9:0x7a3fbfacdc3dd663!8m2!3d45.0535455!4d-93.3629245"
The Pizza Ranch,3200 North Sanders St,HELENA,MT,59602,4069961235.0,"https://www.google.com/maps/place/Pizza+Ranch/@46.6188945,-112.0165132,17z/data=!3m1!4b1!4m5!3m4!1s0x53435442eda22969:0x8ee95b9fe3cbda52!8m2!3d46.6188945!4d-112.0165132"
The Pizza Ranch,955 Covington Way,CONWAY,AR,72034,5013291688.0,"https://www.google.com/maps/place/Pizza+Ranch/@35.0646133,-92.4354095,17z/data=!3m1!4b1!4m5!3m4!1s0x87d283e353b685d1:0x34750ad0f226edf1!8m2!3d35.0646133!4d-92.4354095"
The Pizza Ranch,1016 North Diers Ave,GRAND ISLAND,NE,68803,3086753044.0,"https://www.google.com/maps/place/Pizza+Ranch/@40.9287,-98.3841,17z/data=!3m1!4b1!4m5!3m4!1s0x87998725048873af:0xb1bf971b2f0f2036!8m2!3d40.9287!4d-98.3841"
The Pizza Ranch,275 South Eisenhower Pkwy,RHINELANDER,WI,54501,7154201981.0,"https://www.google.com/maps/place/Pizza+Ranch/@45.6354004,-89.3790336,17z/data=!3m1!4b1!4m5!3m4!1s0x4d54557ba41f9811:0xfea55c3905dd0324!8m2!3d45.6354004!4d-89.3790336"
The Pizza Ranch,912 North Dakota St,HARRISBURG,SD,57032,6056580169.0,"https://www.google.com/maps/place/Pizza+Ranch/@42.7888709,-96.9298285,17z/data=!3m1!4b1!4m5!3m4!1s0x878e4fa1d6725ddb:0xedbaa476315a83b2!8m2!3d42.7888709!4d-96.9298285"
The Pizza Ranch,1327 Main St,BILLINGS,MT,59105,4068392366.0,"https://www.google.com/maps/place/Pizza+Ranch/@45.8226737,-108.4697919,17z/data=!3m1!4b1!4m5!3m4!1s0x53487b6d1560ada7:0x2202c5a7cba97d7b!8m2!3d45.8226737!4d-108.4697919"
The Pizza Ranch,1464 Highway 248,BRANSON,MO,65616,4173375060.0,"https://www.google.com/maps/place/Pizza+Ranch/@36.6642834,-93.2413536,17z/data=!3m1!4b1!4m5!3m4!1s0x87cf056af59f8b71:0x882f037145d75a72!8m2!3d36.6642834!4d-93.2413536"
The Pizza Ranch,517 W Milwaukee Ave,STORM LAKE,IA,50588-1503,7127321524.0,"https://www.google.com/maps/place/Pizza+Ranch/@42.6478333,-95.2070017,17z/data=!3m1!4b1!4m5!3m4!1s0x878d4f6aa2ec000d:0x436ea39b3e8222aa!8m2!3d42.6478333!4d-95.2070017"
The Pizza Ranch,201 SE Oralabor Rd,ANKENY,IA,50021-9104,5159649990.0,"https://www.google.com/maps/place/Pizza+Ranch/@41.7022102,-93.5983604,17z/data=!3m1!4b1!4m5!3m4!1s0x87ee9ab4f9d1cd39:0x98a6f23a40be3bb1!8m2!3d41.7022102!4d-93.5983604"
The Pizza Ranch,3311 5th Ave S,FORT DODGE,IA,50501-6404,5159555599.0,"https://www.google.com/maps/place/Pizza+Ranch/@42.5008011,-94.1454399,17z/data=!3m1!4b1!4m5!3m4!1s0x87f275d9382cbf91:0x36c6f37c2f9cca8!8m2!3d42.5008011!4d-94.1454399"
The Pizza Ranch,2717 W 41st St,SIOUX FALLS,SD,57105-4295,6052718646.0,"https://www.google.com/maps/place/Pizza+Ranch/@43.5142338,-96.7589602,17z/data=!3m1!4b1!4m5!3m4!1s0x878ec9f80f109971:0x9f2e8f436b39199c!8m2!3d43.5142338!4d-96.7589602"
The Pizza Ranch,13797 Jay St NW,ANDOVER,MN,55304-4086,7637104555.0,"https://www.google.com/maps/place/Pizza+Ranch/@45.2204875,-93.3107767,17z/data=!3m1!4b1!4m5!3m4!1s0x52b33d18f212fb83:0x5022b6b93e13ff0e!8m2!3d45.2204875!4d-93.3107767"
The Pizza Ranch,1066 W Main St,VALLEY CITY,ND,58072-3250,7018454455.0,"https://www.google.com/maps/place/Pizza+Ranch/@46.9214652,-98.0177608,17z/data=!3m1!4b1!4m5!3m4!1s0x52cf94b1a79016c9:0x42dd4c5384682a51!8m2!3d46.9214652!4d-98.0177608"
The Pizza Ranch,2715 Schofield Ave,WESTON,WI,54476-2430,7152985378.0,"https://www.google.com/maps/place/Pizza+Ranch/@44.9061691,-89.5899939,17z/data=!3m1!4b1!4m5!3m4!1s0x87ff92a0ea046705:0x8cfd49cc005a6e3e!8m2!3d44.9061691!4d-89.5899939"
The Pizza Ranch,1211 Holiday Dr,BLOOMINGTON,IL,61704-2214,3098209777.0,"https://www.google.com/maps/place/Pizza+Ranch/@40.4892719,-88.9516425,17z/data=!3m1!4b1!4m5!3m4!1s0x880b706d402527a3:0x90d568692d4c015!8m2!3d40.4892719!4d-88.9516425"
The Pizza Ranch,1009 N 1st St,WINTERSET,IA,50273-1286,5154931223.0,"https://www.google.com/maps/place/Pizza+Ranch/@41.3432728,-94.0149048,17z/data=!4m5!3m4!1s0x87ec0dba14b78b13:0xe1ae649220501ba0!8m2!3d41.3432688!4d-94.0127161?hl=en"
The Pizza Ranch,3858 28th St SE,KENTWOOD,MI,49512-1804,6162511400.0,"https://www.google.com/maps/place/Pizza+Ranch/@42.9117355,-85.5744839,17z/data=!4m5!3m4!1s0x88184d128b87abc5:0x6955440d0bde751b!8m2!3d42.9117316!4d-85.5722952?hl=en"
The Pizza Ranch,2905 New Pinery Rd,PORTAGE,WI,53901-9226,6085661750.0,"https://www.google.com/maps/place/Pizza+Ranch/@43.5685219,-89.4686966,17z/data=!3m1!4b1!4m5!3m4!1s0x880726af447a8771:0x9bec3d8f3d749956!8m2!3d43.5685219!4d-89.4686966"
The Pizza Ranch,3116 Floyd Blvd,SIOUX CITY,IA,51108-1464,7122221777.0,"https://www.google.com/maps/place/Pizza+Ranch/@42.5313697,-96.371523,17z/data=!3m1!4b1!4m5!3m4!1s0x878de2d341625543:0x71bd3a8dc13f3f71!8m2!3d42.5313697!4d-96.371523"
The Pizza Ranch,8420 Lexington Ave,LINCOLN,NE,68505-3010,4022618039.0,"https://www.google.com/maps/place/Pizza+Ranch/@40.8329159,-96.6052441,17z/data=!3m1!4b1!4m5!3m4!1s0x8796bc9381d7efdf:0x56b49635a08469fe!8m2!3d40.8329159!4d-96.6052441"
The Pizza Ranch,1266 Vierling Dr E,SHAKOPEE,MN,55379-8103,9522332122.0,"https://www.google.com/maps/place/Pizza+Ranch/@44.7794495,-93.5070097,17z/data=!3m1!4b1!4m5!3m4!1s0x87f610b641d6d4cb:0x8fd5114746ce90eb!8m2!3d44.7794495!4d-93.5070097"
The Pizza Ranch,4801 N Oak Trfy,KANSAS CITY,MO,64118-4618,8164544444.0,"https://www.google.com/maps/place/Pizza+Ranch/@39.181901,-94.5759387,17z/data=!3m1!4b1!4m5!3m4!1s0x87c0f771a26a1a25:0xcdfafffad93e9e8e!8m2!3d39.181901!4d-94.5759387"
The Pizza Ranch,4660 S Bass Pro Dr,INDEPENDENCE,MO,64055,8164781100.0,"https://www.google.com/maps/place/Pizza+Ranch/@39.0353497,-94.3675074,17z/data=!4m5!3m4!1s0x87c11d066a576353:0x12d0bf6c09540ea2!8m2!3d39.0353456!4d-94.3653187?hl=en"
The Pizza Ranch,2590 N Seminary St,GALESBURG,IL,61401-1212,3093517860.0,"https://www.google.com/maps/place/Pizza+Ranch/@40.9788661,-90.3644315,17z/data=!3m1!4b1!4m5!3m4!1s0x87e195efe78a8a53:0x36e49164efa26f40!8m2!3d40.9788661!4d-90.3644315"
The Pizza Ranch,4114 N Brandywine Dr,PEORIA,IL,61614-6727,3098391420.0,"https://www.google.com/maps/place/Pizza+Ranch/@40.7385065,-89.6220607,17z/data=!3m1!4b1!4m5!3m4!1s0x880a5b8ba4546253:0x92f5a5afec71113f!8m2!3d40.7385065!4d-89.6220607"
The Pizza Ranch,3900 E Lincolnway,STERLING,IL,61081-9759,8157168599.0,"https://www.google.com/maps/place/Pizza+Ranch/@41.8149531,-89.6511572,17z/data=!3m1!4b1!4m5!3m4!1s0x8809b6ee2bb8256d:0xd0a08f577085b01b!8m2!3d41.8149531!4d-89.6511572"
The Pizza Ranch,1761 S Pueblo Blvd,PUEBLO,CO,81005-2103,7192813957.0,"https://www.google.com/maps/place/Pizza+Ranch/@38.2368218,-104.6637616,17z/data=!3m1!4b1!4m5!3m4!1s0x87139806f73bfdc1:0x8732aa266b305b36!8m2!3d38.2368218!4d-104.6637616"
The Pizza Ranch,1300 Commerce Place,PLOVER,WI,54467,7155441644.0,"https://www.google.com/maps/place/Pizza+Ranch/@44.4967693,-89.5165803,17z/data=!3m1!4b1!4m5!3m4!1s0x880050e14dae0df9:0x891fb4613dbb9cae!8m2!3d44.4967693!4d-89.5165803"
The Pizza Ranch,5011 East 2Nd St,CASPER,WY,82609,3072371234.0,"https://www.google.com/maps/place/Pizza+Ranch/@42.8471181,-106.2581643,17z/data=!3m1!4b1!4m5!3m4!1s0x8760bbfc1cabce13:0xe7fb71ed73296232!8m2!3d42.8471181!4d-106.2581643"
The Pizza Ranch,820 Willard Dr,GREEN BAY,WI,54304,9205440046.0,"https://www.google.com/maps/place/Pizza+Ranch/@44.4871006,-88.0659239,17z/data=!4m5!3m4!1s0x8802fbe651af3969:0x4e2359d16bb5056d!8m2!3d44.4870968!4d-88.0637352?hl=en"
The Pizza Ranch,930 Fleetfoot Dr,WAUKESHA,WI,53186,2626500207.0,"https://www.google.com/maps/place/Pizza+Ranch/@42.9940522,-88.202004,17z/data=!3m1!4b1!4m5!3m4!1s0x8805a7e2b4165447:0x991477212f8c1f2!8m2!3d42.9940522!4d-88.202004"
