Company Name,Address 1,City,State,Zip,Phone,Google Link,Company Name Processed,Status
Rosatis Pizza,N81W15086 Appleton Ave,MENOMONEE FALLS,WI,53051-3839,2622503333.0,"https://www.google.com/maps/place/Rosati's+Pizza/@43.1659634,-88.097454,17z/data=!3m1!4b1!4m5!3m4!1s0x880502699e633957:0x7c8a2cd6fd377f5e!8m2!3d43.1659634!4d-88.097454",rosatis_pizza,
Rosatis Pizza,1720 Bradford Ln,NORMAL,IL,61761-5277,3098884949.0,"https://www.google.com/maps/place/Rosati's+Pizza/@40.5073453,-89.0051399,13z/data=!4m8!1m2!2m1!1sRosatis+Pizza+1720+Bradford+Ln+NORMAL+IL+61761-5277!3m4!1s0x880b713c319d2b1b:0xe9a99658e998f605!8m2!3d40.532932!4d-88.990999?hl=en",rosatis_pizza,
Rosatis Pizza,6558 S Lovers Lane Rd,FRANKLIN,WI,53132-1209,4145291400.0,"https://www.google.com/maps/place/Rosati's+Pizza/@42.9251754,-88.0459872,17z/data=!3m1!4b1!4m5!3m4!1s0x88050e7f05cf5d13:0x96df2c95793d3679!8m2!3d42.9251754!4d-88.0459872",rosatis_pizza,
Rosatis Pizza,1309 N Greenfield Rd,MESA,AZ,85205-4009,4803240777.0,"https://www.google.com/maps/place/Rosati's+Pizza/@33.4390988,-111.7351724,17z/data=!3m1!4b1!4m5!3m4!1s0x872ba594fb4e91d3:0xe7905cea6238f005!8m2!3d33.4390988!4d-111.7351724",rosatis_pizza,
Rosatis Pizza,10989 E Dynamite Blvd,SCOTTSDALE,AZ,85262-8047,4805132552.0,"https://www.google.com/maps/place/Rosati's+Pizza/@33.7416487,-111.8433363,17z/data=!3m1!4b1!4m5!3m4!1s0x872b9d96751a40d7:0x3a441e5c2f725111!8m2!3d33.7416487!4d-111.8433363",rosatis_pizza,
Rosatis Pizza,18221 N Pima Rd,SCOTTSDALE,AZ,85255-6241,4805133000.0,"https://www.google.com/maps/place/Rosati's+Pizza/@33.6513291,-111.8884332,17z/data=!4m5!3m4!1s0x872b77728b9d4203:0x7284f9b5162466e4!8m2!3d33.6513247!4d-111.8862445?hl=en",rosatis_pizza,
Rosatis Pizza,7119 E Shea Blvd,SCOTTSDALE,AZ,85254-6107,4805963444.0,"https://www.google.com/maps/place/Rosati's+Pizza/@33.580987,-111.9276276,17z/data=!3m1!4b1!4m5!3m4!1s0x872b74eb3c7e3b53:0x2407cd0692a1874d!8m2!3d33.580987!4d-111.9276276",rosatis_pizza,
Rosatis Pizza,4206 E Chandler Blvd,PHOENIX,AZ,85048-8873,4807061777.0,"https://www.google.com/maps/place/Rosati's+Pizza/@33.3057675,-111.9922934,17z/data=!3m1!4b1!4m5!3m4!1s0x872b046695610a19:0x85f594005684e00c!8m2!3d33.3057675!4d-111.9922934",rosatis_pizza,
Rosatis Pizza,1050 E Ray Rd,CHANDLER,AZ,85225-1774,4808995444.0,"https://www.google.com/maps/place/Rosati's+Authentic+Chicago+Pizza/@33.3226856,-111.8228792,17z/data=!3m1!4b1!4m5!3m4!1s0x872ba988f36a8ed1:0xa5b17932cc8107f7!8m2!3d33.3226856!4d-111.8228792",rosatis_pizza,
Rosatis Pizza,8490 S Power Rd,GILBERT,AZ,85297-8028,4809870888.0,"https://www.google.com/maps/place/Rosati%E2%80%99s+Pizza/@33.2647829,-111.6868401,17z/data=!3m1!4b1!4m5!3m4!1s0x872bad4978ec9bbd:0x291412757a2bed1c!8m2!3d33.2647829!4d-111.6868401",rosatis_pizza,
Rosatis Pizza,18555 N 59th Ave,GLENDALE,AZ,85308-1255,6024393444.0,"https://www.google.com/maps/place/Rosati's+Pizza/@33.652494,-112.1855426,17z/data=!3m1!4b1!4m5!3m4!1s0x872b68f45d89bb09:0xe24c6eee019443ab!8m2!3d33.652494!4d-112.1855426",rosatis_pizza,
Rosatis Pizza,13856 W Waddell Rd,SURPRISE,AZ,85379-3801,6235379899.0,"https://www.google.com/maps/place/Rosati%E2%80%99s+Pizza/@33.6105859,-112.3575345,17z/data=!3m1!4b1!4m5!3m4!1s0x872b44f34fd12935:0x10ddfdc7a0f307b7!8m2!3d33.6105859!4d-112.3575345",rosatis_pizza,
Rosatis Pizza,10651 W Olive Ave,PEORIA,AZ,85345-7341,6238788558.0,"https://www.google.com/maps/place/Rosati's+Pizza/@33.5640213,-112.2891648,17z/data=!3m1!4b1!4m5!3m4!1s0x872b4179cbece185:0x46feb5e81a01acd8!8m2!3d33.5640213!4d-112.2891648",rosatis_pizza,
Rosatis Pizza,877 E Geneva Rd,CAROL STREAM,IL,60188-2807,6306909494.0,"https://www.google.com/maps/place/Rosati's+Pizza/@41.8887092,-88.0935058,17z/data=!3m1!4b1!4m5!3m4!1s0x880e54a0d0659a6b:0x370bf96286c77b38!8m2!3d41.8887092!4d-88.0935058",rosatis_pizza,
Rosatis Pizza,2990 Ogden Ave,AURORA,IL,60504-7204,6308518100.0,"https://www.google.com/maps/place/Rosati's+Pizza/@41.7421568,-88.2435611,17z/data=!3m1!4b1!4m5!3m4!1s0x880ef753f312793b:0x2f886127876917fc!8m2!3d41.7421568!4d-88.2435611",rosatis_pizza,
Rosatis Pizza,177 N Neltnor Blvd,WEST CHICAGO,IL,60185-2315,6308760606.0,"https://www.google.com/maps/place/Rosati's+Pizza/@41.8866895,-88.1937864,17z/data=!3m1!4b1!4m5!3m4!1s0x880effb88569ff91:0x132d2838b8a9fa1c!8m2!3d41.8866895!4d-88.1937864",rosatis_pizza,
Rosatis Pizza,310 W Indian Trl,AURORA,IL,60506-2451,6308922662.0,"https://www.google.com/maps/place/Rosati's+Pizza/@41.7813556,-88.3205546,17z/data=!3m1!4b1!4m5!3m4!1s0x880efad3a46940ef:0x47ae47c81b281ae8!8m2!3d41.7813556!4d-88.3205546",rosatis_pizza,
Rosatis Pizza,415 Peachtree Pkwy,CUMMING,GA,30041-7233,6785131113.0,"https://www.google.com/maps/place/Rosati's+Pizza+and+Sports+Pub/@34.1528506,-84.1725822,17z/data=!3m1!4b1!4m5!3m4!1s0x88f59b771320a83f:0xf816b219268c9aa8!8m2!3d34.1528506!4d-84.1725822",rosatis_pizza,
Rosatis Pizza,8060 S Rainbow Blvd,LAS VEGAS,NV,89139-6488,7024631777.0,"https://www.google.com/maps/place/Rosati's+Pizza+%26+Sports+Pub/@36.0416439,-115.2418978,17z/data=!3m1!4b1!4m5!3m4!1s0x80c8c87c19600f21:0xa87d3b1da0286675!8m2!3d36.0416439!4d-115.2418978",rosatis_pizza,
Rosatis Pizza,4863 N Broadway St,CHICAGO,IL,60640-3603,7733343333.0,"https://www.google.com/maps/place/Rosati's+Pizza+-+Chicago+Uptown/@41.9706667,-87.6588333,17z/data=!3m1!4b1!4m5!3m4!1s0x880fd22b641c8b3f:0x1db955906a2b7392!8m2!3d41.9706667!4d-87.6588333",rosatis_pizza,
Rosatis Pizza,3730 Tampa Rd,OLDSMAR,FL,34677-6301,8133284128.0,"https://www.google.com/maps/place/Rosati's+Pizza/@28.043328,-82.679515,17z/data=!3m1!4b1!4m5!3m4!1s0x88c2ec45749052b1:0x5814d5fd40eb4896!8m2!3d28.043328!4d-82.679515",rosatis_pizza,
Rosatis Pizza,3437 Lithia Pinecrest Rd,VALRICO,FL,33596-6302,8136431003.0,"https://www.google.com/maps/place/Rosati's+Pizza+Valrico,+FL/@27.892504,-82.241886,17z/data=!3m1!4b1!4m5!3m4!1s0x88c2d29e7cc98cbd:0xb25c43345bd13134!8m2!3d27.892504!4d-82.241886",rosatis_pizza,
Rosatis Pizza,16108 S Route 59,PLAINFIELD,IL,60586-9239,8152544500.0,"https://www.google.com/maps/place/Rosati's+Pizza+Sports+Pub/@41.5900824,-88.2035818,17z/data=!3m1!4b1!4m5!3m4!1s0x880ef5adcdc9101b:0xf88877ec20e50f51!8m2!3d41.5900824!4d-88.2035818",rosatis_pizza,
Rosatis Pizza,375 W Stevenson Rd,OTTAWA,IL,61350-9439,8153249559.0,"https://www.google.com/maps/place/Rosati's+Pizza+and+Sports+Pub/@41.3785948,-88.8400039,17z/data=!3m1!4b1!4m5!3m4!1s0x880953bebcd2d3a7:0x6b4bf82576e3de0b!8m2!3d41.3785948!4d-88.8400039",rosatis_pizza,
Rosatis Pizza,4802 W Elm St,MCHENRY,IL,60050-4019,8153446667.0,"https://www.google.com/maps/place/Rosati's+Pizza/@42.3488285,-88.2905785,17z/data=!3m1!4b1!4m5!3m4!1s0x880f705125eced49:0xf6d4608b6140fa5a!8m2!3d42.3488285!4d-88.2905785",rosatis_pizza,
Rosatis Pizza,2221 S Perryville Rd,ROCKFORD,IL,61108-8209,8153985300.0,"https://www.google.com/maps/place/Rosati's+Pizza/@42.2430064,-88.980917,17z/data=!3m1!4b1!4m5!3m4!1s0x8808b88840e7994b:0x8cbf2b4022ae6fef!8m2!3d42.2430064!4d-88.980917",rosatis_pizza,
Rosatis Pizza,108 W Illinois Hwy,NEW LENOX,IL,60451-5501,8154851000.0,"https://www.google.com/maps/place/Rosati's+Pizza/@41.4971054,-87.9664141,17z/data=!3m1!4b1!4m5!3m4!1s0x880e6ed171f37a55:0xbd5cd6a2ee970e70!8m2!3d41.4971054!4d-87.9664141",rosatis_pizza,
Rosatis Pizza,801 6th St,MENDOTA,IL,61342-1917,8155383838.0,"https://www.google.com/maps/place/Rosati's+Pizza/@41.5473928,-89.1202336,17z/data=!3m1!4b1!4m5!3m4!1s0x88096a45299d79d5:0x2592da4454dac2e7!8m2!3d41.5473928!4d-89.1202336",rosatis_pizza,
Rosatis Pizza,1047 E 9th St,LOCKPORT,IL,60441-3245,8155882000.0,"https://www.google.com/maps/place/Rosati's+Pizza/@41.5947739,-88.0377974,17z/data=!3m1!4b1!4m5!3m4!1s0x880e5d6f63727e63:0xba93c199a167a022!8m2!3d41.5947739!4d-88.0377974",rosatis_pizza,
Rosatis Pizza,2725 Il Route 26 S,FREEPORT,IL,61032-9313,8156562296.0,"https://www.google.com/maps/place/Rosati's+Pizza+Pub/@42.2615738,-89.6302032,17z/data=!3m1!4b1!4m5!3m4!1s0x88086a2418b248db:0x6247fd3d8d9be7bd!8m2!3d42.2615738!4d-89.6302032",rosatis_pizza,
Rosatis Pizza,148 Gooding St,LA SALLE,IL,61301-2424,8157802780.0,"https://www.google.com/maps/place/Rosati's+Pizza/@41.328749,-89.0966605,17z/data=!3m1!4b1!4m5!3m4!1s0x8809609cd828dd5d:0x8e763525324210f9!8m2!3d41.328749!4d-89.0966605",rosatis_pizza,
Rosatis Pizza,118 E Bethel Dr,BOURBONNAIS,IL,60914-1102,8159322700.0,"https://www.google.com/maps/place/Rosati's+Pizza/@41.1697342,-87.8748461,17z/data=!3m1!4b1!4m5!3m4!1s0x880ddde8ec9429ad:0xfc18e8f5b3e45e02!8m2!3d41.1697342!4d-87.8748461",rosatis_pizza,
Rosatis Pizza,1708 Milwaukee Ave,GLENVIEW,IL,60025-1441,8472960260.0,"https://www.google.com/maps/place/Rosati's+Pizza/@42.0859868,-87.8704521,17z/data=!3m1!4b1!4m5!3m4!1s0x880fc7f631269747:0x8aa19f288de16ee8!8m2!3d42.0859868!4d-87.8704521",rosatis_pizza,
Rosatis Pizza,10755 Broadway,CROWN POINT,IN,46307-7316,2192814500.0,"https://www.google.com/maps/place/Rosati's+Pizza/@41.4219393,-87.3347248,17z/data=!3m1!4b1!4m5!3m4!1s0x8811ee31b92761f3:0x5c45e997633172e9!8m2!3d41.4219393!4d-87.3347248",rosatis_pizza,
Rosatis Pizza,1411 S Lake Park Ave,HOBART,IN,46342-6792,2199425678.0,"https://www.google.com/maps/place/Rosati's+Pizza/@41.5138724,-87.2583903,17z/data=!3m1!4b1!4m5!3m4!1s0x8811eb0971030ac7:0x78aaf5c7d8f06a2c!8m2!3d41.5138724!4d-87.2583903",rosatis_pizza,
Rosatis Pizza,21301 S Tamiami Trl,ESTERO,FL,33928-2944,2392213706.0,"https://www.google.com/maps/place/Rosati's+Pizza/@26.4297807,-81.807918,17z/data=!3m1!4b1!4m5!3m4!1s0x88db16e5aa9a4515:0xbc2a53b50ac49f!8m2!3d26.4297807!4d-81.807918",rosatis_pizza,
Rosatis Pizza,240 N Edwards Blvd,LAKE GENEVA,WI,53147-4504,2622484000.0,"https://www.google.com/maps/place/Rosati's+Pizza/@42.592408,-88.415318,17z/data=!3m1!4b1!4m5!3m4!1s0x88058bc5a53ca519:0x814e308f49b1bb99!8m2!3d42.592408!4d-88.415318",rosatis_pizza,
Rosatis Pizza,3648 S Moorland Rd,NEW BERLIN,WI,53151-5147,2627845700.0,"https://www.google.com/maps/place/Rosati's+Pizza/@42.9782311,-88.1066456,17z/data=!3m1!4b1!4m5!3m4!1s0x880508c3b70f72b1:0x623c412913ba4e13!8m2!3d42.9782311!4d-88.1066456",rosatis_pizza,
Rosatis Pizza,1339 S Halsted St,CHICAGO,IL,60607-5019,3124551211.0,"https://www.google.com/maps/place/Rosati's+Pizza+Chicago/@41.8642191,-87.6467013,17z/data=!3m1!4b1!4m5!3m4!1s0x880e2cf044085cd1:0x60283dec7998c6a6!8m2!3d41.8642191!4d-87.6467013",rosatis_pizza,
Rosatis Pizza,2235 S Power Rd,MESA,AZ,85209-4861,4802143233.0,"https://www.google.com/maps/place/Rosati%E2%80%99s+Pizza/@33.3747768,-111.6872089,17z/data=!3m1!4b1!4m5!3m4!1s0x872bae384bacb283:0xee233291722d1d26!8m2!3d33.3747768!4d-111.6872089",rosatis_pizza,
Rosatis Pizza,2944 W Ina Rd,TUCSON,AZ,85741-2110,5205311100.0,"https://www.google.com/maps/place/Rosati's+Pizza+Sports+Pub,+Ina+Rd/@32.33875,-111.030414,17z/data=!3m1!4b1!4m5!3m4!1s0x86d674cc29204d35:0x32eb746df076eb45!8m2!3d32.33875!4d-111.030414",rosatis_pizza,
Rosatis Pizza,2320 E Baseline Rd,PHOENIX,AZ,85042-6951,6022768200.0,"https://www.google.com/maps/place/Rosati's+Pizza/@33.3796785,-112.0308873,17z/data=!3m1!4b1!4m5!3m4!1s0x872b0fee33fcaf6d:0xf21fa361e63c1d36!8m2!3d33.3796785!4d-112.0308873",rosatis_pizza,
Rosatis Pizza,4010 E Bell Rd,PHOENIX,AZ,85032-2149,6029961110.0,"https://www.google.com/maps/place/Rosati's+Pizza/@33.6418517,-111.9977595,17z/data=!3m1!5s0x872b71771f30c86f:0x33993259e1920cd5!4m5!3m4!1s0x872b7177130a7427:0x947295412811828a!8m2!3d33.6418473!4d-111.9955708?hl=en",rosatis_pizza,
Rosatis Pizza,3668 W Anthem Way,ANTHEM,AZ,85086-0461,6235518545.0,"https://www.google.com/maps/place/Rosati's+Pizza/@33.8688812,-112.1383743,17z/data=!3m1!4b1!4m5!3m4!1s0x872c9de33f271643:0xc020020c0dd559e!8m2!3d33.8688812!4d-112.1383743",rosatis_pizza,
Rosatis Pizza,712 S Northwest Hwy,BARRINGTON,IL,60010-4620,8473822700.0,"https://www.google.com/maps/place/Rosati's+Pizza/@42.1498409,-88.1246868,17z/data=!3m1!4b1!4m5!3m4!1s0x880fa128de5fc757:0xbcdeae5e099e94b9!8m2!3d42.1498409!4d-88.1246868",rosatis_pizza,
Rosatis Pizza,414 E Hintz Rd,ARLINGTON HEIGHTS,IL,60004-2207,8473928802.0,"https://www.google.com/maps/place/Rosati's+Pizza/@42.1250874,-87.965395,17z/data=!3m1!4b1!4m5!3m4!1s0x880fbb9957de7375:0xd2cc8cb4561cb4e3!8m2!3d42.1250874!4d-87.965395",rosatis_pizza,
Rosatis Pizza,1140 Main St,ANTIOCH,IL,60002-1808,8473955500.0,"https://www.google.com/maps/place/Rosati's+Pizza/@42.4677563,-88.0666132,17z/data=!3m1!4b1!4m5!3m4!1s0x880f8149564641ad:0xe8d2f4ba812bfe05!8m2!3d42.4677563!4d-88.0666132",rosatis_pizza,
Rosatis Pizza,1629 S Busse Rd,MOUNT PROSPECT,IL,60056-5501,8474372112.0,"https://www.google.com/maps/place/Rosati's+Pizza/@42.0359221,-87.959687,17z/data=!3m1!4b1!4m5!3m4!1s0x880fb0ec4aaedd19:0x7e0fde993c3c0cfa!8m2!3d42.0359221!4d-87.959687",rosatis_pizza,
Rosatis Pizza,531 W Liberty St,WAUCONDA,IL,60084-2470,8475264343.0,"https://www.google.com/maps/place/Rosati's+Pizza/@42.25869,-88.1520442,17z/data=!3m1!4b1!4m5!3m4!1s0x880f9fcc61488449:0xa4e8d99234cec0e5!8m2!3d42.25869!4d-88.1520442",rosatis_pizza,
Rosatis Pizza,1866 E Belvidere Rd,GRAYSLAKE,IL,60030-2289,8475438800.0,"https://www.google.com/maps/place/Rosati's+Pizza/@42.3395107,-88.0014871,17z/data=!3m1!4b1!4m5!3m4!1s0x880f9a870b676445:0x2aebfd53995ace0f!8m2!3d42.3395107!4d-88.0014871",rosatis_pizza,
Rosatis Pizza,826 Centennial Dr,HAMPSHIRE,IL,60140-8352,8476831111.0,"https://www.google.com/maps/place/Rosati's+Pizza/@42.0888462,-88.520778,17z/data=!3m1!4b1!4m5!3m4!1s0x880f3cde2aec90a3:0xed7c99a42f948ce6!8m2!3d42.0888462!4d-88.520778",rosatis_pizza,
Rosatis Pizza,700 E Rollins Rd,ROUND LAKE BEACH,IL,60073-1340,8477401800.0,"https://www.google.com/maps/place/Rosati's+Pizza/@42.3794953,-88.0673572,17z/data=!3m1!4b1!4m5!3m4!1s0x880f84cc788e2281:0x4377a86d6f2fe535!8m2!3d42.3794953!4d-88.0673572",rosatis_pizza,
Rosatis Pizza,2 Tyler Creek Plz,ELGIN,IL,60123-1706,8477415400.0,"https://www.google.com/maps/place/Rosati's+Pizza/@42.0587692,-88.3125001,17z/data=!3m1!4b1!4m5!3m4!1s0x880f055a6c636c47:0xcda4b9b1a68044fb!8m2!3d42.0587692!4d-88.3125001",rosatis_pizza,
Rosatis Pizza,50 Industrial Dr,GILBERTS,IL,60136-9102,8477830808.0,"https://www.google.com/maps/place/Rosati's+Pizza/@42.1015059,-88.3785308,17z/data=!3m1!4b1!4m5!3m4!1s0x880f10e135e12281:0x74050373efd05674!8m2!3d42.1015059!4d-88.3785308",rosatis_pizza,
Rosatis Pizza,3110 W Il Route 60,MUNDELEIN,IL,60060-4267,8479439931.0,"https://www.google.com/maps/place/Rosati's+Pizza/@42.2831752,-88.0463631,17z/data=!3m1!4b1!4m5!3m4!1s0x880f999ea522f7b3:0x6741a71b21967182!8m2!3d42.2831752!4d-88.0463631",rosatis_pizza,
Rosatis Pizza,5140 Foothills Blvd,ROSEVILLE,CA,95747-6586,9167977492.0,"https://www.google.com/maps/place/Rosati's+Sports+Pub+%26+Pizza/@38.7619941,-121.312599,17z/data=!3m1!4b1!4m5!3m4!1s0x809b2107d57fd0af:0xb2da8b931f96fe5c!8m2!3d38.7619941!4d-121.312599",rosatis_pizza,
Rosatis Pizza,1985 Marketview Dr,YORKVILLE,IL,60560-1896,6305535533.0,"https://www.google.com/maps/place/Rosati's+Pizza/@41.6661519,-88.4408939,17z/data=!3m1!4b1!4m5!3m4!1s0x880eea2cc681f5b9:0x24ac4af8324c8601!8m2!3d41.6661519!4d-88.4408939",rosatis_pizza,
Rosatis Pizza,5549 County Farm Rd,HANOVER PARK,IL,60133-5179,6308305100.0,"https://www.google.com/maps/place/Rosati%E2%80%99s+Pizza/@41.9729281,-88.1497623,17z/data=!3m1!4b1!4m5!3m4!1s0x880faa16fe2cda5f:0x3efbb51e18eb4943!8m2!3d41.9729281!4d-88.1497623",rosatis_pizza,
Rosatis Pizza,5725 Losee Rd,NORTH LAS VEGAS,NV,89081-2517,7026422121.0,"https://www.google.com/maps/place/Rosati's+Pizza/@36.2639886,-115.1175936,17z/data=!3m1!4b1!4m5!3m4!1s0x80c8e869d1b76813:0x49f3b3549e81a1d2!8m2!3d36.2639886!4d-115.1175936",rosatis_pizza,
Rosatis Pizza,337 N El Camino Real,ENCINITAS,CA,92024-2830,7604522007.0,"https://www.google.com/maps/place/Rosati's+Pizza/@33.0557679,-117.2616875,17z/data=!3m1!4b1!4m5!3m4!1s0x80dc0b88accdae97:0xe6f930b4486b31e5!8m2!3d33.0557679!4d-117.2616875",rosatis_pizza,
Rosatis Pizza,3150 W 111th St,CHICAGO,IL,60655-2206,7732394900.0,"https://www.google.com/maps/place/Rosati's+Pizza/@41.6919649,-87.7004606,17z/data=!3m1!4b1!4m5!3m4!1s0x880e3b2c66529513:0x9b3266c32c3d08a4!8m2!3d41.6919649!4d-87.7004606",rosatis_pizza,
Rosatis Pizza,1652 S Eastwood Dr,WOODSTOCK,IL,60098-4655,8153383600.0,"https://www.google.com/maps/place/Rosati's+Pizza/@42.298095,-88.4339141,17z/data=!3m1!4b1!4m5!3m4!1s0x880f6bd11cd45f91:0xf9112c98673f1c43!8m2!3d42.298095!4d-88.4339141",rosatis_pizza,
Rosatis Pizza,530 W North St,MANHATTAN,IL,60442-8177,8154787000.0,"https://www.google.com/maps/place/Rosati's+Pizza/@41.4314293,-87.99425,17z/data=!3m1!4b1!4m5!3m4!1s0x880e6fd7b443ab37:0x6efd1d99a6107db!8m2!3d41.4314293!4d-87.99425",rosatis_pizza,
Rosatis Pizza,20001 Telegraph St,MARENGO,IL,60152-8279,8155681888.0,"https://www.google.com/maps/place/Rosati's+Pizza/@42.2547529,-88.5872363,17z/data=!3m1!4b1!4m5!3m4!1s0x880f470faef6524b:0x33c7d0b51e77a049!8m2!3d42.2547529!4d-88.5872363",rosatis_pizza,
Rosatis Pizza,707 W Jefferson St,SHOREWOOD,IL,60404-7380,8157258686.0,"https://www.google.com/maps/place/Rosati's+Pizza/@41.5206511,-88.2049474,17z/data=!3m1!4b1!4m5!3m4!1s0x880e8a336bb77203:0x2ba9f5db413efc5f!8m2!3d41.5206511!4d-88.2049474",rosatis_pizza,
Rosatis Pizza,233 E US Route 6,MORRIS,IL,60450-8967,8159426000.0,"https://www.google.com/maps/place/Rosati's+Pizza/@41.3831255,-88.4201796,17z/data=!3m1!4b1!4m5!3m4!1s0x880e9975cd657e61:0xbb322387cbac0768!8m2!3d41.3831255!4d-88.4201796",rosatis_pizza,
Rosatis Pizza,5404 Grand Ave,GURNEE,IL,60031-1735,8473609400.0,"https://www.google.com/maps/place/Rosati's+Pizza/@42.3789882,-87.9353763,17z/data=!3m1!4b1!4m5!3m4!1s0x880f8fb311d81abf:0xb8226ae0bf24325d!8m2!3d42.3789882!4d-87.9353763",rosatis_pizza,
Rosatis Pizza,1027 W Main St,SLEEPY HOLLOW,IL,60118-3800,8474265000.0,"https://www.google.com/maps/place/Rosati's+Pizza/@42.0985289,-88.2991641,17z/data=!3m1!4b1!4m5!3m4!1s0x880f0fb173f2b3ed:0x1b3d53022b75e26b!8m2!3d42.0985289!4d-88.2991641",rosatis_pizza,
Rosatis Pizza,3605 Davis Dr,MORRISVILLE,NC,27560-6007,9193807000.0,"https://www.google.com/maps/place/Rosati's+Pizza/@35.8211659,-78.8494493,17z/data=!3m1!4b1!4m5!3m4!1s0x89acedfacd2f74bf:0xab6321318785ef97!8m2!3d35.8211659!4d-78.8494493",rosatis_pizza,
Rosatis Pizza,207 W Willis St,PRESCOTT,AZ,86301-3011,9282375793.0,"https://www.google.com/maps/place/Rosati's+Pizza/@34.543666,-112.470636,17z/data=!3m1!4b1!4m5!3m4!1s0x872d28da00faed77:0x739332cc28722b11!8m2!3d34.543666!4d-112.470636",rosatis_pizza,
Rosatis Pizza,2704 Cross Timbers Rd,FLOWER MOUND,TX,75028-2756,9729069696.0,"https://www.google.com/maps/place/Rosati's+Pizza/@33.0365573,-97.0710266,17z/data=!3m1!4b1!4m5!3m4!1s0x864c2d400482fb19:0x932374bd3eef9610!8m2!3d33.0365573!4d-97.0710266",rosatis_pizza,
Rosatis Pizza,324 Ridge Rd,MUNSTER,IN,46321-1528,2198640000.0,"https://www.google.com/maps/place/Rosati's+Pizza/@41.5621122,-87.5203361,17z/data=!3m1!4b1!4m5!3m4!1s0x8811e012d7c23933:0xdcdff85e3c21ebc8!8m2!3d41.5621122!4d-87.5203361",rosatis_pizza,
Rosatis Pizza,17565 W North Ave,BROOKFIELD,WI,53045-4343,2627976466.0,"https://www.google.com/maps/place/Rosati's+Pizza/@43.0605498,-88.130409,17z/data=!3m1!4b1!4m5!3m4!1s0x8805071fbb6dbeb7:0xe2ec0494aa4d9569!8m2!3d43.0605498!4d-88.130409",rosatis_pizza,
Rosatis Pizza,2833 Dundee Rd,NORTHBROOK,IL,60062-2501,8474984080.0,"https://www.google.com/maps/place/Rosati's+Pizza/@42.137876,-87.8493815,17z/data=!3m1!4b1!4m5!3m4!1s0x880fc0acbb25b753:0xdeee282b54acf0c!8m2!3d42.137876!4d-87.8493815",rosatis_pizza,
Rosatis Pizza,395 Cary Algonquin Rd,CARY,IL,60013-2090,8475163800.0,"https://www.google.com/maps/place/Rosati's+Pizza/@42.2132066,-88.2534952,17z/data=!3m1!4b1!4m5!3m4!1s0x880f0ca57ffcfaad:0xd95b7ba61085e6e4!8m2!3d42.2132066!4d-88.2534952",rosatis_pizza,
Rosatis Pizza,2665 Mannheim Rd,DES PLAINES,IL,60018-3601,8476356300.0,"https://www.google.com/maps/place/Rosati's+Pizza/@42.0048517,-87.8842045,17z/data=!3m1!4b1!4m5!3m4!1s0x880fb65b528adb8b:0xb91b1bf322eab723!8m2!3d42.0048517!4d-87.8842045",rosatis_pizza,
Rosatis Pizza,10896 N Il Route 47,HUNTLEY,IL,60142-9717,8476696500.0,"https://www.google.com/maps/place/Rosati's+Pizza/@42.1709271,-88.4273959,17z/data=!3m1!4b1!4m5!3m4!1s0x880f14468364fef7:0xca3d6457df52310c!8m2!3d42.1709271!4d-88.4273959",rosatis_pizza,
Rosatis Pizza,8166 N Milwaukee Ave,NILES,IL,60714-2829,8478255855.0,"https://www.google.com/maps/place/Rosati's+Pizza/@42.0293187,-87.8173996,17z/data=!3m1!4b1!4m5!3m4!1s0x880fc85846769067:0xd19f2daeffaa807!8m2!3d42.0293187!4d-87.8173996",rosatis_pizza,
Rosatis Pizza,2 W Grand Ave,FOX LAKE,IL,60020-1262,8479739100.0,"https://www.google.com/maps/place/Rosati%E2%80%99s+Pizza/@42.3973004,-88.1847354,17z/data=!3m1!4b1!4m5!3m4!1s0x880f7814f106fc63:0xdcd42d531065730c!8m2!3d42.3973004!4d-88.1847354",rosatis_pizza,
Rosatis Pizza,234 Brookview Centre Way,KNOXVILLE,TN,37919-4064,8656022211.0,"https://www.google.com/maps/place/Rosati's+Pizza/@35.936201,-84.0034973,17z/data=!3m1!4b1!4m5!3m4!1s0x885c234c4b72a58d:0x6fd4b8d9f642d48b!8m2!3d35.936201!4d-84.0034973",rosatis_pizza,
Rosatis Pizza,1907 Market Way,WATERTOWN,WI,53094-7466,9202614222.0,"https://www.google.com/maps/place/Rosati's+Pizza/@43.1602516,-88.7313919,17z/data=!3m1!4b1!4m5!3m4!1s0x8805d4c9aa9b7dfd:0x15e3aad5b54aef29!8m2!3d43.1602516!4d-88.7313919",rosatis_pizza,
ROSATIS PIZZA,1012 STREET LUCIE WEST BLVD,ST LUCIE WEST,FL,34986,7723400999.0,"https://www.google.com/maps/place/Rosati's+Pizza/@27.3164731,-80.3847195,17z/data=!3m1!4b1!4m5!3m4!1s0x88deeda9f3a8429d:0x87fd2ea347339ea2!8m2!3d27.3164731!4d-80.3847195",rosatis_pizza,
ROSATIS PIZZA,1165 SOUTHEAST ALICE'S RD,WAUKEE,IA,50263,5159872556.0,"https://www.google.com/maps/place/Rosati's+Pizza/@41.6015498,-93.8520793,17z/data=!3m1!4b1!4m5!3m4!1s0x87ec2369fc6fc3fd:0x8ec83066067a917!8m2!3d41.6015498!4d-93.8520793",rosatis_pizza,
ROSATIS PIZZA,210 DOUG BAKER BLVD,BIRMINGHAM,AL,35242,2058488900.0,"https://www.google.com/maps/place/Rosati's+Pizza/@33.4554953,-86.8922554,11z/data=!4m8!1m2!2m1!1sROSATIS+PIZZA+210+DOUG+BAKER+BLVD+BIRMINGHAM+AL+35242!3m4!1s0x8889160c008bb73d:0x2d936878ead8c7e2!8m2!3d33.4105896!4d-86.6669371?hl=en",rosatis_pizza,
ROSATIS PIZZA,114 WEST MARKET ST,TAYLORVILLE,IL,62568,2177777992.0,"https://www.google.com/maps/place/Rosati's+Pizza/@39.5482608,-89.2957099,17z/data=!3m1!4b1!4m5!3m4!1s0x8874e43846900003:0xf1158ffebe79b690!8m2!3d39.5482608!4d-89.2957099",rosatis_pizza,
ROSATIS PIZZA,137A RADIO CITY DR,NORTH PEKIN,IL,61554,3093825000.0,"https://www.google.com/maps/place/Rosati's+Pizza/@40.6253964,-89.6220068,17z/data=!3m1!4b1!4m5!3m4!1s0x880af60642df3211:0x4db1a2694572a3c1!8m2!3d40.6253964!4d-89.6220068",rosatis_pizza,
ROSATIS PIZZA,2936 SOUTH 6TH ST,SPRINGFIELD,IL,62703,2176791522.0,"https://www.google.com/maps/place/Rosati's+Pizza/@39.7623237,-89.647393,17z/data=!3m1!4b1!4m5!3m4!1s0x887539f6014e599d:0x3a6b0c117fc0acc!8m2!3d39.7623237!4d-89.647393",rosatis_pizza,
ROSATIS PIZZA,6560 JOLIET RD,COUNTRYSIDE,IL,60525,7089686800.0,"https://www.google.com/maps/place/Rosati's+Pizza/@41.7696065,-87.8866052,17z/data=!3m1!4b1!4m5!3m4!1s0x880e485a8edc9635:0xaebeb4f0cb082cbe!8m2!3d41.7696065!4d-87.8866052",rosatis_pizza,
ROSATIS PIZZA,890 EAST 116TH ST,CARMEL,IN,46032,3179833638.0,"https://www.google.com/maps/place/Rosati%E2%80%99s+Pizza/@39.9568656,-86.1415082,17z/data=!3m1!4b1!4m5!3m4!1s0x8814ad3a1e2223fd:0xdf6f8a4a7b01fa43!8m2!3d39.9568656!4d-86.1415082",rosatis_pizza,
ROSATIS PIZZA,911 WEST 7TH ST,FREDERICK,MD,21701,3016944650.0,"https://www.google.com/maps/place/Rosati%E2%80%99s+Pizza/@39.4265906,-77.4156831,17z/data=!3m1!4b1!4m5!3m4!1s0x89c9dbcb27d15253:0xfaa7772650ed6aa6!8m2!3d39.4265906!4d-77.4156831",rosatis_pizza,
ROSATIS PIZZA,9111 FM 723,RICHMOND,TX,77406,2812397924.0,"https://www.google.com/maps/place/Rosati%E2%80%99s+Pizza/@29.6938977,-95.8138766,17z/data=!3m1!4b1!4m5!3m4!1s0x864121882ebfffff:0xeaf9e9f74d75b16f!8m2!3d29.6938977!4d-95.8138766",rosatis_pizza,
Rosatis Pizza,12152 N Rancho Vistoso Blvd,ORO VALLEY,AZ,85755,5202290083.0,"https://www.google.com/maps/place/Rosati's+Pizza+Sports+Pub+Oro+Valley/@32.4270275,-110.9607692,17z/data=!3m1!4b1!4m5!3m4!1s0x86d60c30ec2b2091:0xecac47c63aa8559b!8m2!3d32.4270275!4d-110.9607692",rosatis_pizza,
Rosatis Pizza,3061 North Barrington Rd,SCHAUMBURG,IL,60192,8476489000.0,"https://www.google.com/maps/place/Rosatis+Pizza+and+Sports+Bar/@42.0786906,-88.1401751,17z/data=!3m1!4b1!4m5!3m4!1s0x880fa7c612647647:0x3a0d6287b8a255c6!8m2!3d42.0786906!4d-88.1401751",rosatis_pizza,
Rosatis Pizza,332 Indianapolis Blvd,SCHERERVILLE,IN,46375,2194407943.0,"https://www.google.com/maps/place/Rosati's+Pizza/@41.4756621,-87.4015752,17z/data=!3m1!4b1!4m5!3m4!1s0x8811e5de67c183eb:0x8d391e9bbcc9c731!8m2!3d41.4756621!4d-87.4015752",rosatis_pizza,
Rosatis Pizza,550 South Hunt Club Blvd,APOPKA,FL,32703,4074108444.0,"https://www.google.com/maps/place/Rosati's+Pizza+Pub+Authentic+Chicago+Pizza/@28.6709318,-81.4510221,17z/data=!3m1!4b1!4m5!3m4!1s0x88e776a2a5fb3bc9:0x95d22028a069bb3e!8m2!3d28.6709318!4d-81.4510221",rosatis_pizza,
Rosatis Pizza,7051 Collins Rd,JACKSONVILLE,FL,32244,9048011200.0,"https://www.google.com/maps/place/Rosati's+Pizza/@30.2046541,-81.7592394,17z/data=!3m1!4b1!4m5!3m4!1s0x88e5c7479f967689:0xdf5a84ba3f3833d4!8m2!3d30.2046541!4d-81.7592394",rosatis_pizza,
Rosatis Pizza,2631 Kirchoff Rd,ROLLING MEADOWS,IL,60008,,"https://www.google.com/maps/place/Rosati's+Pizza/@42.0768101,-88.0137892,17z/data=!3m1!4b1!4m5!3m4!1s0x880fa546716728a1:0xc2fe5596b9bd7c5c!8m2!3d42.0768101!4d-88.0137892",rosatis_pizza,
Rosatis Pizza,4425 South Mountain Rd,MESA,AZ,85296,4805005566.0,"https://www.google.com/maps/place/Rosati%E2%80%99s+Pizza/@33.3342742,-111.5915908,17z/data=!3m1!4b1!4m5!3m4!1s0x872bb3968701f883:0x1ca89e63ae61c733!8m2!3d33.3342742!4d-111.5915908",rosatis_pizza,
Rosatis Pizza,14513 West Maple Rd,OMAHA,NE,68116,4025024868.0,"https://www.google.com/maps/place/Rosati's+Pizza/@41.2915157,-96.1410878,17z/data=!3m1!4b1!4m5!3m4!1s0x8793ed30c0b0d065:0xbcf5f580179ac33f!8m2!3d41.2915157!4d-96.1410878",rosatis_pizza,
Rosatis Pizza,7756 University Blvd,WINTER PARK,FL,32792,,"https://www.google.com/maps/place/Rosati's+Pizza/@28.596577,-81.2830678,17z/data=!3m1!4b1!4m5!3m4!1s0x88e76f2cad4ebe23:0x8a7145d0aeeeaca0!8m2!3d28.596577!4d-81.2830678",rosatis_pizza,
Rosatis Pizza,9925 Rea Rd,WAXHAW,NC,28173,,"https://www.google.com/maps/place/Rosati's+Pizza/@35.0197694,-80.8067004,17z/data=!3m1!4b1!4m5!3m4!1s0x8854291d6f1d5a51:0xa8ca0f504d0000e3!8m2!3d35.0197694!4d-80.8067004",rosatis_pizza,
Rosatis Pizza,13125 Lake Shore Dr,CEDAR LAKE,IN,46303,2192678700.0,"https://www.google.com/maps/place/Rosati's+Pizza/@41.3798281,-87.4227271,17z/data=!3m1!4b1!4m5!3m4!1s0x8811fb3c51c0b20d:0x4e7887001fe8ef32!8m2!3d41.3798281!4d-87.4227271",rosatis_pizza,
Rosatis Pizza,8951 Bonita Beach Road SE,BONITA SPRINGS,FL,34135,2392022300.0,"https://www.google.com/maps/place/Rosati's+Pizza/@26.3298988,-81.804512,17z/data=!3m1!4b1!4m5!3m4!1s0x88db19a0f03fd5a7:0x8f44098bce3e5468!8m2!3d26.3298988!4d-81.804512",rosatis_pizza,
Rosatis Pizza,10033 Wicker Ave,SAINT JOHN,IN,46373-8776,2193515185.0,"https://www.google.com/maps/place/Rosati's+Pizza/@41.4369527,-87.4692621,17z/data=!3m1!4b1!4m5!3m4!1s0x8811e366392d79e7:0xe848b641df906054!8m2!3d41.4369527!4d-87.4692621",rosatis_pizza,
Rosatis Pizza,5504 US Highway 30,SCHERERVILLE,IN,46375,2198641114.0,"https://www.google.com/maps/place/Rosati's+Pizza/@41.4756621,-87.4015752,17z/data=!3m1!4b1!4m5!3m4!1s0x8811e5de67c183eb:0x8d391e9bbcc9c731!8m2!3d41.4756621!4d-87.4015752",rosatis_pizza,
Rosatis Pizza,310 W Saint Paul Ave,WAUKESHA,WI,53188-5173,2625741111.0,"https://www.google.com/maps/place/Rosati's+Pizza/@43.0108219,-88.238021,17z/data=!3m1!4b1!4m5!3m4!1s0x8805a8af4cb32567:0x5391e34cde254123!8m2!3d43.0108219!4d-88.238021",rosatis_pizza,
Rosatis Pizza,6804 Green Bay Rd,KENOSHA,WI,53142-1451,2626970123.0,"https://www.google.com/maps/place/Rosati's+Pizza/@42.5731231,-87.8869613,17z/data=!3m1!4b1!4m5!3m4!1s0x880560f8b9baaf99:0x3ab86f4715d249e7!8m2!3d42.5731231!4d-87.8869613",rosatis_pizza,
Rosatis Pizza,203 N Prospect Rd,BLOOMINGTON,IL,61704-3552,3096616575.0,"https://www.google.com/maps/place/Rosati's+Pizza+of+Bloomington%2FNormal/@40.4816386,-88.9492421,17z/data=!3m1!4b1!4m5!3m4!1s0x880b700e239dde1f:0x7cb14727faa4a072!8m2!3d40.4816386!4d-88.9492421",rosatis_pizza,
Rosatis Pizza,500 E Round Grove Rd,LEWISVILLE,TX,75067-8380,4697020055.0,"https://www.google.com/maps/place/Rosati's+Pizza/@33.0029884,-96.9765343,17z/data=!3m1!4b1!4m5!3m4!1s0x864c2eef3cd773e5:0x4edb3de5ccaf887d!8m2!3d33.0029884!4d-96.9765343",rosatis_pizza,
Rosatis Pizza,53 N Val Vista Dr,GILBERT,AZ,85234-6188,4806333000.0,"https://www.google.com/maps/place/Rosati's+Pizza/@33.3514414,-111.7549396,17z/data=!3m1!4b1!4m5!3m4!1s0x872baeb670a64445:0xd1f4f573bcc5dbcd!8m2!3d33.3514414!4d-111.7549396",rosatis_pizza,
Rosatis Pizza,1730 E Warner Rd,TEMPE,AZ,85284-4543,4808204444.0,"https://www.google.com/maps/place/Rosati%E2%80%99s+Pizza/@33.3352647,-111.912344,17z/data=!3m1!4b1!4m5!3m4!1s0x872b06fb2d7b9ab5:0xc54ae1b58ca05621!8m2!3d33.3352647!4d-111.912344",rosatis_pizza,
Rosatis Pizza,12605 N Saguaro Blvd,FOUNTAIN HILLS,AZ,85268-4163,4808368400.0,"https://www.google.com/maps/place/Rosati's+Pizza/@33.6004818,-111.7161777,17z/data=!3m1!4b1!4m5!3m4!1s0x872b9880d2c40387:0x6217f50b40ed846b!8m2!3d33.6004818!4d-111.7161777",rosatis_pizza,
Rosatis Pizza,2040 S Alma School Rd,CHANDLER,AZ,85286-7075,4808992255.0,"https://www.google.com/maps/place/Rosati's+Pizza/@33.2746848,-111.8593738,17z/data=!3m1!4b1!4m5!3m4!1s0x872b008179f4d64f:0x754946a4052bd611!8m2!3d33.2746848!4d-111.8593738",rosatis_pizza,
Rosatis Pizza,6900 E US Highway 60,GOLD CANYON,AZ,85118-7444,4809837400.0,"https://www.google.com/maps/place/Rosati's+Pizza/@33.3613663,-111.4707016,17z/data=!3m1!4b1!4m5!3m4!1s0x872bcbdf6736d611:0xf85309b4dd4de932!8m2!3d33.3613663!4d-111.4707016",rosatis_pizza,
Rosatis Pizza,1550 N Ankeny Blvd,ANKENY,IA,50023-4115,5157773074.0,"https://www.google.com/maps/place/Rosati's+Pizza+Ankeny,+IA/@41.7444117,-93.6012085,17z/data=!3m1!4b1!4m5!3m4!1s0x87ee859fe1b1c8e9:0xae828b9b9e720e4f!8m2!3d41.7444117!4d-93.6012085",rosatis_pizza,
Rosatis Pizza,4933 Commercial Ave,MADISON,WI,53704-8923,6082451111.0,"https://www.google.com/maps/place/Rosati's+Pizza+Madison,+WI+(East)/@43.1055309,-89.2966809,17z/data=!3m1!4b1!4m5!3m4!1s0x880656c5a7cef7b9:0x2470a3a275280fe0!8m2!3d43.1055309!4d-89.2966809",rosatis_pizza,
Rosatis Pizza,602 W Union Hills Dr,PHOENIX,AZ,85027-6629,6235811112.0,"https://www.google.com/maps/place/Rosati's+Pizza/@33.65511,-112.081421,17z/data=!3m1!4b1!4m5!3m4!1s0x872b6e4d344e7a11:0x3440f8101ffd3c1b!8m2!3d33.65511!4d-112.081421",rosatis_pizza,
Rosatis Pizza,860 N Main St,ELBURN,IL,60119-9163,6303653333.0,"https://www.google.com/maps/place/Rosati's+Pizza/@41.9017537,-88.4743394,17z/data=!3m1!4b1!4m5!3m4!1s0x880ee005042940bd:0x2e2e7a687eed7138!8m2!3d41.9017537!4d-88.4743394",rosatis_pizza,
Rosatis Pizza,1935 95th St,NAPERVILLE,IL,60564-9684,6304280400.0,"https://www.google.com/maps/place/Rosati's+Pizza/@41.7104938,-88.1851022,17z/data=!3m1!4b1!4m5!3m4!1s0x880ef7ca352b5579:0xf81b3aff9ced91c0!8m2!3d41.7104938!4d-88.1851022",rosatis_pizza,
Rosatis Pizza,329 N Schmidt Rd,BOLINGBROOK,IL,60440-1702,6307596060.0,"https://www.google.com/maps/place/Rosati%E2%80%99s+Pizza/@41.7061541,-88.0884347,17z/data=!3m1!4b1!4m5!3m4!1s0x880e5a2adef67edb:0x98bfcbd8435726d6!8m2!3d41.7061541!4d-88.0884347",rosatis_pizza,
Rosatis Pizza,838 E Ogden Ave,WESTMONT,IL,60559-1246,6307891970.0,"https://www.google.com/maps/place/Rosati's+Pizza/@41.8113644,-87.9495882,17z/data=!3m1!4b1!4m5!3m4!1s0x880e4ebce834b6b3:0x4be798d97ae441d7!8m2!3d41.8113644!4d-87.9495882",rosatis_pizza,
Rosatis Pizza,27 S Sutton Rd,STREAMWOOD,IL,60107-3367,6308371515.0,"https://www.google.com/maps/place/Rosati's+Pizza+Of+Streamwood/@42.0304606,-88.2010549,17z/data=!3m1!4b1!4m5!3m4!1s0x880f07ae991197b7:0x6d588d3c4954abb9!8m2!3d42.0304606!4d-88.2010549",rosatis_pizza,
Rosatis Pizza,272 Glen Ellyn Rd,BLOOMINGDALE,IL,60108-1826,6308946200.0,"https://www.google.com/maps/place/Rosati's+Pizza/@41.9427958,-88.0624446,17z/data=!3m1!4b1!4m5!3m4!1s0x880facf7c33ccca3:0x78f772179218d5a5!8m2!3d41.9427958!4d-88.0624446",rosatis_pizza,
Rosatis Pizza,8137 Cass Ave,DARIEN,IL,60561-5012,6309602520.0,"https://www.google.com/maps/place/Rosati's+Pizza/@41.7401111,-87.9719731,17z/data=!3m1!4b1!4m5!3m4!1s0x880e457f709356b3:0x3c1becd62be15c22!8m2!3d41.7401111!4d-87.9719731",rosatis_pizza,
Rosatis Pizza,3014 Hobson Rd,WOODRIDGE,IL,60517-1510,6309636265.0,"https://www.google.com/maps/place/Rosati's+Pizza/@41.764438,-88.0586943,17z/data=!3m1!4b1!4m5!3m4!1s0x880e50928c117d51:0x5caa27a73f8a9057!8m2!3d41.764438!4d-88.0586943",rosatis_pizza,
Rosatis Pizza,72 W Horizon Ridge Pkwy,HENDERSON,NV,89012-5324,7025686000.0,"https://www.google.com/maps/place/Rosati's+Pizza/@36.0131154,-114.9925655,17z/data=!3m1!4b1!4m5!3m4!1s0x80c8d4042dbab3b9:0xe689829733b1537e!8m2!3d36.0131154!4d-114.9925655",rosatis_pizza,
Rosatis Pizza,430 E Silverado Ranch Blvd,LAS VEGAS,NV,89183-6200,7027351122.0,"https://www.google.com/maps/place/Rosati's/@36.0145842,-115.1540219,17z/data=!3m1!4b1!4m5!3m4!1s0x80c8ceefc538d2d9:0xd949576df7c66337!8m2!3d36.0145842!4d-115.1540219",rosatis_pizza,
Rosatis Pizza,8342 Grand Ave,RIVER GROVE,IL,60171-1435,7084562000.0,"https://www.google.com/maps/place/Rosati's+Pizza/@41.9288624,-87.8349718,17z/data=!3m1!4b1!4m5!3m4!1s0x880fcaed501176ab:0xec2f79c5563cfb0c!8m2!3d41.9288624!4d-87.8349718",rosatis_pizza,
Rosatis Pizza,10443 Ulmerton Rd,LARGO,FL,33771-3530,7277544554.0,"https://www.google.com/maps/place/Rosati's+Pizza/@27.9699624,-82.801996,12z/data=!4m8!1m2!2m1!1sRosatis+Pizza+10443+Ulmerton+Rd+LARGO+FL+33771-3530!3m4!1s0x88c2fa5c250a1ab3:0xcd08172d821f5074!8m2!3d27.896329!4d-82.784397?hl=en",rosatis_pizza,
Rosatis Pizza,79630 Highway 111,LA QUINTA,CA,92253-6515,7607758900.0,"https://www.google.com/maps/place/Rosati's+Pizza/@33.7078562,-116.2749871,17z/data=!3m1!4b1!4m5!3m4!1s0x80daf855b3961051:0x4dbacd3e6116711!8m2!3d33.7078562!4d-116.2749871",rosatis_pizza,
Rosatis Pizza,5544 N Milwaukee Ave,CHICAGO,IL,60630-1227,7737922585.0,"https://www.google.com/maps/place/Rosati's+Pizza/@41.9825446,-87.774636,17z/data=!3m1!4b1!4m5!3m4!1s0x880fceac838b4e51:0xe7eee9830f7722de!8m2!3d41.9825446!4d-87.774636",rosatis_pizza,
Rosatis Pizza,80 E Division St,COAL CITY,IL,60416-1638,8156348111.0,"https://www.google.com/maps/place/Rosati's+Pizza/@41.2882302,-88.2842551,17z/data=!3m1!4b1!4m5!3m4!1s0x880e826009b6db2d:0x42118833302a401f!8m2!3d41.2882302!4d-88.2842551",rosatis_pizza,
Rosatis Pizza,1490 Cedarwood Dr,CREST HILL,IL,60403-3157,8157440800.0,"https://www.google.com/maps/place/Rosati's+Pizza/@41.549012,-88.141115,17z/data=!3m1!4b1!4m5!3m4!1s0x880e604c56ef2fd5:0x36a6eadded58f7e7!8m2!3d41.549012!4d-88.141115",rosatis_pizza,
Rosatis Pizza,630 Plaza Dr,SYCAMORE,IL,60178-2794,8158954646.0,"https://www.google.com/maps/place/Rosati's+Pizza/@41.9828802,-88.7059557,17z/data=!3m1!4b1!4m5!3m4!1s0x880f29574b40ee5d:0x6863ad50fa240fdc!8m2!3d41.9828802!4d-88.7059557",rosatis_pizza,
Rosatis Pizza,360 S Division St,HARVARD,IL,60033-3200,8159438100.0,"https://www.google.com/maps/place/Rosati's+Pizza/@42.4081372,-88.6129003,17z/data=!3m1!4b1!4m5!3m4!1s0x880f5aeb02caeec5:0xfe01001c4f232057!8m2!3d42.4081372!4d-88.6129003",rosatis_pizza,
Rosatis Pizza,20590 Milwaukee Ave,DEERFIELD,IL,60015-3693,8475415558.0,"https://www.google.com/maps/place/Rosati's+Pizza/@42.1621799,-87.9207626,17z/data=!3m1!4b1!4m5!3m4!1s0x880fbe96be47c467:0x8f37b5d55da33d63!8m2!3d42.1621799!4d-87.9207626",rosatis_pizza,
Rosatis Pizza,1147 McHenry Rd,BUFFALO GROVE,IL,60089-1369,8476340039.0,"https://www.google.com/maps/place/Rosati's+Pizza/@42.173766,-87.982127,17z/data=!3m1!4b1!4m5!3m4!1s0x880fbce4afca5395:0xf9cfd3569d0e2527!8m2!3d42.173766!4d-87.982127",rosatis_pizza,
Rosatis Pizza,1165 W Spring St,SOUTH ELGIN,IL,60177-1408,8476978667.0,"https://www.google.com/maps/place/Rosati's+Pizza/@41.9957401,-88.3143039,17z/data=!3m1!4b1!4m5!3m4!1s0x880f04afde001a3d:0xe37554ac1830fbd3!8m2!3d41.9957401!4d-88.3143039",rosatis_pizza,
Rosatis Pizza,1043 N Milwaukee Ave,LIBERTYVILLE,IL,60048-1920,8478169500.0,"https://www.google.com/maps/place/Rosati's+Pizza/@42.2940695,-87.9564919,17z/data=!3m1!4b1!4m5!3m4!1s0x880f96cbaa3f2df9:0xe76387b00f7cda48!8m2!3d42.2940695!4d-87.9564919",rosatis_pizza,
Rosatis Pizza,1770 W Wise Rd,SCHAUMBURG,IL,60193-3524,8478915151.0,"https://www.google.com/maps/place/Rosati's+Pizza+sport+bar+and+catering/@42.0044106,-88.1235142,17z/data=!3m1!4b1!4m5!3m4!1s0x880fa90cb20a13db:0xd2d060405aea10e1!8m2!3d42.0044106!4d-88.1235142",rosatis_pizza,
Rosatis Pizza,701 S Gregory St,URBANA,IL,61801-3705,2173282334.0,"https://www.google.com/maps/place/Rosati's+Pizza/@40.1067106,-88.2217516,17z/data=!3m1!4b1!4m5!3m4!1s0x880cd713f8daec15:0xfc0cbecd5f53be5!8m2!3d40.1067106!4d-88.2217516",rosatis_pizza,
Rosatis Pizza,801 Illinois 32,SULLIVAN,IL,61951,2177282812.0,"https://www.google.com/maps/place/Rosati's+Pizza/@39.5216169,-88.6076716,17z/data=!3m1!4b1!4m5!3m4!1s0x887368f1fdb926e1:0x197c8deb12f4a58c!8m2!3d39.5216169!4d-88.6076716",rosatis_pizza,
Rosatis Pizza,818 Neapolitan Way,NAPLES,FL,34103-3192,2392638902.0,"https://www.google.com/maps/place/Rosati's+Pizza/@26.2022097,-81.8020548,17z/data=!3m1!4b1!4m5!3m4!1s0x88db1e3de0a3dc73:0xeeadc783365ec2ee!8m2!3d26.2022097!4d-81.8020548",rosatis_pizza,
Rosatis Pizza,15245 S Tamiami Trl,FORT MYERS,FL,33908-4596,2394811110.0,"https://www.google.com/maps/place/Rosati's+Pizza/@26.5215968,-81.8682514,17z/data=!3m1!4b1!4m5!3m4!1s0x88db3fd5ba9cfbbb:0x9348bf922235ad20!8m2!3d26.5215968!4d-81.8682514",rosatis_pizza,
Rosatis Pizza,824 Hewitt Dr,WACO,TX,76712-6659,2546666066.0,"https://www.google.com/maps/place/Rosati's+Pizza/@31.4904974,-97.212755,17z/data=!3m1!4b1!4m5!3m4!1s0x864f86f25dc878d1:0x569cd8e6e720d51f!8m2!3d31.4904974!4d-97.212755",rosatis_pizza,
Rosatis Pizza,690 Westfield Way,PEWAUKEE,WI,53072-6915,2626954080.0,"https://www.google.com/maps/place/Rosati's+Pizza/@43.0849934,-88.2367537,17z/data=!3m1!4b1!4m5!3m4!1s0x8805abfd35313bdd:0xa5b8d568b77bf2cd!8m2!3d43.0849934!4d-88.2367537",rosatis_pizza,
Rosatis Pizza,2055 W 136th Ave,BROOMFIELD,CO,80023-9308,7205470200.0,"https://www.google.com/maps/place/Rosati's+Pizza/@39.9442574,-105.0119831,17z/data=!3m1!4b1!4m5!3m4!1s0x876c75ecadf6e59d:0x5748305ac0b8cac6!8m2!3d39.9442574!4d-105.0119831",rosatis_pizza,
Rosatis Pizza,4629 Wieuca Rd NE,ATLANTA,GA,30342-3307,4046003491.0,"https://www.google.com/maps/place/Rosati's+Pizza+and+Sports+Pub/@33.875612,-84.379551,17z/data=!3m1!4b1!4m5!3m4!1s0x88f50f16a4bb1719:0xcfed05f8711198c4!8m2!3d33.875612!4d-84.379551",rosatis_pizza,
Rosatis Pizza,6900 N Santa Monica Blvd,FOX POINT,WI,53217-3942,4142288585.0,"https://www.google.com/maps/place/Rosati's+Pizza/@43.1422525,-87.902397,17z/data=!3m1!4b1!4m5!3m4!1s0x88051e30c07f5bff:0x9a563af70299c3e7!8m2!3d43.1422525!4d-87.902397",rosatis_pizza,
Rosatis Pizza,1408 Highway 124,HOSCHTON,GA,30548-3419,4702380000.0,"https://www.google.com/maps/place/Rosati's+Pizza/@34.0744807,-83.8314118,17z/data=!3m1!4b1!4m5!3m4!1s0x88f5e945e7628265:0xe9b4bbd177280616!8m2!3d34.0744807!4d-83.8314118",rosatis_pizza,
Rosatis Pizza,28325 N Tatum Blvd,CAVE CREEK,AZ,85331-6341,4805385380.0,"https://www.google.com/maps/place/Rosati's+Pizza+%26+Sports+Pub/@33.7424752,-111.9773539,17z/data=!3m1!4b1!4m5!3m4!1s0x872b7a408ca07d73:0xdc051607ce13f976!8m2!3d33.7424752!4d-111.9773539",rosatis_pizza,
Rosatis Pizza,10855 N 116th St,SCOTTSDALE,AZ,85259-4185,4805517000.0,"https://www.google.com/maps/place/Rosati's+Pizza/@33.5847617,-111.8301693,17z/data=!3m1!4b1!4m5!3m4!1s0x872b82ad0db369db:0x53e38bbd1669ff7f!8m2!3d33.5847617!4d-111.8301693",rosatis_pizza,
Rosatis Pizza,849 N Dobson Rd,MESA,AZ,85201-7596,4806559000.0,"https://www.google.com/maps/place/Rosati's+Pizza/@33.4343369,-111.8902481,11z/data=!3m1!5s0x872b0831ea50539f:0x7edf0a3a115e6f65!4m8!1m2!2m1!1sRosatis+Pizza+849+N+Dobson+Rd+MESA+AZ+85201-7596!3m4!1s0x872b096f340be47b:0xfecca8401495fa83!8m2!3d33.4333614!4d-111.8690429?hl=en",rosatis_pizza,
Rosatis Pizza,287 E Hunt Hwy,QUEEN CREEK,AZ,85143-5096,4806774000.0,"https://www.google.com/maps/place/Rosati%E2%80%99s+Pizza/@33.161636,-111.5651357,17z/data=!3m1!4b1!4m5!3m4!1s0x872a492dd9bc9b8f:0x88998f7cb2e207f!8m2!3d33.161636!4d-111.5651357",rosatis_pizza,
Rosatis Pizza,3120 S Gilbert Rd,CHANDLER,AZ,85286-5113,4808830333.0,"https://www.google.com/maps/place/Rosati's+Pizza/@33.2609901,-111.7900188,17z/data=!3m1!4b1!4m5!3m4!1s0x872bab3e22460005:0x3d1ce32cae72b5a9!8m2!3d33.2609901!4d-111.7900188",rosatis_pizza,
Rosatis Pizza,1035 N Ellsworth Rd,MESA,AZ,85207-5144,4809861600.0,"https://www.google.com/maps/place/Rosati's+Pizza/@33.4348968,-111.6312857,17z/data=!3m1!4b1!4m5!3m4!1s0x872bb0774cefba51:0x313df84f1d2c3655!8m2!3d33.4348968!4d-111.6312857",rosatis_pizza,
Rosatis Pizza,8814 E Tanque Verde Rd,TUCSON,AZ,85749-9607,5207604777.0,"https://www.google.com/maps/place/Rosati's+pizza/@32.257406,-110.8045235,17z/data=!3m1!4b1!4m5!3m4!1s0x86d6692c7e8fd28b:0x96eb355a785896a!8m2!3d32.257406!4d-110.8045235",rosatis_pizza,
Rosatis Pizza,4041 E Thomas Rd,PHOENIX,AZ,85018-7528,6023810009.0,"https://www.google.com/maps/place/Rosati's+Pizzeria/@33.4797899,-111.9941699,17z/data=!3m1!4b1!4m5!3m4!1s0x872b0c35ffcd213b:0x8d9734fc706e22f!8m2!3d33.4797899!4d-111.9941699",rosatis_pizza,
Rosatis Pizza,2737 W Thunderbird Rd,PHOENIX,AZ,85053-7717,6029780007.0,"https://www.google.com/maps/place/Rosati's+Pizza/@33.6096322,-112.1188383,17z/data=!3m1!4b1!4m5!3m4!1s0x872b6ea1e01edc55:0xfe4f1c1a79cec360!8m2!3d33.6096322!4d-112.1188383",rosatis_pizza,
Rosatis Pizza,6644 Mineral Point Rd,MADISON,WI,53705-4238,6088339300.0,"https://www.google.com/maps/place/Rosati's+Pizza/@43.0614686,-89.4964192,17z/data=!3m1!4b1!4m5!3m4!1s0x8807aef441d2a13f:0xb1432fed5f16aac3!8m2!3d43.0614686!4d-89.4964192",rosatis_pizza,
Rosatis Pizza,1302 E Main St,ROBINSON,IL,62454-3753,6184691889.0,"https://www.google.com/maps/place/Rosati's+Pizza/@39.0065227,-87.7246785,17z/data=!3m1!4b1!4m5!3m4!1s0x88726d0832c3f093:0x38c188ffbca9e395!8m2!3d39.0065227!4d-87.7246785",rosatis_pizza,
Rosatis Pizza,1243 State St,LEMONT,IL,60439-4405,6302431500.0,"https://www.google.com/maps/place/Rosati's+Pizza/@41.6543069,-87.9981129,17z/data=!3m1!4b1!4m5!3m4!1s0x880e435b268405dd:0xfaf3789ab6a915d1!8m2!3d41.6543069!4d-87.9981129",rosatis_pizza,
Rosatis Pizza,2539 Waukegan Rd,BANNOCKBURN,IL,60015-1569,8479439981.0,"https://www.google.com/maps/place/Rosati's+Pizza/@42.1983802,-87.8591895,17z/data=!3m1!4b1!4m5!3m4!1s0x880fbff3017082cf:0xab13b58747a2ff0!8m2!3d42.1983802!4d-87.8591895",rosatis_pizza,
Rosatis Pizza,225 W Dundee Rd,PALATINE,IL,60074-2699,8479916350.0,"https://www.google.com/maps/place/Rosati's+Pizza/@42.1387346,-88.0472209,17z/data=!3m1!4b1!4m5!3m4!1s0x880fa52cb7530c79:0x7af81b066c48f511!8m2!3d42.1387346!4d-88.0472209",rosatis_pizza,
Rosatis Pizza,9928 College Blvd,OVERLAND PARK,KS,66210-1756,9136960400.0,"https://www.google.com/maps/place/Rosati's+Pizza/@38.9283055,-94.6983551,17z/data=!3m1!4b1!4m5!3m4!1s0x87c0eae455de43b7:0x8cd48d163e431189!8m2!3d38.9283055!4d-94.6983551",rosatis_pizza,
Rosatis Pizza,745 S Huron Rd,GREEN BAY,WI,54311-8031,9204684500.0,"https://www.google.com/maps/place/Rosati's+Pizza+Of+Green+Bay/@44.4868389,-87.9171095,17z/data=!3m1!4b1!4m5!3m4!1s0x8802e68dc8e55d25:0x7204fe98d1d1f575!8m2!3d44.4868389!4d-87.9171095",rosatis_pizza,
Rosatis Pizza,30680 Rancho California Rd,TEMECULA,CA,92591-3202,9515872500.0,"https://www.google.com/maps/place/Rosati's+Pizza/@33.5093438,-117.1248667,17z/data=!3m1!4b1!4m5!3m4!1s0x80db7f073e1cd483:0x63ff1cf91a217aa9!8m2!3d33.5093438!4d-117.1248667",rosatis_pizza,
Rosatis Pizza,2083 Orchard Rd,MONTGOMERY,IL,60538-1027,6302644410.0,"https://www.google.com/maps/place/Rosati's+Pizza/@41.719476,-88.3760666,17z/data=!3m1!4b1!4m5!3m4!1s0x880eef1a7964b009:0xf7a65381aabcbbd3!8m2!3d41.719476!4d-88.3760666",rosatis_pizza,
Rosatis Pizza,687 N York St,ELMHURST,IL,60126-1606,6302791998.0,"https://www.google.com/maps/place/Rosati's+Pizza/@41.9198455,-87.9392944,17z/data=!3m1!4b1!4m5!3m4!1s0x880fb35d92e64eb7:0xd5e16a47b5033190!8m2!3d41.9198455!4d-87.9392944",rosatis_pizza,
Rosatis Pizza,406 W 5th Ave,NAPERVILLE,IL,60563-2985,6303053500.0,"https://www.google.com/maps/place/Rosati's+Pizza/@41.7801016,-88.15485,17z/data=!3m1!4b1!4m5!3m4!1s0x880e57ce978bbc8b:0x7f6c09a6d74498b0!8m2!3d41.7801016!4d-88.15485",rosatis_pizza,
Rosatis Pizza,2S610 State Route 59,WARRENVILLE,IL,60555-1465,6303939393.0,"https://www.google.com/maps/place/Rosati's+Pizza/@41.8304454,-88.2024629,17z/data=!3m1!4b1!4m5!3m4!1s0x880eff2c07758a51:0x18dc4e16ff65f852!8m2!3d41.8304454!4d-88.2024629",rosatis_pizza,
Rosatis Pizza,495 N Sugar Grove Pkwy,SUGAR GROVE,IL,60554-8009,6304669992.0,"https://www.google.com/maps/place/Rosati's+Pizza/@41.7740593,-88.4393374,17z/data=!3m1!4b1!4m5!3m4!1s0x880ee64b6c1d50b9:0x1e8e913378ee297d!8m2!3d41.7740593!4d-88.4393374",rosatis_pizza,
Rosatis Pizza,550 Kirk Rd,ST CHARLES,IL,60174-4727,6305139222.0,"https://www.google.com/maps/place/Rosati's+Pizza/@41.9238565,-88.2735702,17z/data=!3m1!4b1!4m5!3m4!1s0x880f0268bbaaffef:0xdd607fb621e4ca12!8m2!3d41.9238565!4d-88.2735702",rosatis_pizza,
Rosatis Pizza,739 N Mill Rd,ADDISON,IL,60101-1348,6305436600.0,"https://www.google.com/maps/place/Rosati's+Pizza/@41.9400414,-88.0028562,17z/data=!3m1!4b1!4m5!3m4!1s0x880fb28794c9b12f:0x551c2187894ed85e!8m2!3d41.9400414!4d-88.0028562",rosatis_pizza,
Rosatis Pizza,2751 US Highway 34,OSWEGO,IL,60543-8949,6305511150.0,"https://www.google.com/maps/place/Rosati's+Pizza/@41.7017599,-88.3142673,17z/data=!3m1!4b1!4m5!3m4!1s0x880ef1d03ab32657:0xb0b8e20583b1c0d6!8m2!3d41.7017599!4d-88.3142673",rosatis_pizza,
Rosatis Pizza,615 S Randall Rd,ST CHARLES,IL,60174-1779,6305848244.0,"https://www.google.com/maps/place/Rosati's+Pizza/@41.9027778,-88.3405556,17z/data=!3m1!4b1!4m5!3m4!1s0x880ee2a17c61a1ed:0xa05b4c7fbda84e39!8m2!3d41.9027778!4d-88.3405556",rosatis_pizza,
Rosatis Pizza,705 E Roosevelt Rd,LOMBARD,IL,60148-4742,6306201700.0,"https://www.google.com/maps/place/Rosati's+Pizza/@41.8601186,-88.0009956,17z/data=!3m1!4b1!4m5!3m4!1s0x880e4d9ce3c6de2d:0x36868f6afbe99ba4!8m2!3d41.8601186!4d-88.0009956",rosatis_pizza,
Rosatis Pizza,161 Hiawatha Dr,CAROL STREAM,IL,60188-1774,6306539009.0,"https://www.google.com/maps/place/Rosati's+Pizza+of+Carol+Stream+on+Hiawatha/@41.9167992,-88.1216836,17z/data=!3m1!4b1!4m5!3m4!1s0x880fab25aea11107:0xd8e5f91aa6699947!8m2!3d41.9167992!4d-88.1216836",rosatis_pizza,
Rosatis Pizza,334 E Wilson St,BATAVIA,IL,60510-2663,6308792992.0,"https://www.google.com/maps/place/Rosati's+Pizza/@41.849708,-88.302246,17z/data=!3m1!4b1!4m5!3m4!1s0x880efceaff7a47d5:0x438360ba7d97b6b6!8m2!3d41.849708!4d-88.302246",rosatis_pizza,
Rosatis Pizza,3370 S Hualapai Way,LAS VEGAS,NV,89117-7709,7022621900.0,"https://www.google.com/maps/place/Rosati's+Pizza/@36.128344,-115.314442,17z/data=!3m1!4b1!4m5!3m4!1s0x80c8bf3c3eba5081:0x53859586dedafd0c!8m2!3d36.128344!4d-115.314442",rosatis_pizza,
Rosatis Pizza,8001 N Durango Dr,LAS VEGAS,NV,89131-4085,7022941212.0,"https://www.google.com/maps/place/Rosati's+Pizza/@36.3067814,-115.279104,17z/data=!3m1!4b1!4m5!3m4!1s0x80c8eccb9282eee5:0xe47b6d2400290bb!8m2!3d36.3067814!4d-115.279104",rosatis_pizza,
Rosatis Pizza,10030 W Cheyenne Ave,LAS VEGAS,NV,89129-7717,7024785757.0,"https://www.google.com/maps/place/Rosati's+Pizza/@36.2187851,-115.314269,17z/data=!3m1!4b1!4m5!3m4!1s0x80c89511509d78cf:0xfcd13a195a36ef74!8m2!3d36.2187851!4d-115.314269",rosatis_pizza,
Rosatis Pizza,7380 S Eastern Ave,LAS VEGAS,NV,89123-1550,7028978386.0,"https://www.google.com/maps/place/Rosati's+Pizza/@36.055626,-115.1167462,17z/data=!3m1!4b1!4m5!3m4!1s0x80c8ce2bba62e699:0x63525732f2fe745e!8m2!3d36.055626!4d-115.1167462",rosatis_pizza,
Rosatis Pizza,19608 S La Grange Rd,MOKENA,IL,60448-9321,7084799400.0,"https://www.google.com/maps/place/Rosati's+Pizza/@41.5334554,-87.8513498,17z/data=!3m1!4b1!4m5!3m4!1s0x880e14d22c9201d3:0x66a242bbb1a88392!8m2!3d41.5334554!4d-87.8513498",rosatis_pizza,
Rosatis Pizza,186 E Main St,BRAIDWOOD,IL,60408-1912,8154582100.0,"https://www.google.com/maps/place/Rosati's+Pizza/@41.2647638,-88.2144804,17z/data=!3m1!4b1!4m5!3m4!1s0x8811e13853ada98f:0x9bb8594153ddee7!8m2!3d41.2647638!4d-88.2144804",rosatis_pizza,
Rosatis Pizza,40 W Terra Cotta Ave,CRYSTAL LAKE,IL,60014-3540,8154770888.0,"https://www.google.com/maps/place/Rosati's+Pizza/@42.2489164,-88.3221965,17z/data=!3m1!4b1!4m5!3m4!1s0x880f729e0cde9917:0xa3efbee6bef2e158!8m2!3d42.2489164!4d-88.3221965",rosatis_pizza,
Rosatis Pizza,1946 Gateway Center Dr,BELVIDERE,IL,61008-9303,8155443121.0,"https://www.google.com/maps/place/Rosati's+Pizza/@42.2389453,-88.8203353,17z/data=!3m1!4b1!4m5!3m4!1s0x8808b57a6efdfc45:0x944b716961c67d65!8m2!3d42.2389453!4d-88.8203353",rosatis_pizza,
Rosatis Pizza,28948 W Il Route 120,LAKEMOOR,IL,60051-2215,8155781100.0,"https://www.google.com/maps/place/Rosati's+Pizza+of+Lakemoor/@42.3288705,-88.1976051,17z/data=!3m1!4b1!4m5!3m4!1s0x880f76452d46a259:0xed2406396b394274!8m2!3d42.3288705!4d-88.1976051",rosatis_pizza,
Rosatis Pizza,6104 E Riverside Blvd,LOVES PARK,IL,61111-4416,8156360600.0,"https://www.google.com/maps/place/Rosati's+Pizza/@42.3189217,-88.9983966,17z/data=!3m1!4b1!4m5!3m4!1s0x8808bbdd0d0cc8cb:0xa083ef9a8cf36f94!8m2!3d42.3189217!4d-88.9983966",rosatis_pizza,
Rosatis Pizza,930 Pappas Dr,DEKALB,IL,60115-6087,8157663041.0,"https://www.google.com/maps/place/Rosati's+Pizza+%26+Sports+Pub/@41.9639495,-88.809883,12z/data=!4m8!1m2!2m1!1sRosatis+Pizza+930+Pappas+Dr+DEKALB+IL+60115-6087!3m4!1s0x880f2adb7ca169a9:0xa5fe2b755fabffbc!8m2!3d41.944806!4d-88.773731?hl=en",rosatis_pizza,
Rosatis Pizza,710 E Railroad St,SANDWICH,IL,60548-2250,8157861500.0,"https://www.google.com/maps/place/Rosati's+Pizza/@41.6456408,-88.6127252,17z/data=!3m1!4b1!4m5!3m4!1s0x880ec64705eac269:0xaa76d13558aea17e!8m2!3d41.6456408!4d-88.6127252",rosatis_pizza,
Rosatis Pizza,1069 Rohlwing Rd,ELK GROVE VILLAGE,IL,60007-3217,8473011222.0,"https://www.google.com/maps/place/Rosati's+Pizza/@41.9946302,-88.0307034,17z/data=!3m1!4b1!4m5!3m4!1s0x880fae152b747c89:0xd0ebbde002c4e097!8m2!3d41.9946302!4d-88.0307034",rosatis_pizza,
Rosatis Pizza,475 S US Highway 45,LINDENHURST,IL,60046-7439,8473560100.0,"https://www.google.com/maps/place/Rosati's+Pizza/@42.4058341,-88.003395,17z/data=!3m1!4b1!4m5!3m4!1s0x880f8592198f8d39:0x66a11ca38d147b7b!8m2!3d42.4058341!4d-88.003395",rosatis_pizza,
Rosatis Pizza,101 W Townline Rd,VERNON HILLS,IL,60061-1424,8473626999.0,"https://www.google.com/maps/place/Rosati's+Pizza/@42.2398615,-87.9685622,17z/data=!3m1!4b1!4m5!3m4!1s0x880f964a32f30595:0x7ebc2b2949290133!8m2!3d42.2398615!4d-87.9685622",rosatis_pizza,
Rosatis Pizza,700 E Il Route 22,LAKE ZURICH,IL,60047-2595,8475406600.0,"https://www.google.com/maps/place/Rosati's+Pizza/@42.198068,-88.071495,17z/data=!3m1!4b1!4m5!3m4!1s0x880fa1f07ea6139d:0xede8f8e7b6be4878!8m2!3d42.198068!4d-88.071495",rosatis_pizza,
Rosatis Pizza,2411 W Algonquin Rd,ALGONQUIN,IL,60102-9402,8476586868.0,"https://www.google.com/maps/place/Rosati's+Pizza/@42.1752285,-88.3328676,17z/data=!3m1!4b1!4m5!3m4!1s0x880f126570d8593d:0xcd81a67880a4b604!8m2!3d42.1752285!4d-88.3328676",rosatis_pizza,
Rosatis Pizza,117 N Kennedy Dr,CARPENTERSVILLE,IL,60110-1661,8478443400.0,"https://www.google.com/maps/place/Rosati's+Pizza/@42.1330044,-88.2572555,17z/data=!3m1!4b1!4m5!3m4!1s0x880f0ebaebb4ed53:0xcfe0caeba98435c7!8m2!3d42.1330044!4d-88.2572555",rosatis_pizza,
Rosatis Pizza,120 E Golf Rd,SCHAUMBURG,IL,60173-3726,8478840818.0,"https://www.google.com/maps/place/Rosati%E2%80%99s+Pizza/@42.0501069,-88.0768364,17z/data=!3m1!4b1!4m5!3m4!1s0x880fa8b08ffcdfc3:0x830af9d37cfb2d77!8m2!3d42.0501069!4d-88.0768364",rosatis_pizza,
Rosatis Pizza,91 London Bridge Rd,LAKE HAVASU CITY,AZ,86403-4671,9288558665.0,"https://www.google.com/maps/place/Rosati's+Pizza+%26+Pasta+Restaurant/@34.4744444,-114.3486111,17z/data=!3m1!4b1!4m5!3m4!1s0x80d1ed9b724e2ca3:0x1eff4da53e8d8f35!8m2!3d34.4744444!4d-114.3486111",rosatis_pizza,
Rosatis Pizza,5261 McKinney Ranch Pkwy,MCKINNEY,TX,75070-6831,9725483900.0,"https://www.google.com/maps/place/Rosati%E2%80%99s+Pizza/@33.1588197,-96.6834853,17z/data=!3m1!4b1!4m5!3m4!1s0x864c16a2c556fe27:0x69e03bed1afe206a!8m2!3d33.1588197!4d-96.6834853",rosatis_pizza,
Rosatis Pizza,1013 Madison St,OAK PARK,IL,60302-4404,7089487499.0,"https://www.google.com/maps/place/Rosati's+Pizza/@41.8794721,-87.8005414,17z/data=!3m1!4b1!4m5!3m4!1s0x880e34c1f0bd5d01:0x3f772fe978079e33!8m2!3d41.8794721!4d-87.8005414",rosatis_pizza,
ROSATIS PIZZA,1067 HIGHWAY 42,LOUISVILLE,CO,80027,3034849984.0,"https://www.google.com/maps/place/Rosati%E2%80%99s+Pizza/@39.9803249,-105.1284121,17z/data=!3m1!4b1!4m5!3m4!1s0x876bf3ac4252a61b:0x7f4a23f01f0dddd5!8m2!3d39.9803249!4d-105.1284121",rosatis_pizza,
ROSATIS PIZZA,145 WEST OKLAHOMA AVE,MILWAUKEE,WI,53207,4144897191.0,"https://www.google.com/maps/place/Rosati's+Pizza+-+Milwaukee+Bay+View/@42.9870107,-87.9107633,17z/data=!3m1!4b1!4m5!3m4!1s0x880517696d655555:0x37de1dd8bc5d1231!8m2!3d42.9870107!4d-87.9107633",rosatis_pizza,
ROSATIS PIZZA,15511 GROVE CIR N,MAPLE GROVE,MN,55369,7632705667.0,"https://www.google.com/maps/place/Rosati%E2%80%99s+Pizza/@45.134363,-93.4773326,17z/data=!3m1!4b1!4m5!3m4!1s0x52b34700be5d3e79:0x512f185d174e6aaa!8m2!3d45.134363!4d-93.4773326",rosatis_pizza,
ROSATIS PIZZA,21423 NORTH JOHN WAYNE PKWY,MARICOPA,AZ,85138,5205687700.0,"https://www.google.com/maps/place/Rosati's+Pizza/@33.0736718,-112.0426893,17z/data=!3m1!4b1!4m5!3m4!1s0x872afb2dcec55553:0x7669a41ce0b5f391!8m2!3d33.0736718!4d-112.0426893",rosatis_pizza,
Rosatis Pizza,10004 North Main St,RICHMOND,IL,60071,8158621191.0,"https://www.google.com/maps/place/Rosati's+Pizza/@42.4709291,-88.3060652,17z/data=!3m1!4b1!4m5!3m4!1s0x880f7cbd3dc42385:0x4163dfb43524a638!8m2!3d42.4709291!4d-88.3060652",rosatis_pizza,
Rosatis Pizza,176 North Wells St,CHICAGO,IL,60606,3123327272.0,"https://www.google.com/maps/place/Rosati's+Pizza+-+Chicago+Loop/@41.8852547,-87.6342033,17z/data=!3m1!4b1!4m5!3m4!1s0x880e2d320689fbdb:0x5474b8d7cb0d37bc!8m2!3d41.8852547!4d-87.6342033",rosatis_pizza,
Rosatis Pizza,18750 US Highway 441,MOUNT DORA,FL,32757,3527292291.0,"https://www.google.com/maps/place/Rosati's+Pizza+Pub+of+Mount+Dora/@28.823356,-81.646007,17z/data=!3m1!4b1!4m5!3m4!1s0x88e7a257eac8e189:0x577fcea2f0274170!8m2!3d28.823356!4d-81.646007",rosatis_pizza,
Rosatis Pizza,2136 William St,CAPE GIRARDEAU,MO,63703,5738035200.0,"https://www.google.com/maps/place/Rosati's+Pizza/@37.3044856,-89.5499589,17z/data=!3m1!4b1!4m5!3m4!1s0x887789270076074f:0x15dd111d31761dc3!8m2!3d37.3044856!4d-89.5499589",rosatis_pizza,
Rosatis Pizza,407 Sycamore Rd,GENOA,IL,60135,,"https://www.google.com/maps/place/Rosati's+Pizza/@42.0871444,-88.6857079,17z/data=!3m1!4b1!4m5!3m4!1s0x880f31cc598c377d:0x14f8088f7dd18b02!8m2!3d42.0871444!4d-88.6857079",rosatis_pizza,
Rosatis Pizza,75 Gasser Rd,BARABOO,WI,53913,,"https://www.google.com/maps/place/Rosati's+Pizza/@43.5761782,-89.781176,17z/data=!3m1!4b1!4m5!3m4!1s0x88074576648f03d1:0xcea6a5ff6ece81d4!8m2!3d43.5761782!4d-89.781176",rosatis_pizza,
Rosatis Pizza,847 Joliet St,DYER,IN,46311,2195152730.0,"https://www.google.com/maps/place/Rosati's+Pizza+Dyer/@41.4944715,-87.5067043,17z/data=!3m1!4b1!4m5!3m4!1s0x8811e18762e4faa9:0x46c248854273bfb2!8m2!3d41.4944715!4d-87.5067043",rosatis_pizza,
Rosatis Pizza,953 West Diversey Pkwy,CHICAGO,IL,60614,7735709000.0,"https://www.google.com/maps/place/Rosati's+Pizza+-+Lincoln+Park/@41.932386,-87.6533588,17z/data=!3m1!4b1!4m5!3m4!1s0x880fd3012e09277f:0xd634b604288efb32!8m2!3d41.932386!4d-87.6533588",rosatis_pizza,
Rosatis Pizza,Swc Of Fm 1431 & Royal Ln,CEDAR PARK,TX,78613,,"https://www.google.com/maps/place/Rosati's+Pizza/@30.5175994,-97.8385753,17z/data=!3m1!4b1!4m5!3m4!1s0x865b2d1900006333:0x917b7d9d40fcc659!8m2!3d30.5175994!4d-97.8385753",rosatis_pizza,
Rosatis Pizza,1233 North Caron Rd,ROCHELLE,IL,61068,8155625000.0,"https://www.google.com/maps/place/Rosati's+Pizza/@41.936341,-89.0534684,17z/data=!3m1!4b1!4m5!3m4!1s0x8808dfd2a33c7545:0x512ee913a75a89c0!8m2!3d41.936341!4d-89.0534684",rosatis_pizza,
Rosatis Pizza,1729 North Dysart Rd,AVONDALE,AZ,85392,6024551000.0,"https://www.google.com/maps/place/Rosati's+Pizza+and+Sports+Pub/@33.4672089,-112.3392849,17z/data=!3m1!4b1!4m5!3m4!1s0x872b38b218e6370d:0xcc42ec7a6ef58205!8m2!3d33.4672089!4d-112.3392849",rosatis_pizza,
Rosatis Pizza,12720 South Route 59,PLAINFIELD,IL,60585,8155568575.0,"https://www.google.com/maps/place/Rosati's+Pizza+of+Plainfield/@41.6510299,-88.2041909,17z/data=!3m1!4b1!4m5!3m4!1s0x880ef5cb99955555:0x726bd8ab1f5d3476!8m2!3d41.6510299!4d-88.2041909",rosatis_pizza,
Rosatis Pizza,720 East 31St St,LA GRANGE PARK,IL,60526,7083400400.0,"https://www.google.com/maps/place/Rosati's+Pizza/@41.8341363,-87.8661961,17z/data=!3m1!4b1!4m5!3m4!1s0x880e4a1195815555:0x207d9f062b0f4b74!8m2!3d41.8341363!4d-87.8661961",rosatis_pizza,
