Company Name,Address 1,City,State,Zip,Phone,Google Link,Company Name Processed,Status
Sbarro,66 West Town Mall,MADISON,WI,53719,6084242698.0,"https://www.google.com/maps/place/Sbarro/@43.0569679,-89.5055642,17z/data=!3m1!4b1!4m5!3m4!1s0x8807ae5586c473a5:0x5b091a5edafafcc6!8m2!3d43.0569679!4d-89.5055642",sbarro,
Sbarro,7501 W Cermak Rd,NORTH RIVERSIDE,IL,60546-2823,7084429737.0,"https://www.google.com/maps/place/Sbarro/@41.8473848,-87.8095735,17z/data=!3m1!4b1!4m5!3m4!1s0x880e344ddd6fb2c5:0x13d83bf75da56f2e!8m2!3d41.8473848!4d-87.8095735",sbarro,
Sbarro,26300 Cedar Rd,BEACHWOOD,OH,44122-1158,2167557115.0,"https://www.google.com/maps/place/Sbarro/@41.498488,-81.4941423,17z/data=!3m1!4b1!4m5!3m4!1s0x88310269d19b9373:0xc5f8bffe54d08feb!8m2!3d41.498488!4d-81.4941423",sbarro,
Sbarro,1525 W W T Harris Blvd,CHARLOTTE,NC,28262-8522,7045904737.0,"https://www.google.com/maps/place/Sbarro/@35.3147884,-80.7679268,17z/data=!3m1!4b1!4m5!3m4!1s0x88541dce17adbda7:0xd052b5a3bf676e8e!8m2!3d35.3147884!4d-80.7679268",sbarro,
Sbarro,3100 South West College Rd,OCALA,FL,34474,3522368801.0,"https://www.google.com/maps/place/Sbarro/@29.1590819,-82.1730628,17z/data=!3m1!4b1!4m5!3m4!1s0x88e7d51db9a9664f:0xb57b04e07c0888de!8m2!3d29.1590819!4d-82.1730628",sbarro,
Sbarro,5900 Montana St,EL PASO,TX,79925-3250,9153087460.0,"https://www.google.com/maps/place/Sbarro/@31.7836674,-106.411628,17z/data=!3m1!4b1!4m5!3m4!1s0x86e75a49725f3df5:0xd1237df7e9048bc6!8m2!3d31.7836674!4d-106.411628",sbarro,
Sbarro,7804 Abercorn St,SAVANNAH,GA,31406-3502,9123031400.0,"https://www.google.com/maps/place/Sbarro/@32.0024578,-81.1173881,17z/data=!3m1!4b1!4m5!3m4!1s0x88fb75aaffc0a71d:0xe8f6b5da33196d39!8m2!3d32.0024578!4d-81.1173881",sbarro,
Sbarro,1206 Elizabeth Ave,CHARLOTTE,NC,28204,7045953338.0,"https://www.google.com/maps/place/Sbarro/@35.2170226,-80.8310888,17z/data=!3m1!4b1!4m5!3m4!1s0x88569ff544ad7d7d:0x5c30cc5361fd26a1!8m2!3d35.2170226!4d-80.8310888",sbarro,
Sbarro,350 West Hillcrest Dr,THOUSAND OAKS,CA,91360,8052779115.0,"https://www.google.com/maps/place/Sbarro/@34.1850432,-118.8912776,17z/data=!4m5!3m4!1s0x80e83a996ff0c567:0x7431f81c139631f0!8m2!3d34.1850388!4d-118.8890889?hl=en",sbarro,
Sbarro,1450 Ala Moana Blvd,HONOLULU,HI,96814-4606,8089551665.0,"https://www.google.com/maps/place/Sbarro/@21.2910059,-157.844157,17z/data=!3m1!4b1!4m5!3m4!1s0x7c006df045a36271:0x281aba24ff6760d1!8m2!3d21.2910059!4d-157.844157",sbarro,
Sbarro,5100 N 9th Ave,PENSACOLA,FL,32504-8763,8508570770.0,"https://www.google.com/maps/place/Sbarro/@30.4746815,-87.2072548,17z/data=!3m1!4b1!4m5!3m4!1s0x8890c06cac15b67d:0xdf6233082d07a691!8m2!3d30.4746815!4d-87.2072548",sbarro,
Sbarro,3645 N High St,COLUMBUS,OH,43214-3508,6142610321.0,"https://www.google.com/maps/place/Neighborhood+Sbarro/@40.0365147,-83.0174918,17z/data=!3m1!4b1!4m5!3m4!1s0x88388c3f9c2c0a33:0x3a6a960c6c722c12!8m2!3d40.0365147!4d-83.0174918",sbarro,
Sbarro,7601 S Cicero Ave,CHICAGO,IL,60652-1071,7737676860.0,"https://www.google.com/maps/place/Sbarro/@41.7573915,-87.7369715,17z/data=!3m1!4b1!4m5!3m4!1s0x880e308bf1bd2e8b:0xfb69302f692810c2!8m2!3d41.7573915!4d-87.7369715",sbarro,
Sbarro,1500 Polaris Pkwy,COLUMBUS,OH,43240-2131,6148800816.0,"https://www.google.com/maps/place/Sbarro/@40.1456242,-82.9820576,17z/data=!3m1!4b1!4m5!3m4!1s0x8838f46528e27405:0xf91c40cacefb0a75!8m2!3d40.1456242!4d-82.9820576",sbarro,
Sbarro,1700 Volusia Ave,DAYTONA BEACH,FL,32114-1397,3862480062.0,"https://www.google.com/maps/place/Sbarro/@29.1969733,-81.0623455,17z/data=!3m1!4b1!4m5!3m4!1s0x88e6d96cbdce72e7:0x7c85783313fca97d!8m2!3d29.1969733!4d-81.0623455",sbarro,
Sbarro,200 Commerce St,NASHVILLE,TN,37201-1807,6152567393.0,"https://www.google.com/maps/place/Sbarro/@36.1633872,-86.7763671,17z/data=!3m1!4b1!4m5!3m4!1s0x886467b16fc50375:0x2c9388703836895e!8m2!3d36.1633872!4d-86.7763671",sbarro,
Sbarro,3159 28th St SE,GRANDVILLE,MI,49508,6162858170.0,"https://www.google.com/maps/place/Sbarro/@42.912522,-85.5890488,17z/data=!3m1!4b1!4m5!3m4!1s0x88184d391b64f8b9:0x95555907b76d4d5!8m2!3d42.912522!4d-85.5890488",sbarro,
Sbarro,2288 Southlake Mall,MERRILLVILLE,IN,46410-6441,2197565531.0,"https://www.google.com/maps/place/Sbarro/@41.4690599,-87.3095337,17z/data=!3m1!4b1!4m5!3m4!1s0x8811ee97fbf07fcd:0x410b084cfe0ab073!8m2!3d41.4690599!4d-87.3095337",sbarro,
Sbarro,Pennsylvania Turnpike MP 147.3,BEDFORD,PA,15522,8144582024.0,"https://www.google.com/maps/place/Sbarro/@40.0300333,-78.4931639,17z/data=!3m1!4b1!4m5!3m4!1s0x89ca525927bec665:0x45ffad2cb434f795!8m2!3d40.0300333!4d-78.4931639",sbarro,
Sbarro,7100 Foundry Rd,LIBERTY TOWNSHIP,OH,45069,5134438300.0,"https://www.google.com/maps/place/Sbarro/@39.3715497,-84.3698918,17z/data=!3m1!4b1!4m5!3m4!1s0x88405a3e1be16de5:0x267fa184c16caf43!8m2!3d39.3715497!4d-84.3698918",sbarro,
Sbarro,95 Northmooreland Rd,BROOKFIELD,WI,53005,2622220805.0,"https://www.google.com/maps/place/Sbarro/@43.0309314,-88.1110034,17z/data=!4m5!3m4!1s0x880506680eccae7f:0xc291b956c90416a2!8m2!3d43.0309275!4d-88.1088147?hl=en",sbarro,
Sbarro,303 Memorial City Way,HOUSTON,TX,77024,2818466008.0,"https://www.google.com/maps/place/Sbarro/@29.7806517,-95.5403779,17z/data=!3m1!4b1!4m5!3m4!1s0x8640c4bcedd49525:0x4b1a8a1c8671c3fe!8m2!3d29.7806517!4d-95.5403779",sbarro,
Sbarro,2800 N Main St,SANTA ANA,CA,92705,7145649005.0,"https://www.google.com/maps/place/Sbarro/@33.7755221,-117.8707811,17z/data=!3m1!4b1!4m5!3m4!1s0x80dcd9ceb812e677:0xccf9c13d4d519eab!8m2!3d33.7755221!4d-117.8707811",sbarro,
Sbarro,4125 Cleveland Ave,FORT MYERS,FL,33901-9069,2399316015.0,"https://www.google.com/maps/place/Sbarro/@26.6015082,-81.8692164,17z/data=!3m1!4b1!4m5!3m4!1s0x88db4027d6adb5ab:0xb0a4aac92dbae502!8m2!3d26.6015082!4d-81.8692164",sbarro,
Sbarro,4201 Coldwater Rd,FORT WAYNE,IN,46805-1186,2604715999.0,"https://www.google.com/maps/place/Sbarro/@41.1145783,-85.1394689,17z/data=!3m1!4b1!4m5!3m4!1s0x8815e37247efcef5:0x8b608fa9b8edfa98!8m2!3d41.1145783!4d-85.1394689",sbarro,
Sbarro,4007 Broadway,NEW YORK,NY,10032-1508,3473846150.0,"https://www.google.com/maps/place/Neighborhood+Sbarro/@40.8414554,-73.9398616,17z/data=!3m1!4b1!4m5!3m4!1s0x89c2f69c47a01d99:0x5ffd462b015def1b!8m2!3d40.8414554!4d-73.9398616",sbarro,
Sbarro,1012 North Courty Rd,CLYDE,OH,43410,4195474409.0,"https://www.google.com/maps/place/Sbarro/@41.3691927,-82.9575513,18z/data=!3m1!4b1!4m5!3m4!1s0x883bcc0a4cd54e29:0x11ee4ce74f50193e!8m2!3d41.3691907!4d-82.956457?hl=en",sbarro,
Sbarro,8000 Essington Ave,PHILADELPHIA,PA,19153,2679878051.0,"https://www.google.com/maps/place/Sbarro/@39.8856402,-75.2442209,15z/data=!4m8!1m2!2m1!1sSbarro+8000+Essington+Ave+PHILADELPHIA+PA+19153!3m4!1s0x89c6c362161add69:0x5bd19a578401d973!8m2!3d39.8951764!4d-75.2279678?hl=en",sbarro,
Sbarro,2165 Brea Mall,BREA,CA,92821-5763,7145293491.0,"https://www.google.com/maps/place/Sbarro/@33.916196,-117.885907,17z/data=!3m1!4b1!4m5!3m4!1s0x80dcd50425555555:0x777be5236e62e718!8m2!3d33.916196!4d-117.885907",sbarro,
Sbarro,4601 E Main St,FARMINGTON,NM,87402-8688,5053258455.0,"https://www.google.com/maps/place/Sbarro/@36.7626831,-108.1506494,17z/data=!3m1!4b1!4m5!3m4!1s0x873b8f3188fbef95:0x55fc6386e2a54d5c!8m2!3d36.7626831!4d-108.1506494",sbarro,
Sbarro,1451 Ocean Dr,MIAMI BEACH,FL,33139,3057776954.0,"https://www.google.com/maps/place/Sbarro/@26.0145171,-80.5355967,10z/data=!4m8!1m2!2m1!1sSbarro+1451+Ocean+Dr+MIAMI+BEACH+FL+33139!3m4!1s0x88d9b535d41add47:0x734d7577af403235!8m2!3d25.7869394!4d-80.1293808?hl=en",sbarro,
Sbarro,318 Inland Ctr,SAN BERNARDINO,CA,92408-1917,9093841361.0,"https://www.google.com/maps/place/Sbarro/@34.0916424,-117.2946115,17z/data=!3m1!4b1!4m5!3m4!1s0x80dcaccb008e45fb:0x27626bdc1272b738!8m2!3d34.0916424!4d-117.2946115",sbarro,
Sbarro,3 S Tunnel Rd,ASHEVILLE,NC,28805-2270,8282960933.0,"https://www.google.com/maps/place/Sbarro/@35.5791471,-82.5257643,17z/data=!3m1!4b1!4m5!3m4!1s0x8859f3717628aa25:0x939b1f64558e12ec!8m2!3d35.5791471!4d-82.5257643",sbarro,
Sbarro,700 East Tri-State Toll Rd,SOUTH HOLLAND,IL,60473,7083393300.0,"https://www.google.com/maps/place/Sbarro/@41.5789852,-87.5991611,17z/data=!3m1!4b1!4m5!3m4!1s0x880e21e331c635a1:0xba3c04efd5c5be26!8m2!3d41.5789852!4d-87.5991611",sbarro,
Sbarro,60 Smithfield Blvd,PLATTSBURGH,NY,12901-2154,5185636653.0,"https://www.google.com/maps/place/Sbarro/@44.7025675,-73.4911641,17z/data=!3m1!4b1!4m5!3m4!1s0x4cca388127bc41e1:0x262783e153c188da!8m2!3d44.7025675!4d-73.4911641",sbarro,
Sbarro,516 Chicago Ridge Mall,CHICAGO RIDGE,IL,60415-2605,7084249845.0,"https://www.google.com/maps/place/Sbarro/@41.7194654,-87.7825341,17z/data=!3m1!4b1!4m5!3m4!1s0x880e398c30edd337:0x6c14397f043ed60c!8m2!3d41.7194654!4d-87.7825341",sbarro,
Sbarro,1 Hudson Pl,HOBOKEN,NJ,07030-6753,2012160888.0,"https://www.google.com/maps/place/Sbarro/@40.734846,-74.02965,17z/data=!3m1!4b1!4m5!3m4!1s0x89c259e23646bce1:0x1f66439648c2d34e!8m2!3d40.734846!4d-74.02965",sbarro,
Sbarro,3265 W Market St,FAIRLAWN,OH,44333-3310,3308366613.0,"https://www.google.com/maps/place/Sbarro/@41.133927,-81.6176998,17z/data=!3m1!4b1!4m5!3m4!1s0x8830d0a71c6395bb:0xc1ce4ac0d1c8fb7e!8m2!3d41.133927!4d-81.6176998",sbarro,
Sbarro,3340 Mall Loop Dr,JOLIET,IL,60431-1189,8154369342.0,"https://www.google.com/maps/place/Sbarro/@41.5763525,-88.1654331,17z/data=!3m1!4b1!4m5!3m4!1s0x880e601d102b6477:0x19b514d43ec7dc29!8m2!3d41.5763525!4d-88.1654331",sbarro,
Sbarro,777 W Convention Way,ANAHEIM,CA,92802-3425,7149714664.0,"https://www.google.com/maps/place/Sbarro/@33.8008326,-117.9205334,17z/data=!4m5!3m4!1s0x80dcd7dde602410d:0x3711499e27825a60!8m2!3d33.8008282!4d-117.9183447?hl=en",sbarro,
Sbarro,89 East Towne Mall,MADISON,WI,53704,6082371701.0,"https://www.google.com/maps/place/Sbarro/@43.125683,-89.3057538,17z/data=!3m1!4b1!4m5!3m4!1s0x8806568d81e58f13:0x6c08c14f71070358!8m2!3d43.125683!4d-89.3057538",sbarro,
Sbarro,2601 Preston Rd,FRISCO,TX,75034-9005,9723778513.0,"https://www.google.com/maps/place/Sbarro/@33.0991992,-96.81132,17z/data=!3m1!4b1!4m5!3m4!1s0x864c3ceb3e112c2f:0x9afc0e19e8a39b66!8m2!3d33.0991992!4d-96.81132",sbarro,
Sbarro,7401 Market St,YOUNGSTOWN,OH,44512-5646,3307585560.0,"https://www.google.com/maps/place/Sbarro/@41.0211415,-80.6602431,17z/data=!3m1!4b1!4m5!3m4!1s0x8833fa5f468e0f5d:0xfa8fd27d13804868!8m2!3d41.0211415!4d-80.6602431",sbarro,
Sbarro,250 Westshore Plz,TAMPA,FL,33609-1811,8132871456.0,"https://www.google.com/maps/place/Sbarro/@27.9466076,-82.5239717,17z/data=!3m1!4b1!4m5!3m4!1s0x88c2c2faeebc4ae9:0x48fbba1bdaa7e84c!8m2!3d27.9466076!4d-82.5239717",sbarro,
Sbarro,2186 N Point Cir,ALPHARETTA,GA,30022-6587,7706671886.0,"https://www.google.com/maps/place/Sbarro/@34.0483134,-84.2951251,17z/data=!3m1!4b1!4m5!3m4!1s0x88f5751143308bb9:0x80b4222aa09970ed!8m2!3d34.0483134!4d-84.2951251",sbarro,
Sbarro,5300 San Dario Ave,LAREDO,TX,78041-3046,9567915299.0,"https://www.google.com/maps/place/Sbarro/@27.5522117,-99.5003146,17z/data=!3m1!4b1!4m5!3m4!1s0x866121aabb5d6e7b:0x54151103627ca655!8m2!3d27.5522117!4d-99.5003146",sbarro,
Sbarro,118 Fox Valley Ctr,AURORA,IL,60504-4106,6303756746.0,"https://www.google.com/maps/place/Sbarro/@41.7583477,-88.2125909,17z/data=!3m1!4b1!4m5!3m4!1s0x880ef9cec78299d9:0xeec751a667245b70!8m2!3d41.7583477!4d-88.2125909",sbarro,
Sbarro,7065 North 475 E,HOWE,IN,46746,2606385902.0,"https://www.google.com/maps/place/Sbarro/@41.7459797,-85.3365001,16z/data=!4m8!1m2!2m1!1sSbarro+5000+East+750+N+HOWE+IN+46746!3m4!1s0x88164964613eb0cf:0xa3ef5f87981acbc9!8m2!3d41.7449029!4d-85.3354394?hl=en",sbarro,
Sbarro,1701 Sunrise Hwy,BAY SHORE,NY,11706-6040,6318070968.0,"https://www.google.com/maps/place/Sbarro/@40.7404383,-73.247081,17z/data=!3m1!4b1!4m5!3m4!1s0x89e832448097dc73:0x25fcfcbbfeab2cbe!8m2!3d40.7404383!4d-73.247081",sbarro,
Sbarro,Maine Turnpike S Mile 25 S,KENNEBUNK,ME,4043,2079942277.0,"https://www.google.com/maps/place/Sbarro/@43.4100389,-70.5631724,17z/data=!4m5!3m4!1s0x4cb2ae05276277ff:0xbe3bc39ea59b414!8m2!3d43.410035!4d-70.5609837?hl=en",sbarro,
Sbarro,1 Walden Galleria,BUFFALO,NY,14225-5408,7166853238.0,"https://www.google.com/maps/place/Sbarro/@42.9135693,-78.7633117,17z/data=!3m1!4b1!4m5!3m4!1s0x89d30cbd9539f825:0x47ed3cca64a5f7a1!8m2!3d42.9135693!4d-78.7633117",sbarro,
Sbarro,1018 Eden Prairie Ctr,EDEN PRAIRIE,MN,55344,9529415338.0,"https://www.google.com/maps/place/Sbarro/@44.8540416,-93.4246759,17z/data=!3m1!4b1!4m5!3m4!1s0x87f6189f4b3c99bf:0xa1eb7f8c04c50a14!8m2!3d44.8540416!4d-93.4246759",sbarro,
Sbarro,358 B Broadway Mall Food Court Rte,HICKSVILLE,NY,11801,5166817100.0,"https://www.google.com/maps/place/Sbarro/@40.7742033,-73.5328401,17z/data=!3m1!4b1!4m5!3m4!1s0x89c281192aba4221:0x6c9eaceceb58a8e2!8m2!3d40.7742033!4d-73.5328401",sbarro,
Sbarro,5365 State Route 233,WESTMORELAND,NY,13490,3158533605.0,"https://www.google.com/maps/place/Sbarro/@43.125044,-75.4145489,17z/data=!3m1!4b1!4m5!3m4!1s0x89d96ba6c31f5d7f:0xc769d067b0339ee8!8m2!3d43.125044!4d-75.4145489",sbarro,
Sbarro,159 W 33rd St,NEW YORK,NY,10001-2919,2125641909.0,"https://www.google.com/maps/place/Sbarro/@40.7503374,-73.9907964,17z/data=!3m1!4b1!4m5!3m4!1s0x89c259ae9485299b:0x8b3fcf671f63ac6b!8m2!3d40.7503374!4d-73.9907964",sbarro,
Sbarro,11401 NW 12th St,MIAMI,FL,33172-6905,3057188211.0,"https://www.google.com/maps/place/Sbarro/@25.788811,-80.3817622,17z/data=!3m1!4b1!4m5!3m4!1s0x88d9bec5fc96258b:0xb52a879daae51cae!8m2!3d25.788811!4d-80.3817622",sbarro,
Sbarro,12801 W Sunrise Blvd,SUNRISE,FL,33323-4002,9548462573.0,"https://www.google.com/maps/place/Sbarro/@26.1492611,-80.3233561,17z/data=!3m1!4b1!4m5!3m4!1s0x88d909a64af867e5:0x630f1f80259b710!8m2!3d26.1492611!4d-80.3233561",sbarro,
Sbarro,72840 Highway 111,PALM DESERT,CA,92260-7102,7608360394.0,"https://www.google.com/maps/place/Sbarro/@33.7238154,-116.3941327,17z/data=!3m1!4b1!4m5!3m4!1s0x80dafde06c893357:0xaf68e00e1a6ed5dc!8m2!3d33.7238154!4d-116.3941327",sbarro,
Sbarro,7007 Friars Rd,SAN DIEGO,CA,92108-1146,6192944515.0,"https://www.google.com/maps/place/Sbarro/@32.7677907,-117.1666005,17z/data=!3m1!4b1!4m5!3m4!1s0x80d9553162b758f9:0x9456ed28ce7bd05c!8m2!3d32.7677907!4d-117.1666005",sbarro,
Sbarro,84 Joyce Kilmer Ave,PISCATAWAY,NJ,08854-8045,7324452779.0,"https://www.google.com/maps/place/Sbarro/@40.5249522,-74.438035,17z/data=!4m5!3m4!1s0x89c3c796576f04b9:0x9a03a11d5e05a2c4!8m2!3d40.5249481!4d-74.4358463?hl=en",sbarro,
Sbarro,5554 West Fullerton Ave,CHICAGO,IL,60639,8727601000.0,"https://www.google.com/maps/place/Neighborhood+Sbarro/@41.92426,-87.76577,17z/data=!3m1!4b1!4m5!3m4!1s0x880fcd303cf8aa63:0x258aee5bb10ad271!8m2!3d41.92426!4d-87.76577",sbarro,
Sbarro,1 Connecticut Tpke E,DARIEN,CT,6820,2034067724.0,"https://www.google.com/maps/place/Sbarro/@41.0807509,-73.4612283,17z/data=!3m1!4b1!4m5!3m4!1s0x89c2a04e59180fd9:0x445314e46670ee40!8m2!3d41.0807509!4d-73.4612283",sbarro,
Sbarro,4500 W Tropicana Ave,LAS VEGAS,NV,89103-5420,7022479633.0,"https://www.google.com/maps/place/Sbarro/@36.1025498,-115.2016926,17z/data=!3m1!4b1!4m5!3m4!1s0x80c8c688b21f56d9:0x896ea97ed339cb82!8m2!3d36.1025498!4d-115.2016926",sbarro,
Sbarro,3301 Veterans Blvd,METAIRIE,LA,70002,5048350326.0,"https://www.google.com/maps/place/Sbarro/@30.0040258,-90.1565742,17z/data=!3m1!4b1!4m5!3m4!1s0x8620b024e6d28345:0xb04eb0ab867d4883!8m2!3d30.0040258!4d-90.1565742",sbarro,
Sbarro,7700 W Arrowhead Towne Ctr,GLENDALE,AZ,85308-8661,6234122034.0,"https://www.google.com/maps/place/Sbarro/@33.6423643,-112.2250509,17z/data=!3m1!4b1!4m5!3m4!1s0x872b68254714e26b:0x7c2c54e2a1b70be5!8m2!3d33.6423643!4d-112.2250509",sbarro,
Sbarro,28 Hub Robeson Center,UNIVERSITY PARK,PA,16802,8148657623.0,"https://www.google.com/maps/place/Sbarro/@40.798005,-77.861671,17z/data=!3m1!4b1!4m5!3m4!1s0x89cea89fb9c8ce57:0xa3776e16b9234ae9!8m2!3d40.798005!4d-77.861671",sbarro,
Sbarro,1365 East 6Th Ave,DENVER,CO,80218,3033600611.0,"https://www.google.com/maps/place/Sbarro/@39.7072072,-104.8264551,17z/data=!3m1!5s0x876c62c2bdd500dd:0x7edf0a3a21b22690!4m5!3m4!1s0x876c62c2d4c4f83b:0xa5adba763f878246!8m2!3d39.7072031!4d-104.8242664?hl=en",sbarro,
Sbarro,200 Mall Circle Dr,MONROEVILLE,PA,15146-2204,4128568131.0,"https://www.google.com/maps/place/Sbarro/@40.4295192,-79.7947472,17z/data=!3m1!4b1!4m5!3m4!1s0x8834ebd965a215ab:0x7b675b99d7fc1e7c!8m2!3d40.4295192!4d-79.7947472",sbarro,
Sbarro,327 Industrial Park Rd,SOMERSET,PA,15501,8144449764.0,"https://www.google.com/maps/place/Sbarro/@39.9989846,-79.0464081,17z/data=!3m1!4b1!4m5!3m4!1s0x89cadd213cdeab0b:0xc08c449e142d6570!8m2!3d39.9989846!4d-79.0464081",sbarro,
Sbarro,2701 Ming Ave,BAKERSFIELD,CA,93304-4415,6613970748.0,"https://www.google.com/maps/place/Sbarro/@35.3375669,-119.0350857,17z/data=!3m1!4b1!4m5!3m4!1s0x80ea6a70062fcce7:0x2e2973c201e428ad!8m2!3d35.3375669!4d-119.0350857",sbarro,
Sbarro,100 Twin River Rd,LINCOLN,RI,02865-4835,4014756755.0,"https://www.google.com/maps/place/Sbarro/@41.8880154,-71.4486745,17z/data=!3m1!4b1!4m5!3m4!1s0x89e443a55fbec78f:0xfe931f7b8bbaff58!8m2!3d41.8880154!4d-71.4486745",sbarro,
Sbarro,4200 Conroy Rd,ORLANDO,FL,32839-2441,4073458555.0,"https://www.google.com/maps/place/Sbarro/@28.484935,-81.431821,17z/data=!3m1!4b1!4m5!3m4!1s0x88e77ea893b83cbf:0x4144c9a5bc120529!8m2!3d28.484935!4d-81.431821",sbarro,
Sbarro,21738 County Road M50,WEST UNITY,OH,43570-9678,4199242393.0,"https://www.google.com/maps/place/Sbarro/@41.6053391,-84.4083865,17z/data=!3m1!4b1!4m5!3m4!1s0x883db0376698a6af:0x4aeb2f074b17e9a8!8m2!3d41.6053391!4d-84.4083865",sbarro,
Sbarro,5959 Triangle Town Blvd,RALEIGH,NC,27616,9192999503.0,"https://www.google.com/maps/place/Sbarro/@35.8671379,-78.5773362,17z/data=!4m5!3m4!1s0x89ac59c5dced525b:0xf8b9d9c590e5f5ff!8m2!3d35.8671336!4d-78.5751475?hl=en",sbarro,
Sbarro,1110 Mall Cir,WALDORF,MD,20603,3017058115.0,"https://www.google.com/maps/place/Sbarro/@38.6177138,-76.9255784,17z/data=!3m1!4b1!4m5!3m4!1s0x89b7a72e43219381:0x1cd4c95332b1f022!8m2!3d38.6177138!4d-76.9255784",sbarro,
Sbarro,125 Stratford Square Mall,BLOOMINGDALE,IL,60108-2202,6309249881.0,"https://www.google.com/maps/place/Sbarro/@41.9485014,-88.1158129,17z/data=!3m1!4b1!4m5!3m4!1s0x880faba6bf718173:0x7fc5bdacbe737422!8m2!3d41.9485014!4d-88.1158129",sbarro,
Sbarro,2063 Town East Mall,MESQUITE,TX,75150-4118,9726867222.0,"https://www.google.com/maps/place/Sbarro/@32.8076639,-96.6236781,17z/data=!3m1!4b1!4m5!3m4!1s0x864ea42e9c21ca1b:0xa4d9a5d46a7cff18!8m2!3d32.8076639!4d-96.6236781",sbarro,
Sbarro,3333 Buford Dr,BUFORD,GA,30519-4976,6784824389.0,"https://www.google.com/maps/place/Sbarro/@34.0649273,-83.9838949,17z/data=!3m1!4b1!4m5!3m4!1s0x88f5945adbcf9609:0x4d304ae4eede4dbe!8m2!3d34.0649273!4d-83.9838949",sbarro,
Sbarro,27298 Novi Rd,NOVI,MI,48377-3412,2483476162.0,"https://www.google.com/maps/place/Sbarro/@42.4882822,-83.4758275,17z/data=!3m1!4b1!4m5!3m4!1s0x8824af1b5bb63537:0xcde9ec419c8758b3!8m2!3d42.4882822!4d-83.4758275",sbarro,
Sbarro,2108 Santa Rosa Plz,SANTA ROSA,CA,95401-6304,7075797848.0,"https://www.google.com/maps/place/Sbarro/@38.4383752,-122.7180127,17z/data=!3m1!5s0x808447ffbf5638cd:0x7edf0a3a6f664cc0!4m5!3m4!1s0x808438009ebfb751:0xbd18be48d9e14d9f!8m2!3d38.438371!4d-122.715824?hl=en",sbarro,
Sbarro,3000 Grapevine Mills Pkwy,GRAPEVINE,TX,76051-2024,9725399847.0,"https://www.google.com/maps/place/Sbarro/@32.9661856,-97.0426273,17z/data=!3m1!4b1!4m5!3m4!1s0x864c2b86a610e9b7:0xe85933afd6264578!8m2!3d32.9661856!4d-97.0426273",sbarro,
Sbarro,114 Yorktown Shopping Ctr,LOMBARD,IL,60108,6304952755.0,"https://www.google.com/maps/place/Sbarro/@41.8395717,-88.0059184,17z/data=!3m1!4b1!4m5!3m4!1s0x880e4ded9b05e175:0x1656e7da9dc6d192!8m2!3d41.8395717!4d-88.0059184",sbarro,
Sbarro,3645 Las Vegas Blvd S,LAS VEGAS,NV,89109-4321,7028363382.0,"https://www.google.com/maps/place/Sbarro/@36.1139177,-115.169504,17z/data=!4m5!3m4!1s0x80c8c430977eb67d:0x3365348233a75106!8m2!3d36.1139134!4d-115.1673153?hl=en",sbarro,
Sbarro,333 S State St,CHICAGO,IL,60604-3936,3126631070.0,"https://www.google.com/maps/place/Sbarro/@41.877527,-87.6294509,17z/data=!4m5!3m4!1s0x880e2ca2d8bbfb49:0xc6b433f9000b0059!8m2!3d41.877523!4d-87.6272622?hl=en",sbarro,
Sbarro,5015 Westheimer Rd,HOUSTON,TX,77056-5691,7138770605.0,"https://www.google.com/maps/place/Sbarro/@29.738968,-95.4625174,17z/data=!3m1!4b1!4m5!3m4!1s0x8640c11bfe0a7db5:0x15f1814922ca2aeb!8m2!3d29.738968!4d-95.4625174",sbarro,
Sbarro,11750 Fair Oaks Mall,FAIRFAX,VA,22033,7033480089.0,"https://www.google.com/maps/place/Sbarro/@38.86248,-77.3599874,17z/data=!3m1!5s0x89b64f410433bd65:0x7edf0a3a4a8c8840!4m5!3m4!1s0x89b64f41a70e975f:0xe3243b31e95b08a9!8m2!3d38.8624758!4d-77.3577987?hl=en",sbarro,
Sbarro,273 Clarks Falls Rd,NORTH STONINGTON,CT,06359-1406,8605992020.0,"https://www.google.com/maps/place/Johnny+Pastrami/@41.4417778,-71.8026307,17z/data=!4m8!1m2!2m1!1sSbarro+273+Clarks+Falls+Rd+NORTH+STONINGTON+CT+06359-1406!3m4!1s0x89e5dcfdb2b23061:0x6215832a75981101!8m2!3d41.4418622!4d-71.8003816?hl=en",sbarro,
Sbarro,1800 Galleria Blvd,FRANKLIN,TN,37067-1697,6157712954.0,"https://www.google.com/maps/place/Sbarro/@35.9564471,-86.8143362,17z/data=!3m1!4b1!4m5!3m4!1s0x886479a0ac55f851:0xece160c3cb492375!8m2!3d35.9564471!4d-86.8143362",sbarro,
Sbarro,10672 Lancaster Road SE,HEBRON,OH,43235,7404672900.0,"https://www.google.com/maps/place/Sbarro/@39.939225,-82.5349701,17z/data=!3m1!4b1!4m5!3m4!1s0x883812e6b07cd275:0xd5d991e513319bb0!8m2!3d39.939225!4d-82.5349701",sbarro,
Sbarro,3450 Wrightsboro Rd,AUGUSTA,GA,30909-0505,7067360513.0,"https://www.google.com/maps/place/Sbarro/@33.4624467,-82.0790197,17z/data=!3m1!4b1!4m5!3m4!1s0x88f9d22dd574a871:0x88be8fd25fdb6a1d!8m2!3d33.4624467!4d-82.0790197",sbarro,
Sbarro,1668 Collins Ave,MIAMI BEACH,FL,33139-3137,3056749388.0,"https://www.google.com/maps/place/Sbarro/@25.7914534,-80.130142,17z/data=!3m1!4b1!4m5!3m4!1s0x88d9b49b2279ad25:0xc8734ade20879557!8m2!3d25.7914534!4d-80.130142",sbarro,
Sbarro,700 Haywood Rd,GREENVILLE,SC,29607-2748,8642349908.0,"https://www.google.com/maps/place/Sbarro/@34.8499322,-82.3335845,17z/data=!3m1!4b1!4m5!3m4!1s0x88582ee525950e3d:0x96cb3d2b684a6f23!8m2!3d34.8499322!4d-82.3335845",sbarro,
Sbarro,479 Sunrise Mall,MASSAPEQUA,NY,11758-4348,5167953580.0,"https://www.google.com/maps/place/Sbarro/@40.6834641,-73.4347527,17z/data=!3m1!4b1!4m5!3m4!1s0x89e9d50c3285edfd:0x4aee82792d171d8!8m2!3d40.6834641!4d-73.4347527",sbarro,
Sbarro,310 Daniel Webster Hwy,NASHUA,NH,03060-5730,6032064702.0,"https://www.google.com/maps/place/Sbarro/@42.7009715,-71.4363047,17z/data=!3m1!4b1!4m5!3m4!1s0x89e3ba6751421ad7:0xdfac162c4e30c67!8m2!3d42.7009715!4d-71.4363047",sbarro,
Sbarro,7900 Ritchie Hwy,GLEN BURNIE,MD,21061-4348,4107681090.0,"https://www.google.com/maps/place/Sbarro/@39.1384796,-76.6055277,17z/data=!3m1!4b1!4m5!3m4!1s0x89b7fc8df416decf:0x3801e20cd08c3953!8m2!3d39.1384796!4d-76.6055277",sbarro,
Sbarro,801 N Congress Ave,BOYNTON BEACH,FL,33426-3374,5617348013.0,"https://www.google.com/maps/place/Sbarro/@26.5356804,-80.0957433,17z/data=!3m1!4b1!4m5!3m4!1s0x88d8d8ab55bd0b43:0x80faf2f22c155bad!8m2!3d26.5356804!4d-80.0957433",sbarro,
Sbarro,1321 Columbia Center Blvd,KENNEWICK,WA,99336,5097857577.0,"https://www.google.com/maps/place/Sbarro/@46.2260286,-119.2283766,17z/data=!3m1!4b1!4m5!3m4!1s0x549879f553170547:0xbbc75573134db112!8m2!3d46.2260286!4d-119.2283766",sbarro,
Sbarro,6650 S Westnedge Ave,PORTAGE,MI,49002,2693272874.0,"https://www.google.com/maps/place/Sbarro/@42.2204937,-85.5943634,17z/data=!3m1!4b1!4m5!3m4!1s0x88179e1b2bc81065:0xebe5441618b7fa45!8m2!3d42.2204937!4d-85.5943634",sbarro,
Sbarro,2163 W Dublin Granville Rd,WORTHINGTON,OH,43085-3348,6148446213.0,"https://www.google.com/maps/place/Neighborhood+Sbarro/@40.0896405,-83.0480938,17z/data=!3m1!4b1!4m5!3m4!1s0x88388d3aa2c4d7c7:0x7385be250a9c37f!8m2!3d40.0896405!4d-83.0480938",sbarro,
Sbarro,4240 Belden Village Mall,CANTON,OH,44718-2504,3304949174.0,"https://www.google.com/maps/place/Sbarro/@40.8565663,-81.4291683,17z/data=!3m1!5s0x8836d134aef44fa1:0x7edf0a3a6fef213c!4m5!3m4!1s0x8836d134a0b28529:0x66c26b84a844b6ed!8m2!3d40.8565623!4d-81.4269796?hl=en",sbarro,
Sbarro,3449 Capital City Mall Dr,CAMP HILL,PA,17011,7177639101.0,"https://www.google.com/maps/place/Sbarro/@40.2226875,-76.9340325,17z/data=!3m1!4b1!4m5!3m4!1s0x89c8c20f8b153e31:0xce2e1123a4986936!8m2!3d40.2226875!4d-76.9340325",sbarro,
Sbarro,500 Winchester Ave,ASHLAND,KY,41101-7366,6063299022.0,"https://www.google.com/maps/place/Sbarro/@38.4833032,-82.653408,17z/data=!3m1!4b1!4m5!3m4!1s0x8846769f6fc49cf1:0xf177079a1176d7c3!8m2!3d38.4833032!4d-82.653408",sbarro,
Sbarro,4101 W Division St,SAINT CLOUD,MN,56301-6600,3202511004.0,"https://www.google.com/maps/place/Sbarro/@45.5562447,-94.2101279,17z/data=!3m1!4b1!4m5!3m4!1s0x52b45f04b79529e5:0xb07493b420f24e53!8m2!3d45.5562447!4d-94.2101279",sbarro,
Sbarro,1 Mills Cir,ONTARIO,CA,91764-5214,9099897093.0,"https://www.google.com/maps/place/Sbarro/@34.0734918,-117.5511284,17z/data=!3m1!4b1!4m5!3m4!1s0x80c3358161867805:0x5a1108bd728ef51c!8m2!3d34.0734918!4d-117.5511284",sbarro,
Sbarro,395 Santa Monica Pl,SANTA MONICA,CA,90401-2372,3104582584.0,"https://www.google.com/maps/place/Sbarro/@34.0138617,-118.4939796,17z/data=!3m1!4b1!4m5!3m4!1s0x80c2a4d1a6a2fb95:0x18ed8b362d8f266f!8m2!3d34.0138617!4d-118.4939796",sbarro,
Sbarro,3650 W Martin Luther King Jr Blvd,LOS ANGELES,CA,90008-1749,3232937101.0,"https://www.google.com/maps/place/Sbarro/@34.0110086,-118.3364738,17z/data=!3m1!4b1!4m5!3m4!1s0x80c2b82f4729b6f7:0xce01c87928c94876!8m2!3d34.0110086!4d-118.3364738",sbarro,
Sbarro,Garden State Pkwy MM 74.5,FORKED RIVER,NJ,8731,6096938275.0,"https://www.google.com/maps/place/Sbarro/@40.0185063,-74.4377355,11z/data=!4m8!1m2!2m1!1sSbarro+FORKED+RIVER+NJ!3m4!1s0x89c19ffefe8b8175:0xfd62603a5d1cedf!8m2!3d39.8742427!4d-74.2147104?hl=en",sbarro,
Sbarro,50 Union Ave,NEW HAVEN,CT,06519-1752,2037739392.0,"https://www.google.com/maps/place/Sbarro/@41.2973604,-72.9267668,17z/data=!3m1!4b1!4m5!3m4!1s0x89e7d848969699bf:0x2d8c06667267be0f!8m2!3d41.2973604!4d-72.9267668",sbarro,
Sbarro,2110 Dulles Town Cir,STERLING,VA,20166-2441,7034069058.0,"https://www.google.com/maps/place/Sbarro/@39.031398,-77.422777,17z/data=!3m1!4b1!4m5!3m4!1s0x89b6390aee6b029f:0x44ab3dcf472f2498!8m2!3d39.031398!4d-77.422777",sbarro,
Sbarro,3030 Plaza Bonita Rd,NATIONAL CITY,CA,91950-8009,6194794689.0,"https://www.google.com/maps/place/Sbarro/@32.6562124,-117.0658009,17z/data=!3m1!4b1!4m5!3m4!1s0x80d951e4b388ac2d:0xfe05228432ee8576!8m2!3d32.6562124!4d-117.0658009",sbarro,
Sbarro,New York State Thruway,SLOATSBURG,NY,10974,8457532701.0,"https://www.google.com/maps/place/Sbarro/@42.1077353,-75.8058815,8z/data=!4m8!1m2!2m1!1sSbarro+New+York+State+Thruway+SLOATSBURG+NY+10974!3m4!1s0x89c2dfc19282f399:0x8a3c55127c9bf8c2!8m2!3d41.1505498!4d-74.1878933?hl=en",sbarro,
Sbarro,9015 Queens Blvd,ELMHURST,NY,11373-4918,7182710681.0,"https://www.google.com/maps/place/Sbarro/@40.7344368,-73.8699596,17z/data=!3m1!4b1!4m5!3m4!1s0x89c25e4ea9028d05:0x9461163f96950119!8m2!3d40.7344368!4d-73.8699596",sbarro,
Sbarro,18900 Michigan Ave,DEARBORN,MI,48126-3929,3132717230.0,"https://www.google.com/maps/place/Sbarro/@42.3168762,-83.2228274,17z/data=!3m1!4b1!4m5!3m4!1s0x883b350ec68ea4df:0x585982199a33fd75!8m2!3d42.3168762!4d-83.2228274",sbarro,
Sbarro,1675 W 49th St,HIALEAH,FL,33012,3058211795.0,"https://www.google.com/maps/place/Sbarro/@25.8684958,-80.3180029,17z/data=!3m1!4b1!4m5!3m4!1s0x88d9bb1366392ff7:0xaf6995b235a9722b!8m2!3d25.8684958!4d-80.3180029",sbarro,
Sbarro,6000 Sepulveda Blvd,CULVER CITY,CA,90230-6432,3103916400.0,"https://www.google.com/maps/place/Sbarro/@33.9855414,-118.3933531,17z/data=!3m1!4b1!4m5!3m4!1s0x80c2b0ab655fa459:0x187d36b1f6b8f9c7!8m2!3d33.9855414!4d-118.3933531",sbarro,
Sbarro,5151 State University Dr,LOS ANGELES,CA,90032-4226,3232251464.0,"https://www.google.com/maps/place/Sbarro/@34.0620391,-118.1736587,17z/data=!3m1!4b1!4m5!3m4!1s0x80c2c59815f2044b:0x8184c23f4404b3f9!8m2!3d34.0620391!4d-118.1736587",sbarro,
Sbarro,222 Merchandise Mart Plz,CHICAGO,IL,60654-1103,3127550575.0,"https://www.google.com/maps/place/Sbarro/@41.8884136,-87.6376385,17z/data=!4m5!3m4!1s0x880e2cb45354d503:0xec956c20c84c549!8m2!3d41.8884096!4d-87.6354498?hl=en",sbarro,
Sbarro,537 Monmouth Rd,JACKSON,NJ,08527-5366,7328338090.0,"https://www.google.com/maps/place/Sbarro/@40.1616983,-74.4173516,17z/data=!3m1!4b1!4m5!3m4!1s0x89c16338277cc59b:0x5032ca8bc453da1b!8m2!3d40.1616983!4d-74.4173516",sbarro,
Sbarro,7875 Montgomery Rd,CINCINNATI,OH,45236-4379,5138917560.0,"https://www.google.com/maps/place/Sbarro/@39.2025796,-84.3771116,17z/data=!3m1!4b1!4m5!3m4!1s0x8840533f4dba6b3f:0x412f753017311b41!8m2!3d39.2025796!4d-84.3771116",sbarro,
Sbarro,6000 North Terminal Parkway,ATLANTA,GA,30320,4704405352.0,"https://www.google.com/maps/place/Sbarro/@33.6425563,-84.4327202,17z/data=!3m1!4b1!4m5!3m4!1s0x88f4e3a8e31ab941:0x4e97c61b65dbaf8c!8m2!3d33.6425563!4d-84.4327202",sbarro,
Sbarro,98-1005 Moanalua Rd,AIEA,HI,96701-4719,8084870503.0,"https://www.google.com/maps/place/Sbarro/@21.385219,-157.9417438,17z/data=!3m1!4b1!4m5!3m4!1s0x7c006f4d57b24cd5:0xa23f21eebc52211e!8m2!3d21.385219!4d-157.9417438",sbarro,
Sbarro,1961 Chain Bridge Rd,MCLEAN,VA,22102-4501,7032881717.0,"https://www.google.com/maps/place/Sbarro/@38.9170177,-77.2249825,17z/data=!3m1!5s0x89b64ae8843410c5:0xf16df7f7e05fef1b!4m5!3m4!1s0x89b64aefbbe5efeb:0xd696f66a924d6acb!8m2!3d38.9170135!4d-77.2227938?hl=en",sbarro,
Sbarro,3200 North Federal Highway Suite 602,FORT LAUDERDALE,FL,33306,7542005039.0,"https://www.google.com/maps/place/Sbarro/@26.5356804,-80.235819,11z/data=!4m8!1m2!2m1!1sSbarro+3200+North+Federal+Highway+Suite+602+FORT+LAUDERDALE+FL+33306!3m4!1s0x88d9013558734c8d:0xaa305e8f0c557ce2!8m2!3d26.1689519!4d-80.1162748?hl=en",sbarro,
Sbarro,Main Turnpike Mile 25,KENNEBUNK,ME,4043,2079942277.0,"https://www.google.com/maps/place/Sbarro/@43.410035,-70.5609837,17z/data=!3m1!4b1!4m5!3m4!1s0x4cb2ae05276277ff:0xbe3bc39ea59b414!8m2!3d43.410035!4d-70.5609837",sbarro,
Sbarro,5 Woodfield Mall,SCHAUMBURG,IL,60173,8472409756.0,"https://www.google.com/maps/place/Sbarro/@42.0475655,-88.0375505,17z/data=!3m1!4b1!4m5!3m4!1s0x880faf90e4242a53:0xb84fbbbf4f32601c!8m2!3d42.0475655!4d-88.0375505",sbarro,
Sbarro,1104 7th St NW,WASHINGTON,DC,20001-3602,2406714970.0,"https://www.google.com/maps/place/Sbarro/@38.9044808,-77.0221051,17z/data=!3m1!4b1!4m5!3m4!1s0x89b7b792abb6808b:0xc78176a9079d06e7!8m2!3d38.9044808!4d-77.0221051",sbarro,
Sbarro,10300 Forest Hill Blvd,WELLINGTON,FL,33414-3132,5612045166.0,"https://www.google.com/maps/place/Sbarro/@26.646513,-80.20817,17z/data=!3m1!4b1!4m5!3m4!1s0x88d925f55def899f:0x1472ec1c5ef2b90c!8m2!3d26.646513!4d-80.20817",sbarro,
Sbarro,5800 Northgate Dr,SAN RAFAEL,CA,94903-6831,4154721032.0,"https://www.google.com/maps/place/Sbarro/@38.004564,-122.544422,17z/data=!3m1!4b1!4m5!3m4!1s0x808597846223c4d7:0xb04adeb9a2c4a767!8m2!3d38.004564!4d-122.544422",sbarro,
Sbarro,3027 Charleston Town Center,CHARLESTON,WV,25389-0008,3043441138.0,"https://www.google.com/maps/place/Sbarro/@38.3543095,-81.6378444,17z/data=!3m1!4b1!4m5!3m4!1s0x884f2cd2f297389d:0xb0710a1e87645bb!8m2!3d38.3543095!4d-81.6378444",sbarro,
Sbarro,520 N Michigan Ave,CHICAGO,IL,60611-6982,8722427070.0,"https://www.google.com/maps/place/Sbarro/@41.8915297,-87.627074,17z/data=!4m5!3m4!1s0x880e2cac3f9d2d39:0x339aadaff13efcd3!8m2!3d41.8915257!4d-87.6248853?hl=en",sbarro,
Sbarro,13783 W Oasis Service Rd,LAKE FOREST,IL,60045-1024,8477359900.0,"https://www.google.com/maps/place/Sbarro/@42.2530548,-87.9017839,17z/data=!3m1!4b1!4m5!3m4!1s0x880f95ac6999be99:0xd721d503e8ccbc66!8m2!3d42.2530548!4d-87.9017839",sbarro,
Sbarro,4802 Valley View Blvd NW,ROANOKE,VA,24012-2062,5403661675.0,"https://www.google.com/maps/place/Sbarro/@37.3044217,-79.9632842,17z/data=!3m1!4b1!4m5!3m4!1s0x884d0e7d0233cda7:0x2da13d7f57834d00!8m2!3d37.3044217!4d-79.9632842",sbarro,
Sbarro,201 E Magnolia Blvd,BURBANK,CA,91501,8188454655.0,"https://www.google.com/maps/place/Sbarro/@34.1833774,-118.3124048,17z/data=!3m1!4b1!4m5!3m4!1s0x80c2955aba054cf1:0x130027266532460!8m2!3d34.1833774!4d-118.3124048",sbarro,
Sbarro,200 Bass Pro Dr,PEARL,MS,39208-9250,6019393800.0,"https://www.google.com/maps/place/Sbarro/@32.2728534,-90.1528871,17z/data=!3m1!4b1!4m5!3m4!1s0x86282df881d580c9:0x108d020a9bce2e61!8m2!3d32.2728534!4d-90.1528871",sbarro,
Sbarro,3200 S Airport Rd W,TRAVERSE CITY,MI,49684-8054,2319293951.0,"https://www.google.com/maps/place/Sbarro/@44.7248444,-85.6391183,17z/data=!3m1!4b1!4m5!3m4!1s0x881e330458886aa9:0x894216ff829b2a14!8m2!3d44.7248444!4d-85.6391183",sbarro,
Sbarro,2150 Northwoods Blvd,NORTH CHARLESTON,SC,29406-4084,8437970700.0,"https://www.google.com/maps/place/Sbarro/@32.9447225,-80.0447602,17z/data=!3m1!4b1!4m5!3m4!1s0x88fe63da86a87b85:0x288e35fb841882b5!8m2!3d32.9447225!4d-80.0447602",sbarro,
Sbarro,3001 Connecticut Ave NW,WASHINGTON,DC,20008,2028050666.0,"https://www.google.com/maps/place/Sbarro/@38.9319719,-77.0517829,17z/data=!3m1!4b1!4m5!3m4!1s0x89b7c98bb7e21c1d:0x26541f5cec3dfc4b!8m2!3d38.9319719!4d-77.0517829",sbarro,
Sbarro,11000 Terminal Access Rd,FORT MYERS,FL,33913-8209,2394823507.0,"https://www.google.com/maps/place/Sbarro/@26.5280417,-81.7548595,17z/data=!3m1!4b1!4m5!3m4!1s0x88db131361a98a97:0xff9153866fcd1a8d!8m2!3d26.5280417!4d-81.7548595",sbarro,
Sbarro,One Connecticut Turnpike East,MILFORD,CT,6460,2036932700.0,"https://www.google.com/maps/place/Sbarro/@41.2457897,-73.0085121,17z/data=!3m1!4b1!4m5!3m4!1s0x89e875b22931bb57:0xa6710f6c52e7191f!8m2!3d41.2457897!4d-73.0085121",sbarro,
Sbarro,800 Highway 400 S,DAWSONVILLE,GA,30534-8021,7062164131.0,"https://www.google.com/maps/place/Sbarro/@34.3567629,-84.0507314,17z/data=!3m1!5s0x88f589da0fed10f3:0xb825fcec1b5afc80!4m8!1m2!2m1!1sSbarro+800+Highway+400+S+DAWSONVILLE+GA+30534-8021!3m4!1s0x885f7cdcef489511:0x8ab5bf3d8d94206e!8m2!3d34.3567585!4d-84.0485427?hl=en",sbarro,
Sbarro,"3B 756, Corridor 7/8 Levels",WASHINGTON,DC,20310,7032718610.0,"https://www.google.com/maps/place/Sbarro/@38.9021422,-77.0652957,13z/data=!4m8!1m2!2m1!1sSbarro+WASHINGTON+DC!3m4!1s0x89b7b71e053f9a71:0x7f7e201e30ba4f32!8m2!3d38.8719431!4d-77.0555891?hl=en",sbarro,
Sbarro,127 Los Cerritos Mall,CERRITOS,CA,90701,5628659018.0,"https://www.google.com/maps/place/Sbarro/@33.8637152,-118.0955389,17z/data=!3m1!4b1!4m5!3m4!1s0x80dd2d74444799e7:0xa706b917172b0ccd!8m2!3d33.8637152!4d-118.0955389",sbarro,
Sbarro,100 Laurel Hill Ave,SECAUCUS,NJ,07094-1650,2013986845.0,"https://www.google.com/maps/place/Sbarro/@40.761273,-74.075725,17z/data=!3m1!4b1!4m5!3m4!1s0x89c25703d3c07cc5:0x61eb160108caec18!8m2!3d40.761273!4d-74.075725",sbarro,
Sbarro,1441 Tamiami Trl,PORT CHARLOTTE,FL,33948-4007,9416296616.0,"https://www.google.com/maps/place/Sbarro/@27.009081,-82.1470547,17z/data=!3m1!4b1!4m5!3m4!1s0x88dcabc9bdf9d707:0x1e5a27960d887533!8m2!3d27.009081!4d-82.1470547",sbarro,
Sbarro,5800 Tri State Toll Rd,HINSDALE,IL,60521-5801,6303219100.0,"https://www.google.com/maps/place/Sbarro/@41.7835178,-87.9079277,17z/data=!3m1!4b1!4m5!3m4!1s0x880e4b91e7d67ddb:0x40d50ca9d1136308!8m2!3d41.7835178!4d-87.9079277",sbarro,
Sbarro,2852 Whiteford Rd,YORK,PA,17402,7177556798.0,"https://www.google.com/maps/place/Sbarro/@39.9877722,-76.6736161,17z/data=!3m1!4b1!4m5!3m4!1s0x89c88fa6e95de25f:0xfa315fc74d1355d!8m2!3d39.9877722!4d-76.6736161",sbarro,
Sbarro,6170 Grand Ave,GURNEE,IL,60031-4552,8478559803.0,"https://www.google.com/maps/place/Sbarro/@42.3879599,-87.9578907,17z/data=!3m1!5s0x880f8e3c142d32b1:0xae56a016d36c6683!4m5!3m4!1s0x880f8e233c7b1d25:0x3f6046e60669854a!8m2!3d42.387956!4d-87.955702?hl=en",sbarro,
Sbarro,9585 SW Washington Square Rd,PORTLAND,OR,97223-4450,5036246872.0,"https://www.google.com/maps/place/Sbarro/@45.4502551,-122.7813094,17z/data=!3m1!4b1!4m5!3m4!1s0x54950c57cd3683f7:0x5b52e3614d890e7d!8m2!3d45.4502551!4d-122.7813094",sbarro,
Sbarro,2510 Pearl St,BELVIDERE,IL,61008-6012,8155446300.0,"https://www.google.com/maps/place/Sbarro/@42.2340485,-88.834776,17z/data=!3m1!4b1!4m5!3m4!1s0x8808b586462dde21:0x2e47538cc0bc0b0c!8m2!3d42.2340485!4d-88.834776",sbarro,
Sbarro,1 Crossgates Mall Road,ALBANY,NY,12203,5184521667.0,"https://www.google.com/maps/place/Sbarro/@42.6884897,-73.8492576,17z/data=!3m1!4b1!4m5!3m4!1s0x89de74ce5afd6815:0x4d4f1f69fd617abd!8m2!3d42.6884897!4d-73.8492576",sbarro,
Sbarro,1244 Franklin Mills Cir,PHILADELPHIA,PA,19154-3129,2156374729.0,"https://www.google.com/maps/place/Sbarro/@40.0846932,-74.9624778,17z/data=!3m1!4b1!4m5!3m4!1s0x89c14d32adf16bc9:0x70310d4266d983!8m2!3d40.0846932!4d-74.9624778",sbarro,
Sbarro,13350 Dallas Pkwy,DALLAS,TX,75240-6802,9727880036.0,"https://www.google.com/maps/place/Sbarro/@32.9316476,-96.8191965,17z/data=!3m1!4b1!4m5!3m4!1s0x864c20db6b5800cf:0xa038f3eaa443fd89!8m2!3d32.9316476!4d-96.8191965",sbarro,
Sbarro,100 Main St,WHITE PLAINS,NY,10601-2612,9143282086.0,"https://www.google.com/maps/place/Sbarro/@41.0315317,-73.7694815,17z/data=!3m1!4b1!4m5!3m4!1s0x89c29437dbbcb737:0xe72bfd53ee5f1785!8m2!3d41.0315317!4d-73.7694815",sbarro,
Sbarro,1689 Arden Way,SACRAMENTO,CA,95815-4089,9165640341.0,"https://www.google.com/maps/place/Sbarro/@38.601162,-121.4269354,17z/data=!3m1!4b1!4m5!3m4!1s0x809ada1e8ef9142f:0x6e473f5adac24a4a!8m2!3d38.601162!4d-121.4269354",sbarro,
Sbarro,3010 Pga Blvd,PALM BEACH GARDENS,FL,33410-2834,5614256020.0,"https://www.google.com/maps/place/Sbarro/@26.8484172,-80.0838296,17z/data=!3m1!4b1!4m5!3m4!1s0x88df2a97e5e9b855:0xec4bb9514ccfdebd!8m2!3d26.8484172!4d-80.0838296",sbarro,
Sbarro,689 Parkway Plz,EL CAJON,CA,92020-2534,8018609059.0,"https://www.google.com/maps/place/Sbarro/@32.8048124,-116.9672019,17z/data=!3m1!4b1!4m5!3m4!1s0x80d959174dc7eb9f:0x60c74dbf1db9a713!8m2!3d32.8048124!4d-116.9672019",sbarro,
Sbarro,8500 Essington Ave,PHILADELPHIA,PA,19153-3755,7173173946.0,"https://www.google.com/maps/place/Sbarro/@39.8760071,-75.2429644,17z/data=!3m1!4b1!4m5!3m4!1s0x89c6c484ce73ed45:0x77a8a7691e4f09fa!8m2!3d39.8760071!4d-75.2429644",sbarro,
Sbarro,"10,000 Aha Macav Pkwy",LAUGHLIN,NV,89029,7025355555.0,"https://www.google.com/maps/place/Sbarro/@35.0158056,-114.6427872,17z/data=!4m5!3m4!1s0x80ce3897c3441343:0xf4ab15e29f978e46!8m2!3d35.0158012!4d-114.6405985?hl=en",sbarro,
Sbarro,131 Colonie Ctr,ALBANY,NY,12205,5184822499.0,"https://www.google.com/maps/place/Sbarro/@42.710534,-73.8161246,17z/data=!3m1!4b1!4m5!3m4!1s0x89de0b8ca2a7172b:0x440e6840751d1da2!8m2!3d42.710534!4d-73.8161246",sbarro,
Sbarro,3700 Atlantic Highway,ATHENS,GA,30606,7063169549.0,"https://www.google.com/maps/place/Sbarro/@33.943716,-83.4669355,17z/data=!3m1!4b1!4m5!3m4!1s0x88f6728fffffffff:0x91073124918f9946!8m2!3d33.943716!4d-83.4669355",sbarro,
Sbarro,W Virginia Tpke,BECKLEY,WV,25801,3042556773.0,"https://www.google.com/maps/place/Sbarro/@38.0785388,-81.7054742,10z/data=!4m8!1m2!2m1!1sSbarro+W+Virginia+Tpke+BECKLEY+WV+25801!3m4!1s0x884ef2e05513b051:0x93bb581371f6ae3f!8m2!3d37.8023521!4d-81.2127397?hl=en",sbarro,
Sbarro,216 S. Del Amo Fashion Ctr,TORRENCE,CA,90503,3103719059.0,"https://www.google.com/maps/place/Sbarro/@33.829724,-118.349616,17z/data=!3m1!4b1!4m5!3m4!1s0x80dd4b2a1810b96d:0xc285eb6cb2904dc0!8m2!3d33.829724!4d-118.349616",sbarro,
Sbarro,3620 Palisades Center Dr,WEST NYACK,NY,10994-6200,8453580966.0,"https://www.google.com/maps/place/Sbarro/@41.0972658,-73.9572985,17z/data=!4m5!3m4!1s0x89c2e9e42c8b26fd:0xf5fb97fc2e53c02f!8m2!3d41.0972618!4d-73.9551098?hl=en",sbarro,
Sbarro,2100 Hamilton Place Blvd,CHATTANOOGA,TN,37421-6007,4238994570.0,"https://www.google.com/maps/place/Sbarro/@35.0384592,-85.1542558,17z/data=!3m1!4b1!4m5!3m4!1s0x886063862d82314d:0xebeb7b3a2e9a481c!8m2!3d35.0384592!4d-85.1542558",sbarro,
Sbarro,1982 W Grand River Ave,OKEMOS,MI,48864-1758,5173815380.0,"https://www.google.com/maps/place/Sbarro/@42.7255269,-84.4188506,17z/data=!3m1!4b1!4m5!3m4!1s0x8822dd5e9801062d:0x4cfd69637a931ed6!8m2!3d42.7255269!4d-84.4188506",sbarro,
Sbarro,2800 W Big Beaver Rd,TROY,MI,48084-3224,2488161918.0,"https://www.google.com/maps/place/Sbarro/@42.5601625,-83.1836882,17z/data=!3m1!4b1!4m5!3m4!1s0x8824c6957351eefd:0x77f1a51f2fe8d6f7!8m2!3d42.5601625!4d-83.1836882",sbarro,
Sbarro,230 Southpark Cir,COLONIAL HEIGHTS,VA,23834,8045209777.0,"https://www.google.com/maps/place/Sbarro/@37.2534596,-77.3934726,17z/data=!3m1!4b1!4m5!3m4!1s0x89b1a747dfaa231f:0xeb3260f2b58ecf3d!8m2!3d37.2534596!4d-77.3934726",sbarro,
Sbarro,390 South Blvd,BLOOMINGTON,MN,55425,9528519311.0,"https://www.google.com/maps/place/Sbarro/@44.8538198,-93.2436757,17z/data=!3m1!5s0x87f62f6c14c8285b:0x6a9ae4df118243b4!4m5!3m4!1s0x87f62f6c0825a707:0x7e6b74c84f802ed4!8m2!3d44.853816!4d-93.241487?hl=en",sbarro,
Sbarro,14006 Riverside Dr,SHERMAN OAKS,CA,91423-6385,9547169217.0,"https://www.google.com/maps/place/Sbarro/@34.1571414,-118.4373027,17z/data=!3m1!4b1!4m5!3m4!1s0x80c2972c5f9b004f:0xc185c93b7c48360f!8m2!3d34.1571414!4d-118.4373027",sbarro,
Sbarro,131 Stonewood St,DOWNEY,CA,90241-3904,5628619071.0,"https://www.google.com/maps/place/Sbarro/@33.938536,-118.1210491,17z/data=!3m1!4b1!4m5!3m4!1s0x80c2cd833a2c16d9:0xb5e268e277001ac0!8m2!3d33.938536!4d-118.1210491",sbarro,
Sbarro,4301 W Wisconsin Ave,APPLETON,WI,54913-6525,9209936515.0,"https://www.google.com/maps/place/Sbarro/@44.2684201,-88.4708022,17z/data=!3m1!4b1!4m5!3m4!1s0x8803b7d27f172127:0xcf7cb62de3994c35!8m2!3d44.2684201!4d-88.4708022",sbarro,
Sbarro,2400 Yankee Clipper Dr,JACKSONVILLE,FL,32218-2492,9046617061.0,"https://www.google.com/maps/place/Sbarro/@30.4914254,-81.6839789,17z/data=!3m1!4b1!4m5!3m4!1s0x88e5af82bb87c0d5:0x8ef60154610424ca!8m2!3d30.4914254!4d-81.6839789",sbarro,
Sbarro,4400 Ashford Dunwoody Rd NE,ATLANTA,GA,30346-1518,7703752046.0,"https://www.google.com/maps/place/Sbarro/@33.9240494,-84.3409516,17z/data=!3m1!4b1!4m5!3m4!1s0x88f5095b27b9ce73:0x6bb26be6d2595f2c!8m2!3d33.9240494!4d-84.3409516",sbarro,
Sbarro,1105 Walnut St,CARY,NC,27511-4769,9193809335.0,"https://www.google.com/maps/place/Sbarro/@35.773499,-78.7594742,17z/data=!3m1!4b1!4m5!3m4!1s0x89acf37095e4a5e7:0xd3dc6195c113a794!8m2!3d35.773499!4d-78.7594742",sbarro,
Sbarro,4737 Concord Pike,WILMINGTON,DE,19803-1494,3024779850.0,"https://www.google.com/maps/place/Sbarro/@39.8228622,-75.5438006,17z/data=!3m1!4b1!4m5!3m4!1s0x89c6fb43e7f3a1af:0xbb2aeb182a819b2e!8m2!3d39.8228622!4d-75.5438006",sbarro,
Sbarro,2801 Memorial Pkwy SW,HUNTSVILLE,AL,35801-5645,2565339609.0,"https://www.google.com/maps/place/Sbarro/@34.7610083,-86.5909593,17z/data=!3m1!4b1!4m5!3m4!1s0x88626cb66ea47319:0xb55e664564db6ad8!8m2!3d34.7610083!4d-86.5909593",sbarro,
Sbarro,1245 Worcester St,NATICK,MA,01760-1553,5086505714.0,"https://www.google.com/maps/place/Sbarro/@42.3005996,-71.3821958,17z/data=!3m1!4b1!4m5!3m4!1s0x89e386284431d961:0xed6bf24a22f7dc25!8m2!3d42.3005996!4d-71.3821958",sbarro,
Sbarro,1300 Penn Ave NW,WASHINGTON,DC,20004-3004,2023716588.0,"https://www.google.com/maps/place/Sbarro/@38.9130538,-77.0633926,13z/data=!4m8!1m2!2m1!1sSbarro+1300+Penn+Ave+NW+WASHINGTON+DC+20004-3004!3m4!1s0x89b7b86c84555139:0x8eaf1a4c0fbdf818!8m2!3d38.8940125!4d-77.0304489?hl=en",sbarro,
Sbarro,1250 Baltimore Pike,SPRINGFIELD,PA,19064-2706,6103281283.0,"https://www.google.com/maps/place/Sbarro/@39.9148222,-75.3526046,17z/data=!3m1!4b1!4m5!3m4!1s0x89c6e9da9b4babdf:0xc5f5e07a2db9c74f!8m2!3d39.9148222!4d-75.3526046",sbarro,
Sbarro,1001 Barnes Crossing Rd,TUPELO,MS,38801,6628429850.0,"https://www.google.com/maps/place/Sbarro/@34.308443,-88.7016667,17z/data=!3m1!4b1!4m5!3m4!1s0x88874e0521671db7:0xa753c64e77601967!8m2!3d34.308443!4d-88.7016667",sbarro,
Sbarro,777 E Merritt Island Cswy,MERRITT ISLAND,FL,32952-3517,4074538151.0,"https://www.google.com/maps/place/Sbarro/@28.3544113,-80.6866119,17z/data=!3m1!4b1!4m5!3m4!1s0x88e0a9d63a7add11:0x33ddcecd1e103728!8m2!3d28.3544113!4d-80.6866119",sbarro,
Sbarro,28 S State St,SALT LAKE CITY,UT,84150,8015962243.0,"https://www.google.com/maps/place/Sbarro/@40.7684974,-111.8890848,17z/data=!3m1!4b1!4m5!3m4!1s0x8752f509344657cb:0x3ab1c7321820c1e4!8m2!3d40.7684974!4d-111.8890848",sbarro,
Sbarro,205 W Blackstock Rd,SPARTANBURG,SC,29301-3201,8645769823.0,"https://www.google.com/maps/place/Sbarro/@34.9396905,-81.9956044,17z/data=!3m1!4b1!4m5!3m4!1s0x88579d82d19413f1:0x6763c7b6b857df6!8m2!3d34.9396905!4d-81.9956044",sbarro,
Sbarro,303 Bay Square,GREEN BAY,WI,54304,9204979925.0,"https://www.google.com/maps/place/Sbarro/@44.4832849,-88.066744,17z/data=!3m1!4b1!4m5!3m4!1s0x8802fbb9abd592cd:0x9469198cdcfac41!8m2!3d44.4832849!4d-88.066744",sbarro,
Sbarro,5256 Route 30 Sp F 2,GREENSBURG,PA,15601,7249614552.0,"https://www.google.com/maps/place/Sbarro/@40.3015042,-79.5083273,17z/data=!3m1!4b1!4m5!3m4!1s0x8834d1c9bdc4f053:0xb5a17326337ca431!8m2!3d40.3015042!4d-79.5083273",sbarro,
Sbarro,4969 International Dr,ORLANDO,FL,32819-6219,4073518447.0,"https://www.google.com/maps/place/Sbarro/@28.4754831,-81.4509804,17z/data=!3m1!4b1!4m5!3m4!1s0x88e77eeacb87925b:0x26d3cc03d81be1e0!8m2!3d28.4754831!4d-81.4509804",sbarro,
Sbarro,400 Mill Ave SE,NEW PHILADELPHIA,OH,44663-3877,3303397943.0,"https://www.google.com/maps/place/Sbarro/@40.4801277,-81.4412891,17z/data=!3m1!4b1!4m5!3m4!1s0x8836e34d25e6a7b3:0xfcf5a357d45abefe!8m2!3d40.4801277!4d-81.4412891",sbarro,
Sbarro,400 Commons Way,BRIDGEWATER,NJ,08807-2832,9087224417.0,"https://www.google.com/maps/place/Sbarro/@40.5863872,-74.6199134,17z/data=!3m1!4b1!4m5!3m4!1s0x89c3951567d84e97:0x45d3d7e7743d85d!8m2!3d40.5863872!4d-74.6199134",sbarro,
Sbarro,3663 Las Vegas Blvd S,LAS VEGAS,NV,89109-1920,7024782622.0,"https://www.google.com/maps/place/Sbarro/@36.109159,-115.173828,17z/data=!4m5!3m4!1s0x80c8c436c6f1715b:0xd7eda73331241016!8m2!3d36.1091547!4d-115.1716393?hl=en",sbarro,
Sbarro,888 N County Road 260,CLYDE,OH,43410-8515,4195474717.0,"https://www.google.com/maps/place/Sbarro/@41.3691907,-82.956457,17z/data=!3m1!4b1!4m5!3m4!1s0x883bcc0a4cd54e29:0x11ee4ce74f50193e!8m2!3d41.3691907!4d-82.956457",sbarro,
Sbarro,200 Baychester Ave,BRONX,NY,10475-4585,7183790719.0,"https://www.google.com/maps/place/Sbarro/@40.8635911,-73.826911,17z/data=!3m1!4b1!4m5!3m4!1s0x89c28cba02592f67:0xe07a06f08edafe53!8m2!3d40.8635911!4d-73.826911",sbarro,
Sbarro,1201 Boston Post Rd,MILFORD,CT,06460-2708,2036932710.0,"https://www.google.com/maps/place/Sbarro/@41.2346774,-73.0372187,17z/data=!3m1!4b1!4m5!3m4!1s0x89e80cd0c45d4843:0x2a9035e0b5644626!8m2!3d41.2346774!4d-73.0372187",sbarro,
Sbarro,21182 Salmon Run Mall Loop W,WATERTOWN,NY,13601,3157860948.0,"https://www.google.com/maps/place/Sbarro/@43.9795196,-75.9519826,17z/data=!3m1!4b1!4m5!3m4!1s0x89d86e2bfbda8f69:0x4afc6c5d5440cbf7!8m2!3d43.9795196!4d-75.9519826",sbarro,
Sbarro,2625 Scottsville Rd,BOWLING GREEN,KY,42104-4477,2707838282.0,"https://www.google.com/maps/place/Sbarro/@36.9491528,-86.4275091,17z/data=!3m1!4b1!4m5!3m4!1s0x8865e8844031431d:0xb4d1d106fa80c61f!8m2!3d36.9491528!4d-86.4275091",sbarro,
Sbarro,1300 W Sunset Rd,HENDERSON,NV,89014-6628,7024346162.0,"https://www.google.com/maps/place/Sbarro/@36.0673234,-115.0416159,17z/data=!3m1!4b1!4m5!3m4!1s0x80c8d0f12c65124d:0x273a9e57eee8f13e!8m2!3d36.0673234!4d-115.0416159",sbarro,
Sbarro,6485 Perimeter Dr,DUBLIN,OH,43016-8459,6147643750.0,"https://www.google.com/maps/place/Neighborhood+Sbarro/@40.1046719,-83.1625342,17z/data=!3m1!4b1!4m5!3m4!1s0x88389355aa0aafd3:0xb20fe51442941e00!8m2!3d40.1046719!4d-83.1625342",sbarro,
Sbarro,99 Rockingham Park Blvd,SALEM,NH,03079-2900,6032763784.0,"https://www.google.com/maps/place/Sbarro/@42.7682727,-71.231736,17z/data=!3m1!4b1!4m5!3m4!1s0x89e3aa2f22d8b397:0xeaa005307dfc68d1!8m2!3d42.7682727!4d-71.231736",sbarro,
Sbarro,1201 Hooper Ave,TOMS RIVER,NJ,08753-3330,7323419860.0,"https://www.google.com/maps/place/Sbarro/@39.9795093,-74.1779523,17z/data=!3m1!4b1!4m5!3m4!1s0x89c19daf89f3c105:0xf08e41cc84bd5b1!8m2!3d39.9795093!4d-74.1779523",sbarro,
Sbarro,2000 Coastal Grand Cir,MYRTLE BEACH,SC,29577-9607,8434452587.0,"https://www.google.com/maps/place/Sbarro/@33.7036339,-78.9234761,17z/data=!3m1!4b1!4m5!3m4!1s0x8900697fbf31cd37:0x491893ffe8850488!8m2!3d33.7036339!4d-78.9234761",sbarro,
Sbarro,400 Ernest W Barrett Pkwy NW,KENNESAW,GA,30144-4951,7704270413.0,"https://www.google.com/maps/place/Sbarro/@34.0180253,-84.5637886,17z/data=!3m1!4b1!4m5!3m4!1s0x88f514d88668cf71:0xb5dea0b00320ca52!8m2!3d34.0180253!4d-84.5637886",sbarro,
Sbarro,2188 Tag Rd,CANASTOTA,NY,13032-4561,3156870015.0,"https://www.google.com/maps/place/Sbarro/@43.0960653,-75.841688,17z/data=!3m1!4b1!4m5!3m4!1s0x89d99b080bbe3bdd:0x693a57837561b419!8m2!3d43.0960653!4d-75.841688",sbarro,
Sbarro,160 Easton Town Ctr,COLUMBUS,OH,43219-6074,6143422017.0,"https://www.google.com/maps/place/Sbarro/@40.0502912,-82.9176023,17z/data=!4m5!3m4!1s0x88388a87c0000001:0x2fbe17110ce383a3!8m2!3d40.0502871!4d-82.9154136?hl=en",sbarro,
Sbarro,701 Russell Ave,GAITHERSBURG,MD,20877-2631,3018040019.0,"https://www.google.com/maps/place/Sbarro/@39.1536047,-77.2030917,17z/data=!3m1!4b1!4m5!3m4!1s0x89b62cd646270489:0x46e34092a8722e8d!8m2!3d39.1536047!4d-77.2030917",sbarro,
Sbarro,2201 Kalakaua Ave,HONOLULU,HI,96815-2533,8089221041.0,"https://www.google.com/maps/place/Sbarro/@21.2794641,-157.832216,17z/data=!3m1!5s0x7c007275be15589f:0x56d6e9e2067e74f5!4m5!3m4!1s0x7c00727591e7561d:0xed4b5676461090c1!8m2!3d21.2794591!4d-157.8300273?hl=en",sbarro,
Sbarro,6700 Douglas Blvd,DOUGLASVILLE,GA,30135-1869,6788389732.0,"https://www.google.com/maps/place/Sbarro/@33.7277059,-84.7459794,17z/data=!3m1!4b1!4m5!3m4!1s0x88f527b3222fd307:0x9448f24387941232!8m2!3d33.7277059!4d-84.7459794",sbarro,
Sbarro,1 Medical Center Dr,LEBANON,NH,03756-1000,6036439903.0,"https://www.google.com/maps/place/Sbarro/@43.6754932,-72.2729588,17z/data=!3m1!4b1!4m5!3m4!1s0x4cb4b5e39604a95d:0x3adc77da4039f76d!8m2!3d43.6754932!4d-72.2729588",sbarro,
Sbarro,226 Saint Clair Sq,FAIRVIEW HIEGHTS,IL,62232,6186321880.0,"https://www.google.com/maps/place/Sbarro/@38.5952137,-89.9809347,17z/data=!3m1!4b1!4m5!3m4!1s0x887601c0ef0fa4bf:0x76f67fa172d2b550!8m2!3d38.5952137!4d-89.9809347",sbarro,
Sbarro,1212 Bellflower Blvd,LONG BEACH,CA,90840,5624983737.0,"https://www.google.com/maps/place/Sbarro/@33.7826983,-118.1223045,17z/data=!3m1!4b1!4m5!3m4!1s0x80dd31db1fa57aad:0x822cc8579f751426!8m2!3d33.7826983!4d-118.1223045",sbarro,
Sbarro,805 Plaza Dr,WEST COVINA,CA,91790-2805,6268561397.0,"https://www.google.com/maps/place/Sbarro/@34.0709542,-117.932782,17z/data=!3m1!4b1!4m5!3m4!1s0x80c2d7d67cbf75af:0x221186197102127!8m2!3d34.0709542!4d-117.932782",sbarro,
Sbarro,2200 Tanger Boulevard,WASHINGTON,PA,15301,7242551632.0,"https://www.google.com/maps/place/Sbarro/@40.215897,-80.2138082,17z/data=!4m5!3m4!1s0x8835ad164cf260d9:0xcff550c960b1c77d!8m2!3d40.2158929!4d-80.2116195?hl=en",sbarro,
Sbarro,7000 Arundel Mills Cir,HANOVER,MD,21076-1282,4433543816.0,"https://www.google.com/maps/place/Sbarro/@39.157681,-76.725316,17z/data=!3m1!4b1!4m5!3m4!1s0x89b7e3e77e66ed69:0x1795205cae706913!8m2!3d39.157681!4d-76.725316",sbarro,
Sbarro,1365 W Dupont Hwy,DOVER,DE,19901,3026789252.0,"https://www.google.com/maps/place/Sbarro/@39.1955008,-75.5417396,17z/data=!3m1!4b1!4m5!3m4!1s0x89c77b24fe473b61:0x6e86f9787affd218!8m2!3d39.1955008!4d-75.5417396",sbarro,
Sbarro,6600 Menaul Blvd NE,ALBUQUERQUE,NM,87110-3432,5058880772.0,"https://www.google.com/maps/place/Sbarro/@35.1071051,-106.5702173,17z/data=!3m1!4b1!4m5!3m4!1s0x87220ad2f26cb1bf:0xeeee46dc83ba4b4!8m2!3d35.1071051!4d-106.5702173",sbarro,
Sbarro,8001 S Orange Blossom Trl,ORLANDO,FL,32809-9137,4078575594.0,"https://www.google.com/maps/place/Sbarro/@28.4470285,-81.3938788,17z/data=!3m1!4b1!4m5!3m4!1s0x88e77dad19c83825:0x3615abba6f4b3170!8m2!3d28.4470285!4d-81.3938788",sbarro,
Sbarro,4201 N Shiloh Dr,FAYETTEVILLE,AR,72703-5342,4795820488.0,"https://www.google.com/maps/place/Sbarro/@36.1284063,-94.149447,17z/data=!3m1!4b1!4m5!3m4!1s0x87c96b8baf2782f3:0xadb6a754f26626c0!8m2!3d36.1284063!4d-94.149447",sbarro,
Sbarro,6801 Northlake Mall Dr,CHARLOTTE,NC,28216-0761,7045970776.0,"https://www.google.com/maps/place/Sbarro/@35.3528049,-80.8518444,17z/data=!3m1!4b1!4m5!3m4!1s0x8856a655281d279f:0x6a700b64d8f9286a!8m2!3d35.3528049!4d-80.8518444",sbarro,
Sbarro,I-95 S,MILFORD,CT,6460,2032833712.0,"https://www.google.com/maps/place/Sbarro/@41.2457937,-73.0107008,17z/data=!4m5!3m4!1s0x89e875b22931bb57:0xa6710f6c52e7191f!8m2!3d41.2457897!4d-73.0085121?hl=en",sbarro,
Sbarro,3500 E West Hwy,HYATTSVILLE,MD,20782-1997,3015592485.0,"https://www.google.com/maps/place/Sbarro/@38.9678156,-76.957479,17z/data=!3m1!4b1!4m5!3m4!1s0x89b7c6fa3dcf3b23:0x38ade1f68f8a3f4c!8m2!3d38.9678156!4d-76.957479",sbarro,
Sbarro,5001 Monroe St,TOLEDO,OH,43623-3626,4194753979.0,"https://www.google.com/maps/place/Sbarro/@41.694164,-83.6394498,17z/data=!3m1!4b1!4m5!3m4!1s0x883c7efa338667b9:0xf59625c7582bede!8m2!3d41.694164!4d-83.6394498",sbarro,
Sbarro,1070 Spring Hill Mall,WEST DUNDEE,IL,60118-1264,2246990710.0,"https://www.google.com/maps/place/Sbarro/@42.102407,-88.2956628,17z/data=!3m1!5s0x880f0fad774d42e7:0xb825fcece3ea0360!4m5!3m4!1s0x880f0fadb20d5e03:0xad05ba869fccad60!8m2!3d42.102403!4d-88.2934741?hl=en",sbarro,
Sbarro,700 Paramus Park,PARAMUS,NJ,07652-3557,2012108910.0,"https://www.google.com/maps/place/Sbarro/@40.956241,-74.069065,17z/data=!3m1!4b1!4m5!3m4!1s0x89c2fad11c624f89:0xf33f5583c987fbe2!8m2!3d40.956241!4d-74.069065",sbarro,
Sbarro,1611 Northwest 12Th Ave,MIAMI,FL,33136,3058902991.0,"https://www.google.com/maps/place/Sbarro/@25.7902771,-80.2128673,17z/data=!3m1!4b1!4m5!3m4!1s0x88d9b72d8cd3d085:0x5f337e257112d537!8m2!3d25.7902771!4d-80.2128673",sbarro,
Sbarro,9401 Mall Rd,MORGANTOWN,WV,26501-8524,3049836729.0,"https://www.google.com/maps/place/Sbarro/@39.6269953,-79.9988339,17z/data=!3m1!4b1!4m5!3m4!1s0x88357c0bddf2fd15:0x495c36d47bd4e575!8m2!3d39.6269953!4d-79.9988339",sbarro,
Sbarro,5404 New Fashion Way,CHARLOTTE,NC,28278,7045953352.0,"https://www.google.com/maps/place/Sbarro/@35.1679542,-80.9703321,17z/data=!3m1!4b1!4m5!3m4!1s0x88569936269aa7e9:0xcda4543be47defee!8m2!3d35.1679542!4d-80.9703321",sbarro,
Sbarro,1574 Rio Rd E,CHARLOTTESVILLE,VA,22901-1404,4349736011.0,"https://www.google.com/maps/place/Sbarro/@38.0769473,-78.4745827,17z/data=!3m1!4b1!4m5!3m4!1s0x89b3880c324e3b4d:0x4ae8b965bc502720!8m2!3d38.0769473!4d-78.4745827",sbarro,
Sbarro,654 Millcreek Mall,ERIE,PA,16565-0604,8148646926.0,"https://www.google.com/maps/place/Sbarro/@42.0688227,-80.097695,17z/data=!3m1!4b1!4m5!3m4!1s0x88327e270070de11:0xf160146922dcffb9!8m2!3d42.0688227!4d-80.097695",sbarro,
Sbarro,3785 Las Vegas Blvd S,LAS VEGAS,NV,89109-4333,7024302636.0,"https://www.google.com/maps/place/Sbarro/@36.0935286,-115.2117497,13z/data=!4m8!1m2!2m1!1sSbarro+LAS+VEGAS+NV!3m4!1s0x80c8c433463e7021:0x3aab41e3519e92!8m2!3d36.1030054!4d-115.1724633?hl=en",sbarro,
Sbarro,14045 Abercorn St,SAVANNAH,GA,31419-1962,9129279135.0,"https://www.google.com/maps/place/Sbarro/@31.9844382,-81.1720259,17z/data=!3m1!4b1!4m5!3m4!1s0x88fb0b378c87fabd:0x8c626ace8e070bae!8m2!3d31.9844382!4d-81.1720259",sbarro,
Sbarro,Garden State Pkwy MM 124,SOUTH AMBOY,NJ,8879,7325250306.0,"https://www.google.com/maps/place/Sbarro/@40.4664289,-74.289504,17z/data=!3m1!4b1!4m5!3m4!1s0x89c3cbca3063b92f:0x2ac37f8153061c30!8m2!3d40.4664289!4d-74.289504",sbarro,
Sbarro,5000 East 750 N,HOWE,IN,46746,2606385893.0,"https://www.google.com/maps/place/Sbarro/@41.7459797,-85.3365001,16z/data=!4m8!1m2!2m1!1sSbarro+5000+East+750+N+HOWE+IN+46746!3m4!1s0x88164b89e7401e8b:0xc0ed49f6c9a7f239!8m2!3d41.7470407!4d-85.3288061?hl=en",sbarro,
Sbarro,4700 Millhaven Rd,MONROE,LA,71203-7039,3183259380.0,"https://www.google.com/maps/place/Sbarro/@32.4999644,-92.0645773,17z/data=!3m1!4b1!4m5!3m4!1s0x862e4f4b1d5c7c77:0xf9f5ede32bf3be74!8m2!3d32.4999644!4d-92.0645773",sbarro,
Sbarro,5300 S 76th St,GREENDALE,WI,53129-1150,4144210668.0,"https://www.google.com/maps/place/Sbarro/@42.9489322,-88.005133,17z/data=!3m1!4b1!4m5!3m4!1s0x880511dec387b6e5:0xafb6c588354b536f!8m2!3d42.9489322!4d-88.005133",sbarro,
Sbarro,48400 Seminole Dr,CABAZON,CA,92230,7608355666.0,"https://www.google.com/maps/place/Sbarro/@33.9280327,-116.8133551,17z/data=!3m1!4b1!4m5!3m4!1s0x80db41c3ab0f0ea1:0xfc5f2c5630e78ac4!8m2!3d33.9280327!4d-116.8133551",sbarro,
Sbarro,1500 W Chestnut St,WASHINGTON,PA,15301-5864,7242060559.0,"https://www.google.com/maps/place/Sbarro/@40.1599245,-80.276007,17z/data=!3m1!4b1!4m5!3m4!1s0x8835adf5eaf93387:0x9c44c4d4a7ecd4b9!8m2!3d40.1599245!4d-80.276007",sbarro,
Sbarro,10300 Southside Blvd,JACKSONVILLE,FL,32256-0745,9043632670.0,"https://www.google.com/maps/place/Sbarro/@30.184352,-81.5542865,17z/data=!3m1!4b1!4m5!3m4!1s0x88e5cb73565b098d:0x1edc6dca253a6058!8m2!3d30.184352!4d-81.5542865",sbarro,
Sbarro,1000 Southlake Mall,MORROW,GA,30260-2320,6787206424.0,"https://www.google.com/maps/place/Sbarro/@33.5749881,-84.3513953,17z/data=!3m1!4b1!4m5!3m4!1s0x88f4f954527cb4cd:0xb744873d83519888!8m2!3d33.5749881!4d-84.3513953",sbarro,
Sbarro,16535 Southwest Fwy,SUGAR LAND,TX,77479-2324,2812654447.0,"https://www.google.com/maps/place/Sbarro/@29.5908269,-95.6253105,17z/data=!3m1!4b1!4m5!3m4!1s0x8640e6bc65c4c97d:0xd59866afd6c1b083!8m2!3d29.5908269!4d-95.6253105",sbarro,
Sbarro,4202 N Harlem Ave,NORRIDGE,IL,60634,7086955336.0,"https://www.google.com/maps/place/Sbarro/@41.9563686,-87.8084994,17z/data=!3m1!4b1!4m5!3m4!1s0x880fcbb04369490b:0x92ebc2083338df46!8m2!3d41.9563686!4d-87.8084994",sbarro,
Sbarro,100 Greyrock Pl,STAMFORD,CT,06901-3120,2033570206.0,"https://www.google.com/maps/place/Sbarro/@41.0529958,-73.5369585,17z/data=!3m1!4b1!4m5!3m4!1s0x89c2a1e7bdc12e81:0x93d577b75e0f6ffb!8m2!3d41.0529958!4d-73.5369585",sbarro,
Sbarro,1600 Miller Trunk Hwy,DULUTH,MN,55811-5636,2187279234.0,"https://www.google.com/maps/place/Sbarro/@46.8045472,-92.1599383,17z/data=!3m1!4b1!4m5!3m4!1s0x52ae4d2ab1bc9b95:0x19cda82e8898fb77!8m2!3d46.8045472!4d-92.1599383",sbarro,
Sbarro,14200 E Alameda Ave,AURORA,CO,80012-2512,3033600611.0,"https://www.google.com/maps/place/Sbarro/@39.7072031,-104.8242664,17z/data=!3m1!4b1!4m5!3m4!1s0x876c62c2d4c4f83b:0xa5adba763f878246!8m2!3d39.7072031!4d-104.8242664",sbarro,
Sbarro,One Connecticut Tnpk West,DARIEN,CT,6820,2032022593.0,"https://www.google.com/maps/place/Sbarro/@41.0807509,-73.4612283,17z/data=!3m1!4b1!4m5!3m4!1s0x89c2a04e59180fd9:0x445314e46670ee40!8m2!3d41.0807509!4d-73.4612283",sbarro,
Sbarro,22500 Town Cir,MORENO VALLEY,CA,92553-7528,9516566370.0,"https://www.google.com/maps/place/Sbarro/@33.9380847,-117.270888,17z/data=!3m1!4b1!4m5!3m4!1s0x80dca5ff8d812ab5:0xa76434b8863c8cc3!8m2!3d33.9380847!4d-117.270888",sbarro,
Sbarro,New Jersey Tpke 8A & 9N,MILLTOWN,NJ,8850,7322544225.0,"https://www.google.com/maps/place/Sbarro/@40.4166627,-74.4461168,17z/data=!4m5!3m4!1s0x89c3c5d0ef7d791f:0x48f90a592a8a7d7a!8m2!3d40.4166586!4d-74.4439281?hl=en",sbarro,
Sbarro,2727 Fairfield Commons Blvd,BEAVERCREEK,OH,45431-5727,9374294424.0,"https://www.google.com/maps/place/Sbarro/@39.767384,-84.05673,17z/data=!3m1!4b1!4m5!3m4!1s0x88409c60847ca319:0x48e8df964bace3ae!8m2!3d39.767384!4d-84.05673",sbarro,
Sbarro,3301 E Main St,VENTURA,CA,93003-0979,8052891463.0,"https://www.google.com/maps/place/Sbarro/@34.2685085,-119.2507929,17z/data=!3m1!5s0x80e9ad4f24d7eb1f:0xf16df7f74b74d756!4m5!3m4!1s0x80e9ad4f27b2ed39:0xea7f5ae82659bd08!8m2!3d34.2685041!4d-119.2486042?hl=en",sbarro,
Sbarro,6555 E Southern Ave,MESA,AZ,85206-3728,4809815153.0,"https://www.google.com/maps/place/Sbarro/@33.3902623,-111.6902936,17z/data=!3m1!4b1!4m5!3m4!1s0x872bafc9c39880e5:0x8eb2434af5882b06!8m2!3d33.3902623!4d-111.6902936",sbarro,
Sbarro,400 Bald Hill Rd,WARWICK,RI,02886-1617,4016814811.0,"https://www.google.com/maps/place/Sbarro/@41.8050332,-71.5310045,12z/data=!3m1!5s0x89e44bf7f9f805e5:0x26fa6f76c507b660!4m8!1m2!2m1!1sSbarro+400+Bald+Hill+Rd+WARWICK+RI+02886-1617!3m4!1s0x89e44bf64426a847:0xf74646ea7c8dde4b!8m2!3d41.7218377!4d-71.4732552?hl=en",sbarro,
Sbarro,9411 W Atlantic Blvd,CORAL SPRINGS,FL,33071-6945,9545092040.0,"https://www.google.com/maps/place/Sbarro/@26.2414005,-80.2491254,17z/data=!3m1!4b1!4m5!3m4!1s0x88d9050d9449c1e5:0x8657a8f480f40026!8m2!3d26.2414005!4d-80.2491254",sbarro,
Sbarro,5220 Fashion Outlets Way,ROSEMONT,IL,60018-5330,8476789373.0,"https://www.google.com/maps/place/Sbarro/@41.974961,-87.8671134,17z/data=!3m1!4b1!4m5!3m4!1s0x880fb5e36c328f27:0x948a1fcabce2999f!8m2!3d41.974961!4d-87.8671134",sbarro,
Sbarro,50 Massachusetts Ave NE,WASHINGTON,DC,20002-4214,2022890767.0,"https://www.google.com/maps/place/Sbarro/@38.8979438,-77.0049635,17z/data=!3m1!4b1!4m5!3m4!1s0x89b7b826c616b9e3:0xb1e16c82841218f6!8m2!3d38.8979438!4d-77.0049635",sbarro,
Sbarro,185 Westfarms Mall,WEST HARTFORD,CT,06032-2632,8605219552.0,"https://www.google.com/maps/place/Sbarro/@41.7226303,-72.7625294,17z/data=!3m1!4b1!4m5!3m4!1s0x89e7ad9c11e06b45:0xa66f86c4dcd932ca!8m2!3d41.7226303!4d-72.7625294",sbarro,
Sbarro,1741 Palm Beach Lakes Blvd,WEST PALM BEACH,FL,33401-2037,5616977744.0,"https://www.google.com/maps/place/Sbarro/@26.7252061,-80.0864918,17z/data=!3m1!4b1!4m5!3m4!1s0x88d8d60f109568ef:0x4d1684916f58244e!8m2!3d26.7252061!4d-80.0864918",sbarro,
Sbarro,8300 Sudley Rd,MANASSAS,VA,20109-3571,5712299187.0,"https://www.google.com/maps/place/Sbarro/@38.773223,-77.505801,17z/data=!3m1!4b1!4m5!3m4!1s0x89b65cf805809dd5:0xa31eb52b6505964d!8m2!3d38.773223!4d-77.505801",sbarro,
Sbarro,7200 Harrison Ave,ROCKFORD,IL,61112-1044,8153327365.0,"https://www.google.com/maps/place/Sbarro/@42.2461735,-88.9757903,17z/data=!3m1!4b1!4m5!3m4!1s0x8808b87cae14772b:0x15dc307438e4227!8m2!3d42.2461735!4d-88.9757903",sbarro,
Sbarro,768 Southpark Ctr,STRONGSVILLE,OH,44136-9322,4408783843.0,"https://www.google.com/maps/place/Sbarro/@41.3088336,-81.8205001,17z/data=!3m1!4b1!4m5!3m4!1s0x8830c1d49c0890ad:0x1fd3b8c139361ac1!8m2!3d41.3088336!4d-81.8205001",sbarro,
Sbarro,100 W Randolph St,CHICAGO,IL,60601-3223,3122638615.0,"https://www.google.com/maps/place/Sbarro/@41.8851523,-87.6316709,17z/data=!3m1!4b1!4m5!3m4!1s0x880e2cba7b3a79bb:0x6106c01971c72142!8m2!3d41.8851523!4d-87.6316709",sbarro,
Sbarro,1717 W Polk St,CHICAGO,IL,60612-4314,3123551420.0,"https://www.google.com/maps/place/Sbarro/@41.8713161,-87.6698618,17z/data=!3m1!4b1!4m5!3m4!1s0x880e3cbfa7703c73:0xc8ce205950b28464!8m2!3d41.8713161!4d-87.6698618",sbarro,
Sbarro,2509 Flatbush Ave,BROOKLYN,NY,11234,7182583869.0,"https://www.google.com/maps/place/Sbarro/@40.610804,-73.9201724,17z/data=!3m1!4b1!4m5!3m4!1s0x89c24343b9fac0a9:0x416a74e8a2283961!8m2!3d40.610804!4d-73.9201724",sbarro,
Sbarro,10450 State St,SANDY,UT,84070,8015769366.0,"https://www.google.com/maps/place/Sbarro/@40.5625494,-111.8943894,17z/data=!3m1!4b1!4m5!3m4!1s0x8752876c303f5e0f:0x824bbd24e0f9ea8d!8m2!3d40.5625494!4d-111.8943894",sbarro,
Sbarro,96-12 Carousel Ctr,SYRACUSE,NY,13204-6090,3154768626.0,"https://www.google.com/maps/place/Sbarro/@43.0696138,-76.1734082,17z/data=!3m1!4b1!4m5!3m4!1s0x89d9f22c44b7200f:0x622ccbe59a650c58!8m2!3d43.0696138!4d-76.1734082",sbarro,
Sbarro,2700 Crego Rd,DEKALB,IL,60115-8765,8157487807.0,"https://www.google.com/maps/place/Sbarro/@41.9007325,-88.7391006,17z/data=!3m1!4b1!4m5!3m4!1s0x880ed5906411379b:0xa31976208d388bb1!8m2!3d41.9007325!4d-88.7391006",sbarro,
Sbarro,12434 N Mainstreet,RANCHO CUCAMONGA,CA,91739-7508,9096469663.0,"https://www.google.com/maps/place/Sbarro/@34.1124183,-117.5341164,17z/data=!3m1!4b1!4m5!3m4!1s0x80c34a1bb7a2a64b:0xfedc10953e508c41!8m2!3d34.1124183!4d-117.5341164",sbarro,
Sbarro,384 Woodbridge Ctr. Dr,WOODBRIDGE,NJ,07095-1398,7326343227.0,"https://www.google.com/maps/place/Sbarro/@40.5564513,-74.2982917,17z/data=!3m1!4b1!4m5!3m4!1s0x89c3b5d02812d185:0x4a66dbee66f8a5!8m2!3d40.5564513!4d-74.2982917",sbarro,
Sbarro,1700 W New Haven Ave,MELBOURNE,FL,32904-3971,3215864433.0,"https://www.google.com/maps/place/Sbarro/@28.081342,-80.6498598,17z/data=!3m1!4b1!4m5!3m4!1s0x88de0e0c720b256b:0x4f3042068eb6677a!8m2!3d28.081342!4d-80.6498598",sbarro,
Sbarro,50 Holyoke St,HOLYOKE,MA,01040-2885,4135367270.0,"https://www.google.com/maps/place/Sbarro/@42.1676302,-72.6413569,17z/data=!3m1!4b1!4m5!3m4!1s0x89e6de3e0d9dd8a7:0xae83bdc3efef5de6!8m2!3d42.1676302!4d-72.6413569",sbarro,
Sbarro,6200 Grand River Blvd E,LEEDS,AL,35094-6705,2056990447.0,"https://www.google.com/maps/place/Sbarro/@33.5489333,-86.5954827,17z/data=!3m1!4b1!4m5!3m4!1s0x888912bf5731d699:0x4ef898642f155277!8m2!3d33.5489333!4d-86.5954827",sbarro,
Sbarro,504 Clarkson Ave,BROOKLYN,NY,11203,7184838483.0,"https://www.google.com/maps/place/Sbarro/@40.6557172,-73.9449349,17z/data=!4m8!1m2!2m1!1sSbarro+504+Clarkson+Ave+BROOKLYN+NY+11203!3m4!1s0x89c25b641c83b3af:0x8827cec97e82cd66!8m2!3d40.6557421!4d-73.9427481?hl=en",sbarro,
Sbarro,21747 County Road M,WEST UNITY,OH,43570-9676,4199245389.0,"https://www.google.com/maps/place/Sbarro/@41.6053391,-84.4083865,17z/data=!3m1!4b1!4m5!3m4!1s0x883db0376698a6af:0x4aeb2f074b17e9a8!8m2!3d41.6053391!4d-84.4083865",sbarro,
Sbarro,3320 Silas Creek Pkwy,WINSTON SALEM,NC,27103-3031,3367689724.0,"https://www.google.com/maps/place/Sbarro/@36.0703319,-80.3000694,17z/data=!3m1!4b1!4m5!3m4!1s0x8853b0476362f54d:0x331e8a5d09abf21c!8m2!3d36.0703319!4d-80.3000694",sbarro,
Sbarro,132 Christiana Mall,NEWARK,DE,19702,3027383110.0,"https://www.google.com/maps/place/Sbarro/@39.6785319,-75.6517812,17z/data=!3m1!4b1!4m5!3m4!1s0x89c7a85aaaaaaaab:0x6ca0f512f0bc3c4e!8m2!3d39.6785319!4d-75.6517812",sbarro,
Sbarro,1445 Annapolis Mall,ANNAPOLIS,MD,21401-3086,4102663749.0,"https://www.google.com/maps/place/Sbarro/@38.989642,-76.545389,17z/data=!3m1!4b1!4m5!3m4!1s0x89b7f6d392870031:0xdac678195aab6cba!8m2!3d38.989642!4d-76.545389",sbarro,
Sbarro,907 Hawthorn Ctr,VERNON HILLS,IL,60061-1531,8473620109.0,"https://www.google.com/maps/place/Sbarro/@42.2433404,-87.9495773,17z/data=!3m1!4b1!4m5!3m4!1s0x880f966e9b3a4b0f:0x2b1ceb4f9333381c!8m2!3d42.2433404!4d-87.9495773",sbarro,
Sbarro,1178 Burnsville Ctr,BURNSVILLE,MN,55337,9528980453.0,"https://www.google.com/maps/place/Sbarro/@44.7436955,-93.288769,17z/data=!3m1!4b1!4m5!3m4!1s0x87f63a30ae6ea68b:0x276f6606ea8f0aeb!8m2!3d44.7436955!4d-93.288769",sbarro,
Sbarro,4202A North Harlem Ave,CHICAGO,IL,60634,7086955336.0,"https://www.google.com/maps/place/Sbarro/@41.9563686,-87.8084994,17z/data=!3m1!4b1!4m5!3m4!1s0x880fcbb04369490b:0x92ebc2083338df46!8m2!3d41.9563686!4d-87.8084994",sbarro,
Sbarro,2274 Northbrook Ct,NORTHBROOK,IL,60062-1417,8474984510.0,"https://www.google.com/maps/place/Tony+%26+Bruno's/@42.1500012,-87.8177205,17z/data=!3m1!4b1!4m5!3m4!1s0x880fc0d8d0d7a753:0x1a9737ea5dc93ec4!8m2!3d42.1500012!4d-87.8177205",sbarro,
Sbarro,Concourse F 3Rd Level,MIAMI,FL,33122,3058691851.0,"https://www.google.com/maps/place/Sbarro/@25.7919264,-80.3931522,12z/data=!4m8!1m2!2m1!1sSbarro+Concourse+F+3Rd+Level+MIAMI+FL+33122!3m4!1s0x88d9b9e3c4e6ad97:0x752439c0129bd043!8m2!3d25.7930719!4d-80.2804131?hl=en",sbarro,
Sbarro,6191 S State St,MURRAY,UT,84107-7266,8012626544.0,"https://www.google.com/maps/place/Sbarro/@40.635534,-111.8856097,17z/data=!3m1!4b1!4m5!3m4!1s0x875289bef87fcb6b:0x390fa4ddf88900ed!8m2!3d40.635534!4d-111.8856097",sbarro,
Sbarro,7600 Kingston Pike,KNOXVILLE,TN,37919-5632,8656937942.0,"https://www.google.com/maps/place/Sbarro/@35.9244853,-84.0383972,17z/data=!3m1!4b1!4m5!3m4!1s0x885c24bf5b5bdddb:0x5dd8f44a9030577b!8m2!3d35.9244853!4d-84.0383972",sbarro,
Sbarro,21350 Fm 529 Rd,CYPRESS,TX,77433,2188157833.0,"https://www.google.com/maps/place/Pizza+Guerrin/@29.8801071,-95.7397385,17z/data=!3m1!4b1!4m5!3m4!1s0x864129aa0ebeb69d:0x3980058a1e597de3!8m2!3d29.8801071!4d-95.7397385",sbarro,
Sbarro,7400 Las Vegas Blvd S,LAS VEGAS,NV,89123-1002,7028965105.0,"https://www.google.com/maps/place/Sbarro/@36.0549772,-115.1691065,17z/data=!3m1!4b1!4m5!3m4!1s0x80c8cf5cf5449911:0x8935199ed66e4207!8m2!3d36.0549772!4d-115.1691065",sbarro,
Sbarro,6776 North 425 E,ROLLING PRAIRIE,IN,46371,2197787000.0,"https://www.google.com/maps/place/Sbarro/@41.7064224,-86.6244795,17z/data=!4m8!1m2!2m1!1sSbarro+6776+North+425+E+ROLLING+PRAIRIE+IN+46371!3m4!1s0x881117b4ffa84a95:0xa6e9f828832a8bdb!8m2!3d41.7057642!4d-86.6211881?hl=en",sbarro,
Sbarro,9800 Airport Blvd,SAN ANTONIO,TX,78216-4820,2102653946.0,"https://www.google.com/maps/place/Sbarro/@29.5257225,-98.4746493,17z/data=!3m1!4b1!4m5!3m4!1s0x865c8aae6773e2ed:0x82783b1db6d2688b!8m2!3d29.5257225!4d-98.4746493",sbarro,
Sbarro,201 N Los Angeles St,LOS ANGELES,CA,90012-3307,2134370707.0,"https://www.google.com/maps/place/Sbarro/@34.0525393,-118.2419951,17z/data=!3m1!4b1!4m5!3m4!1s0x80c2c645f6fd40ad:0xeb6cb58d794bbf2a!8m2!3d34.0525393!4d-118.2419951",sbarro,
Sbarro,194 Buckland Hills Dr,MANCHESTER,CT,06042-8750,8606447941.0,"https://www.google.com/maps/place/Sbarro/@41.8072163,-72.5460392,17z/data=!3m1!4b1!4m5!3m4!1s0x89e657be410b4b03:0x983c51bcb6493425!8m2!3d41.8072163!4d-72.5460392",sbarro,
Sbarro,4502 South Steel St,TACOMA,WA,98409,2534492000.0,"https://www.google.com/maps/place/Sbarro/@47.2154612,-122.4676284,17z/data=!3m1!4b1!4m5!3m4!1s0x54910152d565676b:0xac93025ec70daf5f!8m2!3d47.2154612!4d-122.4676284",sbarro,
Sbarro,1608 Montebello Town Ctr,MONTEBELLO,CA,90640-2161,3237268430.0,"https://www.google.com/maps/place/Sbarro/@34.0361071,-118.0849701,17z/data=!3m1!4b1!4m5!3m4!1s0x80c2d0467216967d:0xa275f2a919b7e459!8m2!3d34.0361071!4d-118.0849701",sbarro,
Sbarro,400 S Baldwin Ave,ARCADIA,CA,91007-1946,6264455094.0,"https://www.google.com/maps/place/Sbarro/@34.1347001,-118.0515879,17z/data=!3m1!4b1!4m5!3m4!1s0x80c2dbbcefc689e1:0x66d29697989fb662!8m2!3d34.1347001!4d-118.0515879",sbarro,
Sbarro,2700 Potomac Mills Cir,WOODBRIDGE,VA,22192-4671,7034908381.0,"https://www.google.com/maps/place/Sbarro/@38.6435569,-77.2953773,17z/data=!3m1!4b1!4m5!3m4!1s0x89b6560c8725f4d1:0xa0c741ad384f48ec!8m2!3d38.6435569!4d-77.2953773",sbarro,
Sbarro,3710 US Highway 9,FREEHOLD,NJ,07728-4812,7325778458.0,"https://www.google.com/maps/place/Sbarro/@40.2534665,-74.3009196,17z/data=!3m1!4b1!4m5!3m4!1s0x89c3d42532ca8baf:0x9b97df29cc046129!8m2!3d40.2534665!4d-74.3009196",sbarro,
Sbarro,3236 Route 96 W,CLIFTON SPRINGS,NY,14432-9505,3154629765.0,"https://www.google.com/maps/place/Sbarro/@42.9727807,-77.1735895,17z/data=!3m1!4b1!4m5!3m4!1s0x89d0d63fda8739d1:0xe7d074dca8d3fe43!8m2!3d42.9727807!4d-77.1735895",sbarro,
Sbarro,651 Kapkowski Rd,ELIZABETH,NJ,07201-4939,9082824811.0,"https://www.google.com/maps/place/Sbarro/@40.6601883,-74.1713372,17z/data=!3m1!4b1!4m5!3m4!1s0x89c24d81d4d5573d:0xcdb8098e91b55ebe!8m2!3d40.6601883!4d-74.1713372",sbarro,
Sbarro,3379 Nicholasville Rd,LEXINGTON,KY,40503-3611,8592733874.0,"https://www.google.com/maps/place/Sbarro/@37.99066,-84.524511,17z/data=!3m1!4b1!4m5!3m4!1s0x88425c9b6d2c2201:0x8a404c40bcaadccb!8m2!3d37.99066!4d-84.524511",sbarro,
Sbarro,356 Orland Square Dr,ORLAND PARK,IL,60462-3213,7083640029.0,"https://www.google.com/maps/place/Sbarro/@41.6196255,-87.8489015,17z/data=!3m1!4b1!4m5!3m4!1s0x880e3f7f4acc3937:0x38ab62a7069f2602!8m2!3d41.6196255!4d-87.8489015",sbarro,
Sbarro,200 E Via Rancho Pkwy,ESCONDIDO,CA,92025-8005,7602335768.0,"https://www.google.com/maps/place/Sbarro/@33.0718969,-117.0659524,17z/data=!3m1!4b1!4m5!3m4!1s0x80dbf1582ff01805:0x5d286dd926f935d8!8m2!3d33.0718969!4d-117.0659524",sbarro,
Sbarro,6401 West Marana Ctr,TUCSON,AZ,85742,5204850720.0,"https://www.google.com/maps/place/Sbarro/@32.3745351,-111.1017805,17z/data=!3m1!4b1!4m5!3m4!1s0x86d5e1d3e62421b1:0x8bba16374afcda97!8m2!3d32.3745351!4d-111.1017805",sbarro,
Sbarro,10450 State St,SANDY,UT,84070,3852755005.0,"https://www.google.com/maps/place/Sbarro/@40.5625494,-111.8943894,17z/data=!3m1!4b1!4m5!3m4!1s0x8752876c303f5e0f:0x824bbd24e0f9ea8d!8m2!3d40.5625494!4d-111.8943894",sbarro,
Sbarro,350 North Milwaukee St,BOISE,ID,83704,2089720699.0,"https://www.google.com/maps/place/Sbarro/@43.6073071,-116.2789005,17z/data=!3m1!4b1!4m5!3m4!1s0x54ae57c495ecc41b:0xd8633fa2efa3fce9!8m2!3d43.6073071!4d-116.2789005",sbarro,
Sbarro,3174 Northwest Federal Hwy,JENSEN BEACH,FL,34957-4450,7726923654.0,"https://www.google.com/maps/place/Sbarro/@27.2409087,-80.2770567,17z/data=!4m5!3m4!1s0x88dedd6a3d7788bb:0xfb2a55a681f5c439!8m2!3d27.2409039!4d-80.274868?hl=en",sbarro,
Sbarro,12000 SE 82nd Ave,HAPPY VALLEY,OR,97086-7749,5037866218.0,"https://www.google.com/maps/place/Sbarro/@45.4362032,-122.5737323,17z/data=!3m1!4b1!4m5!3m4!1s0x54957579d27e86f5:0xf691b02f941fcee0!8m2!3d45.4362032!4d-122.5737323",sbarro,
Sbarro,2949 N Toltec Rd,ELOY,AZ,85131-9601,5204667363.0,"https://www.google.com/maps/place/Sbarro/@32.773729,-111.617507,17z/data=!3m1!4b1!4m5!3m4!1s0x872a6e34ba47a669:0x1ded892250c008df!8m2!3d32.773729!4d-111.617507",sbarro,
Sbarro,1500 S Willow St,MANCHESTER,NH,03103-3220,6032069997.0,"https://www.google.com/maps/place/Sbarro/@42.9554768,-71.4325338,17z/data=!3m1!4b1!4m5!3m4!1s0x89e24e8851eddd61:0x2e6cc09b1cfd493!8m2!3d42.9554768!4d-71.4325338",sbarro,
Sbarro,11025 Carolina Place Pkwy,PINEVILLE,NC,28134-7519,7045439559.0,"https://www.google.com/maps/place/Sbarro/@35.0823638,-80.8769846,17z/data=!3m1!4b1!4m5!3m4!1s0x88569c8d27d456fb:0x566fb062cc062d02!8m2!3d35.0823638!4d-80.8769846",sbarro,
Sbarro,100 Twin River Rd,LINCOLN,RI,02865-4835,4014752259.0,"https://www.google.com/maps/place/Sbarro/@41.8880154,-71.4486745,17z/data=!3m1!4b1!4m5!3m4!1s0x89e443a55fbec78f:0xfe931f7b8bbaff58!8m2!3d41.8880154!4d-71.4486745",sbarro,
Sbarro,5655 Meadowood Mall Cir,RENO,NV,89502,7752857544.0,"https://www.google.com/maps/place/Sbarro/@39.4744594,-119.7811243,17z/data=!3m1!4b1!4m5!3m4!1s0x80993f2cef6f9f3d:0xee02c2a674e29137!8m2!3d39.4744594!4d-119.7811243",sbarro,
