Company Name,Address 1,City,State,Zip,Phone,Google Link,Company Name Processed,Status
Simple Simon's Pizza,1412 SE Washington Blvd,BARTLESVILLE,OK,74006-4508,9183319500.0,"https://www.google.com/maps/place/Simple+Simon's+Pizza+-+Bartlesville,+OK/@36.7323928,-95.9346249,17z/data=!3m1!4b1!4m5!3m4!1s0x87b712318cde3087:0xe83fc31a49fa2882!8m2!3d36.7323928!4d-95.9346249",simple_simons_pizza,
Simple Simon's Pizza,4253 E Waterloo Rd,EDMOND,OK,73034-9296,4053408901.0,"https://www.google.com/maps/place/Simple+Simon's+Pizza+-+Edmond,+OK/@35.7255119,-97.4256306,17z/data=!3m1!4b1!4m5!3m4!1s0x87b18a51a28bf63b:0x16a1d745b4954e7f!8m2!3d35.7255119!4d-97.4256306",simple_simons_pizza,
Simple Simon's Pizza,U S 412 & Oklahoma 10,KANSAS,OK,74347,9188682985.0,"https://www.google.com/maps/place/Simple+Simon's+Pizza+-+Kansas,+OK/@36.205848,-94.7785855,17z/data=!3m1!4b1!4m5!3m4!1s0x87c9c1a2f76da24b:0x9bc0fa8619ab7501!8m2!3d36.205848!4d-94.7785855",simple_simons_pizza,
Simple Simon's Pizza,2203 Fayetteville Rd,VAN BUREN,AR,72956-6508,4794715805.0,"https://www.google.com/maps/place/Simple+Simon's+Pizza+-+Van+Buren,+AR/@35.4687896,-94.3569287,17z/data=!3m1!4b1!4m5!3m4!1s0x87cbb59e290cff99:0xb746a71f6df6c149!8m2!3d35.4687896!4d-94.3569287",simple_simons_pizza,
Simple Simon's Pizza,107 E Avenue C,HEAVENER,OK,74937-2603,9186537492.0,"https://www.google.com/maps/place/Simple+Simon's+Pizza+-+Heavener,+OK/@34.8898539,-94.6036745,17z/data=!4m5!3m4!1s0x87caef1e43bbd47b:0xfbbb4cb1f475b48c!8m2!3d34.8898495!4d-94.6014858?hl=en",simple_simons_pizza,
Simple Simon's Pizza,415 US Highway 81,MINCO,OK,73059,4053525185.0,"https://www.google.com/maps/place/Simple+Simon's+Pizza/@35.3094292,-97.9456354,17z/data=!3m1!4b1!4m5!3m4!1s0x87adf2ba0f2e0953:0x7fe3c2d9f63d1d72!8m2!3d35.3094292!4d-97.9456354",simple_simons_pizza,
Simple Simon's Pizza,11701 E Maguire Rd,NOBLE,OK,73068-7746,4058728663.0,"https://www.google.com/maps/place/Simple+Simon's+Pizza/@35.132408,-97.269998,17z/data=!3m1!4b1!4m5!3m4!1s0x87b25a813a07cfbb:0x1af468579eb84540!8m2!3d35.132408!4d-97.269998",simple_simons_pizza,
Simple Simon's Pizza,17805 S Harrah Rd,NEWALLA,OK,74857-7201,4053864500.0,"https://www.google.com/maps/place/Simple+Simon's+Pizza/@35.2924437,-97.1602135,17z/data=!3m1!4b1!4m5!3m4!1s0x87b24bc057696b6f:0x638d4417862543a!8m2!3d35.2924437!4d-97.1602135",simple_simons_pizza,
Simple Simon's Pizza,701 N Center Ave,PIEDMONT,AL,36272-1103,2564470099.0,"https://www.google.com/maps/place/Simple+Simon's+Pizza+-+Piedmont,+AL/@33.932,-85.6128,17z/data=!3m1!4b1!4m5!3m4!1s0x888a586535751b7f:0xa608d1140f4ed344!8m2!3d33.932!4d-85.6128",simple_simons_pizza,
Simple Simon's Pizza,205 West Highway 3,RATTAN,OK,74562,5805872000.0,"https://www.google.com/maps/place/Simple+Simon's+Pizza/@34.2007484,-95.4146499,17z/data=!3m1!4b1!4m5!3m4!1s0x864ab9f16c03f1d1:0x47248a611705c384!8m2!3d34.2007484!4d-95.4146499",simple_simons_pizza,
Simple Simon's Pizza,100 N Highway 174,RIO VISTA,TX,76093,8173733228.0,"https://www.google.com/maps/place/Simple+Simon's+Pizza+-+Rio+Vista,+TX/@32.2332072,-97.3787851,17z/data=!3m1!4b1!4m5!3m4!1s0x864e496227603aef:0xefc0cbb72852f16e!8m2!3d32.2332072!4d-97.3787851",simple_simons_pizza,
Simple Simon's Pizza,101 E Ute Street,PORUM,OK,74455,9184842501.0,"https://www.google.com/maps/place/Simple+Simon's+Pizza/@35.454839,-95.7784313,9z/data=!4m8!1m2!2m1!1sSimple+Simon's+Pizza+101+E+Ute+Street+PORUM+OK+74455!3m4!1s0x87b5918094826df5:0x32b71bb3fc6c260d!8m2!3d35.3625602!4d-95.2648498?hl=en",simple_simons_pizza,
Simple Simon's Pizza,7759 US Highway 277,ELGIN,OK,73538,5804924567.0,"https://www.google.com/maps/place/Scott's+Super+Stop/@35.147403,-99.5199323,7z/data=!4m8!1m2!2m1!1sSimple+Simon's+Pizza+ELGIN+OK!3m4!1s0x87ad0f8dce91a43d:0x86a726f8afb385ec!8m2!3d34.7820617!4d-98.296377?hl=en",simple_simons_pizza,
Simple Simon's Pizza,820 Pennsylvania Ave,HARTSHORNE,OK,74547-3640,9182972338.0,"https://www.google.com/maps/place/Simple+Simon's+Pizza+-+Hartshorne,+OK/@34.8457018,-95.5592157,17z/data=!3m1!4b1!4m5!3m4!1s0x87b5109f8965d92b:0x851808dc63258f8c!8m2!3d34.8457018!4d-95.5592157",simple_simons_pizza,
Simple Simon's Pizza,17000 Bethel Rd,SHAWNEE,OK,74801-2937,4052730100.0,"https://www.google.com/maps/place/Simple+Simon's+Pizza+-+Shawnee,+OK/@35.3183235,-97.0189576,17z/data=!3m1!4b1!4m5!3m4!1s0x87b3b432b3907891:0x8728dc912e00195c!8m2!3d35.3183235!4d-97.0189576",simple_simons_pizza,
Simple Simon's Pizza,702 N Broadway Ave,HASKELL,OK,74436,9184821219.0,"https://www.google.com/maps/place/Simple+Simon's+Pizza+-+Haskell,+OK/@35.8128169,-95.6742725,17z/data=!3m1!4b1!4m5!3m4!1s0x87b67f1cfe6a8655:0xa09b357dbe0a9254!8m2!3d35.8128169!4d-95.6742725",simple_simons_pizza,
Simple Simon's Pizza,311 W Missouri St,WALTERS,OK,73572-1247,5808752000.0,"https://www.google.com/maps/place/Simple+Simon's+Pizza/@34.8357612,-98.8450955,9z/data=!4m8!1m2!2m1!1sSimple+Simon's+Pizza+11959+US+62+ELGIN+OK+73538!3m4!1s0x87ad2fd45bc704ff:0x87b598c3314de5fb!8m2!3d34.3624085!4d-98.3131297?hl=en",simple_simons_pizza,
Simple Simon's Pizza,130 Hunter Ave,BOSWELL,OK,74727-2700,5805662277.0,"https://www.google.com/maps/place/Simple+Simon's+Pizza+-+Boswell,+OK/@34.0270754,-95.8762974,17z/data=!3m1!4b1!4m5!3m4!1s0x864b22964bf69f1d:0x25c27eb0dd84e7a6!8m2!3d34.0270754!4d-95.8762974",simple_simons_pizza,
Simple Simon's Pizza,1036 W Main St,CHERRYVALE,KS,67335-1104,6203362902.0,"https://www.google.com/maps/place/Simple+Simon's+Pizza+-+Cherryvale,+KS/@37.2691843,-95.5666603,17z/data=!3m1!4b1!4m5!3m4!1s0x87b82f5eb09e7859:0xc737ca4ec2b42797!8m2!3d37.2691843!4d-95.5666603",simple_simons_pizza,
Simple Simon's Pizza,7 N Silver St,PAOLA,KS,66071-1473,9132945790.0,"https://www.google.com/maps/place/Simple+Simon's+Pizza+-+Paola,+KS/@38.5734471,-94.8786408,17z/data=!3m1!4b1!4m5!3m4!1s0x87c0ee1c28156a01:0xe09f9acce178f352!8m2!3d38.5734471!4d-94.8786408",simple_simons_pizza,
Simple Simon's Pizza,522 4th St,PAWNEE,OK,74058-2553,9187622545.0,"https://www.google.com/maps/place/Simple+Simon's+Pizza+-+Pawnee,+OK/@36.3386843,-96.8004646,17z/data=!3m1!4b1!4m5!3m4!1s0x87b11ed05e987e57:0x6fb29f8a5b360ef6!8m2!3d36.3386843!4d-96.8004646",simple_simons_pizza,
Simple Simon's Pizza,124 N Main St,PERKINS,OK,74059-3941,4055475183.0,"https://www.google.com/maps/place/Simple+Simon's+Pizza/@35.9749071,-97.0333675,17z/data=!3m1!4b1!4m5!3m4!1s0x87b174214ee75805:0x1a71fb43f5eadc6a!8m2!3d35.9749071!4d-97.0333675",simple_simons_pizza,
Simple Simon's Pizza,6206 N Peoria Ave,TULSA,OK,74126-1749,9184253030.0,"https://www.google.com/maps/place/Simple+Simon's+Pizza+-+Turley,+OK/@36.2443652,-95.9759092,17z/data=!3m1!4b1!4m5!3m4!1s0x87b6ef29d5889685:0x3ba8e3570a1b01d2!8m2!3d36.2443652!4d-95.9759092",simple_simons_pizza,
Simple Simon's Pizza,53 W Wilson St,VALLIANT,OK,74764,5809335700.0,"https://www.google.com/maps/place/Simple+Simon's+Pizza+-+Valliant,+OK+(inside+Pruett's+Foods)/@34.0001855,-95.0819393,17z/data=!3m1!4b1!4m5!3m4!1s0x864a9e54a8008629:0x22766056fdb13241!8m2!3d34.0001855!4d-95.0819393",simple_simons_pizza,
Simple Simon's Pizza,521 S Main St,WAURIKA,OK,73573,5802282560.0,"https://www.google.com/maps/place/Simple+Simon's+Pizza+-+Waurika,+OK/@34.1588519,-98.0012092,17z/data=!3m1!4b1!4m5!3m4!1s0x8652b22a987f99b1:0x5c9b4357ae8a1418!8m2!3d34.1588519!4d-98.0012092",simple_simons_pizza,
Simple Simon's Pizza,106 Morrow St N,MENA,AR,71953-2530,4793940300.0,"https://www.google.com/maps/place/Simple+Simon's+Pizza+-+Mena,+AR/@34.5871309,-94.2227532,17z/data=!3m1!4b1!4m5!3m4!1s0x87cb303ccddadc2b:0xdc78b997e6ff6e78!8m2!3d34.5871309!4d-94.2227532",simple_simons_pizza,
Simple Simon's Pizza,1002 E Main St,ANTLERS,OK,74523-2810,5802982233.0,"https://www.google.com/maps/place/Simple+Simon's+Pizza+-+Antlers,+OK+(inside+Pruett's+Foods)/@34.2316189,-95.6110931,17z/data=!4m5!3m4!1s0x864ad0f8272b4c09:0x4b5828d2cb6abb4f!8m2!3d34.2316145!4d-95.6089044?hl=en",simple_simons_pizza,
Simple Simon's Pizza,501 N Main St,BRISTOW,OK,74010-2016,9183671116.0,"https://www.google.com/maps/place/Simple+Simon's+Pizza+-+Bristow,+OK/@35.8369765,-96.3908654,17z/data=!3m1!4b1!4m5!3m4!1s0x87b6aca1418def8b:0xa05e414b2e4d8e99!8m2!3d35.8369765!4d-96.3908654",simple_simons_pizza,
Simple Simon's Pizza,414 E Don Tyler Ave,DEWEY,OK,74029,9185340300.0,"https://www.google.com/maps/place/Simple+Simon's+Pizza+-+Dewey,+OK/@36.798941,-95.936291,17z/data=!3m1!4b1!4m5!3m4!1s0x87b712d6cf93dd8b:0xe256eef475134bf5!8m2!3d36.798941!4d-95.936291",simple_simons_pizza,
Simple Simon's Pizza,1303 N Brazos St,WHITNEY,TX,76692-2051,2546943855.0,"https://www.google.com/maps/place/Simple+Simon's+Pizza/@31.9622264,-97.3237062,17z/data=!3m1!4b1!4m5!3m4!1s0x864fba76139aea49:0xd95c04e24f0f0495!8m2!3d31.9622264!4d-97.3237062",simple_simons_pizza,
Simple Simon's Pizza,2151 W Terra Ln,O FALLON,MO,63366-2366,6366395105.0,"https://www.google.com/maps/place/Simple+Simon's+Pizza+-+O'Fallon,+MO/@38.8057843,-90.7711437,17z/data=!4m8!1m2!2m1!1sSimple+Simon's+Pizza+2151+W+Terra+Ln+O+FALLON+MO+63366-2366!3m4!1s0x87decfedafc8bda7:0xeace26714ea75081!8m2!3d38.8062016!4d-90.7689294?hl=en",simple_simons_pizza,
Simple Simon's Pizza,602 E Highway 66,WELLSTON,OK,74881-9475,4053562924.0,"https://www.google.com/maps/place/Simple+Simon's+Pizza/@35.4429371,-97.1282134,8z/data=!4m8!1m2!2m1!1sSimple+Simon's+Pizza+Main+Street+WELEETKA+OK+74880!3m4!1s0x87b3d514009aea51:0xc2af6874a0ccda83!8m2!3d35.6814449!4d-97.0545726?hl=en",simple_simons_pizza,
Simple Simon's Pizza,22050 County Road 230,MORRISON,OK,73061-9491,5807243577.0,"https://www.google.com/maps/place/Simple+Simon's+Pizza/@36.2892129,-97.0669681,17z/data=!3m1!4b1!4m5!3m4!1s0x87b10715962e4885:0x50033f4c3636914a!8m2!3d36.2892129!4d-97.0669681",simple_simons_pizza,
Simple Simon's Pizza,1209 U S Hwy 70-A,WILSON,OK,73463,5806682235.0,"https://www.google.com/maps/place/Simple+Simon's/@35.1150546,-98.3946273,7z/data=!4m8!1m2!2m1!1sSimple+Simon's+Pizza+1209+U+S+Hwy+70-A+WILSON+OK+73463!3m4!1s0x864d31166722d2a9:0x2b4bb3e79fa9b2b2!8m2!3d34.172149!4d-97.327767?hl=en",simple_simons_pizza,
Simple Simon's Pizza,1127 W Gentry Ave,CHECOTAH,OK,74426-2051,9184736868.0,"https://www.google.com/maps/place/Simple+Simon's+Pizza+-+Checotah,+OK/@35.4731968,-95.5351939,17z/data=!3m1!4b1!4m5!3m4!1s0x87b5c7a5740e7fef:0xf61a729dc435c3e5!8m2!3d35.4731968!4d-95.5351939",simple_simons_pizza,
Simple Simon's Pizza,902 N Sheb Wooley Ave,ERICK,OK,73645-4211,5805263269.0,"https://www.google.com/maps/place/Simple+Simon's+Pizza+-+Erick,+OK/@35.224391,-99.868597,17z/data=!3m1!4b1!4m5!3m4!1s0x87abcafd610983e3:0xc483338611de69b7!8m2!3d35.224391!4d-99.868597",simple_simons_pizza,
Simple Simon's Pizza,907 N Main St,JAY,OK,74346,9182536600.0,"https://www.google.com/maps/place/Simple+Simon's+Pizza/@36.4311553,-94.7830262,17z/data=!3m1!4b1!4m5!3m4!1s0x87c9cbdbaa5bf893:0x30f0e64d505e785d!8m2!3d36.4311553!4d-94.7830262",simple_simons_pizza,
Simple Simon's Pizza,82 & 28th Junction,LANGLEY,OK,74340,9187821036.0,"https://www.google.com/maps/place/Simple+Simon's+Pizza+-+Langley,+OK+(inside+Speedy's)/@36.4816167,-95.0583092,17z/data=!3m1!4b1!4m5!3m4!1s0x87c9d5706aea66b3:0xb2b1453735a2616e!8m2!3d36.4816167!4d-95.0583092",simple_simons_pizza,
Simple Simon's Pizza,3410 Interstate 27,LUBBOCK,TX,79404-2346,8067410007.0,"https://www.google.com/maps/place/Simple+Simon's+Pizza+-+Lubbock,+TX/@33.5627878,-101.8460978,17z/data=!3m1!4b1!4m5!3m4!1s0x86fe6d205096e48d:0xca58cd5c34882742!8m2!3d33.5627878!4d-101.8460978",simple_simons_pizza,
Simple Simon's Pizza,614 N 15th St,PERRY,OK,73077-5002,5803361144.0,"https://www.google.com/maps/place/Simple+Simon's+Pizza+-+Perry,+OK/@36.290498,-97.300261,17z/data=!3m1!4b1!4m5!3m4!1s0x87b1b184dd3d1b2d:0x1f6f6f71e5643560!8m2!3d36.290498!4d-97.300261",simple_simons_pizza,
Simple Simon's Pizza,338 W Valley St,GRANBY,MO,64844-8337,4174727818.0,"https://www.google.com/maps/place/Simple+Simon's+Pizza+-+Granby,+MO/@36.9182014,-94.2577277,17z/data=!3m1!4b1!4m5!3m4!1s0x87c88d0a4f274635:0xa780bd9ee260dd10!8m2!3d36.9182014!4d-94.2577277",simple_simons_pizza,
Simple Simon's Pizza,461 S US Highway 69,HUNTINGTON,TX,75949-9131,9368764452.0,"https://www.google.com/maps/place/Simple+Simon's+Pizza+-+Huntington,+TX+(inside+Nu-Way+Grocery)/@31.2750449,-94.5726187,17z/data=!3m1!4b1!4m5!3m4!1s0x86383a2343be61d9:0x6f8890aa979b72b0!8m2!3d31.2750449!4d-94.5726187",simple_simons_pizza,
Simple Simon's Pizza,204 East Illinois Avenue,VINITA,OK,74301-3205,9182569882.0,"https://www.google.com/maps/place/Simple+Simon's+Pizza+-+Vinita,+OK+(inside+Woodshed+C-Store)/@36.6382383,-95.1522373,17z/data=!3m1!4b1!4m5!3m4!1s0x87b7d0d00255999f:0x886c324baa70b4ce!8m2!3d36.6382383!4d-95.1522373",simple_simons_pizza,
Simple Simon's Pizza,9031 Highway 169,UNION STAR,MO,64494,8165932862.0,"https://www.google.com/maps/place/Simple+Simon's+Pizza/@39.9811985,-94.6051676,17z/data=!3m1!4b1!4m5!3m4!1s0x87ea9b82c10e0a2f:0xf18071f1dc795e0!8m2!3d39.9811985!4d-94.6051676",simple_simons_pizza,
Simple Simon's Pizza,517 Mine St,NASHVILLE,AR,71852-4110,8708451330.0,"https://www.google.com/maps/place/Simple+Simon's+Pizza+-+Nashville,+AR/@33.9490733,-93.8427975,17z/data=!3m1!4b1!4m5!3m4!1s0x86349b6d83b7f1a9:0x6892d0662f1ba891!8m2!3d33.9490733!4d-93.8427975",simple_simons_pizza,
Simple Simon's Pizza,801 S 14th St,PONCA CITY,OK,74601-6505,5807659128.0,"https://www.google.com/maps/place/Simple+Simon's+Pizza/@36.6959864,-97.066196,17z/data=!3m1!4b1!4m5!3m4!1s0x87b0f5a3fe58717f:0x974969661b353596!8m2!3d36.6959864!4d-97.066196",simple_simons_pizza,
Simple Simon's Pizza,1000 S Main St,SOUTH WEST CITY,MO,64863,4177624262.0,"https://www.google.com/maps/place/Simple+Simon's+Pizza/@36.4997905,-94.6175309,17z/data=!3m1!4b1!4m5!3m4!1s0x87c9b33ac909839d:0x3da637a36e660617!8m2!3d36.4997905!4d-94.6175309",simple_simons_pizza,
Simple Simon's Pizza,1551 S Lee St,FORT GIBSON,OK,74434-8451,9184782400.0,"https://www.google.com/maps/place/Simple+Simon's+Pizza+-+Fort+Gibson,+OK/@35.784878,-95.241769,17z/data=!3m1!4b1!4m5!3m4!1s0x87b5e2bbe4ad1787:0x333c055122d2c12c!8m2!3d35.784878!4d-95.241769",simple_simons_pizza,
Simple Simon's Pizza,307 N Broadway,INOLA,OK,74036,9185438111.0,"https://www.google.com/maps/place/Simple+Simon's+Pizza+-+Inola,+OK/@36.1552772,-95.5114136,17z/data=!3m1!4b1!4m5!3m4!1s0x87b6426657fee997:0xf08a23c8317a7c06!8m2!3d36.1552772!4d-95.5114136",simple_simons_pizza,
Simple Simon's Pizza,200 E Trower Blvd,MANNFORD,OK,74044,9188657504.0,"https://www.google.com/maps/place/Simple+Simon's+Pizza/@36.1275552,-96.3530863,17z/data=!3m1!4b1!4m5!3m4!1s0x87b6ca5014dfea9d:0x5fb942fe87633318!8m2!3d36.1275552!4d-96.3530863",simple_simons_pizza,
Simple Simon's Pizza,202 N Main St,ATTICA,KS,67009-9104,6209152158.0,"https://www.google.com/maps/place/Simple+Simon's+Pizza+-+Attica,+KS/@37.2409994,-98.2260362,17z/data=!3m1!4b1!4m5!3m4!1s0x87a56ecbe24d18a7:0x32fa790164d53a35!8m2!3d37.2409994!4d-98.2260362",simple_simons_pizza,
Simple Simon's Pizza,1503 W 6th St,HENRYETTA,OK,74437-7390,9186524387.0,"https://www.google.com/maps/place/Simple+Simon's+Pizza+-+Dewar,+OK/@35.4580923,-95.9614069,17z/data=!3m1!4b1!4m5!3m4!1s0x87b4385515555555:0x94aabd96f181f305!8m2!3d35.4580923!4d-95.9614069",simple_simons_pizza,
Simple Simon's Pizza,309 Henderson St,PALACIOS,TX,77465-3949,3619720998.0,"https://www.google.com/maps/place/Simple+Simon's+Pizza+-+Palacios,+TX/@28.713338,-96.2163554,17z/data=!4m5!3m4!1s0x8641e56170533093:0xd328e1668ed64cd1!8m2!3d28.7133333!4d-96.2141667?hl=en",simple_simons_pizza,
Simple Simon's Pizza,812 Dallas St,TALIHINA,OK,74571-2401,9185673354.0,"https://www.google.com/maps/place/Simple+Simon's+Pizza+-+Talihina,+OK+(inside+Kimball's+Super+Foods)/@34.7471282,-95.0440164,17z/data=!3m1!4b1!4m5!3m4!1s0x87caa01bb3254261:0x5286c0ad377032f0!8m2!3d34.7471282!4d-95.0440164",simple_simons_pizza,
Simple Simon's Pizza,512 E Highway 62,VERDEN,OK,73092-9300,4054537007.0,"https://www.google.com/maps/place/Simple+Simon's+Pizza+-+Verden,+OK/@35.1973077,-98.1557141,11z/data=!4m8!1m2!2m1!1sSimple+Simon's+Pizza+512+E+Highway+62+VERDEN+OK+73092-9300!3m4!1s0x87b2a588d3b7727d:0x864072b99c02d9c!8m2!3d35.0847864!4d-98.0856255?hl=en",simple_simons_pizza,
Simple Simon's Pizza,401 E 1st St,HOMINY,OK,74035-3005,9188856297.0,"https://www.google.com/maps/place/Simple+Simon's+Pizza+-+Hominy,+OK/@36.4147792,-96.3898837,17z/data=!3m1!4b1!4m5!3m4!1s0x87b6d53f1cdd31db:0xf06dcd03e959cbdb!8m2!3d36.4147792!4d-96.3898837",simple_simons_pizza,
Simple Simon's Pizza,501 N Main St,SWEENY,TX,77480-2421,9795487821.0,"https://www.google.com/maps/place/Simple+Simon's+Pizza+-+Sweeny,+TX/@29.0409439,-95.7015947,17z/data=!3m1!4b1!4m5!3m4!1s0x86404c932f02cf6f:0x7cd9dba84b927ee2!8m2!3d29.0409439!4d-95.7015947",simple_simons_pizza,
Simple Simon's Pizza,303 Delaware St,WINCHESTER,KS,66097-4030,9137747400.0,"https://www.google.com/maps/place/Simple+Simon's+Pizza/@39.3248149,-95.2678331,17z/data=!3m1!4b1!4m5!3m4!1s0x87bf9b000d4e040f:0x36f4f845934cf0b!8m2!3d39.3248149!4d-95.2678331",simple_simons_pizza,
Simple Simon's Pizza,510 E Main St,STIGLER,OK,74462-2436,9189672901.0,"https://www.google.com/maps/place/Simple+Simon's+Pizza+-+Stigler,+OK/@35.2525266,-95.1203003,17z/data=!3m1!4b1!4m5!3m4!1s0x87b58642512015f3:0x5f6f9de93dd21c5c!8m2!3d35.2525266!4d-95.1203003",simple_simons_pizza,
Simple Simon's Pizza,124 Willow St,SOUTH COFFEYVILLE,OK,74072,9182556111.0,"https://www.google.com/maps/place/Simple+Simon's+Pizza+-+South+Coffeyville,+OK+(inside+Woodshed+C-Store)/@36.9983084,-95.6208919,17z/data=!3m1!4b1!4m5!3m4!1s0x87b784c94e0a5ec1:0x574711a0a48502a3!8m2!3d36.9983084!4d-95.6208919",simple_simons_pizza,
Simple Simon's Pizza,109 N Main St,MEDICINE LODGE,KS,67104-1316,6208869963.0,"https://www.google.com/maps/place/Simple+Simon's+Pizza+-+Medicine+Lodge,+KS/@37.2810822,-98.5797862,17z/data=!3m1!4b1!4m5!3m4!1s0x87a59929170e3a43:0x4c010af1bc3abe4!8m2!3d37.2810822!4d-98.5797862",simple_simons_pizza,
Simple Simon's Pizza,2 SW 1st,AFTON,OK,74331,9182578122.0,"https://www.google.com/maps/place/Simple+Simon's+Pizza+-+Afton,+OK/@36.6935206,-94.9634506,17z/data=!3m1!4b1!4m5!3m4!1s0x87c825eedc84c791:0x4d7e6744942e97d6!8m2!3d36.6935206!4d-94.9634506",simple_simons_pizza,
Simple Simon's Pizza,1105 E Church St,WARREN,AR,71671-3512,8702262222.0,"https://www.google.com/maps/place/Simple+Simon's+Pizza+-+Warren,+AR/@34.0511802,-95.2768503,7z/data=!4m8!1m2!2m1!1sSimple+Simon's+Pizza+WARREN+AR!3m4!1s0x862da4c848fdd8f1:0x606f0fe2ea5d4be6!8m2!3d33.6102106!4d-92.046925?hl=en",simple_simons_pizza,
Simple Simon's Pizza,1920 S Main St,FORT SCOTT,KS,66701-3018,6202236954.0,"https://www.google.com/maps/place/Simple+Simon's+Pizza+-+Fort+Scott,+KS+(inside+Pete's+Convenience+Store)/@37.817248,-94.7080591,17z/data=!4m5!3m4!1s0x87c7a194c043d771:0x21f78acb5228dd08!8m2!3d37.8172438!4d-94.7058704?hl=en",simple_simons_pizza,
Simple Simon's Pizza,200 Sioux,RAMONA,OK,74061-3380,9185361245.0,"https://www.google.com/maps/place/Simple+Simon's+Pizza/@36.5321557,-95.9296506,17z/data=!3m1!4b1!4m5!3m4!1s0x87b7b5ac68598cb5:0x88591f6085cc22d8!8m2!3d36.5321557!4d-95.9296506",simple_simons_pizza,
Simple Simon's Pizza,117 E Ozark St,MORRIS,OK,74445-2253,9187331349.0,"https://www.google.com/maps/place/Simple+Simon's+Pizza+-+Morris,+OK/@35.4429371,-97.1282134,8z/data=!4m8!1m2!2m1!1sSimple+Simon's+Pizza+Main+Street+WELEETKA+OK+74880!3m4!1s0x87b42e2d168757b7:0x3f837cff2d88a5!8m2!3d35.6079059!4d-95.854988?hl=en",simple_simons_pizza,
Simple Simon's Pizza,U S 271,WISTER,OK,74966,9186553373.0,"https://www.google.com/maps/place/Simple+Simon's+Pizza+-+Wister,+OK/@34.9718075,-94.7286453,17z/data=!4m5!3m4!1s0x87ca908b18e41091:0xefdd1c312bd4dd34!8m2!3d34.9718031!4d-94.7264566?hl=en",simple_simons_pizza,
Simple Simon's Pizza,12138 S Vancouver Ave,GLENPOOL,OK,74066,9185286008.0,"https://www.google.com/maps/place/Simple+Simon's+Pizza+-+Glenpool,+OK/@35.9870159,-96.0146116,17z/data=!3m1!4b1!4m5!3m4!1s0x87b696e35b02e0b1:0x10f65da4414192a6!8m2!3d35.9870159!4d-96.0146116",simple_simons_pizza,
Simple Simon's Pizza,13504 US Highway 190 W,ONALASKA,TX,77360-8017,9366467743.0,"https://www.google.com/maps/place/Simple+Simon's+Pizza+-+Onalaska,+TX/@30.8154604,-95.1006506,17z/data=!3m1!4b1!4m5!3m4!1s0x86478034d95e7777:0x384fda78aa405aaa!8m2!3d30.8154604!4d-95.1006506",simple_simons_pizza,
Simple Simon's Pizza,104 W Morgan,MERIDIAN,TX,76665,2544352321.0,"https://www.google.com/maps/place/Simple+Simon's+Pizza+-+Meridian,+TX/@31.9235603,-97.6567884,17z/data=!3m1!4b1!4m5!3m4!1s0x864fda60eb1f780f:0x83a40ae8baee450a!8m2!3d31.9235603!4d-97.6567884",simple_simons_pizza,
Simple Simon's Pizza,24963 NE Highway 169,GARNETT,KS,66032-1750,7854486582.0,"https://www.google.com/maps/place/Simple+Simon's+Pizza+-+Garnett,+KS/@38.2603527,-95.2481221,17z/data=!3m1!4b1!4m5!3m4!1s0x87b8bb6733f6a9a5:0x615906c52de75e60!8m2!3d38.2603527!4d-95.2481221",simple_simons_pizza,
Simple Simon's Pizza,997 N 250 Rd,MOUNDS,OK,74047-5307,9183664325.0,"https://www.google.com/maps/place/Simple+Simon's+Pizza+-+Hectorville,+OK/@35.8422392,-95.9264845,17z/data=!3m1!4b1!4m5!3m4!1s0x87b69c911f00a593:0xf9527d35e5591065!8m2!3d35.8422392!4d-95.9264845",simple_simons_pizza,
Simple Simon's Pizza,11330 N Garnett Rd,OWASSO,OK,74055-4202,9185531280.0,"https://www.google.com/maps/place/Simple+Simon's+Pizza/@36.31885,-95.848678,17z/data=!3m1!4b1!4m5!3m4!1s0x87b6fa5c58f192cb:0x66d87c0c15a21a36!8m2!3d36.31885!4d-95.848678",simple_simons_pizza,
Simple Simon's Pizza,807 W Main St,THOMPSON FALLS,MT,59873,4068275100.0,"https://www.google.com/maps/place/Simple+Simon's+Pizza/@47.5940804,-115.3463759,17z/data=!3m1!4b1!4m5!3m4!1s0x5360c46748e853bd:0xad30d37f2ffda50e!8m2!3d47.5940804!4d-115.3463759",simple_simons_pizza,
Simple Simon's Pizza,600 West St,STOCKTON,MO,65785-7645,4172767600.0,"https://www.google.com/maps/place/Simple+Simon's+Pizza+-+Stockton,+MO/@37.7008333,-93.8027778,17z/data=!3m1!4b1!4m5!3m4!1s0x87c676e4198204a7:0x2faf954fd782057!8m2!3d37.7008333!4d-93.8027778",simple_simons_pizza,
Simple Simon's Pizza,1100 US-400,MCCUNE,KS,66753,6206324400.0,"https://www.google.com/maps/place/Simple+Simon's+Pizza+-+McCune,+KS+(inside+Pete's+Convenience+Store)/@37.3400053,-95.013418,17z/data=!3m1!4b1!4m5!3m4!1s0x87c7f9b5e488385f:0x5e4e0def0c6de923!8m2!3d37.3400053!4d-95.013418",simple_simons_pizza,
Simple Simon's Pizza,418990 Texanna Rd,EUFAULA,OK,74432-1201,9186894722.0,"https://www.google.com/maps/place/Simple+Simon's+Pizza+-+Eufaula,+OK/@35.3620355,-95.5574612,17z/data=!3m1!4b1!4m5!3m4!1s0x87b5bbd9500f5627:0xa37d5cb51b02333d!8m2!3d35.3620355!4d-95.5574612",simple_simons_pizza,
Simple Simon's Pizza,924 E Collin Raye Dr,DE QUEEN,AR,71832-9400,8706424103.0,"https://www.google.com/maps/place/Simple+Simon's+Pizza+-+DeQueen,+AR/@34.0451483,-94.3192974,17z/data=!3m1!4b1!4m5!3m4!1s0x8634e0cd4a0de005:0x58c101f982de4743!8m2!3d34.0451483!4d-94.3192974",simple_simons_pizza,
Simple Simon's Pizza,1294 E Downing St,TAHLEQUAH,OK,74464-3363,9184585522.0,"https://www.google.com/maps/place/Simple+Simon's+Pizza+-+Tahlequah,+OK/@35.4429371,-97.1282134,8z/data=!4m8!1m2!2m1!1sSimple+Simon's+Pizza+Main+Street+WELEETKA+OK+74880!3m4!1s0x87c9fbc3bb3f15ff:0xc0d53244de6ce660!8m2!3d35.91481!4d-94.952385?hl=en",simple_simons_pizza,
Simple Simon's Pizza,222 E Main St,EAGLE LAKE,TX,77434-2426,9792346680.0,"https://www.google.com/maps/place/Simple+Simon's+Pizza+-+Eagle+Lake,+TX/@29.5880556,-96.3333333,17z/data=!3m1!4b1!4m5!3m4!1s0x8641612627008b07:0xee65bcbee200bad1!8m2!3d29.5880556!4d-96.3333333",simple_simons_pizza,
Simple Simon's Pizza,30 North Oklahoma 66,KELLYVILLE,OK,74039,9182476200.0,"https://www.google.com/maps/place/Simple+Simon's+Pizza+-+Kellyville,+OK/@35.9444147,-96.2207631,17z/data=!3m1!4b1!4m5!3m4!1s0x87b6bab93a6eca85:0xc5d16eddd26d959a!8m2!3d35.9444147!4d-96.2207631",simple_simons_pizza,
Simple Simon's Pizza,15020 S Memorial Dr,BIXBY,OK,74008-3711,9183667300.0,"https://www.google.com/maps/place/Simple+Simon's+Pizza+-+Bixby,+OK/@35.9469671,-95.8878102,17z/data=!3m1!4b1!4m5!3m4!1s0x87b68ff7c2d48e77:0x475b5a53331c6304!8m2!3d35.9469671!4d-95.8878102",simple_simons_pizza,
Simple Simon's Pizza,484-498 Huntington Avenue,MANSFIELD,AR,72944-3703,4799285991.0,"https://www.google.com/maps/place/Simple+Simon's+Pizza+-+Mansfield,+AR/@35.0639065,-94.249647,17z/data=!3m1!4b1!4m5!3m4!1s0x87cb06120ab7cfa9:0x18fb798e56eef527!8m2!3d35.0639065!4d-94.249647",simple_simons_pizza,
Simple Simon's Pizza,308 E Pridemore Dr,LINCOLN,AR,72744,4798244700.0,"https://www.google.com/maps/place/Simple+Simon's+Pizza+-+Lincoln,+AR/@35.9471873,-94.420251,17z/data=!3m1!4b1!4m5!3m4!1s0x87c9824184c45e85:0xcf5a6c93be2ec2a!8m2!3d35.9471873!4d-94.420251",simple_simons_pizza,
Simple Simon's Pizza,1107 Cherokee Ave,SENECA,MO,64865,4177762800.0,"https://www.google.com/maps/place/Simple+Simon's+Pizza+-+Seneca,+MO/@36.8412556,-94.6108431,17z/data=!3m1!4b1!4m5!3m4!1s0x87c8425da1a2c9c1:0x81b8d6748701f214!8m2!3d36.8412556!4d-94.6108431",simple_simons_pizza,
Simple Simon's Pizza,60999 E 100 Rd,MIAMI,OK,74354-3702,9185422977.0,"https://www.google.com/maps/place/Simple+Simon's+Pizza+-+Miami,+OK/@36.8709083,-94.7883939,17z/data=!3m1!4b1!4m5!3m4!1s0x87c81592fd270913:0x50165f9d41f2f720!8m2!3d36.8709083!4d-94.7883939",simple_simons_pizza,
Simple Simon's Pizza,1091 N Peninsula Dr E,CLEVELAND,OK,74020-7642,9182435199.0,"https://www.google.com/maps/place/Simple+Simon's+Pizza+-+Cleveland,+OK/@36.2053035,-96.2857568,17z/data=!3m1!4b1!4m5!3m4!1s0x87b6cd3b68802bf7:0xc036322537929c3!8m2!3d36.2053035!4d-96.2857568",simple_simons_pizza,
Simple Simon's Pizza,998 U.S. 166,EDNA,KS,67342-9433,6209227252.0,"https://www.google.com/maps/place/Simple+Simon's+Pizza+-+Edna,+KS+(inside+Woodshed+C-Store)/@37.0485513,-95.3597238,17z/data=!3m1!4b1!4m5!3m4!1s0x87b7f3020c41bf53:0xe5785a06fcb1fe65!8m2!3d37.0485513!4d-95.3597238",simple_simons_pizza,
Simple Simon's Pizza,1152 N York St,MUSKOGEE,OK,74403-2519,9186874080.0,"https://www.google.com/maps/place/Simple+Simon's+Pizza/@35.4429371,-97.1282134,8z/data=!4m8!1m2!2m1!1sSimple+Simon's+Pizza+Main+Street+WELEETKA+OK+74880!3m4!1s0x87b5e1a7b68a514b:0xdb320479f0bbf7ea!8m2!3d35.7555116!4d-95.3398748?hl=en",simple_simons_pizza,
Simple Simon's Pizza,621 Highway 2 N,WILBURTON,OK,74578-3620,9184652741.0,"https://www.google.com/maps/place/Simple+Simon's+Pizza/@34.9191815,-95.3176175,17z/data=!3m1!4b1!4m5!3m4!1s0x87b56dfaf785d3e3:0xd81af5b84782dce6!8m2!3d34.9191815!4d-95.3176175",simple_simons_pizza,
Simple Simon's Pizza,2401 E Cherokee Ave,SALLISAW,OK,74955,9187755511.0,"https://www.google.com/maps/place/Simple+Simon's+Pizza+-+Sallisaw,+OK/@35.4535115,-94.7615968,17z/data=!3m1!4b1!4m5!3m4!1s0x87ca6b27ca2ec331:0xb10b46522e742166!8m2!3d35.4535115!4d-94.7615968",simple_simons_pizza,
Simple Simon's Pizza,706 E Broadway St,DRUMRIGHT,OK,74030-3815,9183524240.0,"https://www.google.com/maps/place/Simple+Simon's+Pizza+-+Drumright,+OK/@35.9882813,-96.5918748,17z/data=!3m1!4b1!4m5!3m4!1s0x87b145e458c79cf7:0xfae72354e10400fb!8m2!3d35.9882813!4d-96.5918748",simple_simons_pizza,
Simple Simon's Pizza,1210 E North Ave,TONKAWA,OK,74653-4068,5806285381.0,"https://www.google.com/maps/place/Simple+Simon's+Pizza+-+Tonkawa,+OK/@36.6812141,-97.2964141,17z/data=!3m1!4b1!4m5!3m4!1s0x87b0431b41572827:0xbfc05508970f9d41!8m2!3d36.6812141!4d-97.2964141",simple_simons_pizza,
Simple Simon's Pizza,15302 Briar Rd,BASEHOR,KS,66007-5100,9137244141.0,"https://www.google.com/maps/place/Simple+Simon's+Pizza+-+Basehor,+KS/@39.1155429,-94.9349091,17z/data=!3m1!4b1!4m5!3m4!1s0x87c08434dfa6da7f:0xe73dd44080b76419!8m2!3d39.1155429!4d-94.9349091",simple_simons_pizza,
Simple Simon's Pizza,107 S Ash St,NOWATA,OK,74048-4621,9182732000.0,"https://www.google.com/maps/place/Simple+Simon's+Pizza+-+Nowata,+OK/@36.6998425,-95.6292271,17z/data=!3m1!4b1!4m5!3m4!1s0x87b7a436c9ea1141:0x980dd55cb431c91e!8m2!3d36.6998425!4d-95.6292271",simple_simons_pizza,
Simple Simon's Pizza,2nd Street,STILWELL,OK,74960,9186967588.0,"https://www.google.com/maps/place/Simple+Simon's+Pizza/@35.8306249,-94.6291127,17z/data=!3m1!4b1!4m5!3m4!1s0x87ca275b5495d0e7:0xfbe19216e763dced!8m2!3d35.8306249!4d-94.6291127",simple_simons_pizza,
Simple Simon's Pizza,310 Main Street,DAISETTA,TX,77533,9365362114.0,"https://www.google.com/maps/place/Simple+Simon's+Pizza+-+Daisetta,+TX/@30.1147889,-94.6453982,17z/data=!3m1!4b1!4m5!3m4!1s0x8638cc82a2186e51:0x6b3a2ad65b7d5a01!8m2!3d30.1147889!4d-94.6453982",simple_simons_pizza,
Simple Simon's Pizza,1100 6th St,RYAN,OK,73565,4057572721.0,"https://www.google.com/maps/place/Simple+Simon's+Pizza/@34.0205768,-97.9568307,17z/data=!3m1!4b1!4m5!3m4!1s0x8652a4d25efe3b29:0x31a801bfe952d36e!8m2!3d34.0205768!4d-97.9568307",simple_simons_pizza,
Simple Simon's Pizza,610 E Ferry St,SALINA,OK,74365-3200,9184345371.0,"https://www.google.com/maps/place/Simple+Simon's+Pizza/@36.2926407,-95.1461708,17z/data=!3m1!4b1!4m5!3m4!1s0x87b6260a3c5fb245:0xb3f16b7ae3487d63!8m2!3d36.2926407!4d-95.1461708",simple_simons_pizza,
Simple Simon's Pizza,14100 Highway 59,ERIE,KS,66733-5003,6202443387.0,"https://www.google.com/maps/place/Simple+Simon's+Pizza+-+Erie,+KS+(inside+Pete's+Convenience+Store)/@37.5734357,-95.2519989,17z/data=!3m1!4b1!4m5!3m4!1s0x87b8131ff2568fd3:0x2bda3ffbc1dc1829!8m2!3d37.5734357!4d-95.2519989",simple_simons_pizza,
Simple Simon's Pizza,606 S Pocola Blvd,POCOLA,OK,74902,9184362540.0,"https://www.google.com/maps/place/Simple+Simon's+Pizza+-+Pocola,+OK/@35.259303,-94.477631,17z/data=!3m1!4b1!4m5!3m4!1s0x87ca53d5dab0da31:0xc84b3cf48c4b2532!8m2!3d35.259303!4d-94.477631",simple_simons_pizza,
Simple Simon's Pizza,404 State Hwy C,PURDY,MO,65734,4174427610.0,"https://www.google.com/maps/place/Simple+Simon's+Pizza/@36.8156723,-93.9268657,17z/data=!3m1!4b1!4m5!3m4!1s0x87c8c6117701fa5f:0xb5c5f5a07f88eedf!8m2!3d36.8156723!4d-93.9268657",simple_simons_pizza,
Simple Simon's Pizza,Highway 59 North,WESTVILLE,OK,74965,9187234330.0,"https://www.google.com/maps/place/Simple+Simon's+Pizza+-+Westville,+OK/@35.9902157,-94.5844799,17z/data=!3m1!4b1!4m5!3m4!1s0x87b8bb19375d07dd:0xb7fef8b5f5d121d3!8m2!3d35.9902157!4d-94.5844799",simple_simons_pizza,
Simple Simon's Pizza,1400 S Main St,MCALESTER,OK,74501,9184230004.0,"https://www.google.com/maps/place/Simple+Simon's+Pizza+-+McAlester,+OK/@34.9165213,-95.772141,17z/data=!3m1!4b1!4m5!3m4!1s0x87b4fcd89cf96b15:0x33c8bfb0895c78d0!8m2!3d34.9165213!4d-95.772141",simple_simons_pizza,
Simple Simon's Pizza,1003 S Main St,MULDROW,OK,74948,9184276844.0,"https://www.google.com/maps/place/Simple+Simon's+Pizza+-+Muldrow,+OK/@35.4015333,-94.5976026,17z/data=!3m1!4b1!4m5!3m4!1s0x87ca4664a6700d5f:0x7eff7f3872b998dc!8m2!3d35.4015333!4d-94.5976026",simple_simons_pizza,
Simple Simon's Pizza,383 W 4th Ave,WELCH,OK,74369-9012,9187883950.0,"https://www.google.com/maps/place/Simple+Simon's+Pizza+-+Welch,+OK+(inside+Woodshed+C-Store)/@36.8735516,-95.0985528,17z/data=!3m1!4b1!4m5!3m4!1s0x87b7e0591ca3594f:0xaf21525262ea4fbb!8m2!3d36.8735516!4d-95.0985528",simple_simons_pizza,
Simple Simon's Pizza,5123 Lake Ave,SAINT JOSEPH,MO,64504-1140,8162383955.0,"https://www.google.com/maps/place/Simple+Simon's/@39.7218357,-94.8630331,17z/data=!3m1!4b1!4m5!3m4!1s0x87c01a9b36e0d947:0xa549af25504d0939!8m2!3d39.7218357!4d-94.8630331",simple_simons_pizza,
Simple Simon's Pizza,200 E Ingram St,SEYMOUR,TX,76380-2630,9408896236.0,"https://www.google.com/maps/place/Simple+Simon's+Pizza/@33.5845,-99.259918,17z/data=!3m1!4b1!4m5!3m4!1s0x8654837597eb4299:0xb5864c8ce7b358e5!8m2!3d33.5845!4d-99.259918",simple_simons_pizza,
Simple Simon's Pizza,1050 E Main St,BOONEVILLE,AR,72927,4796752300.0,"https://www.google.com/maps/place/Simple+Simon's+Pizza+-+Booneville,+AR/@35.140911,-93.9074422,17z/data=!3m1!4b1!4m5!3m4!1s0x87cb77f7f5110da5:0xc579d7adf6ab80db!8m2!3d35.140911!4d-93.9074422",simple_simons_pizza,
Simple Simon's Pizza,1201 E Main St,TISHOMINGO,OK,73460-2408,5803713371.0,"https://www.google.com/maps/place/Simple+Simon's+Pizza+-+Tishomingo,+OK/@34.2308681,-96.6633176,17z/data=!3m1!4b1!4m5!3m4!1s0x864cb15329df6361:0x91f70d60c91583a8!8m2!3d34.2308681!4d-96.6633176",simple_simons_pizza,
Simple Simon's Pizza,822 N Cedar St,MORAN,KS,66755,6202374551.0,"https://www.google.com/maps/place/Simple+Simon's+Pizza+-+Moran,+KS+(inside+Pete's+Convenience+Store)/@37.9210946,-95.1702697,17z/data=!3m1!4b1!4m5!3m4!1s0x87b886eeda2434cd:0x89cc5108eb83f7f5!8m2!3d37.9210946!4d-95.1702697",simple_simons_pizza,
Simple Simon's Pizza,1001 S Park Dr,BROKEN BOW,OK,74728-5709,5805846056.0,"https://www.google.com/maps/place/Simple+Simon's+Pizza+-+Broken+Bow,+OK+(inside+Pruett's+Food)/@34.0207905,-94.742723,16z/data=!4m8!1m2!2m1!1sSimple+Simon's+Pizza+1001+S+Park+Dr+BROKEN+BOW+OK+74728-5709!3m4!1s0x86356adaf3787f3f:0x610ac23ea5d67e3c!8m2!3d34.0250902!4d-94.7381049?hl=en",simple_simons_pizza,
Simple Simon's Pizza,213 E Main St,CHARLESTON,AR,72933,4799652950.0,"https://www.google.com/maps/place/Simple+Simon's+Pizza+-+Charleston,+AR/@35.2975731,-94.0403682,17z/data=!3m1!4b1!4m5!3m4!1s0x87cb98466767cdbb:0xf0119b8251116a04!8m2!3d35.2975731!4d-94.0403682",simple_simons_pizza,
Simple Simon's Pizza,301 S Fry St,YATES CENTER,KS,66783-1636,6206252253.0,"https://www.google.com/maps/place/Simple+Simon's+Pizza+-+Yates+Center,+KS+(inside+Pete's+Convenience+Store)/@37.8790726,-95.7394183,17z/data=!3m1!4b1!4m5!3m4!1s0x87b9002d12202597:0xdac7630349d5007c!8m2!3d37.8790726!4d-95.7394183",simple_simons_pizza,
Simple Simon's Pizza,1 E H Ave,CACHE,OK,73527-9475,5804293600.0,"https://www.google.com/maps/place/Simple+Simon's+Pizza+-+Cache,+OK/@34.6238934,-98.6236936,17z/data=!3m1!4b1!4m5!3m4!1s0x87ace667799bc635:0xbe0faccd12c6637f!8m2!3d34.6238934!4d-98.6236936",simple_simons_pizza,
Simple Simon's Pizza,419 Main St,EAST BERNARD,TX,77435-9008,9793357533.0,"https://www.google.com/maps/place/Simple+Simon's+Pizza+-+East+Bernard,+TX/@29.5318609,-96.062138,17z/data=!3m1!4b1!4m5!3m4!1s0x86416ccb2ccd2c29:0x87a4cdfdd02512c1!8m2!3d29.5318609!4d-96.062138",simple_simons_pizza,
Simple Simon's Pizza,1617 US-50,PUEBLO,CO,81008,7192994495.0,"https://www.google.com/maps/place/Simple+Simon's+Pizza/@38.3109713,-104.6290473,17z/data=!3m1!4b1!4m5!3m4!1s0x8713a226a5ca2441:0x434030c47a41817d!8m2!3d38.3109713!4d-104.6290473",simple_simons_pizza,
Simple Simon's Pizza,6714 Ted Trout Dr,LUFKIN,TX,75904-6655,9368753144.0,"https://www.google.com/maps/place/Simple+Simon's+Pizza+-+Hudson,+TX/@31.3165771,-94.8297284,17z/data=!3m1!4b1!4m5!3m4!1s0x863810c558989aef:0xa066e3b6b9a09abd!8m2!3d31.3165771!4d-94.8297284",simple_simons_pizza,
Simple Simon's Pizza,207 NW Market,RED OAK,OK,74563-2550,9187212267.0,"https://www.google.com/maps/place/Simple+Simon's+Pizza+-+Red+Oak,+OK/@34.9511248,-95.0833549,17z/data=!3m1!4b1!4m5!3m4!1s0x87b57d3e90da1105:0x1e3d92a9152d6183!8m2!3d34.9511248!4d-95.0833549",simple_simons_pizza,
Simple Simon's Pizza,700 S Lincoln Ave,STAR CITY,AR,71667-5208,8706285555.0,"https://www.google.com/maps/place/Simple+Simon's+Pizza/@33.9358394,-91.8463406,17z/data=!4m5!3m4!1s0x862d0297cb506e69:0x3010bfdd15dc7e2e!8m2!3d33.935835!4d-91.8441519?hl=en",simple_simons_pizza,
Simple Simon's Pizza,55990 OK-85A,BERNICE,OK,74331,9182578805.0,"https://www.google.com/maps/place/Simple+Simon's+Pizza+-+Afton,+OK+(Monkey+Island)/@36.6358057,-94.8743115,17z/data=!3m1!4b1!4m5!3m4!1s0x87c831ca13971883:0xc69476d5d5da002!8m2!3d36.6358057!4d-94.8743115",simple_simons_pizza,
Simple Simon's Pizza,6116 W 41st St,TULSA,OK,74107-6016,9187946696.0,"https://www.google.com/maps/place/Simple+Simon's+Pizza+-+Berryhill,+OK/@36.104217,-96.061634,17z/data=!3m1!4b1!4m5!3m4!1s0x87b695515c14b5a5:0x9780bcc3517bb423!8m2!3d36.104217!4d-96.061634",simple_simons_pizza,
Simple Simon's Pizza,6453 Main St,BONNERS FERRY,ID,83805-8520,2082679410.0,"https://www.google.com/maps/place/Simple+Simon's+Pizza+-+Bonners+Ferry,+ID/@48.6767198,-116.3312003,17z/data=!3m1!4b1!4m5!3m4!1s0x536391ffb258002d:0xab5c8da0e33d0793!8m2!3d48.6767198!4d-116.3312003",simple_simons_pizza,
Simple Simon's Pizza,603 1st Ave SE,GRAVETTE,AR,72736,4793446200.0,"https://www.google.com/maps/place/Simple+Simon's+Pizza+-+Gravette,+AR/@36.416507,-94.453468,17z/data=!3m1!4b1!4m5!3m4!1s0x87c9a9137027e34f:0x47e0b587f328f262!8m2!3d36.416507!4d-94.453468",simple_simons_pizza,
Simple Simon's Pizza,807 W 11th St,COFFEYVILLE,KS,67337,6206888900.0,"https://www.google.com/maps/place/Simple+Simon's+Pizza+-+Coffeyville,+KS/@37.0327633,-95.6280364,17z/data=!3m1!4b1!4m5!3m4!1s0x87b7848b001d48dd:0x8187620539410b95!8m2!3d37.0327633!4d-95.6280364",simple_simons_pizza,
Simple Simon's Pizza,5304 N Broadway Ave,HINTON,OK,73047,4055422946.0,"https://www.google.com/maps/place/Simple+Simon's+Pizza+-+Hinton,+OK/@35.5281632,-98.3551097,17z/data=!4m5!3m4!1s0x87add1373e4a5f55:0x1035c6506010ac69!8m2!3d35.5281589!4d-98.352921?hl=en",simple_simons_pizza,
Simple Simon's Pizza,Broken Bow High School,BROKEN BOW,OK,74728,5805846056.0,"https://www.google.com/maps/place/Simple+Simon's+Pizza+-+Broken+Bow,+OK+(inside+Pruett's+Food)/@34.0250902,-94.7381049,17z/data=!3m1!4b1!4m5!3m4!1s0x86356adaf3787f3f:0x610ac23ea5d67e3c!8m2!3d34.0250902!4d-94.7381049",simple_simons_pizza,
Simple Simon's Pizza,11959 US 62,ELGIN,OK,73538,5804924076.0,"https://www.google.com/maps/place/Gas+Mart+Porter+Hill/@34.8357612,-98.8450955,9z/data=!4m8!1m2!2m1!1sSimple+Simon's+Pizza+11959+US+62+ELGIN+OK+73538!3m4!1s0x87ad049ae0ca1405:0x191de33f924c9bb1!8m2!3d34.781866!4d-98.388039?hl=en",simple_simons_pizza,
Simple Simon's Pizza,12138 Vancouver Ave,SAPULPA,OK,74066,9185286008.0,"https://www.google.com/maps/place/Simple+Simon's+Pizza+-+Glenpool,+OK/@35.9870159,-96.0146116,17z/data=!3m1!4b1!4m5!3m4!1s0x87b696e35b02e0b1:0x10f65da4414192a6!8m2!3d35.9870159!4d-96.0146116",simple_simons_pizza,
Simple Simon's Pizza,Highway 82,DISNEY,OK,74340,9187821036.0,"https://www.google.com/maps/place/Simple+Simon's+Pizza+-+Langley,+OK+(inside+Speedy's)/@36.3875899,-95.3824229,10z/data=!4m8!1m2!2m1!1sSimple+Simon's+Pizza+Highway+82+DISNEY+OK+74340!3m4!1s0x87c9d5706aea66b3:0xb2b1453735a2616e!8m2!3d36.4816167!4d-95.0583092?hl=en",simple_simons_pizza,
Simple Simon's Pizza,Pocola Blvd,POCOLA,OK,74902,9184362540.0,"https://www.google.com/maps/place/Simple+Simon's+Pizza+-+Pocola,+OK/@35.259303,-94.477631,17z/data=!3m1!4b1!4m5!3m4!1s0x87ca53d5dab0da31:0xc84b3cf48c4b2532!8m2!3d35.259303!4d-94.477631",simple_simons_pizza,
Simple Simon's Pizza,U South 71,HATFIELD,AR,71945,8703896998.0,"https://www.google.com/maps/place/Simple+Simon's+Pizza+-+Hatfield,+AR/@34.4853268,-94.3785563,17z/data=!3m1!4b1!4m5!3m4!1s0x87cb286ed918f175:0xe61ad6c20fcc6561!8m2!3d34.4853268!4d-94.3785563",simple_simons_pizza,
Simple Simon's Pizza,Wilson St,VALLIANT,OK,74764,5809335700.0,"https://www.google.com/maps/place/Simple+Simon's+Pizza+-+Valliant,+OK+(inside+Pruett's+Foods)/@34.0001855,-95.0819393,17z/data=!3m1!4b1!4m5!3m4!1s0x864a9e54a8008629:0x22766056fdb13241!8m2!3d34.0001855!4d-95.0819393",simple_simons_pizza,
Simple Simon's Pizza,2003 West Elk Ave,DUNCAN,OK,73533,5804750553.0,"https://www.google.com/maps/place/Simple+Simon's+Pizza+-+Duncan,+OK+(inside+Chisholm+Corner+West)/@34.522242,-97.9733777,17z/data=!3m1!4b1!4m5!3m4!1s0x87ad4335e1e78891:0x3810abc81af8e310!8m2!3d34.522242!4d-97.9733777",simple_simons_pizza,
Simple Simon's Pizza,6Th St,RYAN,OK,73565,4057572721.0,"https://www.google.com/maps/place/Simple+Simon's+Pizza/@34.0205812,-97.9590194,17z/data=!4m5!3m4!1s0x8652a4d25efe3b29:0x31a801bfe952d36e!8m2!3d34.0205768!4d-97.9568307?hl=en",simple_simons_pizza,
Simple Simon's Pizza,Oklahoma 10,KANSAS,OK,74347,9188682985.0,"https://www.google.com/maps/place/Simple+Simon's+Pizza+-+Kansas,+OK/@36.2058523,-94.7807742,17z/data=!4m5!3m4!1s0x87c9c1a2f76da24b:0x9bc0fa8619ab7501!8m2!3d36.205848!4d-94.7785855?hl=en",simple_simons_pizza,
Simple Simon's Pizza,424 North Main Street,STILLWATER,OK,74075-5402,4057079222.0,"https://www.google.com/maps/place/Simple+Simon's+Pizza+-+Stillwater,+OK/@36.1274235,-97.0590457,17z/data=!3m1!4b1!4m5!3m4!1s0x87b10a30ed35b791:0x839e6477d72d746a!8m2!3d36.1274235!4d-97.0590457",simple_simons_pizza,
Simple Simon's Pizza,601 S A Ave,OILTON,OK,74052,9188621022.0,"https://www.google.com/maps/place/Simple+Simon's+Pizza/@36.081175,-96.584809,17z/data=!3m1!4b1!4m5!3m4!1s0x87b147f8aede0fef:0x485d60baf9965282!8m2!3d36.081175!4d-96.584809",simple_simons_pizza,
Simple Simon's Pizza,Cemetery Road,THACKERVILLE,OK,73459,5802765506.0,"https://www.google.com/maps/place/Simple+Simon's+Pizza+-+Thackerville,+OK/@33.7950195,-97.1451601,17z/data=!4m5!3m4!1s0x864d1ce68e05b1b9:0x908d12d24b00ea77!8m2!3d33.7950151!4d-97.1429714?hl=en",simple_simons_pizza,
Simple Simon's Pizza,601 Highway 19,ALEX,OK,73002,5802558300.0,"https://www.google.com/maps/place/Simple+Simon's+Pizza+-+Alex,+OK/@34.9125951,-97.7845237,17z/data=!3m1!4b1!4m5!3m4!1s0x87b281d7da9caa3d:0x73b501acf5027e65!8m2!3d34.9125951!4d-97.7845237",simple_simons_pizza,
Simple Simon's Pizza,301 N Thornton St,VIAN,OK,74962,9187733033.0,"https://www.google.com/maps/place/Simple+Simon's+Pizza/@35.496631,-94.9706353,17z/data=!3m1!4b1!4m5!3m4!1s0x87ca0c84b45af9d5:0x7361e7c0a68ebcb5!8m2!3d35.496631!4d-94.9706353",simple_simons_pizza,
Simple Simon's Pizza,820 N 8th St,HOLLIS,OK,73550-2024,5806889103.0,"https://www.google.com/maps/place/Simple+Simon's+Pizza+-+Hollis,+OK+(inside+the+Waterin'+Hole)/@34.69001,-99.9124908,17z/data=!3m1!4b1!4m5!3m4!1s0x87aafd85582de4f1:0x4be66427a2354f4e!8m2!3d34.69001!4d-99.9124908",simple_simons_pizza,
Simple Simon's Pizza,309 N 6th St,JASPER,MO,64755-8076,4173942512.0,"https://www.google.com/maps/place/Simple+Simon's+Pizza+-+Jasper,+MO+(inside+Pete's+Convenience+Store)/@37.3391632,-94.2944262,17z/data=!3m1!4b1!4m5!3m4!1s0x87c62ef2d1a33349:0xab90f278e9cca850!8m2!3d37.3391632!4d-94.2944262",simple_simons_pizza,
Simple Simon's Pizza,116 S 32nd St,PARSONS,KS,67357-3916,6204230172.0,"https://www.google.com/maps/place/Simple+Simon's+Pizza+-+Parsons,+KS+(inside+Pete's+Convenience+Store)/@37.3398887,-95.2872252,17z/data=!4m8!1m2!2m1!1sSimple+Simon's+Pizza+116+S+32nd+St+PARSONS+KS+67357-3916!3m4!1s0x87b81a720cbc2bb5:0x833783344549594!8m2!3d37.3397086!4d-95.2848722?hl=en",simple_simons_pizza,
Simple Simon's Pizza,102 E Railroad Ave,PLAINS,MT,59859,4068265505.0,"https://www.google.com/maps/place/Simple+Simon's+Pizza+-+Plains,+MT/@47.4591832,-114.8818972,17z/data=!3m1!4b1!4m5!3m4!1s0x5360b2d8af450a4f:0x65994adace5a967e!8m2!3d47.4591832!4d-114.8818972",simple_simons_pizza,
Simple Simon's Pizza,317 S 9th St,HUMBOLDT,KS,66748-1909,6204732611.0,"https://www.google.com/maps/place/Simple+Simon's+Pizza+-+Humboldt,+KS+(inside+Pete's+Convenience+Store)/@37.8088438,-95.4351957,17z/data=!3m1!4b1!4m5!3m4!1s0x87b85e556414f7ef:0xcb40fb5e7181b292!8m2!3d37.8088438!4d-95.4351957",simple_simons_pizza,
Simple Simon's Pizza,220 N Summit St,GIRARD,KS,66743-1343,6207246386.0,"https://www.google.com/maps/place/Simple+Simon's+Pizza+-+Girard,+KS+(inside+Pete's+Convenience+Store)/@37.5133096,-94.8431924,17z/data=!3m1!4b1!4m5!3m4!1s0x87c7ece5db086e1b:0x9803bc7c0e636595!8m2!3d37.5133096!4d-94.8431924",simple_simons_pizza,
Simple Simon's Pizza,1650 W Dewitt Henry Dr,BEEBE,AR,72012,5018823900.0,"https://www.google.com/maps/place/Simple+Simon's+Pizza+-+Beebe,+AR/@35.0736549,-91.9023343,17z/data=!3m1!4b1!4m5!3m4!1s0x87d2fdaee6862bd1:0xef071392572423!8m2!3d35.0736549!4d-91.9023343",simple_simons_pizza,
Simple Simon's Pizza,115 S Broadway St,OKTAHA,OK,74428-9800,9189217211.0,"https://www.google.com/maps/place/Simple+Simon's+Pizza+-+Council+Hill,+OK/@35.5558338,-95.6510952,17z/data=!3m1!4b1!4m5!3m4!1s0x87b5cc2f327619df:0x6dd5cdb8c392a3cc!8m2!3d35.5558338!4d-95.6510952",simple_simons_pizza,
Simple Simon's Pizza,208 N 14Th St,RICH HILL,MO,64779,4173952800.0,"https://www.google.com/maps/place/Swope's+Drive-In/@38.0968953,-94.3517818,17z/data=!3m1!4b1!4m5!3m4!1s0x87c6e2e37a1d9841:0xc385f940741b2c4e!8m2!3d38.0968953!4d-94.3517818",simple_simons_pizza,
Simple Simon's Pizza,404 S Woody Guthrie St,OKEMAH,OK,74859,9186231455.0,"https://www.google.com/maps/place/Simple+Simon's+Pizza+-+Okemah,+OK/@35.4258612,-96.2992463,17z/data=!3m1!4b1!4m5!3m4!1s0x87b40d88705b9cfd:0xc330c7121d3b8912!8m2!3d35.4258612!4d-96.2992463",simple_simons_pizza,
Simple Simon's Pizza,12002 US 169,OOLOGAH,OK,74053,9184433333.0,"https://www.google.com/maps/place/Simple+Simon's+Pizza+-+Oologah,+OK+(inside+Pete's+Convenience+Store)/@36.4375377,-95.7097644,17z/data=!3m1!4b1!4m5!3m4!1s0x87b655f965f8dbe1:0x5e3f43966459c144!8m2!3d36.4375377!4d-95.7097644",simple_simons_pizza,
Simple Simon's Pizza,203 East Hwy,HOLDENVILLE,OK,74848,4053793501.0,"https://www.google.com/maps/place/Simple+Simon's+Pizza+-+Holdenville,+OK+(inside+Pruett's+Foods)/@35.0859573,-96.388881,17z/data=!4m5!3m4!1s0x87b47fe714c2c067:0xa2def5bbd63679a3!8m2!3d35.0859529!4d-96.3866923?hl=en",simple_simons_pizza,
Simple Simon's Pizza,501 South Harrah Rd,HARRAH,OK,73045,4053096014.0,"https://www.google.com/maps/place/Simple+Simon's+Pizza+-+Harrah,+OK/@35.4582454,-97.1599273,17z/data=!3m1!4b1!4m5!3m4!1s0x87b2332784ad08e7:0x2fa660c75b327d7e!8m2!3d35.4582454!4d-97.1599273",simple_simons_pizza,
Simple Simon's Pizza,Highway 3,RATTAN,OK,74562,5805872000.0,"https://www.google.com/maps/place/Simple+Simon's+Pizza/@34.2007484,-95.4146499,17z/data=!3m1!4b1!4m5!3m4!1s0x864ab9f16c03f1d1:0x47248a611705c384!8m2!3d34.2007484!4d-95.4146499",simple_simons_pizza,
Simple Simon's Pizza,Texanna Rd,EUFAULA,OK,74432,9186894722.0,"https://www.google.com/maps/place/Simple+Simon's+Pizza+-+Eufaula,+OK/@35.3620355,-95.5574612,17z/data=!3m1!4b1!4m5!3m4!1s0x87b5bbd9500f5627:0xa37d5cb51b02333d!8m2!3d35.3620355!4d-95.5574612",simple_simons_pizza,
Simple Simon's Pizza,32099 Ok 39,WANETTE,OK,74878,4053832299.0,"https://www.google.com/maps/place/Simple+Simon's+Pizza/@35.0146069,-97.0927908,17z/data=!3m1!4b1!4m5!3m4!1s0x87b3011eb51eea85:0x450e4dc586866ea1!8m2!3d35.0146069!4d-97.0927908",simple_simons_pizza,
Simple Simon's Pizza,5005 Parkview Dr,FRONTENAC,KS,66763,6202300052.0,"https://www.google.com/maps/place/Simple+Simon's+Pizza+-+Frontenac,+KS+(inside+Pete's+Convenience+Store)/@37.4542092,-94.7079501,17z/data=!4m5!3m4!1s0x87c7c35d89684263:0x3ee11b58ac64d310!8m2!3d37.454205!4d-94.7057614?hl=en",simple_simons_pizza,
Simple Simon's Pizza,U South 59,WESTVILLE,OK,74965,9187234330.0,"https://www.google.com/maps/place/Simple+Simon's+Pizza+-+Westville,+OK/@35.9902157,-94.5844799,17z/data=!3m1!4b1!4m5!3m4!1s0x87b8bb19375d07dd:0xb7fef8b5f5d121d3!8m2!3d35.9902157!4d-94.5844799",simple_simons_pizza,
Simple Simon's Pizza,906 South Broadway St,COALGATE,OK,74538,5809272269.0,"https://www.google.com/maps/place/Simple+Simon's+Pizza+-+Coalgate,+OK/@34.5280704,-96.2184746,17z/data=!3m1!4b1!4m5!3m4!1s0x87b4bb22f1b9573d:0x482789c368a8064d!8m2!3d34.5280704!4d-96.2184746",simple_simons_pizza,
