Company Name,Address 1,City,State,Zip,Phone,Google Link,Status
zpizza,8869 Santa Monica Blvd,WEST HOLLYWOOD,CA,90069-4534,3103601414.0,"https://www.google.com/maps/place/zpizza+-+West+Hollywood/@34.0852306,-118.3839722,17z/data=!3m1!4b1!4m5!3m4!1s0x80c2bea574750a93:0xd6e1badbbee2f153!8m2!3d34.0852306!4d-118.3839722",
zpizza,883 Mission St,SAN FRANCISCO,CA,94103-3006,4159955552.0,"https://www.google.com/maps/place/zpizza/@37.7829412,-122.4059927,17z/data=!3m1!4b1!4m5!3m4!1s0x8085808652cc8999:0x89055cdad44c1c85!8m2!3d37.7829412!4d-122.4059927",
zpizza,4612 E 2nd St,LONG BEACH,CA,90803-5307,5629874500.0,"https://www.google.com/maps/place/zpizza/@33.7617947,-118.1388184,17z/data=!3m1!4b1!4m5!3m4!1s0x80dd304bb43ca2f7:0x9e38f711f2e4a30e!8m2!3d33.7617947!4d-118.1388184",
zpizza,32371 Golden Lantern,LAGUNA NIGUEL,CA,92677-5337,9494813948.0,"https://www.google.com/maps/place/zpizza/@33.4922635,-117.6976986,17z/data=!3m1!4b1!4m5!3m4!1s0x80dcf02e09fea69f:0x79f17fcbe06a55a0!8m2!3d33.4922635!4d-117.6976986",
zpizza,30822 Coast Hwy,LAGUNA BEACH,CA,92651-8136,9494994949.0,"https://www.google.com/maps/place/zpizza/@33.516162,-117.756,17z/data=!3m1!4b1!4m5!3m4!1s0x80dce56c15cef735:0x3ea99e91b2b217d3!8m2!3d33.516162!4d-117.756",
zpizza,25672 Crown Valley Pkwy,LADERA RANCH,CA,92694-0483,9493478999.0,"https://www.google.com/maps/place/zpizza/@33.5651243,-117.6317492,17z/data=!3m1!4b1!4m5!3m4!1s0x80dcec2e026e7273:0x2789201d1f67a6e0!8m2!3d33.5651243!4d-117.6317492",
zpizza,148 Main St,SEAL BEACH,CA,90740-6384,5625969300.0,"https://www.google.com/maps/place/Zpizza/@33.7417441,-118.1066908,17z/data=!4m8!1m2!2m1!1szpizza+148+Main+St+SEAL+BEACH+CA+90740-6384!3m4!1s0x80dd2ffb12f3e191:0x945f2bdeb53c339b!8m2!3d33.7412117!4d-118.1047344?hl=en",
zpizza,12932 Newport Ave,TUSTIN,CA,92780-3577,7147349749.0,"https://www.google.com/maps/place/zpizza/@33.7495861,-117.8095273,17z/data=!3m1!4b1!4m5!3m4!1s0x80dcdbc73d2a0c73:0x19a5b7003017609c!8m2!3d33.7495861!4d-117.8095273",
zpizza,3941 S Bristol St,SANTA ANA,CA,92704-7400,7144371111.0,"https://www.google.com/maps/place/zpizza/@33.6945999,-117.8838301,17z/data=!3m1!4b1!4m5!3m4!1s0x80dcdf2f53a4c855:0xfc86500173bc1e95!8m2!3d33.6945999!4d-117.8838301",
zpizza,3423 Via Lido,NEWPORT BEACH,CA,92663-3908,9497230707.0,"https://www.google.com/maps/place/zpizza/@33.6177524,-117.9287768,17z/data=!3m1!4b1!4m5!3m4!1s0x80dd2006e6843b9f:0x80165776c01679bc!8m2!3d33.6177524!4d-117.9287768",
zpizza,26 Old Mammoth Rd,MAMMOTH LAKES,CA,93546,7609345800.0,"https://www.google.com/maps/place/zpizza/@37.6463134,-118.9674318,17z/data=!3m1!4b1!4m5!3m4!1s0x80960dcd24443435:0x7d764f7f75736ad2!8m2!3d37.6463134!4d-118.9674318",
zpizza,25522 Marguerite Pkwy,MISSION VIEJO,CA,92692-2919,9495881000.0,"https://www.google.com/maps/place/zpizza/@33.5919444,-117.6594444,17z/data=!3m1!4b1!4m5!3m4!1s0x80dceeb30d968cbd:0xd74a76c4678ea0ef!8m2!3d33.5919444!4d-117.6594444",
zpizza,2549 Eastbluff Dr,NEWPORT BEACH,CA,92660-3500,9497603100.0,"https://www.google.com/maps/place/zpizza/@33.64088,-117.87596,17z/data=!3m1!4b1!4m5!3m4!1s0x80dcde347d096f17:0xcc452eec26cb532e!8m2!3d33.64088!4d-117.87596",
zpizza,1943 N Campus Ave,UPLAND,CA,91784-8204,9099491939.0,"https://www.google.com/maps/place/zpizza/@34.1335579,-117.6382602,17z/data=!3m1!4b1!4m5!3m4!1s0x80c336d5dfe7262d:0xe2b6579822f963a6!8m2!3d34.1335579!4d-117.6382602",
zpizza,1021 Avenida Pico,SAN CLEMENTE,CA,92673-6349,9494983505.0,"https://www.google.com/maps/place/zpizza/@33.457123,-117.599502,17z/data=!3m1!4b1!4m5!3m4!1s0x80dcf39c35eea60f:0x4f23c71d85e7a919!8m2!3d33.457123!4d-117.599502",
zpizza,1082 SOUTH WEST YATES DR,BEND,OR,97702,5413822007.0,"https://www.google.com/maps/place/Zpizza+Tap+Room/@44.0391872,-121.3362845,17z/data=!3m1!4b1!4m5!3m4!1s0x54b8c74ac92eda1d:0xc3311df3d74748a8!8m2!3d44.0391872!4d-121.3362845",
zpizza,1840 PRAIRE CITY RD,FOLSOM,CA,95630,9167905600.0,"https://www.google.com/maps/place/zpizza+Tap+Room+(temporarily+closed)/@38.6509191,-121.164909,17z/data=!3m1!4b1!4m5!3m4!1s0x809ae42ecc4b25cf:0xcfb84a6025c8e21!8m2!3d38.6509191!4d-121.164909",
zpizza,650 LINCOLN,COLUMBIA,SC,29201,8038886800.0,"https://www.google.com/maps/place/650+Lincoln/@33.9923577,-81.0348263,17z/data=!3m1!4b1!4m5!3m4!1s0x88f8bb262153a7b3:0xc2664ace90565e63!8m2!3d33.9923577!4d-81.0348263",
zpizza,751 CENTER DR,SAN MARCOS,CA,92069,7603174677.0,"https://www.google.com/maps/place/Pistons+%26+Palms+Pizza+Company/@33.1355194,-117.1213365,17z/data=!3m1!4b1!4m5!3m4!1s0x80dbf4d6a5732d9d:0xf2237ee3988ead50!8m2!3d33.1355194!4d-117.1213365",
zpizza,711 PLEASANT GROVE BLVD,ROSEVILLE,CA,95678,9167426600.0,"https://www.google.com/maps/place/zpizza+Tap+Room+(temporarily+closed)/@36.2886452,-121.7396163,7z/data=!4m8!1m2!2m1!1szpizza+6601+Folsom+Blvd+SACRAMENTO+CA+95819-4654!3m4!1s0x809b21ca93e08451:0x772c6da0745ea309!8m2!3d38.790977!4d-121.2782908?hl=en",
zpizza,6601 Folsom Blvd,SACRAMENTO,CA,95819-4654,9163303973.0,"https://www.google.com/maps/place/zpizza+Tap+Room/@36.2886452,-121.7396163,7z/data=!4m8!1m2!2m1!1szpizza+6601+Folsom+Blvd+SACRAMENTO+CA+95819-4654!3m4!1s0x809ada93a2994aeb:0x8e872475121bb809!8m2!3d38.5541667!4d-121.4263889?hl=en",
zpizza,5933 W Century Blvd,LOS ANGELES,CA,90045-5471,3103420179.0,"https://www.google.com/maps/place/zpizza+Tap+Room/@33.946129,-118.3871678,17z/data=!3m1!4b1!4m5!3m4!1s0x80c2b6d41f0ff021:0x38f17423400d311e!8m2!3d33.946129!4d-118.3871678",
zpizza,421 S Associated Rd,BREA,CA,92821-5802,7142573000.0,"https://www.google.com/maps/place/zpizza/@33.911792,-117.88094,17z/data=!3m1!4b1!4m5!3m4!1s0x80dcd5008801c2ff:0x252ea0d6a09fdf8!8m2!3d33.911792!4d-117.88094",
zpizza,8657 Villa La Jolla Dr,LA JOLLA,CA,92037-2356,8582602373.0,"https://www.google.com/maps/place/zpizza+Taproom/@32.8651198,-117.231587,17z/data=!3m1!4b1!4m5!3m4!1s0x80dc06d2aeb2d7eb:0x1ab9801af889bc6b!8m2!3d32.8651198!4d-117.231587",
zpizza,7956 E Pacific Coast Hwy,NEWPORT BEACH,CA,92657,9497151117.0,"https://www.google.com/maps/place/zpizza/@33.570007,-117.83267,17z/data=!3m1!4b1!4m5!3m4!1s0x80dce14a54cd24ab:0xb121895e94630835!8m2!3d33.570007!4d-117.83267",
zpizza,53 W Thomas Rd,PHOENIX,AZ,85013-4411,6025837002.0,"https://www.google.com/maps/place/zpizza/@33.480038,-112.076748,17z/data=!3m1!4b1!4m5!3m4!1s0x872b12f3924adc4b:0xb7740774b927a41b!8m2!3d33.480038!4d-112.076748",
zpizza,19300 Rinaldi St,PORTER RANCH,CA,91326-1651,8183632600.0,"https://www.google.com/maps/place/zpizza/@34.2742122,-118.5547887,17z/data=!3m1!4b1!4m5!3m4!1s0x80c29b3509251301:0x5e3c748a96e53c85!8m2!3d34.2742122!4d-118.5547887",
zpizza,1190 N Fair Oaks Ave,SUNNYVALE,CA,94089-1702,4087465641.0,"https://www.google.com/maps/place/zpizza/@37.4037667,-122.0095936,17z/data=!3m1!4b1!4m5!3m4!1s0x808fb7ceac989975:0x122b360a313d0bc2!8m2!3d37.4037667!4d-122.0095936",
zpizza,11165 N La Canada Dr,ORO VALLEY,AZ,85737-7354,5203298851.0,"https://www.google.com/maps/place/zpizza+Tap+Room/@32.4090541,-110.9963955,17z/data=!3m1!4b1!4m5!3m4!1s0x86d60c75c6af9b8f:0x27c036f0953e7c1b!8m2!3d32.4090541!4d-110.9963955",
zpizza,10035 Adams Ave,HUNTINGTON BEACH,CA,92646-4940,7149688844.0,"https://www.google.com/maps/place/zpizza/@33.6740395,-117.9526811,17z/data=!3m1!4b1!4m5!3m4!1s0x80dd20c6eb5ba0f3:0x33e8180c143289bc!8m2!3d33.6740395!4d-117.9526811",
zpizza,1015 SOUTH RURAL RD,TEMPE,AZ,85280,4808676144.0,"https://www.google.com/maps/place/zpizza+Tap+Room/@33.4175543,-111.9281672,17z/data=!4m8!1m2!2m1!1szpizza+1015+SOUTH+RURAL+RD+TEMPE+AZ+85280!3m4!1s0x872b08e87b0d3713:0x3bd3c1bf2d4a058d!8m2!3d33.4174665!4d-111.925889?hl=en",
zpizza,DAY STREET EUCALYPTUS,MORENO VALLEY,CA,92553,,"https://www.google.com/maps/place/zpizza+Tap+Room+(Coming+soon)/@33.933141,-117.2784881,17z/data=!3m1!4b1!4m5!3m4!1s0x80dca5ded279ab59:0x8da275e49fc609ab!8m2!3d33.933141!4d-117.2784881",
zpizza,420 NORTH MAIN,CORONA,CA,92880,9513564406.0,"https://www.google.com/maps/place/zpizza+Tap+Room/@33.8854815,-117.5662719,17z/data=!3m1!4b1!4m5!3m4!1s0x80dcc9460223ffb9:0xb5bc3bc25a49d8f6!8m2!3d33.8854815!4d-117.5662719",
