Field2,Unnamed: 1,Page URL,Name,Address,State,Town,Status
Donatos Pizza 825 W 10th St INDIANAPOLIS IN,(317) 231-9700,"https://www.google.com/maps/place/Donatos+Pizza/@39.7805648,-86.1748709,17z/data=!3m1!4b1!4m5!3m4!1s0x886b51be4f391195:0x72fbddad96f311fb!8m2!3d39.7805607!4d-86.1726822",Donatos Pizza,825 W 10th St,IN,INDIANAPOLIS,Scraped
Donatos Pizza 92 S Highway 27 SOMERSET KY,(606) 677-1700,"https://www.google.com/maps/place/Donatos+Pizza/@37.0931132,-85.1780855,9z/data=!4m8!1m2!2m1!1sDonatos+Pizza+92+S+Highway+27+SOMERSET+KY+42501-1737+(606)+677-1700!3m4!1s0x885d48155ac7e239:0x57fab54d5d373cf3!8m2!3d37.0931132!4d-84.6177828",Donatos Pizza,92 S Highway 27,KY,SOMERSET,Scraped
Donatos Pizza 2357 E 62nd St INDIANAPOLIS IN,(317) 722-8100,"https://www.google.com/maps/place/Donatos+Pizza/@39.8683473,-86.1258924,17z/data=!3m1!4b1!4m5!3m4!1s0x886b525a7aa8cc7b:0x71a520c244ad6476!8m2!3d39.8683432!4d-86.1237037",Donatos Pizza,2357 E 62nd St,IN,INDIANAPOLIS,Scraped
Donatos Pizza 3390 Maple Ave ZANESVILLE OH,(740) 452-7900,"https://www.google.com/maps/place/Donatos+Pizza/@39.9837821,-82.0222937,17z/data=!3m1!4b1!4m5!3m4!1s0x8837ed981f214ceb:0xa774b4c45ecf0af0!8m2!3d39.983778!4d-82.020105",Donatos Pizza,3390 Maple Ave,OH,ZANESVILLE,Scraped
Donatos Pizza 6407 Glenway Ave CINCINNATI OH,(513) 598-4200,"https://www.google.com/maps/place/Donatos+Pizza/@39.1495692,-84.6304115,17z/data=!3m1!4b1!4m5!3m4!1s0x8841ca5dc224c1bf:0xe800265db1ea8bef!8m2!3d39.1495651!4d-84.6282228",Donatos Pizza,6407 Glenway Ave,OH,CINCINNATI,Scraped
Donatos Pizza 8850 US Highway 42 FLORENCE KY,(859) 384-8796,"https://www.google.com/maps/place/Donatos+Pizza/@38.965877,-84.6805002,17z/data=!4m8!1m2!2m1!1sDonatos+Pizza+8850+US+Highway+42+FLORENCE+KY+41042-9640+(859)+384-8796!3m4!1s0x8841c6bf754f1fb7:0xb3e3fd8c75f97533!8m2!3d38.9658571!4d-84.6783447",Donatos Pizza,8850 US Highway 42,KY,FLORENCE,Scraped
Donatos Pizza 15 Donnermeyer Dr BELLEVUE KY,(859) 261-5700,"https://www.google.com/maps/place/Donatos+Pizza/@39.0133565,-84.6590151,12z/data=!4m8!1m2!2m1!1sDonatos+Pizza+15+Donnermeyer+Dr+BELLEVUE+KY+41073-1360+(859)+261-5700!3m4!1s0x8841b179bbfd82bb:0x106dcf808076075f!8m2!3d39.0976469!4d-84.4834074",Donatos Pizza,15 Donnermeyer Dr,KY,BELLEVUE,Scraped
Donatos Pizza 770 Nilles Rd FAIRFIELD OH,(513) 829-6999,"https://www.google.com/maps/place/Donatos+Pizza/@39.3378121,-84.5573547,17z/data=!3m1!4b1!4m5!3m4!1s0x884048f2c9bfa0d1:0x5ad355033768acc1!8m2!3d39.337808!4d-84.555166",Donatos Pizza,770 Nilles Rd,OH,FAIRFIELD,Scraped
Donatos Pizza 4200 Aero Dr MASON OH,(513) 770-4222,"https://www.google.com/maps/place/Donatos+Pizza/@39.3388126,-84.2944855,17z/data=!3m1!4b1!4m5!3m4!1s0x8840578d1f0a1b0d:0x17a38a210bae1ab9!8m2!3d39.3388085!4d-84.2922968",Donatos Pizza,4200 Aero Dr,OH,MASON,Scraped
Donatos Pizza 3890 Medina Rd AKRON OH,(330) 668-2133,"https://www.google.com/maps/place/Donatos+Pizza/@41.1353941,-81.6402345,17z/data=!3m1!4b1!4m5!3m4!1s0x8830d082e755dea9:0xeb6334704d13d4ae!8m2!3d41.1353901!4d-81.6380458",Donatos Pizza,3890 Medina Rd,OH,AKRON,Scraped
Donatos Pizza 814 N Main St NORTH CANTON OH,(330) 498-3700,"https://www.google.com/maps/place/Donatos+Pizza/@40.8843807,-81.4055216,17z/data=!3m1!4b1!4m5!3m4!1s0x8836d3de7cc04c95:0xbc8fe0ae9f47802a!8m2!3d40.8843767!4d-81.4033329",Donatos Pizza,814 N Main St,OH,NORTH CANTON,Scraped
Donatos Pizza 5465 Ridge Rd PARMA OH,(440) 843-6861,"https://www.google.com/maps/place/Donatos+Pizza/@41.4129823,-81.7360254,17z/data=!3m1!4b1!4m5!3m4!1s0x8830ef1d690d8977:0x96e2593285793370!8m2!3d41.4129783!4d-81.7338367",Donatos Pizza,5465 Ridge Rd,OH,PARMA,Failed
Donatos Pizza 7500 S Memorial Pkwy HUNTSVILLE AL,(256) 881-9191,"https://www.google.com/maps/place/Donatos+Pizza/@34.667499,-86.5755332,17z/data=!3m1!4b1!4m5!3m4!1s0x886212ce51d16f1d:0xc3d018d85bd3f707!8m2!3d34.6674946!4d-86.5733445",Donatos Pizza,7500 S Memorial Pkwy,AL,HUNTSVILLE,Scraped
Donatos Pizza 8142 Beechmont Ave CINCINNATI OH,(513) 474-4600,"https://www.google.com/maps/place/Donatos+Pizza/@39.0733006,-84.3315885,17z/data=!3m1!4b1!4m5!3m4!1s0x8841a9168c1c8481:0x46150386588a50c5!8m2!3d39.0732965!4d-84.3293998",Donatos Pizza,8142 Beechmont Ave,OH,CINCINNATI,Scraped
Donatos Pizza 5525 New Albany Rd E NEW ALBANY OH,(614) 855-7060,"https://www.google.com/maps/place/Donatos+Pizza/@40.0972347,-82.8205836,17z/data=!3m1!4b1!4m5!3m4!1s0x88385e004bb7edc1:0xd49efbe1ec2a707e!8m2!3d40.0972306!4d-82.8183949",Donatos Pizza,5525 New Albany Rd E,OH,NEW ALBANY,Scraped
Donatos Pizza 1391 E Johnstown Rd GAHANNA OH,(614) 855-5400,"https://www.google.com/maps/place/Donatos+Pizza/@40.0541234,-82.8459516,17z/data=!3m1!4b1!4m5!3m4!1s0x883860e76d75bfb7:0x5b089c9802205eca!8m2!3d40.0541193!4d-82.8437629",Donatos Pizza,1391 E Johnstown Rd,OH,GAHANNA,Scraped
Donatos Pizza 142 Xenia Towne Sq XENIA OH,(937) 374-3355,"https://www.google.com/maps/place/Donatos+Pizza/@39.6865261,-83.933377,17z/data=!3m1!4b1!4m5!3m4!1s0x884098763c8900ef:0x9abee39d942d44a4!8m2!3d39.686522!4d-83.9311883",Donatos Pizza,142 Xenia Towne Sq,OH,XENIA,Scraped
Donatos Pizza 5600 Airway Rd DAYTON OH,(937) 259-9559,"https://www.google.com/maps/place/Donatos+Pizza/@39.7707196,-84.1083495,17z/data=!3m1!4b1!4m5!3m4!1s0x88408335fd5697a1:0xba2f566c433ff3c5!8m2!3d39.7707155!4d-84.1061608",Donatos Pizza,5600 Airway Rd,OH,DAYTON,Scraped
Donatos Pizza 629 Montgomery Hwy VESTAVIA AL,(205) 824-1112,"https://www.google.com/maps/place/Donatos+Pizza/@33.4478743,-86.7914464,17z/data=!3m1!4b1!4m5!3m4!1s0x888919047e087bb3:0xdfc61d6dd032c618!8m2!3d33.4478698!4d-86.7892577",Donatos Pizza,629 Montgomery Hwy,AL,VESTAVIA,Failed
Donatos Pizza 5835 Madison Ave INDIANAPOLIS IN,(317) 780-7040,"https://www.google.com/maps/place/Donatos+Pizza/@39.6812026,-86.1341188,17z/data=!3m1!4b1!4m5!3m4!1s0x886b5b7776f21a4d:0x7ff1a48f0aab7a39!8m2!3d39.6811985!4d-86.1319301",Donatos Pizza,5835 Madison Ave,IN,INDIANAPOLIS,Scraped
Donatos Pizza 5805 Sunnyside Rd INDIANAPOLIS IN,(317) 823-3025,"https://www.google.com/maps/place/Donatos+Pizza/@39.8607422,-85.9743315,17z/data=!3m1!4b1!4m5!3m4!1s0x886b4bad5b41937b:0x512a8c30d0d1422d!8m2!3d39.8607381!4d-85.9721428",Donatos Pizza,5805 Sunnyside Rd,IN,INDIANAPOLIS,Scraped
Donatos Pizza 855 Lexington Ave MANSFIELD OH,(419) 756-5885,"https://www.google.com/maps/place/Donatos+Pizza/@40.7334661,-82.5355733,17z/data=!3m1!4b1!4m5!3m4!1s0x8839ea93ecc39283:0xe26d6d96716c0dd0!8m2!3d40.7334621!4d-82.5333846",Donatos Pizza,855 Lexington Ave,OH,MANSFIELD,Scraped
Donatos Pizza 1800 Patrick Dr BURLINGTON KY,(859) 689-7500,"https://www.google.com/maps/place/Donatos+Pizza/@39.0193493,-84.6967323,17z/data=!3m1!4b1!4m5!3m4!1s0x8841c5e3f00ff947:0x7219bf1b99ea2557!8m2!3d39.0193452!4d-84.6945436",Donatos Pizza,1800 Patrick Dr,KY,BURLINGTON,Scraped
Donatos Pizza 3044 Dixie Hwy EDGEWOOD KY,(859) 331-0889,"https://www.google.com/maps/place/Donatos+Pizza/@39.0222053,-84.5891456,17z/data=!3m1!4b1!4m5!3m4!1s0x8841b818ef1baa85:0x12857c3da5a22b52!8m2!3d39.0222012!4d-84.5869569",Donatos Pizza,3044 Dixie Hwy,KY,EDGEWOOD,Failed
Donatos Pizza 2692 Madison Rd CINCINNATI OH,(513) 731-0080,"https://www.google.com/maps/place/Donatos+Pizza/@39.1453456,-84.4470617,17z/data=!3m1!4b1!4m5!3m4!1s0x8841b27df170ed7b:0x948814db285680a2!8m2!3d39.1453415!4d-84.444873",Donatos Pizza,2692 Madison Rd,OH,CINCINNATI,Scraped
Donatos Pizza 166 Lancaster Pike CIRCLEVILLE OH,(740) 477-2559,"https://www.google.com/maps/place/Donatos+Pizza/@39.7206229,-83.1521353,10z/data=!4m8!1m2!2m1!1sDonatos+Pizza+166+Lancaster+Pike+CIRCLEVILLE+OH+43113-1864+(740)+477-2559!3m4!1s0x8847778bdc68da91:0x4a986daed5296797!8m2!3d39.5991019!4d-82.9327843",Donatos Pizza,166 Lancaster Pike,OH,CIRCLEVILLE,Scraped
Donatos Pizza 107 N Bridge St CHILLICOTHE OH,(740) 775-1199,"https://www.google.com/maps/place/Donatos+Pizza/@39.4681467,-83.0937072,11z/data=!4m8!1m2!2m1!1sDonatos+Pizza+107+N+Bridge+St+CHILLICOTHE+OH+45601-2616+(740)+775-1199!3m4!1s0x8847093f7da22ff5:0x5e1a2ffc1370d6a2!8m2!3d39.3368294!4d-82.9744644",Donatos Pizza,107 N Bridge St,OH,CHILLICOTHE,Scraped
Donatos Pizza 1013 High St HAMILTON OH,(513) 863-0100,"https://www.google.com/maps/place/Donatos+Pizza/@39.3959827,-84.5532735,17z/data=!3m1!4b1!4m5!3m4!1s0x88404659780dd10f:0xec486210f19cc57d!8m2!3d39.3959786!4d-84.5510848",Donatos Pizza,1013 High St,OH,HAMILTON,Scraped
Donatos Pizza 240 E Dayton Yellow Springs Rd FAIRBORN OH,(937) 879-7000,"https://www.google.com/maps/place/Donatos+Pizza/@39.788416,-84.0216754,17z/data=!3m1!4b1!4m5!3m4!1s0x88409df74d4628bd:0x9c01c70d9e88a4d1!8m2!3d39.7884119!4d-84.0194867",Donatos Pizza,240 E Dayton Yellow Springs Rd,OH,FAIRBORN,Scraped
Donatos Pizza 3959 Far Hills Ave KETTERING OH,(937) 293-3223,"https://www.google.com/maps/place/Donatos+Pizza/@39.6899441,-84.1712929,17z/data=!3m1!4b1!4m5!3m4!1s0x884085ea3d0748bd:0x790ed28bb872d8c7!8m2!3d39.68994!4d-84.1691042",Donatos Pizza,3959 Far Hills Ave,OH,KETTERING,Scraped
Donatos Pizza 6310 Prentiss School Pl CANAL WINCHESTER OH,(614) 340-9000,"https://www.google.com/maps/place/Donatos+Pizza/@39.8525196,-82.8312895,17z/data=!3m1!4b1!4m5!3m4!1s0x88387c0f827ced23:0x13ec5f1a1e565697!8m2!3d39.8525155!4d-82.8291008",Donatos Pizza,6310 Prentiss School Pl,OH,CANAL WINCHESTER,Scraped
Donatos Pizza 3070 Lakecrest Cir LEXINGTON KY,(859) 224-7772,"https://www.google.com/maps/place/Donatos+Pizza/@38.0162881,-84.5575568,17z/data=!3m1!4b1!4m5!3m4!1s0x88425cd18aebb9a5:0xe40e4cccfac8e74e!8m2!3d38.0162839!4d-84.5553681",Donatos Pizza,3070 Lakecrest Cir,KY,LEXINGTON,Scraped
Donatos Pizza 3120 Mapleleaf Dr LEXINGTON KY,(859) 543-1818,"https://www.google.com/maps/place/Donatos+Pizza/@38.0070839,-84.4304943,17z/data=!3m1!4b1!4m5!3m4!1s0x884250053753d73b:0xc46f3ad7621f1d3!8m2!3d38.0070797!4d-84.4283056",Donatos Pizza,3120 Mapleleaf Dr,KY,LEXINGTON,Scraped
Donatos Pizza 18100 Detroit Ave LAKEWOOD OH,(216) 227-7200,"https://www.google.com/maps/place/Donatos+Pizza/@41.4844155,-81.8252921,17z/data=!3m1!4b1!4m5!3m4!1s0x8830f289fa7aa689:0xcf47a62bd1f849ba!8m2!3d41.4844115!4d-81.8231034",Donatos Pizza,18100 Detroit Ave,OH,LAKEWOOD,Scraped
Donatos Pizza 2522 Bethel Rd COLUMBUS OH,(614) 442-8666,"https://www.google.com/maps/place/Donatos+Pizza/@40.0652821,-83.0896251,17z/data=!3m1!4b1!4m5!3m4!1s0x883892865394a9b9:0xfa1b5eb2451bdc4e!8m2!3d40.065278!4d-83.0874364",Donatos Pizza,2522 Bethel Rd,OH,COLUMBUS,Scraped
Donatos Pizza 1730 Hilliard Rome Rd HILLIARD OH,(614) 529-7200,"https://www.google.com/maps/place/Donatos+Pizza/@39.9863122,-83.1525712,17z/data=!3m1!4b1!4m5!3m4!1s0x883891270f8fdfcd:0xd85856e0e8628c70!8m2!3d39.9863081!4d-83.1503825",Donatos Pizza,1730 Hilliard Rome Rd,OH,HILLIARD,Scraped
Donatos Pizza 1878 Hard Rd COLUMBUS OH,(614) 792-7779,"https://www.google.com/maps/place/Donatos+Pizza/@40.1181119,-83.068087,17z/data=!3m1!4b1!4m5!3m4!1s0x8838f2bc860a97dd:0x22b40db96ea73c99!8m2!3d40.1181078!4d-83.0658983",Donatos Pizza,1878 Hard Rd,OH,COLUMBUS,Scraped
Donatos Pizza 9764 Sawmill Pkwy POWELL OH,(614) 761-5400,"https://www.google.com/maps/place/Donatos+Pizza/@40.156476,-83.0949216,17z/data=!3m1!4b1!4m5!3m4!1s0x8838ed90ffa0ccb7:0xdbc69da77f26de67!8m2!3d40.1564719!4d-83.0927329",Donatos Pizza,9764 Sawmill Pkwy,OH,POWELL,Scraped
Donatos Pizza 1645 Main St PLAINFIELD IN,(317) 838-5335,"https://www.google.com/maps/place/Donatos+Pizza/@39.7093811,-86.3813795,17z/data=!3m1!4b1!4m5!3m4!1s0x886cbb990743be0f:0xd20dd746baee0e8b!8m2!3d39.709377!4d-86.3791908",Donatos Pizza,1645 Main St,IN,PLAINFIELD,Scraped
Donatos Pizza 414 W Main St TROY OH,(937) 335-4800,"https://www.google.com/maps/place/Donatos+Pizza/@40.0411881,-84.2099154,17z/data=!3m1!4b1!4m5!3m4!1s0x883f771fe675c217:0xe018e84a7ece9bb0!8m2!3d40.041184!4d-84.2077267",Donatos Pizza,414 W Main St,OH,TROY,Scraped
Donatos Pizza 11760 Olio Rd FISHERS IN,(317) 572-1339,"https://www.google.com/maps/place/Donatos+Pizza/@39.9602243,-85.9215914,17z/data=!3m1!4b1!4m5!3m4!1s0x8814ca6545d3db1b:0x7f0e04fd6b4e54c3!8m2!3d39.9602202!4d-85.9194027",Donatos Pizza,11760 Olio Rd,IN,FISHERS,Scraped
Donatos Pizza 8000 Madison Blvd MADISON AL,(256) 772-6789,"https://www.google.com/maps/place/Donatos+Pizza/@34.6913172,-86.721007,17z/data=!3m1!4b1!4m5!3m4!1s0x88626f0c76816d65:0x16e0911d613ab55!8m2!3d34.6913128!4d-86.7188183",Donatos Pizza,8000 Madison Blvd,AL,MADISON,Scraped
Donatos Pizza 1059 N 21st St NEWARK OH,(740) 366-0777,"https://www.google.com/maps/place/Donatos+Pizza/@40.0775655,-82.4309604,17z/data=!3m1!4b1!4m5!3m4!1s0x88383d743bc099c7:0x152288b05a61fc!8m2!3d40.0775614!4d-82.4287717",Donatos Pizza,1059 N 21st St,OH,NEWARK,Scraped
Donatos Pizza 527 Hebron Rd HEATH OH,(740) 522-7980,"https://www.google.com/maps/place/Donatos+Pizza/@40.0381325,-82.4322901,17z/data=!3m1!4b1!4m5!3m4!1s0x883817b4a34f8fa5:0x11d28a5f6e29dc48!8m2!3d40.0381284!4d-82.4301014",Donatos Pizza,527 Hebron Rd,OH,HEATH,Scraped
Donatos Pizza 7580 E Main St REYNOLDSBURG OH,(614) 861-8558,"https://www.google.com/maps/place/Donatos+Pizza/@39.9622762,-82.8949119,13z/data=!4m8!1m2!2m1!1sDonatos+Pizza+7580+E+Main+St+REYNOLDSBURG+OH+43068-1208+(614)+861-8558!3m4!1s0x883864f3b03ad435:0x2552a5d4ae2ef918!8m2!3d39.9561808!4d-82.7961177",Donatos Pizza,7580 E Main St,OH,REYNOLDSBURG,Scraped
Donatos Pizza 377 Granville St GAHANNA OH,(614) 471-4111,"https://www.google.com/maps/place/Donatos+Pizza/@40.0179966,-82.870089,17z/data=!3m1!4b1!4m5!3m4!1s0x8838618334df41eb:0x69a19623bcd29653!8m2!3d40.0179925!4d-82.8679003",Donatos Pizza,377 Granville St,OH,GAHANNA,Scraped
Donatos Pizza 4238 Morse Rd COLUMBUS OH,(614) 471-7474,"https://www.google.com/maps/place/Donatos+Pizza/@40.0575513,-82.9005856,17z/data=!3m1!4b1!4m5!3m4!1s0x8838603137181719:0xc2f33de205a366b0!8m2!3d40.0575472!4d-82.8983969",Donatos Pizza,4238 Morse Rd,OH,COLUMBUS,Scraped
Donatos Pizza 8880 E 96th St FISHERS IN,(317) 595-8844,"https://www.google.com/maps/place/Donatos+Pizza/@39.9277675,-86.0145519,17z/data=!3m1!4b1!4m5!3m4!1s0x8814b358a0aaaeb3:0x5b635279ec9628f3!8m2!3d39.9277634!4d-86.0123632",Donatos Pizza,8880 E 96th St,IN,FISHERS,Scraped
Donatos Pizza 1311 S Rangeline Rd CARMEL IN,(317) 582-0422,"https://www.google.com/maps/place/Donatos+Pizza/@39.9603297,-86.128403,17z/data=!3m1!4b1!4m5!3m4!1s0x8814ada8fdfec097:0xf86a4281366387a7!8m2!3d39.9603256!4d-86.1262143",Donatos Pizza,1311 S Rangeline Rd,IN,CARMEL,Scraped
Donatos Pizza 2233 Stringtown Rd GROVE CITY OH,(614) 871-5000,"https://www.google.com/maps/place/Donatos+Pizza/@39.9978835,-83.1471368,11z/data=!3m1!5s0x883884c0ccc9e741:0xe8c76fea76402930!4m8!1m2!2m1!1sDonatos+Pizza+2233+Stringtown+Rd+GROVE+CITY+OH+43123-2928+(614)+871-5000!3m4!1s0x883884c0ddfa0599:0x3c02e48a3708963c!8m2!3d39.8782535!4d-83.0627681",Donatos Pizza,2233 Stringtown Rd,OH,GROVE CITY,Scraped
Donatos Pizza 920 N High St COLUMBUS OH,(614) 421-5100,"https://www.google.com/maps/place/Donatos+Pizza/@39.9812698,-83.0062795,17z/data=!3m1!4b1!4m5!3m4!1s0x88388eda07ca6d17:0xf610fa3c0a67e1c0!8m2!3d39.9812657!4d-83.0040908",Donatos Pizza,920 N High St,OH,COLUMBUS,Scraped
Donatos Pizza 1095 S Hamilton Rd COLUMBUS OH,(614) 231-1665,"https://www.google.com/maps/place/Donatos+Pizza/@39.9538199,-82.8798348,17z/data=!3m1!4b1!4m5!3m4!1s0x883862eee186ea93:0xa29ed0e73a12661a!8m2!3d39.9538158!4d-82.8776461",Donatos Pizza,1095 S Hamilton Rd,OH,COLUMBUS,Scraped
Donatos Pizza 860 Rombach Ave WILMINGTON OH,(937) 382-1600,"https://www.google.com/maps/place/Donatos+Pizza/@39.4465251,-83.8157004,17z/data=!3m1!4b1!4m5!3m4!1s0x8840c7029ca8c6ed:0x26c2c01287433a83!8m2!3d39.446521!4d-83.8135117",Donatos Pizza,860 Rombach Ave,OH,WILMINGTON,Scraped
Donatos Pizza 229 Lafayette St LONDON OH,(740) 852-2424,"https://www.google.com/maps/place/Donatos+Pizza/@39.8980371,-83.4401782,17z/data=!3m1!4b1!4m5!3m4!1s0x8838af41f907a89f:0x2672e39790ad415d!8m2!3d39.898033!4d-83.4379895",Donatos Pizza,229 Lafayette St,OH,LONDON,Scraped
Donatos Pizza 2769 Northland Plaza Dr COLUMBUS OH,(614) 895-0111,"https://www.google.com/maps/place/Donatos+Pizza/@40.0826423,-82.9470218,17z/data=!3m1!4b1!4m5!3m4!1s0x883863ea1b9fc36b:0x6d508dc7cd2920cd!8m2!3d40.0826382!4d-82.9448331",Donatos Pizza,2769 Northland Plaza Dr,OH,COLUMBUS,Failed
Donatos Pizza 350 Norton Rd COLUMBUS OH,(614) 878-8500,"https://www.google.com/maps/place/Donatos+Pizza/@39.9438389,-83.1434644,17z/data=!3m1!4b1!4m5!3m4!1s0x8838909fb6317723:0x77170ce108b5bdba!8m2!3d39.9438348!4d-83.1412757",Donatos Pizza,350 Norton Rd,OH,COLUMBUS,Scraped
Donatos Pizza 4461 Feedwire Rd CENTERVILLE OH,(937) 439-4222,"https://www.google.com/maps/place/Donatos+Pizza/@39.6595617,-84.1093667,17z/data=!3m1!4b1!4m5!3m4!1s0x88408ffb7ed8b157:0xa7ba22a0fb49f57a!8m2!3d39.6595576!4d-84.107178",Donatos Pizza,4461 Feedwire Rd,OH,CENTERVILLE,Scraped
Donatos Pizza 2800 Wayne Ave DAYTON OH,(937) 254-8800,"https://www.google.com/maps/place/Donatos+Pizza/@39.7394611,-84.1560446,17z/data=!3m1!4b1!4m5!3m4!1s0x884084657f2f8f47:0xb0df8e427b9f5085!8m2!3d39.739457!4d-84.1538559",Donatos Pizza,2800 Wayne Ave,OH,DAYTON,Scraped
Donatos Pizza 728 E Main St LEXINGTON KY,(859) 269-5700,"https://www.google.com/maps/place/Donatos+Pizza/@38.0352244,-84.487221,17z/data=!3m1!4b1!4m5!3m4!1s0x884244debaeac577:0x279e33a01e8ba63d!8m2!3d38.0352202!4d-84.4850323",Donatos Pizza,728 E Main St,KY,LEXINGTON,Scraped
Donatos Pizza 6810 Perimeter Loop Rd DUBLIN OH,(614) 659-0797,"https://www.google.com/maps/place/Donatos+Pizza/@40.1040376,-83.1606609,17z/data=!3m1!4b1!4m5!3m4!1s0x88389353976abd75:0x1099c240d2ca4792!8m2!3d40.1040335!4d-83.1584722",Donatos Pizza,6810 Perimeter Loop Rd,OH,DUBLIN,Scraped
Donatos Pizza 1465 W 86th St INDIANAPOLIS IN,(317) 334-9100,"https://www.google.com/maps/place/Donatos+Pizza/@39.911199,-86.1888948,17z/data=!3m1!4b1!4m5!3m4!1s0x886b54b1bed87b61:0x9abf775e75c153b!8m2!3d39.9111949!4d-86.1867061",Donatos Pizza,1465 W 86th St,IN,INDIANAPOLIS,Scraped
Donatos Pizza 1181 Mount Vernon Ave MARION OH,(740) 389-3009,"https://www.google.com/maps/place/Donatos+Pizza/@40.5805645,-83.1000356,17z/data=!3m1!4b1!4m5!3m4!1s0x88391aa2d4eb181d:0x4cc88f79eaa6d686!8m2!3d40.5805604!4d-83.0978469",Donatos Pizza,1181 Mount Vernon Ave,OH,MARION,Scraped
Donatos Pizza 1263 Cameron Ave LEWIS CENTER OH,(614) 825-2900,"https://www.google.com/maps/place/Donatos+Pizza/@40.1534285,-83.0024949,17z/data=!3m1!4b1!4m5!3m4!1s0x8838f388dbe4be01:0x16d14d8892e880dd!8m2!3d40.1534244!4d-83.0003062",Donatos Pizza,1263 Cameron Ave,OH,LEWIS CENTER,Scraped
Donatos Pizza 2922 Noe Bixby Rd COLUMBUS OH,(614) 759-8888,"https://www.google.com/maps/place/Donatos+Pizza/@39.9168052,-82.8659141,17z/data=!3m1!4b1!4m5!3m4!1s0x88387cd7dc1a4b5d:0x44aea2b8351f5026!8m2!3d39.9168011!4d-82.8637254",Donatos Pizza,2922 Noe Bixby Rd,OH,COLUMBUS,Scraped
Donatos Pizza 1000 Thurman Ave COLUMBUS OH,(614) 444-6823,"https://www.google.com/maps/place/Donatos+Pizza/@39.9388355,-82.9711415,17z/data=!3m1!4b1!4m5!3m4!1s0x883888991dc2289d:0xf29a153f0c8171e4!8m2!3d39.9388314!4d-82.9689528",Donatos Pizza,1000 Thurman Ave,OH,COLUMBUS,Scraped
Donatos Pizza 5688 Georgetown Rd INDIANAPOLIS IN,(317) 387-3100,"https://www.google.com/maps/place/Donatos+Pizza/@39.8557039,-86.244574,17z/data=!3m1!4b1!4m5!3m4!1s0x886b55e95de7abe5:0x14027e7883b9f1d7!8m2!3d39.8556998!4d-86.2423853",Donatos Pizza,5688 Georgetown Rd,IN,INDIANAPOLIS,Scraped
Donatos Pizza 1612 Northwest Blvd COLUMBUS OH,(614) 486-5363,"https://www.google.com/maps/place/Donatos+Pizza/@39.9911836,-83.0422935,17z/data=!3m1!4b1!4m5!3m4!1s0x88388e596b64d233:0xe9e690653a9af40f!8m2!3d39.9911795!4d-83.0401048",Donatos Pizza,1612 Northwest Blvd,OH,COLUMBUS,Scraped
Donatos Pizza 3389 Sullivant Ave COLUMBUS OH,(614) 276-7788,"https://www.google.com/maps/place/Donatos+Pizza/@39.9427107,-83.0912745,17z/data=!3m1!4b1!4m5!3m4!1s0x883890063ac99e35:0x2dbf83c549f8555d!8m2!3d39.9427066!4d-83.0890858",Donatos Pizza,3389 Sullivant Ave,OH,COLUMBUS,Scraped
Donatos Pizza 111 Emmaus Rd MARYSVILLE OH,(937) 642-7000,"https://www.google.com/maps/place/Donatos+Pizza/@40.2384652,-83.3861049,17z/data=!3m1!4b1!4m5!3m4!1s0x8838c5abe75e9ce5:0xb55a6ffb7f250c21!8m2!3d40.2384611!4d-83.3839162",Donatos Pizza,111 Emmaus Rd,OH,MARYSVILLE,Scraped
Donatos Pizza 1712 N Limestone St SPRINGFIELD OH,(937) 390-8090,"https://www.google.com/maps/place/Donatos+Pizza/@39.9454435,-83.8067043,17z/data=!3m1!4b1!4m5!3m4!1s0x883f5afd8b4a9309:0x71b6f74b4f5cb4d5!8m2!3d39.9454394!4d-83.8045156",Donatos Pizza,1712 N Limestone St,OH,SPRINGFIELD,Scraped
Donatos Pizza 732 S Burnett Rd SPRINGFIELD OH,(937) 327-7200,"https://www.google.com/maps/place/Donatos+Pizza/@39.912368,-83.7725456,17z/data=!3m1!4b1!4m5!3m4!1s0x883f5a0dcd16823d:0xeefffd3b984d82e8!8m2!3d39.9123639!4d-83.7703569",Donatos Pizza,732 S Burnett Rd,OH,SPRINGFIELD,Scraped
Donatos Pizza 363 S State St WESTERVILLE OH,(614) 882-5211,"https://www.google.com/maps/place/Donatos+Pizza/@40.1160825,-82.9304119,17z/data=!3m1!4b1!4m5!3m4!1s0x8838f56ad5da3443:0x14538898a3f2e868!8m2!3d40.1160784!4d-82.9282232",Donatos Pizza,363 S State St,OH,WESTERVILLE,Scraped
Donatos Pizza 5388 N High St COLUMBUS OH,(614) 846-3373,"https://www.google.com/maps/place/Donatos+Pizza/@40.0727218,-83.0207594,17z/data=!3m1!4b1!4m5!3m4!1s0x88388cec0cc4d2b7:0x9dadabe6e07cfa1a!8m2!3d40.0727177!4d-83.0185707",Donatos Pizza,5388 N High St,OH,COLUMBUS,Scraped
Donatos Pizza 713 Martin Luther King Jr Blvd ASHLAND KY,(606) 324-1000,"https://www.google.com/maps/place/Donatos+Pizza/@38.4756307,-82.6503271,17z/data=!3m1!4b1!4m5!3m4!1s0x884674279eebae0d:0xc3024ee07276b8c1!8m2!3d38.4756265!4d-82.6481384",Donatos Pizza,713 Martin Luther King Jr Blvd,KY,ASHLAND,Scraped
Donatos Pizza 2417 Elida Rd LIMA OH,(567) 712-6265,"https://www.google.com/maps/place/Donatos+Pizza/@40.7633365,-84.1533959,17z/data=!3m1!4b1!4m5!3m4!1s0x883ef3ae86187b9d:0x8dd513db1ad41538!8m2!3d40.7633325!4d-84.1512072",Donatos Pizza,2417 Elida Rd,OH,LIMA,Scraped
Donatos Pizza 101 W Cherry St SUNBURY OH,(740) 965-1114,"https://www.google.com/maps/place/Donatos+Pizza/@40.244016,-82.865979,17z/data=!3m1!4b1!4m5!3m4!1s0x883859d2d3e8ab9b:0x95a9c216ea612ed2!8m2!3d40.2440119!4d-82.8637903",Donatos Pizza,101 W Cherry St,OH,SUNBURY,Scraped
Donatos Pizza 400 N High St COLUMBUS OH,(614) 702-7600,"https://www.google.com/maps/place/Donatos+Pizza/@39.9767452,-83.0068653,16z/data=!4m8!1m2!2m1!1sDonatos+Pizza+400+N+High+St+COLUMBUS+OH+43215-2096+(614)+702-7600!3m4!1s0x88388f2906b7d849:0x4aeb561ebe9120f2!8m2!3d39.9722084!4d-83.0008851",Donatos Pizza,400 N High St,OH,COLUMBUS,Scraped
Donatos Pizza 5650 S Franklin Rd INDIANAPOLIS IN,(317) 862-3651,"https://www.google.com/maps/place/Donatos+Pizza/@39.6856881,-86.0213292,17z/data=!3m1!4b1!4m5!3m4!1s0x886b44229381efa7:0x7283255146e7891b!8m2!3d39.685684!4d-86.0191405",Donatos Pizza,5650 S Franklin Rd,IN,INDIANAPOLIS,Scraped
Donatos Pizza 7813 US 31 S INDIANAPOLIS IN,(317) 885-2900,"https://www.google.com/maps/place/Donatos+Pizza/@39.6529207,-86.1382735,17z/data=!3m1!4b1!4m5!3m4!1s0x886b5c6131ca3a1b:0x6912b25ebf13b324!8m2!3d39.6529166!4d-86.1360848",Donatos Pizza,7813 US 31,IN,S INDIANAPOLIS,Failed
Donatos Pizza 2260 US Highway 31 S GREENWOOD IN,(317) 884-3220,"https://www.google.com/maps/place/Donatos+Pizza/@39.5833167,-86.1024982,17z/data=!3m1!4b1!4m5!3m4!1s0x886b67f917719eb3:0x82fe9e41ed25473!8m2!3d39.5833126!4d-86.1003095",Donatos Pizza,2260 US Highway 31,IN,S GREENWOOD,Failed
Donatos Pizza 8484 Winton Rd CINCINNATI OH,(513) 728-7300,"https://www.google.com/maps/place/Donatos+Pizza/@39.150534,-84.5488509,12z/data=!4m8!1m2!2m1!1sDonatos+Pizza+8484+Winton+Rd+CINCINNATI+OH+45231-4927+(513)+728-7300!3m4!1s0x88404c9b5ffdd635:0x1bf3878c6692caa0!8m2!3d39.2217085!4d-84.517251",Donatos Pizza,8484 Winton Rd,OH,CINCINNATI,Scraped
Donatos Pizza 10919 E Washington St INDIANAPOLIS IN,(317) 890-4000,"https://www.google.com/maps/place/Donatos+Pizza/@39.7752817,-85.9745515,17z/data=!3m1!4b1!4m5!3m4!1s0x886b48f634e4a7f1:0x31da9e234ce4d0d2!8m2!3d39.7752776!4d-85.9723628",Donatos Pizza,10919 E Washington St,IN,INDIANAPOLIS,Scraped
Donatos Pizza 765 E Main St LANCASTER OH,(740) 653-7772,"https://www.google.com/maps/place/Donatos+Pizza/@39.7189471,-82.6098399,15z/data=!4m8!1m2!2m1!1sDonatos+Pizza+765+E+Main+St+LANCASTER+OH+43130-3937+(740)+653-7772!3m4!1s0x88478ae7d50b9f81:0x6b68e79a3f07119!8m2!3d39.7136826!4d-82.5854388",Donatos Pizza,765 E Main St,OH,LANCASTER,Scraped
Donatos Pizza 813 E Main St BROWNSBURG IN,(317) 858-2680,"https://www.google.com/maps/place/Donatos+Pizza/@39.838165,-86.3858253,17z/data=!3m1!4b1!4m5!3m4!1s0x886cae795166d401:0xa5935993f7541f44!8m2!3d39.8381609!4d-86.3836366",Donatos Pizza,813 E Main St,IN,BROWNSBURG,Failed
Donatos Pizza 7177 Cincinnati Dayton Rd CINCINNATI OH,(513) 759-7170,"https://www.google.com/maps/place/Donatos+Pizza/@39.37087,-84.3873784,17z/data=!3m1!4b1!4m5!3m4!1s0x88405a680db9dc3b:0x636009bd67239599!8m2!3d39.3708659!4d-84.3851897",Donatos Pizza,7177 Cincinnati Dayton Rd,OH,CINCINNATI,Failed
Donatos Pizza 764 Gardner Rd SPRINGBORO OH,(937) 748-8686,"https://www.google.com/maps/place/Donatos+Pizza/@39.5776483,-84.2335799,17z/data=!3m1!4b1!4m5!3m4!1s0x88408a33bf43c889:0x74865585340ad166!8m2!3d39.5776442!4d-84.2313912",Donatos Pizza,764 Gardner Rd,OH,SPRINGBORO,Scraped
Donatos Pizza 5789 Darrow Rd HUDSON OH,(330) 528-3030,"https://www.google.com/maps/place/Donatos+Pizza/@41.2230584,-81.4416585,17z/data=!3m1!4b1!4m5!3m4!1s0x88312142abdf8f85:0x4d55023517b2f468!8m2!3d41.2230544!4d-81.4394698",Donatos Pizza,5789 Darrow Rd,OH,HUDSON,Scraped
Donatos Pizza 688 E State St ATHENS OH,(740) 592-5049,"https://www.google.com/maps/place/Donatos+Pizza/@39.3378905,-82.0783693,17z/data=!3m1!4b1!4m5!3m4!1s0x8848725702749c29:0x3d1ddd54f41c427d!8m2!3d39.3378864!4d-82.0761806",Donatos Pizza,688 E State St,OH,ATHENS,Scraped
Donatos Pizza 316 Beall Ave WOOSTER OH,(330) 263-4724,"https://www.google.com/maps/place/Donatos+Pizza/@40.8018799,-81.9369022,17z/data=!3m1!4b1!4m5!3m4!1s0x88374661262dc217:0x4585458625cfd637!8m2!3d40.8018759!4d-81.9347135",Donatos Pizza,316 Beall Ave,OH,WOOSTER,Scraped
Donatos Pizza 610 E Broad St PATASKALA OH,(740) 927-3791,"https://www.google.com/maps/place/Donatos+Pizza/@39.9938363,-82.7749399,13z/data=!4m8!1m2!2m1!1sDonatos+Pizza+610+E+Broad+St+PATASKALA+OH+43062-7574+(740)+927-3791!3m4!1s0x88386945786ecd7d:0x63da033fe8984e70!8m2!3d40.0057866!4d-82.6619107",Donatos Pizza,610 E Broad St,OH,PATASKALA,Scraped
Donatos Pizza 3197 Rodenbeck Dr BEAVERCREEK OH,(937) 427-5880,"https://www.google.com/maps/place/Donatos+Pizza/@39.7269563,-84.0552406,17z/data=!3m1!4b1!4m5!3m4!1s0x88409b75a3dd5395:0xb25d19980d603ace!8m2!3d39.7269522!4d-84.0530519",Donatos Pizza,3197 Rodenbeck Dr,OH,BEAVERCREEK,Scraped
Donatos Pizza 7912 Paragon Rd CENTERVILLE OH,(937) 291-5599,"https://www.google.com/maps/place/Donatos+Pizza/@39.6288932,-84.1827527,17z/data=!3m1!4b1!4m5!3m4!1s0x88408f2a081243a1:0x6192d5620f7efb94!8m2!3d39.6288891!4d-84.180564",Donatos Pizza,7912 Paragon Rd,OH,CENTERVILLE,Scraped
Donatos Pizza 5501 Troy Pike HUBER HEIGHTS OH,(937) 236-0009,"https://www.google.com/maps/place/Donatos+Pizza/@39.8341107,-84.1436669,17z/data=!3m1!4b1!4m5!3m4!1s0x883f7d7e4a410a43:0xc53cb295080b2899!8m2!3d39.8341066!4d-84.1414782",Donatos Pizza,5501 Troy Pike,OH,HUBER HEIGHTS,Scraped
Donatos Pizza 4405 Alum Creek Dr COLUMBUS OH,(614) 492-2800,"https://www.google.com/maps/place/Donatos+Pizza/@39.8775611,-82.9338142,17z/data=!3m1!4b1!4m5!3m4!1s0x88388712675a5cad:0xdacb3fb7c9c4ad18!8m2!3d39.877557!4d-82.9316255",Donatos Pizza,4405 Alum Creek Dr,OH,COLUMBUS,Scraped
Donatos Pizza 3542 Gender Rd CANAL WINCHESTER OH,(614) 920-9100,"https://www.google.com/maps/place/Donatos+Pizza/@39.9094918,-82.8249076,17z/data=!3m1!4b1!4m5!3m4!1s0x88387c047ff15ecd:0x2ed8dbb75841a43a!8m2!3d39.9094877!4d-82.8227189",Donatos Pizza,3542 Gender Rd,OH,CANAL WINCHESTER,Scraped
Donatos Pizza 9405 Kenwood Rd BLUE ASH OH,(513) 792-4040,"https://www.google.com/maps/place/Donatos+Pizza/@39.2275513,-84.3803376,17z/data=!3m1!4b1!4m5!3m4!1s0x884053a07e973f53:0xc5d1d050c486e374!8m2!3d39.2275472!4d-84.3781489",Donatos Pizza,9405 Kenwood Rd,OH,BLUE ASH,Scraped
Donatos Pizza 3817 Main St HILLIARD OH,(614) 876-4444,"https://www.google.com/maps/place/Donatos+Pizza/@40.0294372,-83.1637064,17z/data=!3m1!4b1!4m5!3m4!1s0x883893fee81b148d:0xd69fc4b42baebef!8m2!3d40.0294331!4d-83.1615177",Donatos Pizza,3817 Main St,OH,HILLIARD,Scraped
Donatos Pizza 920 W Fair Ave LANCASTER OH,(740) 654-6444,"https://www.google.com/maps/place/Donatos+Pizza/@39.7241834,-82.6189202,17z/data=!3m1!4b1!4m5!3m4!1s0x88478a42c4f9cd79:0x72fec7b7609dc3d5!8m2!3d39.7241793!4d-82.6167315",Donatos Pizza,920 W Fair Ave,OH,LANCASTER,Scraped
Donatos Pizza 4303 Roosevelt Blvd MIDDLETOWN OH,(513) 727-0999,"https://www.google.com/maps/place/Donatos+Pizza/@39.4998922,-84.3591093,17z/data=!3m1!4b1!4m5!3m4!1s0x88405de17df29e55:0x477b5c96096fb499!8m2!3d39.4998881!4d-84.3569206",Donatos Pizza,4303 Roosevelt Blvd,OH,MIDDLETOWN,Failed
Donatos Pizza 8087 Beckett Center Dr WEST CHESTER OH,(513) 346-3150,"https://www.google.com/maps/place/Donatos+Pizza/@39.3555649,-84.4626922,17z/data=!3m1!4b1!4m5!3m4!1s0x8840456007e1dff5:0x712962bde753e9ed!8m2!3d39.3555608!4d-84.4605035",Donatos Pizza,8087 Beckett Center Dr,OH,WEST CHESTER,Failed
Donatos Pizza 1201 Columbus Ave LEBANON OH,(513) 934-3228,"https://www.google.com/maps/place/Donatos+Pizza/@39.4518791,-84.1852324,17z/data=!3m1!4b1!4m5!3m4!1s0x8840f38909f61ce3:0x50ba86a29f54b39!8m2!3d39.451875!4d-84.1830437",Donatos Pizza,1201 Columbus Ave,OH,LEBANON,Failed
Donatos Pizza 11309 Montgomery Rd CINCINNATI OH,(513) 489-4500,"https://www.google.com/maps/place/Donatos+Pizza/@39.2861147,-84.3110757,17z/data=!3m2!4b1!5s0x884056996d26cbe9:0x3333a57057b97db0!4m5!3m4!1s0x884056992561ee1b:0x404d70fb628b6e3e!8m2!3d39.2861106!4d-84.308887",Donatos Pizza,11309 Montgomery Rd,OH,CINCINNATI,Failed
Donatos Pizza 1710 State Rd CUYAHOGA FALLS OH,(330) 923-5900,"https://www.google.com/maps/place/Donatos+Pizza/@41.1293833,-81.5110543,17z/data=!3m1!4b1!4m5!3m4!1s0x883127fd9441b1fb:0x128b53d431e1b5d6!8m2!3d41.1293793!4d-81.5088656",Donatos Pizza,1710 State Rd,OH,CUYAHOGA FALLS,Scraped
Donatos Pizza 1210 W Ohio Pike AMELIA OH,(513) 752-0100,"https://www.google.com/maps/place/Donatos+Pizza/@39.1212796,-84.3526054,12z/data=!4m8!1m2!2m1!1sDonatos+Pizza+1210+W+Ohio+Pike+AMELIA+OH+45102-1239+(513)+752-0100!3m4!1s0x884107a3b8758a11:0xae8bcc07935d443f!8m2!3d39.0475748!4d-84.2454634",Donatos Pizza,1210 W Ohio Pike,OH,AMELIA,Scraped
Donatos Pizza 6965 E Broad St COLUMBUS OH,(614) 751-7929,"https://www.google.com/maps/place/Donatos+Pizza/@39.9817691,-82.820119,17z/data=!3m1!4b1!4m5!3m4!1s0x8838647455d5efd1:0xc1772319edde4434!8m2!3d39.981765!4d-82.8179303",Donatos Pizza,6965 E Broad St,OH,COLUMBUS,Scraped
Donatos Pizza 1214 Hill Rd N PICKERINGTON OH,(614) 759-8000,"https://www.google.com/maps/place/Donatos+Pizza/@39.9126062,-82.7805931,17z/data=!3m1!4b1!4m5!3m4!1s0x88387b29eabd3221:0x8aa5d4dc3ac6155d!8m2!3d39.9126021!4d-82.7784044",Donatos Pizza,1214 Hill Rd,OH,N PICKERINGTON,Failed
Donatos Pizza 20116 Van Aken Blvd SHAKER HEIGHTS OH,(216) 283-3333,"https://www.google.com/maps/place/Donatos+Pizza/@41.465287,-81.5406047,17z/data=!3m1!4b1!4m5!3m4!1s0x8830fd407d821075:0x7cf924fd05ced1bf!8m2!3d41.465283!4d-81.538416",Donatos Pizza,20116 Van Aken Blvd,OH,SHAKER HEIGHTS,Scraped
Donatos Pizza 265 W New Circle Rd LEXINGTON KY,(859) 299-5000,"https://www.google.com/maps/place/Donatos+Pizza/@38.0699746,-84.4768582,17z/data=!3m1!4b1!4m5!3m4!1s0x884245ae0c24dff7:0x839798d65d3bbed8!8m2!3d38.0699704!4d-84.4746695",Donatos Pizza,265 W New Circle Rd,KY,LEXINGTON,Scraped
Donatos Pizza 3851 Kenesaw Dr LEXINGTON KY,(859) 271-6666,"https://www.google.com/maps/place/Donatos+Pizza/@37.9606531,-84.4817452,17z/data=!3m1!4b1!4m5!3m4!1s0x88425a4ca66e00b7:0xae43123a4d25a438!8m2!3d37.9606489!4d-84.4795565",Donatos Pizza,3851 Kenesaw Dr,KY,LEXINGTON,Scraped
Donatos Pizza 6 S High St DUBLIN OH,(614) 793-1100,"https://www.google.com/maps/place/Donatos+Pizza/@40.0994206,-83.115782,17z/data=!3m1!4b1!4m5!3m4!1s0x883892d22bb39f83:0xc96a2cc8f1c9432!8m2!3d40.0994165!4d-83.1135933",Donatos Pizza,6 S High St,OH,DUBLIN,Scraped
Donatos Pizza 4515 Kenny Rd COLUMBUS OH,(614) 459-9523,"https://www.google.com/maps/place/Donatos+Pizza/@40.0512524,-83.0522962,17z/data=!3m1!4b1!4m5!3m4!1s0x88388da4e4686871:0x89c41301df5fe744!8m2!3d40.0512483!4d-83.0501075",Donatos Pizza,4515 Kenny Rd,OH,COLUMBUS,Failed
Donatos Pizza 10372 E US 36 AVON IN,(317) 273-4400,"https://www.google.com/maps/place/Donatos+Pizza/@39.7644284,-86.3412302,17z/data=!3m1!4b1!4m5!3m4!1s0x886caf53600a3619:0xe2b4d04ee9695d5a!8m2!3d39.7644243!4d-86.3390415",Donatos Pizza,10372 E US 36,IN,AVON,Scraped
Donatos Pizza 4100 W 106th St CARMEL IN,(317) 873-8708,"https://www.google.com/maps/place/Donatos+Pizza/@39.9415826,-86.2374589,17z/data=!3m1!4b1!4m5!3m4!1s0x8814aaea7664bfef:0x66ac59ba08bb7bf!8m2!3d39.9415785!4d-86.2352702",Donatos Pizza,4100 W 106th St,IN,CARMEL,Scraped
Donatos Pizza 1097 State Route 28 MILFORD OH,(513) 248-7777,"https://www.google.com/maps/place/Donatos+Pizza/@39.1947641,-84.2379204,17z/data=!3m1!4b1!4m5!3m4!1s0x8838c898a9077073:0xdebdce8b81228556!8m2!3d39.19476!4d-84.2357317",Donatos Pizza,1097 State Route 28,OH,MILFORD,Scraped
Donatos Pizza 125 Fields St MOORESVILLE IN,(317) 834-6060,"https://www.google.com/maps/place/Donatos+Pizza/@39.6156253,-86.3584775,17z/data=!3m1!4b1!4m5!3m4!1s0x886ca23fd8d30f65:0xfee38b4ef673467c!8m2!3d39.6156212!4d-86.3562888",Donatos Pizza,125 Fields St,IN,MOORESVILLE,Scraped
Donatos Pizza 3703 Fishinger Blvd HILLIARD OH,(614) 921-1800,"https://www.google.com/maps/place/Donatos+Pizza/@40.0299357,-83.1194147,17z/data=!3m1!4b1!4m5!3m4!1s0x8838922c253ff825:0xd89359fdd0cce56a!8m2!3d40.0299316!4d-83.117226",Donatos Pizza,3703 Fishinger Blvd,OH,HILLIARD,Scraped
Donatos Pizza 3000 Northwest Blvd UPPER ARLINGTON OH,(614) 340-0905,"https://www.google.com/maps/place/Donatos+Pizza/@40.0184125,-83.0591646,17z/data=!3m1!4b1!4m5!3m4!1s0x88388e754f4373b3:0x9a5084458123daa4!8m2!3d40.0184084!4d-83.0569759",Donatos Pizza,3000 Northwest Blvd,OH,UPPER ARLINGTON,Scraped
Donatos Pizza 2205 Conner St NOBLESVILLE IN,(317) 776-7080,"https://www.google.com/maps/place/Donatos+Pizza/@40.0449979,-86.0004069,17z/data=!3m1!4b1!4m5!3m4!1s0x8814b6df5910820b:0xc5907c12587cd7da!8m2!3d40.0449938!4d-85.9982182",Donatos Pizza,2205 Conner St,IN,NOBLESVILLE,Scraped
Donatos Pizza 7460 N Shadeland Ave INDIANAPOLIS IN,(317) 578-8722,"https://www.google.com/maps/place/Donatos+Pizza/@39.8904392,-86.0491491,17z/data=!3m1!4b1!4m5!3m4!1s0x886b4ce6c32f9bd7:0x6a4d162d7e818e9f!8m2!3d39.8904351!4d-86.0469604",Donatos Pizza,7460 N Shadeland Ave,IN,INDIANAPOLIS,Scraped
Donatos Pizza 811 Union Blvd ENGLEWOOD OH,(937) 832-9999,"https://www.google.com/maps/place/Donatos+Pizza/@39.8640343,-84.314307,17z/data=!3m1!4b1!4m5!3m4!1s0x883f805f8e32e5b3:0xc3a5f6cc1b9ad641!8m2!3d39.8640302!4d-84.3121183",Donatos Pizza,811 Union Blvd,OH,ENGLEWOOD,Scraped
Donatos Pizza 861 N State St WESTERVILLE OH,(614) 891-6333,"https://www.google.com/maps/place/Donatos+Pizza/@40.1322689,-82.9433286,14z/data=!4m8!1m2!2m1!1sDonatos+Pizza+861+N+State+St+WESTERVILLE+OH+43082-8326+(614)+891-6333!3m4!1s0x8838f596ae48943b:0x510a799e69a3c2eb!8m2!3d40.1483964!4d-82.9234148",Donatos Pizza,861 N State St,OH,WESTERVILLE,Scraped
Donatos Pizza 2115 Eakin Road COLUMBUS OH,(614) 275-4400,"https://www.google.com/maps/place/Donatos+Pizza/@39.9301324,-83.0550085,17z/data=!3m1!4b1!4m5!3m4!1s0x88388563fa75c2b3:0xac1b4484ff411a90!8m2!3d39.9301283!4d-83.0528198",Donatos Pizza,2115 Eakin Road,OH,COLUMBUS,Scraped
Donatos Pizza 5620 Crawfordsville Rd INDIANAPOLIS IN,(317) 487-2880,"https://www.google.com/maps/place/Donatos+Pizza/@39.7954087,-86.2606023,17z/data=!3m2!4b1!5s0x886ca82aee799751:0x7edf0a3a03679f2c!4m5!3m4!1s0x886ca9cd68e5e457:0xcb9c6810392cd06e!8m2!3d39.7954046!4d-86.2584136",Donatos Pizza,5620 Crawfordsville Rd,IN,INDIANAPOLIS,Scraped
Donatos Pizza 280 S Grant Ave COLUMBUS OH,(614) 464-2500,"https://www.google.com/maps/place/Donatos+Pizza/@39.9574308,-82.9918572,17z/data=!3m1!4b1!4m5!3m4!1s0x883888cbbc647057:0x31a8adac50f48c58!8m2!3d39.9574267!4d-82.9896685",Donatos Pizza,280 S Grant Ave,OH,COLUMBUS,Scraped
Donatos Pizza 815 S Main St BELLEFONTAINE OH,(937) 592-1100,"https://www.google.com/maps/place/Donatos+Pizza/@40.3501039,-83.762818,17z/data=!3m1!4b1!4m5!3m4!1s0x883f2f7ddccae4cf:0x31d217c4351b0b43!8m2!3d40.3500998!4d-83.7606293",Donatos Pizza,815 S Main St,OH,BELLEFONTAINE,Scraped
Donatos Pizza 221 W High St MOUNT VERNON OH,(740) 397-3336,"https://www.google.com/maps/place/Donatos+Pizza/@40.3940158,-82.4908953,17z/data=!3m1!4b1!4m5!3m4!1s0x8839cb4db2219725:0x5d7fdd7576ca89e8!8m2!3d40.3940117!4d-82.4887066",Donatos Pizza,221 W High St,OH,MOUNT VERNON,Failed
Donatos Pizza 1508 N Cassady Ave COLUMBUS OH,(614) 418-4000,"https://www.google.com/maps/place/Donatos+Pizza/@40.0015706,-82.9312608,17z/data=!3m1!4b1!4m5!3m4!1s0x8838898d425d02d5:0x2acb07255a9733a3!8m2!3d40.0015665!4d-82.9290721",Donatos Pizza,1508 N Cassady Ave,OH,COLUMBUS,Scraped
Donatos Pizza 1211 Columbus Ave WASHINGTON COURT HOUSE OH,(740) 335-8000,"https://www.google.com/maps/place/Donatos+Pizza/@39.5456921,-83.4293094,17z/data=!3m1!4b1!4m5!3m4!1s0x884748ac7ccb7ddd:0x85592424d7a46562!8m2!3d39.545688!4d-83.4271207",Donatos Pizza,1211 Columbus Ave WASHINGTON,OH,COURT HOUSE,Failed
Donatos Pizza 7568 Worthington Galena Rd WORTHINGTON OH,(614) 431-1115,"https://www.google.com/maps/place/Donatos+Pizza/@40.1178567,-82.9902654,17z/data=!3m1!4b1!4m5!3m4!1s0x8838f34b296f5b23:0x7a36d484ecf33446!8m2!3d40.1178526!4d-82.9880767",Donatos Pizza,7568 Worthington Galena Rd,OH,WORTHINGTON,Scraped
Donatos Pizza 1891 Tamarack Cir N COLUMBUS OH,(614) 846-8411,"https://www.google.com/maps/place/Donatos+Pizza/@40.0773645,-82.9691105,17z/data=!3m1!4b1!4m5!3m4!1s0x88388b3e87fa43dd:0xe1f61c43ce9095c3!8m2!3d40.0773604!4d-82.9669218",Donatos Pizza,1891 Tamarack Cir,OH,N COLUMBUS,Failed
Donatos Pizza 3489 N High St COLUMBUS OH,(614) 268-9559,"https://www.google.com/maps/place/Donatos+Pizza/@40.0333131,-83.0188879,17z/data=!3m1!4b1!4m5!3m4!1s0x88388c3e426592a1:0xed349e84424e6576!8m2!3d40.033309!4d-83.0166992",Donatos Pizza,3489 N High St,OH,COLUMBUS,Scraped
Donatos Pizza 4055 Morse Xing COLUMBUS OH,(614) 470-6001,"https://www.google.com/maps/place/Donatos+Pizza/@40.0531616,-82.9228739,17z/data=!3m2!4b1!5s0x88388a89ca8803ef:0xe8c76fea317d4360!4m5!3m4!1s0x883860299f4c7571:0x47be164bc19cb07d!8m2!3d40.0531575!4d-82.9206852",Donatos Pizza,4055 Morse Xing,OH,COLUMBUS,Scraped
Donatos Pizza 122 S Sandusky St DELAWARE OH,(740) 362-0682,"https://www.google.com/maps/place/Donatos+Pizza/@40.2946378,-83.0708642,17z/data=!3m1!4b1!4m5!3m4!1s0x8838facff90834af:0xc3a67407b49e78e0!8m2!3d40.2946337!4d-83.0686755",Donatos Pizza,122 S Sandusky St,OH,DELAWARE,Scraped
Donatos Pizza 2835 S High St COLUMBUS OH,(614) 491-1112,"https://www.google.com/maps/place/Donatos+Pizza/@39.9037072,-82.997909,17z/data=!3m1!4b1!4m5!3m4!1s0x883885d82e576d4d:0x88991150cbd6664!8m2!3d39.9037031!4d-82.9957203",Donatos Pizza,2835 S High St,OH,COLUMBUS,Scraped
Donatos Pizza 3415 Broadway GROVE CITY OH,(614) 539-6222,"https://www.google.com/maps/place/Donatos+Pizza/@39.8944749,-83.0858915,17z/data=!3m1!4b1!4m5!3m4!1s0x88389b2be93895f9:0xb9262e8be3585feb!8m2!3d39.8944708!4d-83.0837028",Donatos Pizza,3415 Broadway,OH,GROVE CITY,Scraped
Donatos Pizza 1815 Brice Rd REYNOLDSBURG OH,(614) 861-0211,"https://www.google.com/maps/place/Donatos+Pizza/@39.9426704,-82.8325743,17z/data=!3m1!4b1!4m5!3m4!1s0x8838635d13ce8f13:0x98c42a87b1b12de4!8m2!3d39.9426663!4d-82.8303856",Donatos Pizza,1815 Brice Rd,OH,REYNOLDSBURG,Scraped
Donatos Pizza 2084 N High St COLUMBUS OH,(614) 294-5371,"https://www.google.com/maps/place/Donatos+Pizza/@40.0048136,-83.0108808,17z/data=!3m1!4b1!4m5!3m4!1s0x88388ebb6716802d:0x3906ee5c40aae8d1!8m2!3d40.0048095!4d-83.0086921",Donatos Pizza,2084 N High St,OH,COLUMBUS,Scraped
Donatos Pizza 2800 E Main St COLUMBUS OH,(614) 235-4477,"https://www.google.com/maps/place/Donatos+Pizza/@39.9932811,-83.0126414,12z/data=!4m8!1m2!2m1!1sDonatos+Pizza+2800+E+Main+St+COLUMBUS+OH+43209-2551+(614)+235-4477!3m4!1s0x8838883965071fe3:0xf1da061cead0f47b!8m2!3d39.9571492!4d-82.9236674",Donatos Pizza,2800 E Main St,OH,COLUMBUS,Scraped
Donatos Pizza 1913 S Alex Rd WEST CARROLLTON OH,(937) 859-3535,"https://www.google.com/maps/place/Donatos+Pizza/@39.6473364,-84.2457926,17z/data=!3m1!4b1!4m5!3m4!1s0x8840884422ca6313:0x7f786051c23590b1!8m2!3d39.6473323!4d-84.2436039",Donatos Pizza,1913 S Alex Rd,OH,WEST CARROLLTON,Scraped
Donatos Pizza 1366 Oakland Park Ave COLUMBUS OH,(614) 262-0840,"https://www.google.com/maps/place/Donatos+Pizza/@40.032217,-82.9786769,17z/data=!3m1!4b1!4m5!3m4!1s0x88388beb829af7c7:0x7031b892bbd1363!8m2!3d40.0322129!4d-82.9764882",Donatos Pizza,1366 Oakland Park Ave,OH,COLUMBUS,Scraped
Donatos Pizza 1915 Broadway NASHVILLE TN,(615) 625-2929,"https://www.google.com/maps/place/Donatos+Pizza/@36.1499003,-86.7996693,17z/data=!3m1!4b1!4m5!3m4!1s0x88646696a9ce94e7:0x5df48710e218ef71!8m2!3d36.149896!4d-86.7974806",Donatos Pizza,1915 Broadway,TN,NASHVILLE,Scraped
Donatos Pizza 1535 W 8th St ERIE PA,(814) 722-5900,"https://www.google.com/maps/place/Donatos+Pizza/@42.113947,-80.120244,17z/data=!3m1!4b1!4m5!3m4!1s0x88327ff27b1274cd:0x23cab2ec80997b8d!8m2!3d42.113943!4d-80.1180553",Donatos Pizza,1535 W 8th St,PA,ERIE,Scraped
Donatos Pizza 861 Fairview Ave BOWLING GREEN KY,(270) 715-5111,"https://www.google.com/maps/place/Donatos+Pizza/@36.9907633,-86.435314,17z/data=!3m1!4b1!4m5!3m4!1s0x8865ef4c16fa22f7:0x3297b0d3650b4629!8m2!3d36.990759!4d-86.4331253",Donatos Pizza,861 Fairview Ave,KY,BOWLING GREEN,Scraped
Donatos Pizza 116 Broadway E GRANVILLE OH,(740) 920-4774,"https://www.google.com/maps/place/Donatos+Pizza/@40.068235,-82.5217078,17z/data=!3m1!4b1!4m5!3m4!1s0x88383fd5445ad25f:0x582b113f0b19f322!8m2!3d40.0682309!4d-82.5195191",Donatos Pizza,116 Broadway,OH,E GRANVILLE,Failed
Donatos Pizza 3070 Boiling Springs Rd BOILING SPRINGS SC,(864) 606-4333,"https://www.google.com/maps/place/Donatos+Pizza/@35.0387955,-81.9760792,17z/data=!3m1!4b1!4m5!3m4!1s0x8857714ac272b763:0xe4f5302eda220f2f!8m2!3d35.0387911!4d-81.9738905",Donatos Pizza,3070 Boiling Springs Rd,SC,BOILING SPRINGS,Scraped
Donatos Pizza 1833 Republic Rd VIRGINIA BEACH VA,(757) 351-4511,"https://www.google.com/maps/place/Donatos+Pizza/@36.850346,-76.0289993,17z/data=!3m1!4b1!4m5!3m4!1s0x89b64be3dc7d078d:0x5fbeb1ff071d8990!8m2!3d36.8503417!4d-76.0268106",Donatos Pizza,1833 Republic Rd,VA,VIRGINIA BEACH,Scraped
Donatos Pizza 2024 Harris Pike INDEPENDENCE KY,(859) 356-1200,"https://www.google.com/maps/place/Donatos+Pizza/@38.9288454,-84.5455107,17z/data=!3m1!4b1!4m5!3m4!1s0x8841bebf31077ea3:0xca3f386f5b30d0f4!8m2!3d38.9288412!4d-84.543322",Donatos Pizza,2024 Harris Pike,KY,INDEPENDENCE,Scraped
Donatos Pizza 111 Seaboard Ave RALEIGH NC,(919) 828-5111,"https://www.google.com/maps/place/Donatos+Pizza/@36.3192513,-77.8938215,9z/data=!4m8!1m2!2m1!1sDonatos+Pizza+111+Seaboard+Ave+RALEIGH+NC+27604-1152+(919)+828-5111!3m4!1s0x89b64be3dc7d078d:0x5fbeb1ff071d8990!8m2!3d36.8503417!4d-76.0268106",Donatos Pizza,111 Seaboard Ave,NC,RALEIGH,Scraped
Donatos Pizza 11048 Hebron Rd BUCKEYE LAKE OH,(740) 928-7174,"https://www.google.com/maps/place/Donatos+Pizza/@39.9358006,-82.4827109,17z/data=!3m1!4b1!4m5!3m4!1s0x8838122948808cc1:0xd51ac0c7332c2e92!8m2!3d39.9357965!4d-82.4805222",Donatos Pizza,11048 Hebron Rd,OH,BUCKEYE LAKE,Scraped
Donatos Pizza 2914 Vine St CINCINNATI OH,(513) 373-4304,"https://www.google.com/maps/place/Donatos+Pizza/@39.1798157,-84.5385945,12z/data=!4m8!1m2!2m1!1sDonatos+Pizza+2914+Vine+St+CINCINNATI+OH+45219-2023+(513)+373-4304!3m4!1s0x8841b393cbbfbbed:0x9d8da9c407a7dad5!8m2!3d39.1336159!4d-84.5088518",Donatos Pizza,2914 Vine St,OH,CINCINNATI,Scraped
Donatos Pizza 12515 Jefferson Ave NEWPORT NEWS VA,(757) 525-4944,"https://www.google.com/maps/place/Donatos+Pizza/@37.1266785,-76.5134829,17z/data=!3m1!4b1!4m5!3m4!1s0x89b07ed1bc9c78f7:0x9c53a299d639a233!8m2!3d37.1266742!4d-76.5112942",Donatos Pizza,12515 Jefferson Ave,VA,NEWPORT NEWS,Scraped
Donatos Pizza 3464 Wales Ave NW MASSILLON OH,(330) 833-3700,"https://www.google.com/maps/place/Donatos+Pizza/@40.8315743,-81.5040882,17z/data=!3m1!4b1!4m5!3m4!1s0x8836d7c378ddde6d:0xa525e841182568c3!8m2!3d40.8315703!4d-81.5018995",Donatos Pizza,3464 Wales Ave,OH,NW MASSILLON,Failed
Donatos Pizza 2601 W Parrish Ave OWENSBORO KY,(270) 855-0801,"https://www.google.com/maps/place/Donatos+Pizza/@37.7582339,-87.1463741,17z/data=!3m1!4b1!4m5!3m4!1s0x886fb9f6786a1f29:0xb35834562535228d!8m2!3d37.7582297!4d-87.1441854",Donatos Pizza,2601 W Parrish Ave,KY,OWENSBORO,Scraped
Donatos Pizza 220 Azalea Square Blvd SUMMERVILLE SC,(843) 501-2838,"https://www.google.com/maps/place/Donatos+Pizza/@33.0383569,-80.1590026,17z/data=!3m1!4b1!4m5!3m4!1s0x88fe8b3084390ba9:0x15b86d90766632da!8m2!3d33.0383524!4d-80.1568139",Donatos Pizza,220 Azalea Square Blvd,SC,SUMMERVILLE,Scraped
Donatos Pizza 3284 Franklin Rd MURFREESBORO TN,(615) 900-5500,"https://www.google.com/maps/place/Donatos+Pizza/@35.8453067,-86.4584342,17z/data=!3m1!4b1!4m5!3m4!1s0x8863f7cbb012eb7f:0xc2528c9500a9f428!8m2!3d35.8453024!4d-86.4562455",Donatos Pizza,3284 Franklin Rd,TN,MURFREESBORO,Scraped
