Company Name,Address 1,City,State,Zip,Phone,Google Link,Company Name Processed,Status
Jet's Pizza,31085 Hayes Rd,WARREN,MI,48088-2031,5862963330.0,"https://www.google.com/maps/place/Jet's+Pizza/@42.5249488,-82.9698228,17z/data=!3m1!4b1!4m5!3m4!1s0x8824d9a254c5f14b:0x5bf604ad2cfd7774!8m2!3d42.5249488!4d-82.9698228",jets_pizza,
Jet's Pizza,1126 N Pontiac Trl,WALLED LAKE,MI,48390-3137,2489262111.0,"https://www.google.com/maps/place/Jet's+Pizza/@42.541967,-83.476493,17z/data=!3m1!4b1!4m5!3m4!1s0x8824a5a31a6d948b:0xb0b120fe31952cf3!8m2!3d42.541967!4d-83.476493",jets_pizza,
Jet's Pizza,1130 Garfield Rd S,TRAVERSE CITY,MI,49686,2319339309.0,"https://www.google.com/maps/place/Jet's+Pizza/@44.7464468,-85.5959279,17z/data=!3m1!4b1!4m5!3m4!1s0x881fcd49d9cb7939:0x4228cd6902e8f967!8m2!3d44.7464468!4d-85.5959279",jets_pizza,
Jet's Pizza,3985 Beitner Rd,TRAVERSE CITY,MI,49685-7781,2319439999.0,"https://www.google.com/maps/place/Jet's+Pizza/@44.6714943,-85.6544726,17z/data=!3m1!4b1!4m5!3m4!1s0x881e3443188ae9b5:0x60282a53377775d1!8m2!3d44.6714943!4d-85.6544726",jets_pizza,
Jet's Pizza,4733 Glendale Ave,TOLEDO,OH,43614-1912,4193816700.0,"https://www.google.com/maps/place/Jet's+Pizza/@41.6067171,-83.6529947,17z/data=!3m1!4b1!4m5!3m4!1s0x883c79bf0b7beaad:0xd4c5cef3d6b2b824!8m2!3d41.6067171!4d-83.6529947",jets_pizza,
Jet's Pizza,22314 Goddard Rd,TAYLOR,MI,48180-4234,3132994538.0,"https://www.google.com/maps/place/Jet's+Pizza/@42.227868,-83.253356,17z/data=!3m1!4b1!4m5!3m4!1s0x883b482857886201:0x403f357e0580a1d9!8m2!3d42.227868!4d-83.253356",jets_pizza,
Jet's Pizza,49402 Pontiac Trl,WIXOM,MI,48393-2005,2486680606.0,"https://www.google.com/maps/place/Jet's+Pizza/@42.524531,-83.53749,17z/data=!3m1!4b1!4m5!3m4!1s0x8824a89d9f4f738b:0xb0bd70b36d0db6c9!8m2!3d42.524531!4d-83.53749",jets_pizza,
Jet's Pizza,6546 N Wayne Rd,WESTLAND,MI,48185-2711,7347284400.0,"https://www.google.com/maps/place/Jet's+Pizza/@42.332798,-83.385346,17z/data=!3m1!4b1!4m5!3m4!1s0x883b4d1b111affb7:0xe5feca7884360edd!8m2!3d42.332798!4d-83.385346",jets_pizza,
Jet's Pizza,6641 Orchard Lake Rd,WEST BLOOMFIELD,MI,48322-3404,2487370770.0,"https://www.google.com/maps/place/Jet's+Pizza/@42.5413882,-83.359479,17z/data=!3m1!4b1!4m5!3m4!1s0x8824ba46d0b05769:0xfb92118b98e2a32!8m2!3d42.5413882!4d-83.359479",jets_pizza,
Jet's Pizza,11908 E 10 Mile Rd,WARREN,MI,48089-2027,5867595387.0,"https://www.google.com/maps/place/Jet's+Pizza/@42.4776023,-83.0033679,17z/data=!3m1!4b1!4m5!3m4!1s0x8824d0b764ea72ef:0x9057d5106d369fe5!8m2!3d42.4776023!4d-83.0033679",jets_pizza,
Jet's Pizza,40808 Ryan Rd,STERLING HEIGHTS,MI,48310-1716,5869780888.0,"https://www.google.com/maps/place/Jet's+Pizza/@42.5920684,-83.0689544,17z/data=!3m1!4b1!4m5!3m4!1s0x8824dcb71c421b93:0x20454bb0ab36ce0a!8m2!3d42.5920684!4d-83.0689544",jets_pizza,
Jet's Pizza,1021 Crossings Blvd,SPRING HILL,TN,37174-2776,9314879700.0,"https://www.google.com/maps/place/Jet's+Pizza/@35.743009,-86.938131,17z/data=!3m1!4b1!4m5!3m4!1s0x886378542133a13f:0x74cb1670d13b06c7!8m2!3d35.743009!4d-86.938131",jets_pizza,
Jet's Pizza,4425 S Cobb Dr SE,SMYRNA,GA,30080-6369,7704341523.0,"https://www.google.com/maps/place/Jet's+Pizza/@33.8468492,-84.5027732,17z/data=!3m1!4b1!4m5!3m4!1s0x88f51a0cd9f7df15:0x6cf63285fc055ac9!8m2!3d33.8468492!4d-84.5027732",jets_pizza,
Jet's Pizza,42942 Schoenherr Rd,STERLING HEIGHTS,MI,48313-2852,5865325387.0,"https://www.google.com/maps/place/Jet's+Pizza/@42.6100404,-82.9914048,17z/data=!3m1!4b1!4m5!3m4!1s0x8824de800d8492a9:0xb606350359b1430a!8m2!3d42.6100404!4d-82.9914048",jets_pizza,
Jet's Pizza,37160 Dequindre Rd,STERLING HEIGHTS,MI,48310-3535,5862684010.0,"https://www.google.com/maps/place/Jet's+Pizza/@42.5649113,-83.0875303,17z/data=!3m1!4b1!4m5!3m4!1s0x8824c4b095c5e615:0x872396b662b620cb!8m2!3d42.5649113!4d-83.0875303",jets_pizza,
Jet's Pizza,4185 E 14 Mile Rd,STERLING HEIGHTS,MI,48310-6435,5862685720.0,"https://www.google.com/maps/place/Jet's+Pizza/@42.536122,-83.065896,17z/data=!3m1!4b1!4m5!3m4!1s0x8824dad8f60a0d63:0xcbb826526d989f4d!8m2!3d42.536122!4d-83.065896",jets_pizza,
Jet's Pizza,9649 Bay Pines Blvd,SAINT PETERSBURG,FL,33708-3755,7273972000.0,"https://www.google.com/maps/place/Jet's+Pizza/@27.814844,-82.77313,17z/data=!3m1!4b1!4m5!3m4!1s0x88c2fc892879ccef:0x33953a661043cbfe!8m2!3d27.814844!4d-82.77313",jets_pizza,
Jet's Pizza,15211 Dix Toledo Rd,SOUTHGATE,MI,48195-3445,7342813844.0,"https://www.google.com/maps/place/Jet's+Pizza/@42.1974268,-83.2122295,17z/data=!3m1!4b1!4m5!3m4!1s0x883b3786c6175525:0x7f88376cc47a1f24!8m2!3d42.1974268!4d-83.2122295",jets_pizza,
Jet's Pizza,30120 Southfield Rd,SOUTHFIELD,MI,48076-1401,2486455387.0,"https://www.google.com/maps/place/Jet's+Pizza/@42.5107602,-83.2223344,17z/data=!3m1!4b1!4m5!3m4!1s0x8824c7d938f027b7:0xbaf0dc4ee3e38fc1!8m2!3d42.5107602!4d-83.2223344",jets_pizza,
Jet's Pizza,23941 W 9 Mile Rd,SOUTHFIELD,MI,48034,2483578300.0,"https://www.google.com/maps/place/Jet's+Pizza/@42.4570615,-83.2774789,17z/data=!3m1!4b1!4m5!3m4!1s0x8824b6440199389f:0xe23ec566936dadcc!8m2!3d42.4570615!4d-83.2774789",jets_pizza,
Jet's Pizza,13785 23 Mile Rd,SHELBY TOWNSHIP,MI,48315-2907,5865666300.0,"https://www.google.com/maps/place/Jet's+Pizza/@42.6707893,-82.9927021,17z/data=!3m1!4b1!4m5!3m4!1s0x8824e0caeded7303:0x7a96f74f5ec1c57c!8m2!3d42.6707893!4d-82.9927021",jets_pizza,
Jet's Pizza,978 E Michigan Ave,SALINE,MI,48176-1586,7344299700.0,"https://www.google.com/maps/place/Jet's+Pizza/@42.17294,-83.763311,17z/data=!3m1!4b1!4m5!3m4!1s0x883cbb71e66c5719:0x6b8ff4e52aef8cb0!8m2!3d42.17294!4d-83.763311",jets_pizza,
Jet's Pizza,5789 State St,SAGINAW,MI,48603-3581,9897935387.0,"https://www.google.com/maps/place/Jet's+Pizza/@43.4361621,-84.031009,17z/data=!3m1!4b1!4m5!3m4!1s0x8823c465b2ccdbcf:0x65ade66fa7b2f988!8m2!3d43.4361621!4d-84.031009",jets_pizza,
Jet's Pizza,5695 Bay Rd,SAGINAW,MI,48604-2509,9894977777.0,"https://www.google.com/maps/place/Jet's+Pizza/@43.4908903,-83.9747561,17z/data=!3m1!4b1!4m5!3m4!1s0x8823dd2779ad1f53:0xe980d6fcc0cef2c7!8m2!3d43.4908903!4d-83.9747561",jets_pizza,
Jet's Pizza,2082 W Auburn Rd,ROCHESTER HILLS,MI,48309-3628,2488521100.0,"https://www.google.com/maps/place/Jet's+Pizza/@42.6354744,-83.1722703,17z/data=!3m1!4b1!4m5!3m4!1s0x8824c18eb6e64f3f:0xf6fdae020cca5a10!8m2!3d42.6354744!4d-83.1722703",jets_pizza,
Jet's Pizza,24335 Plymouth Rd,REDFORD,MI,48239-1615,3135335323.0,"https://www.google.com/maps/place/Jet's+Pizza/@42.3709291,-83.2785845,17z/data=!3m1!4b1!4m5!3m4!1s0x8824b53c365a1485:0x6e825ec5dfa21c01!8m2!3d42.3709291!4d-83.2785845",jets_pizza,
Jet's Pizza,8882 Moreland St,POWELL,OH,43065-6678,7408819396.0,"https://www.google.com/maps/place/Jet's+Pizza/@40.1706272,-83.0891389,17z/data=!3m1!4b1!4m5!3m4!1s0x8838edf1dd551463:0xdb3e0288715cb1a8!8m2!3d40.1706272!4d-83.0891389",jets_pizza,
Jet's Pizza,11 S Ortonville Rd,ORTONVILLE,MI,48462-8697,2486276300.0,"https://www.google.com/maps/place/Jet's+Pizza/@42.85246,-83.451641,17z/data=!3m1!4b1!4m5!3m4!1s0x88248517d6ae4345:0xd0bbe49ef841b61d!8m2!3d42.85246!4d-83.451641",jets_pizza,
Jet's Pizza,30478 Milford Rd,NEW HUDSON,MI,48165-8583,2484464544.0,"https://www.google.com/maps/place/Jet's+Pizza/@42.5139509,-83.6151711,17z/data=!3m1!4b1!4m5!3m4!1s0x8823579378e10ec1:0x5117abae8493eb5a!8m2!3d42.5139509!4d-83.6151711",jets_pizza,
Jet's Pizza,4167 Franklin Rd,MURFREESBORO,TN,37128-4257,6159047277.0,"https://www.google.com/maps/place/Jet's+Pizza/@35.8423149,-86.4711794,17z/data=!3m1!4b1!4m5!3m4!1s0x8863f638ec79a7ab:0xfbebcdbcb80d97b9!8m2!3d35.8423149!4d-86.4711794",jets_pizza,
Jet's Pizza,414 N Telegraph Rd,MONROE,MI,48162-3335,7344574200.0,"https://www.google.com/maps/place/Jet's+Pizza/@41.927322,-83.412293,17z/data=!3m1!4b1!4m5!3m4!1s0x883b6f82a39e9bbd:0x41f12b2ae07c5b32!8m2!3d41.927322!4d-83.412293",jets_pizza,
Jet's Pizza,333 W 11 Mile Rd,MADISON HEIGHTS,MI,48071-3217,2485481210.0,"https://www.google.com/maps/place/Jet's+Pizza/@42.490477,-83.108169,17z/data=!3m1!4b1!4m5!3m4!1s0x8824cf91d59efc91:0x7ef2c415778c444c!8m2!3d42.490477!4d-83.108169",jets_pizza,
Jet's Pizza,11635 Fulton St E,LOWELL,MI,49331-9697,6168974800.0,"https://www.google.com/maps/place/Jet's+Pizza/@42.930909,-85.3794842,17z/data=!3m1!4b1!4m5!3m4!1s0x88185b2cba4d24b1:0x41724f94861102be!8m2!3d42.930909!4d-85.3794842",jets_pizza,
Jet's Pizza,6227 W Saginaw Hwy,LANSING,MI,48917-2468,5173232322.0,"https://www.google.com/maps/place/Jet's+Pizza/@42.740411,-84.640271,17z/data=!3m1!4b1!4m5!3m4!1s0x8822957d01fdfd31:0xabfb7be998d51574!8m2!3d42.740411!4d-84.640271",jets_pizza,
Jet's Pizza,6445 S Cedar St,LANSING,MI,48911-5992,5178826900.0,"https://www.google.com/maps/place/Jet's+Pizza/@42.663606,-84.539423,17z/data=!3m1!4b1!4m5!3m4!1s0x8822c148fd4f5937:0x17f9907c42a98710!8m2!3d42.663606!4d-84.539423",jets_pizza,
Jet's Pizza,1013 Washington Ave,HOLLAND,MI,49423-5202,6163955200.0,"https://www.google.com/maps/place/Jet's+Pizza/@42.76075,-86.115899,17z/data=!3m1!4b1!4m5!3m4!1s0x8819f2f50ecfbca5:0x77e4c21fb665257e!8m2!3d42.76075!4d-86.115899",jets_pizza,
Jet's Pizza,3858 Main St,HILLIARD,OH,43026-1450,6147710500.0,"https://www.google.com/maps/place/Jet's+Pizza/@40.030641,-83.160836,17z/data=!3m1!4b1!4m5!3m4!1s0x883893feccf4d647:0xc3c97fc965972c6b!8m2!3d40.030641!4d-83.160836",jets_pizza,
Jet's Pizza,20643 Mack Ave,GROSSE POINTE WOODS,MI,48236-1618,3138843838.0,"https://www.google.com/maps/place/Jet's+Pizza/@42.4428483,-82.9075308,17z/data=!3m1!4b1!4m5!3m4!1s0x8824d629d94d192d:0x7fdd379f12eb4e3d!8m2!3d42.4428483!4d-82.9075308",jets_pizza,
Jet's Pizza,420 E Arlington Blvd,GREENVILLE,NC,27858-7852,2522150091.0,"https://www.google.com/maps/place/Jet's+Pizza/@35.5845033,-77.3697028,17z/data=!3m1!4b1!4m5!3m4!1s0x89aedd4e33312885:0x72cad597423b1ce8!8m2!3d35.5845033!4d-77.3697028",jets_pizza,
Jet's Pizza,4499 Ivanrest Ave SW,GRANDVILLE,MI,49418-3155,6167241454.0,"https://www.google.com/maps/place/Jet's+Pizza/@42.8831168,-85.7438759,17z/data=!3m1!4b1!4m5!3m4!1s0x8819b0ea7eb27543:0xb311dbab7cbd87d8!8m2!3d42.8831168!4d-85.7438759",jets_pizza,
Jet's Pizza,1215 Fuller Ave NE,GRAND RAPIDS,MI,49505-5570,6162421333.0,"https://www.google.com/maps/place/Jet's+Pizza/@42.98526,-85.640176,17z/data=!3m1!4b1!4m5!3m4!1s0x8819acf7627db9e1:0x6ff8634b06ca53d!8m2!3d42.98526!4d-85.640176",jets_pizza,
Jet's Pizza,1300 E Oakland Park Blvd,OAKLAND PARK,FL,33334-4429,9545655387.0,"https://www.google.com/maps/place/Jet's+Pizza/@26.1665524,-80.129511,17z/data=!3m1!4b1!4m5!3m4!1s0x88d901ec809f2f63:0x5c4020f9249b1f5f!8m2!3d26.1665524!4d-80.129511",jets_pizza,
Jet's Pizza,1400 Liberty Pike,FRANKLIN,TN,37067-8630,6155958883.0,"https://www.google.com/maps/place/Jet's+Pizza/@35.9244113,-86.7954726,17z/data=!3m1!4b1!4m5!3m4!1s0x8864791a4eedb92d:0x8bfd1cb5013ddc78!8m2!3d35.9244113!4d-86.7954726",jets_pizza,
Jet's Pizza,230 W Main St,FLUSHING,MI,48433-2032,8104870400.0,"https://www.google.com/maps/place/Jet's+Pizza/@43.063846,-83.858789,17z/data=!3m1!4b1!4m5!3m4!1s0x88239e90b04ba771:0x51738eaa344b6f53!8m2!3d43.063846!4d-83.858789",jets_pizza,
Jet's Pizza,5530 Fenton Rd,FLINT,MI,48507-4031,8103416100.0,"https://www.google.com/maps/place/Jet's+Pizza/@42.9449303,-83.6934143,17z/data=!3m1!4b1!4m5!3m4!1s0x88237938dc296189:0x7b33cd6218c33fd7!8m2!3d42.9449303!4d-83.6934143",jets_pizza,
Jet's Pizza,27897 Orchard Lake Rd,FARMINGTON HILLS,MI,48334-3732,2484268400.0,"https://www.google.com/maps/place/Jet's+Pizza/@42.5000805,-83.361177,17z/data=!3m1!4b1!4m5!3m4!1s0x8824b0be41bf56a1:0x5fb5d317d005e3b8!8m2!3d42.5000805!4d-83.361177",jets_pizza,
Jet's Pizza,10011 Estero Town Commons Pl,ESTERO,FL,33928-9465,2394955387.0,"https://www.google.com/maps/place/Jet's+Pizza/@26.4288625,-81.7879303,17z/data=!3m1!4b1!4m5!3m4!1s0x88db16d0465870db:0xf208a38622d0d575!8m2!3d26.4288625!4d-81.7879303",jets_pizza,
Jet's Pizza,19380 E 10 Mile Rd,EASTPOINTE,MI,48021-1450,5867744448.0,"https://www.google.com/maps/place/Jet's+Pizza/@42.479842,-82.9185935,17z/data=!3m1!4b1!4m5!3m4!1s0x8824d7f010c2346d:0xd179cc38e5266eaa!8m2!3d42.479842!4d-82.9185935",jets_pizza,
Jet's Pizza,15235 E 7 Mile Rd,DETROIT,MI,48205-2553,3138394800.0,"https://www.google.com/maps/place/Jet's+Pizza/@42.435687,-82.964658,17z/data=!3m1!4b1!4m5!3m4!1s0x8824d6ecf678ec31:0x4ea2dc41743051bb!8m2!3d42.435687!4d-82.964658",jets_pizza,
Jet's Pizza,35681 Van Born Rd,ROMULUS,MI,48174-4173,7347285387.0,"https://www.google.com/maps/place/Jet's+Pizza/@42.2661489,-83.3902558,17z/data=!3m1!4b1!4m5!3m4!1s0x883b4e68eab7319d:0x9bcf6bb11a8c0dc8!8m2!3d42.2661489!4d-83.3902558",jets_pizza,
Jet's Pizza,51058 D W Seaton Dr,CHESTERFIELD,MI,48047-1404,5867169800.0,"https://www.google.com/maps/place/Jet's+Pizza/@42.6760399,-82.7738238,17z/data=!3m1!4b1!4m5!3m4!1s0x882519ab187cef25:0x4bcbaf3f683cfba4!8m2!3d42.6760399!4d-82.7738238",jets_pizza,
Jet's Pizza,15538 Old Hickory Blvd,NASHVILLE,TN,37211-7329,6158331200.0,"https://www.google.com/maps/place/Jet's+Pizza/@36.040869,-86.740261,17z/data=!3m1!4b1!4m5!3m4!1s0x88647000a38637bd:0xccfec3d53a21c323!8m2!3d36.040869!4d-86.740261",jets_pizza,
Jet's Pizza,8082 Highway 100,NASHVILLE,TN,37221-4212,6156621110.0,"https://www.google.com/maps/place/Jet's+Pizza/@36.0461843,-86.9546553,17z/data=!3m1!4b1!4m5!3m4!1s0x88648625dc46e583:0x98b47139d6bf49f!8m2!3d36.0461843!4d-86.9546553",jets_pizza,
Jet's Pizza,525 N Main St,MILFORD,MI,48381-1592,2486769566.0,"https://www.google.com/maps/place/Jet's+Pizza/@42.592554,-83.600896,17z/data=!3m1!4b1!4m5!3m4!1s0x882358a3634de26f:0xb8eab4084b57df07!8m2!3d42.592554!4d-83.600896",jets_pizza,
Jet's Pizza,203 W Wackerly St,MIDLAND,MI,48640-2792,9896339999.0,"https://www.google.com/maps/place/Jet's+Pizza/@43.654372,-84.228171,17z/data=!3m1!4b1!4m5!3m4!1s0x88217fd2a8ee9723:0xf3ec41aa6b996477!8m2!3d43.654372!4d-84.228171",jets_pizza,
Jet's Pizza,13735 W Warren Ave,DEARBORN,MI,48126-1422,3135841400.0,"https://www.google.com/maps/place/Jet's+Pizza/@42.343617,-83.178761,17z/data=!3m1!4b1!4m5!3m4!1s0x883b34b3d1d1ee3d:0x6e430e26c0bb6f31!8m2!3d42.343617!4d-83.178761",jets_pizza,
Jet's Pizza,3945 S Telegraph Rd,DEARBORN HEIGHTS,MI,48125-1929,3133595387.0,"https://www.google.com/maps/place/Jet's+Pizza/@42.2810807,-83.2700727,17z/data=!3m1!4b1!4m5!3m4!1s0x883b4a18c0f275b7:0x6132764f719ff02c!8m2!3d42.2810807!4d-83.2700727",jets_pizza,
Jet's Pizza,4575 W River Dr NE,COMSTOCK PARK,MI,49321-8019,6166474444.0,"https://www.google.com/maps/place/Jet's+Pizza/@43.0460352,-85.6577138,17z/data=!3m1!4b1!4m5!3m4!1s0x8819aa5730f3533b:0x4afa2b40e0413ebe!8m2!3d43.0460352!4d-85.6577138",jets_pizza,
Jet's Pizza,2045 Gulf To Bay Blvd,CLEARWATER,FL,33765-3752,7274414464.0,"https://www.google.com/maps/place/Jet's+Pizza/@27.9601834,-82.7524062,17z/data=!3m1!4b1!4m5!3m4!1s0x88c2f036e5cd393b:0x988258c122dc0ca1!8m2!3d27.9601834!4d-82.7524062",jets_pizza,
Jet's Pizza,47115 Gratiot Ave,CHESTERFIELD,MI,48051-2762,5869497500.0,"https://www.google.com/maps/place/Jet's+Pizza/@42.6461445,-82.8543796,17z/data=!3m1!4b1!4m5!3m4!1s0x88251f6356530f2b:0x14f7b904eba3138f!8m2!3d42.6461445!4d-82.8543796",jets_pizza,
Jet's Pizza,7301 N Lilley Rd,CANTON,MI,48187-2457,7344140831.0,"https://www.google.com/maps/place/Jet's+Pizza/@42.3381656,-83.460482,17z/data=!3m1!4b1!4m5!3m4!1s0x883b52e383c59e23:0xa3369e0d7c8dd4ea!8m2!3d42.3381656!4d-83.460482",jets_pizza,
Jet's Pizza,1065 E Lake Cook Rd,WHEELING,IL,60090-2502,8475379999.0,"https://www.google.com/maps/place/Jet's+Pizza/@42.1524211,-87.9451086,17z/data=!4m5!3m4!1s0x880fbc1a0ffa274d:0x462af986886cf71a!8m2!3d42.1524171!4d-87.9429199?hl=en",jets_pizza,
Jet's Pizza,10654 Concord Rd,BRENTWOOD,TN,37027-8811,6159415455.0,"https://www.google.com/maps/place/Jet's+Pizza/@35.996895,-86.690614,17z/data=!3m1!4b1!4m5!3m4!1s0x88647108933a322d:0x9479de017ce72daf!8m2!3d35.996895!4d-86.690614",jets_pizza,
Jet's Pizza,151 N Eton St,BIRMINGHAM,MI,48009-5930,2486377549.0,"https://www.google.com/maps/place/Jet's+Pizza/@42.548009,-83.196292,17z/data=!3m1!4b1!4m5!3m4!1s0x8824c6f7663de673:0x194e8b6ae0175bdf!8m2!3d42.548009!4d-83.196292",jets_pizza,
Jet's Pizza,2823 Coolidge Hwy,BERKLEY,MI,48072-1558,2485479880.0,"https://www.google.com/maps/place/Jet's+Pizza/@42.498027,-83.183928,17z/data=!3m1!4b1!4m5!3m4!1s0x8824c8a25409125f:0x24714e9765dbe47d!8m2!3d42.498027!4d-83.183928",jets_pizza,
Jet's Pizza,1901 S Euclid Ave,BAY CITY,MI,48706-3491,9896841111.0,"https://www.google.com/maps/place/Jet's+Pizza/@43.5812295,-83.9150635,17z/data=!3m1!4b1!4m5!3m4!1s0x8823e08df855b5d9:0xad7c43e01761d1!8m2!3d43.5812295!4d-83.9150635",jets_pizza,
Jet's Pizza,7554 Pearl Rd,MIDDLEBURG HEIGHTS,OH,44130-6431,4402437802.0,"https://www.google.com/maps/place/Jet's+Pizza/@41.360112,-81.815593,17z/data=!3m1!4b1!4m5!3m4!1s0x8830ebaf5f167855:0xa968b781f158b5fe!8m2!3d41.360112!4d-81.815593",jets_pizza,
Jet's Pizza,7916 S Mason Montgomery Rd,MASON,OH,45040-8249,5132298620.0,"https://www.google.com/maps/place/Jet's+Pizza/@39.324155,-84.311642,17z/data=!3m1!4b1!4m5!3m4!1s0x8840570a79dcba57:0xa0ffc463e983be00!8m2!3d39.324155!4d-84.311642",jets_pizza,
Jet's Pizza,13429 Fishhawk Blvd,LITHIA,FL,33547-3833,8136545388.0,"https://www.google.com/maps/place/Jet's+Pizza/@27.853112,-82.2677566,17z/data=!3m1!4b1!4m5!3m4!1s0x88c2d24bb5e9135b:0x858b901a69957e3a!8m2!3d27.853112!4d-82.2677566",jets_pizza,
Jet's Pizza,4443 Breton Rd SE,KENTWOOD,MI,49508-8424,6162815450.0,"https://www.google.com/maps/place/Jet's+Pizza/@42.8815556,-85.608251,17z/data=!3m1!4b1!4m5!3m4!1s0x8819b333c06c3d45:0xde6828e62e172103!8m2!3d42.8815556!4d-85.608251",jets_pizza,
Jet's Pizza,3735 Baldwin St,HUDSONVILLE,MI,49426-9733,6166629333.0,"https://www.google.com/maps/place/Jet's+Pizza/@42.9080556,-85.8758333,17z/data=!3m1!4b1!4m5!3m4!1s0x8819bcf63c8818ab:0x8df6fbfc73b3367d!8m2!3d42.9080556!4d-85.8758333",jets_pizza,
Jet's Pizza,120 W Highland Rd,HOWELL,MI,48843-2166,5175458005.0,"https://www.google.com/maps/place/Jet's+Pizza/@42.624154,-83.928102,17z/data=!3m1!4b1!4m5!3m4!1s0x8823475461f6051b:0x2826a9adb583ec3d!8m2!3d42.624154!4d-83.928102",jets_pizza,
Jet's Pizza,1800 N Old US 23,HOWELL,MI,48843-7192,8106321400.0,"https://www.google.com/maps/place/Jet's+Pizza/@42.6309474,-83.7516002,17z/data=!3m1!4b1!4m5!3m4!1s0x88235cb0b391280b:0x5e3ed5a5a7414805!8m2!3d42.6309474!4d-83.7516002",jets_pizza,
Jet's Pizza,3093 S Linden Rd,FLINT,MI,48507-3028,8106001088.0,"https://www.google.com/maps/place/Jet's+Pizza/@42.9845902,-83.7714686,17z/data=!3m1!4b1!4m5!3m4!1s0x8823778d14abe675:0x15745185620ec8eb!8m2!3d42.9845902!4d-83.7714686",jets_pizza,
Jet's Pizza,2163 Wealthy St SE,EAST GRAND RAPIDS,MI,49506-3033,6162420555.0,"https://www.google.com/maps/place/Jet's+Pizza/@42.9517991,-85.6151163,17z/data=!3m1!4b1!4m5!3m4!1s0x8819ad467d440713:0xdcc23e535f6dc096!8m2!3d42.9517991!4d-85.6151163",jets_pizza,
Jet's Pizza,1350 Main St,DUNEDIN,FL,34698-6251,7272101840.0,"https://www.google.com/maps/place/Jet's+Pizza/@28.0197222,-82.7697222,17z/data=!3m1!4b1!4m5!3m4!1s0x88c2f228e219b7b3:0xa5c981285e51c848!8m2!3d28.0197222!4d-82.7697222",jets_pizza,
Jet's Pizza,4718 Anthony Wayne Dr,DETROIT,MI,48201-1120,3132977000.0,"https://www.google.com/maps/place/Jet's+Pizza/@42.3527648,-83.0698679,17z/data=!3m1!4b1!4m5!3m4!1s0x883b3297b97d527d:0x8b5826ac73ab7dd5!8m2!3d42.3527648!4d-83.0698679",jets_pizza,
Jet's Pizza,506 N Main St,CHELSEA,MI,48118-1256,7344339700.0,"https://www.google.com/maps/place/Jet's+Pizza/@42.321307,-84.020147,17z/data=!3m1!4b1!4m5!3m4!1s0x883ccc0139e57011:0xa0c01e77af0a03e2!8m2!3d42.321307!4d-84.020147",jets_pizza,
Jet's Pizza,1607 Montford Dr,CHARLOTTE,NC,28209-3794,7045223767.0,"https://www.google.com/maps/place/Jet's+Pizza/@35.1709374,-80.8515747,17z/data=!4m5!3m4!1s0x88569e540fbe03e3:0x4f7db123362a7e75!8m2!3d35.170933!4d-80.849386?hl=en",jets_pizza,
Jet's Pizza,45241 Cherry Hill Rd,CANTON,MI,48188-1001,7349818500.0,"https://www.google.com/maps/place/Jet's+Pizza/@42.3068817,-83.4852979,17z/data=!3m1!4b1!4m5!3m4!1s0x883b53bffffb7e6f:0xf98f0f94ecc6afde!8m2!3d42.3068817!4d-83.4852979",jets_pizza,
Jet's Pizza,19138 Telegraph Rd,BROWNSTOWN,MI,48174-9301,7342291399.0,"https://www.google.com/maps/place/Jet's+Pizza/@42.1657396,-83.267416,17z/data=!3m1!4b1!4m5!3m4!1s0x883b4799f7c70517:0x5d6aa1a67bceaaf4!8m2!3d42.1657396!4d-83.267416",jets_pizza,
Jet's Pizza,8705 W Grand River Ave,BRIGHTON,MI,48116-2904,8102257454.0,"https://www.google.com/maps/place/Jet's+Pizza/@42.5377511,-83.7851745,17z/data=!4m5!3m4!1s0x88234fe1410f9517:0x8bdaf07434bd470e!8m2!3d42.5377472!4d-83.7829858?hl=en",jets_pizza,
Jet's Pizza,102 College Station Dr,BREVARD,NC,28712-3194,8288832888.0,"https://www.google.com/maps/place/Jet's+Pizza/@35.239594,-82.731735,17z/data=!3m1!4b1!4m5!3m4!1s0x8859bb4a5cd794db:0xab90d81bf82cd035!8m2!3d35.239594!4d-82.731735",jets_pizza,
Jet's Pizza,6701 Allen Rd,ALLEN PARK,MI,48101-2005,3133814538.0,"https://www.google.com/maps/place/Jet's+Pizza/@42.257404,-83.2098705,17z/data=!3m1!4b1!4m5!3m4!1s0x883b3662317c2d6d:0x846c2252780b1bd4!8m2!3d42.257404!4d-83.2098705",jets_pizza,
Jet's Pizza,4100 Jiles Rd NW,KENNESAW,GA,30144-1779,7704278788.0,"https://www.google.com/maps/place/Jet's+Pizza/@34.0477202,-84.6105188,17z/data=!3m1!4b1!4m5!3m4!1s0x88f54010c1143485:0xeef10d91abad1672!8m2!3d34.0477202!4d-84.6105188",jets_pizza,
Jet's Pizza,512 S Neil St,CHAMPAIGN,IL,61820-5232,2173523333.0,"https://www.google.com/maps/place/Jet's+Pizza/@40.110678,-88.243091,17z/data=!3m1!4b1!4m5!3m4!1s0x880cd735970be0ad:0xba1ea74589aca48a!8m2!3d40.110678!4d-88.243091",jets_pizza,
Jet's Pizza,2425 75th St,DARIEN,IL,60561-6718,6309103100.0,"https://www.google.com/maps/place/Jet's+Pizza/@41.750642,-88.004391,17z/data=!3m1!4b1!4m5!3m4!1s0x880e4ffa3a4c8697:0x3ca602f6b2c18b91!8m2!3d41.750642!4d-88.004391",jets_pizza,
Jet's Pizza,4112 Dempster St,SKOKIE,IL,60076-2101,2245347151.0,"https://www.google.com/maps/place/Jet's+Pizza/@42.041111,-87.7310486,17z/data=!3m1!4b1!4m5!3m4!1s0x880fcf99608361bf:0xcabb608869075468!8m2!3d42.041111!4d-87.7310486",jets_pizza,
Jet's Pizza,11785 Commercial Dr,FISHERS,IN,46038-2904,3175959900.0,"https://www.google.com/maps/place/Jet's+Pizza/@39.9601179,-86.0122388,17z/data=!3m1!4b1!4m5!3m4!1s0x8814b3875affd519:0x986bdb61538d0cf6!8m2!3d39.9601179!4d-86.0122388",jets_pizza,
Jet's Pizza,954 N State Road 135,GREENWOOD,IN,46142-1361,3178815387.0,"https://www.google.com/maps/place/Jet's+Pizza/@39.6297228,-86.1615147,17z/data=!4m5!3m4!1s0x886b5dcb352e6da3:0x3dc4db5d72f8b085!8m2!3d39.6297187!4d-86.159326?hl=en",jets_pizza,
Jet's Pizza,4123 Grape Rd,MISHAWAKA,IN,46545-2609,5742725387.0,"https://www.google.com/maps/place/Jet's+Pizza/@41.6981938,-86.1890802,17z/data=!3m1!4b1!4m5!3m4!1s0x8816d20828e3a46d:0xe871a6f9595b76d1!8m2!3d41.6981938!4d-86.1890802",jets_pizza,
Jet's Pizza,3420 Valley Plaza Pkwy,FT WRIGHT,KY,41017-8151,8593444400.0,"https://www.google.com/maps/place/Jet's+Pizza/@39.037015,-84.536819,17z/data=!3m1!4b1!4m5!3m4!1s0x8841b75a95a82071:0xff7faba8c648b691!8m2!3d39.037015!4d-84.536819",jets_pizza,
Jet's Pizza,5135 Lake Michigan Dr,ALLENDALE,MI,49401-9376,6168950895.0,"https://www.google.com/maps/place/Jet's+Pizza/@42.9730511,-85.9148533,17z/data=!4m5!3m4!1s0x8819a2930a1c520f:0x7685c2430bc05fbd!8m2!3d42.9730472!4d-85.9126646?hl=en",jets_pizza,
Jet's Pizza,1749 Plymouth Rd,ANN ARBOR,MI,48105-1827,7343321300.0,"https://www.google.com/maps/place/Jet's+Pizza/@42.2983184,-83.7214173,17z/data=!3m1!4b1!4m5!3m4!1s0x883cae79a6ddc0c5:0x657dd8dd460d9bf1!8m2!3d42.2983184!4d-83.7214173",jets_pizza,
Jet's Pizza,610 N Beacon Blvd,GRAND HAVEN,MI,49417-1193,6168445387.0,"https://www.google.com/maps/place/Jet's+Pizza/@43.0680271,-86.2188055,17z/data=!3m1!4b1!4m5!3m4!1s0x881980fc17c637f9:0xb5811dbe114963be!8m2!3d43.0680271!4d-86.2188055",jets_pizza,
Jet's Pizza,21956 23 Mile Rd,MACOMB,MI,48042-4423,5865988600.0,"https://www.google.com/maps/place/Jet's+Pizza/@42.6721401,-82.8946942,17z/data=!3m1!4b1!4m5!3m4!1s0x88251fc561b3d1b5:0x7c7b8c0ce199f541!8m2!3d42.6721401!4d-82.8946942",jets_pizza,
Jet's Pizza,1180 W M 43 Hwy,HASTINGS,MI,49058-7780,2699482228.0,"https://www.google.com/maps/place/Jet's+Pizza/@42.6486039,-85.3143517,17z/data=!4m8!1m2!2m1!1sJet's+Pizza+1180+W+M+43+Hwy+HASTINGS+MI+49058-7780!3m4!1s0x88183d01b5244081:0xa7ce7c087d1cc0db!8m2!3d42.648588!4d-85.312198?hl=en",jets_pizza,
Jet's Pizza,13475 Atlantic Blvd,JACKSONVILLE,FL,32225-3290,9042217700.0,"https://www.google.com/maps/place/Jet's+Pizza/@30.3220349,-81.4532155,17z/data=!3m1!4b1!4m5!3m4!1s0x88e44b94663f33cd:0x9264804f817e3b93!8m2!3d30.3220349!4d-81.4532155",jets_pizza,
Jet's Pizza,952 28th St SW,WYOMING,MI,49509-2851,6162615387.0,"https://www.google.com/maps/place/Jet's+Pizza/@42.9123179,-85.6883097,17z/data=!3m1!4b1!4m5!3m4!1s0x8819b18eb3757b97:0x33fdea6f19e1e280!8m2!3d42.9123179!4d-85.6883097",jets_pizza,
Jet's Pizza,8365 Creedmoor Rd,RALEIGH,NC,27613-1385,9198453337.0,"https://www.google.com/maps/place/Jet's+Pizza/@35.9013532,-78.6823446,17z/data=!3m1!4b1!4m5!3m4!1s0x89acf8206cf95b9d:0xc07d2990cfa571fd!8m2!3d35.9013532!4d-78.6823446",jets_pizza,
Jet's Pizza,10040 Montgomery Rd,CINCINNATI,OH,45242-5322,5137934488.0,"https://www.google.com/maps/place/Jet's+Pizza/@39.2381105,-84.3486258,17z/data=!3m1!4b1!4m5!3m4!1s0x88405476d41d1265:0x412eaedb346f8f2a!8m2!3d39.2381105!4d-84.3486258",jets_pizza,
Jet's Pizza,8627 Sancus Blvd,COLUMBUS,OH,43240-4052,6148488800.0,"https://www.google.com/maps/place/Jet's+Pizza/@40.1393265,-82.9928547,17z/data=!3m1!4b1!4m5!3m4!1s0x8838f47f0e2cc607:0xb2286b6fc12b8f92!8m2!3d40.1393265!4d-82.9928547",jets_pizza,
Jet's Pizza,3864 Hard Rd,DUBLIN,OH,43016-8025,6146590075.0,"https://www.google.com/maps/place/Jet's+Pizza/@40.11968,-83.092711,17z/data=!3m1!4b1!4m5!3m4!1s0x8838ed439afb1513:0xc1b3a8e7d8d18d18!8m2!3d40.11968!4d-83.092711",jets_pizza,
Jet's Pizza,5691 Woerner Temple Rd,DUBLIN,OH,43016-7188,6147644500.0,"https://www.google.com/maps/place/Jet's+Pizza/@40.0840289,-83.1428442,17z/data=!3m1!4b1!4m5!3m4!1s0x8838931518768529:0xdea6d8242987c889!8m2!3d40.0840289!4d-83.1428442",jets_pizza,
Jet's Pizza,216 Scuffletown Rd,SIMPSONVILLE,SC,29681-7296,8642811110.0,"https://www.google.com/maps/place/Jet's+Pizza/@34.803997,-82.229265,17z/data=!3m1!4b1!4m5!3m4!1s0x8858281103d80419:0xb26885ba585560a2!8m2!3d34.803997!4d-82.229265",jets_pizza,
Jet's Pizza,3600 Hixson Pike,CHATTANOOGA,TN,37415-3561,4237571616.0,"https://www.google.com/maps/place/Jet's+Pizza/@35.1071713,-85.2717574,17z/data=!3m1!4b1!4m5!3m4!1s0x8860600a1d62c2b7:0x641979bddd3f119!8m2!3d35.1071713!4d-85.2717574",jets_pizza,
Jet's Pizza,1400 N Germantown Pkwy,CORDOVA,TN,38016-7901,9017568883.0,"https://www.google.com/maps/place/Jet's+Pizza/@35.1632892,-89.7935751,17z/data=!3m1!4b1!4m5!3m4!1s0x887f9c363704fefd:0x24c230eb2785e8ab!8m2!3d35.1632892!4d-89.7935751",jets_pizza,
Jet's Pizza,11124 Kingston Pike,FARRAGUT,TN,37934-2855,8656750505.0,"https://www.google.com/maps/place/Jet's+Pizza/@35.886547,-84.149386,17z/data=!3m1!4b1!4m5!3m4!1s0x885c2ee6b9638233:0x932c559188bb4a4b!8m2!3d35.886547!4d-84.149386",jets_pizza,
Jet's Pizza,2975 S Rutherford Blvd,MURFREESBORO,TN,37130-6088,6158901214.0,"https://www.google.com/maps/place/Jet's+Pizza/@35.8335238,-86.3516457,17z/data=!3m1!4b1!4m5!3m4!1s0x8863f8c6923a332b:0xe46367b8cd73f538!8m2!3d35.8335238!4d-86.3516457",jets_pizza,
Jet's Pizza,2010 Richland Jones Rd,NASHVILLE,TN,37215,6152922020.0,"https://www.google.com/maps/place/Jet's+Pizza/@36.104896,-86.812763,17z/data=!3m1!4b1!4m5!3m4!1s0x88646471cf8f1cfb:0x801f55ba5cdc61fe!8m2!3d36.104896!4d-86.812763",jets_pizza,
Jet's Pizza,7151 Preston Rd,FRISCO,TX,75034-5850,9723779700.0,"https://www.google.com/maps/place/Jet's+Pizza/@33.13781,-96.8061201,17z/data=!3m1!4b1!4m5!3m4!1s0x864c3c4705a3c201:0xb2e8b48aa2ea73c9!8m2!3d33.13781!4d-96.8061201",jets_pizza,
Jet's Pizza,80 Hancock Bridge Pkwy W,CAPE CORAL,FL,33991-2093,2394581940.0,"https://www.google.com/maps/place/Jet's+Pizza+Hancock+Bridge+Pkwy/@26.6486684,-81.9763903,17z/data=!3m1!4b1!4m5!3m4!1s0x88db4696444b5045:0xc99b0520b8c56adf!8m2!3d26.6486684!4d-81.9763903",jets_pizza,
Jet's Pizza,10475 Medlock Bridge Rd,JOHNS CREEK,GA,30097-4434,6785845844.0,"https://www.google.com/maps/place/Jet's+Pizza/@34.034233,-84.185062,17z/data=!3m1!4b1!4m5!3m4!1s0x88f5a262b4e6f6f9:0xca40334239927dba!8m2!3d34.034233!4d-84.185062",jets_pizza,
Jet's Pizza,4082 W Maple Rd,BLOOMFIELD TOWNSHIP,MI,48301-3117,2482030007.0,"https://www.google.com/maps/place/Jet's+Pizza/@42.545108,-83.283836,17z/data=!3m1!4b1!4m5!3m4!1s0x8824b85a009e7d55:0x91d058f2d725d61c!8m2!3d42.545108!4d-83.283836",jets_pizza,
Jet's Pizza,11190 Chicago Dr,ZEELAND,MI,49464-8800,6165462900.0,"https://www.google.com/maps/place/Jet's+Pizza/@42.804384,-86.057253,17z/data=!3m1!4b1!4m5!3m4!1s0x881992d73a1d5007:0xaf605ee66b5158e4!8m2!3d42.804384!4d-86.057253",jets_pizza,
Jet's Pizza,14316 Reese Blvd W,HUNTERSVILLE,NC,28078-7911,7049922221.0,"https://www.google.com/maps/place/Jet's+Pizza/@35.4088872,-80.8630319,17z/data=!3m1!4b1!4m5!3m4!1s0x8856a88e5bd3071f:0xb6fc5e2f58b3d7e6!8m2!3d35.4088872!4d-80.8630319",jets_pizza,
Jet's Pizza,920 Park Center Dr,MATTHEWS,NC,28105-5030,7048451015.0,"https://www.google.com/maps/place/Jet's+Pizza/@35.11982,-80.719827,17z/data=!3m1!4b1!4m5!3m4!1s0x885424004dacaa47:0x7b8c3fedd49d582!8m2!3d35.11982!4d-80.719827",jets_pizza,
Jet's Pizza,960 N Hamilton Rd,GAHANNA,OH,43230-3457,6144752000.0,"https://www.google.com/maps/place/Jet's+Pizza/@40.0433039,-82.8639765,17z/data=!3m1!4b1!4m5!3m4!1s0x883861a9fbb59457:0x6779d418cc9f010c!8m2!3d40.0433039!4d-82.8639765",jets_pizza,
Jet's Pizza,5350 Mayfield Rd,LYNDHURST,OH,44124-2458,4404601700.0,"https://www.google.com/maps/place/Jet's+Pizza/@41.5194821,-81.4866614,17z/data=!3m1!4b1!4m5!3m4!1s0x8831022420fb33b9:0x999e44f70cb137fd!8m2!3d41.5194821!4d-81.4866614",jets_pizza,
Jet's Pizza,642 N State St,WESTERVILLE,OH,43082-9083,6148825387.0,"https://www.google.com/maps/place/Jet's+Pizza/@40.1429275,-82.9278204,17z/data=!3m1!5s0x8838f599cbb6a9f9:0x300fe7f939b6b22e!4m5!3m4!1s0x8838f59844501143:0xdd5a352e9895cd50!8m2!3d40.1429234!4d-82.9256317?hl=en",jets_pizza,
Jet's Pizza,9730 Schreiber Ter N,BROOKLYN PARK,MN,55445-2669,7633547688.0,"https://www.google.com/maps/place/Jet's+Pizza/@45.1334648,-93.3581311,17z/data=!3m1!4b1!4m5!3m4!1s0x52b33a2a38dbf13d:0xf4d07be657eec732!8m2!3d45.1334648!4d-93.3581311",jets_pizza,
Jet's Pizza,2965 Fort Campbell Blvd,CLARKSVILLE,TN,37042-0401,9314310002.0,"https://www.google.com/maps/place/Jet's+Pizza/@36.6285678,-87.4329397,17z/data=!3m1!4b1!4m5!3m4!1s0x886529091a373fd3:0x8c369b5d1aa95665!8m2!3d36.6285678!4d-87.4329397",jets_pizza,
Jet's Pizza,1919 Gallatin Pike N,MADISON,TN,37115-2064,6154486276.0,"https://www.google.com/maps/place/Jet's+Pizza/@36.2080736,-86.9257534,10z/data=!4m8!1m2!2m1!1sJet's+Pizza+1919+Gallatin+Pike+N+MADISON+TN+37115-2064!3m4!1s0x88644386c2080e37:0x4c3993ef21341e10!8m2!3d36.2999673!4d-86.6950575?hl=en",jets_pizza,
Jet's Pizza,3325 Memorial Blvd,MURFREESBORO,TN,37129-0221,6158965550.0,"https://www.google.com/maps/place/Jet's+Pizza/@35.9074208,-86.3842849,17z/data=!3m1!4b1!4m5!3m4!1s0x886406538349bd41:0x7126a8c84f9c69b2!8m2!3d35.9074208!4d-86.3842849",jets_pizza,
Jet's Pizza,2309 Essington Rd,JOLIET,IL,60435-1707,8155775387.0,"https://www.google.com/maps/place/Jet's+Pizza/@41.5648008,-88.1625555,17z/data=!3m1!4b1!4m5!3m4!1s0x880e60224eb060ad:0xdee9c51dc407cd6f!8m2!3d41.5648008!4d-88.1625555",jets_pizza,
Jet's Pizza,5325 Park Forest Pkwy,NORTH CHARLESTON,SC,29418-2753,8435520311.0,"https://www.google.com/maps/place/Jet's+Pizza/@32.912286,-80.1084745,17z/data=!3m1!4b1!4m5!3m4!1s0x88fe89d2bc361f93:0x3a4cc3fc79958f3f!8m2!3d32.912286!4d-80.1084745",jets_pizza,
Jet's Pizza,17101 88th Ave,TINLEY PARK,IL,60487-7652,7082630150.0,"https://www.google.com/maps/place/Jet's+Pizza/@41.5794442,-87.8318746,17z/data=!3m1!4b1!4m5!3m4!1s0x880e1561b697ee4b:0x73d35cd1d75eba44!8m2!3d41.5794442!4d-87.8318746",jets_pizza,
Jet's Pizza,4402 Princess Anne Rd,VIRGINIA BEACH,VA,23462-7908,7574674700.0,"https://www.google.com/maps/place/Jet's+Pizza/@36.8009494,-76.1294677,17z/data=!3m1!4b1!4m5!3m4!1s0x89babfb57ba8ff1b:0xcc71da871ff721be!8m2!3d36.8009494!4d-76.1294677",jets_pizza,
Jet's Pizza,5825 Maplecrest Rd,FORT WAYNE,IN,46835-3866,2604858550.0,"https://www.google.com/maps/place/Jet's+Pizza/@41.1342654,-85.0629061,17z/data=!3m1!4b1!4m5!3m4!1s0x8815fc54df1526eb:0xd4440ea354530a9!8m2!3d41.1342654!4d-85.0629061",jets_pizza,
Jet's Pizza,7538 N Shadeland Ave,INDIANAPOLIS,IN,46250-2066,3175774538.0,"https://www.google.com/maps/place/Jet's+Pizza/@39.8917551,-86.0467656,17z/data=!3m1!4b1!4m5!3m4!1s0x886b4ce71105debf:0x25b450a778240732!8m2!3d39.8917551!4d-86.0467656",jets_pizza,
Jet's Pizza,101 Sand Lake Dr,LEXINGTON,KY,40515-1442,8593355387.0,"https://www.google.com/maps/place/Jet's+Pizza/@37.9994196,-84.4451542,17z/data=!3m1!4b1!4m5!3m4!1s0x88425aa3c7665b03:0xa2d8ff846f09699e!8m2!3d37.9994196!4d-84.4451542",jets_pizza,
Jet's Pizza,12536 Olive Blvd,CREVE COEUR,MO,63141-6391,3145482585.0,"https://www.google.com/maps/place/Jet's+Pizza/@38.6757312,-90.4646943,17z/data=!3m1!4b1!4m5!3m4!1s0x87df2d6bd32cac9f:0x8fbf442133816945!8m2!3d38.6757312!4d-90.4646943",jets_pizza,
Jet's Pizza,8700 Pineville Matthews Rd,CHARLOTTE,NC,28226-4750,7045447227.0,"https://www.google.com/maps/place/Jet's+Pizza/@35.0899703,-80.8656696,17z/data=!3m1!4b1!4m5!3m4!1s0x88569cf7f2ee3bd5:0xaa21ef85cd79cd6e!8m2!3d35.0899703!4d-80.8656696",jets_pizza,
Jet's Pizza,3534 Murfreesboro Pike,ANTIOCH,TN,37013-2584,6156415333.0,"https://www.google.com/maps/place/Jet's+Pizza/@36.0526084,-86.614312,17z/data=!3m1!4b1!4m5!3m4!1s0x88646d776055cc71:0xbad1a3e3e21353b8!8m2!3d36.0526084!4d-86.614312",jets_pizza,
Jet's Pizza,7780 US Highway 64,BARTLETT,TN,38133-4065,9013835387.0,"https://www.google.com/maps/place/Jet's+Pizza/@35.2052444,-89.8059577,17z/data=!3m1!5s0x887f9d8f1ab2ced7:0xf05d9b8bbf6cd463!4m5!3m4!1s0x887f9d8558aba31f:0x9a1160d3525ec1e9!8m2!3d35.20524!4d-89.803769?hl=en",jets_pizza,
Jet's Pizza,1849 Madison St,CLARKSVILLE,TN,37043-4903,9316472000.0,"https://www.google.com/maps/place/Jet's+Pizza/@36.5146547,-87.3059967,17z/data=!3m1!4b1!4m5!3m4!1s0x8864d94a073ff18d:0x52b93a1a63667038!8m2!3d36.5146547!4d-87.3059967",jets_pizza,
Jet's Pizza,406 Oil Well Rd,JACKSON,TN,38305-7352,7313004555.0,"https://www.google.com/maps/place/Jet's+Pizza/@35.6893166,-88.8606368,17z/data=!3m1!4b1!4m5!3m4!1s0x887ea680cfb4a53f:0xf16e89fac6595081!8m2!3d35.6893166!4d-88.8606368",jets_pizza,
Jet's Pizza,8509 Davis Blvd,NORTH RICHLAND HILLS,TX,76182-7693,8172815387.0,"https://www.google.com/maps/place/Jet%E2%80%99s+Pizza/@32.906773,-97.192507,17z/data=!3m1!4b1!4m5!3m4!1s0x864dd66579aa1621:0x5d1cfaa16729801!8m2!3d32.906773!4d-97.192507",jets_pizza,
Jet's Pizza,20079 Stone Oak Pkwy,SAN ANTONIO,TX,78258-6942,2104971900.0,"https://www.google.com/maps/place/Jet's+Pizza/@29.6428847,-98.4892086,17z/data=!3m1!4b1!4m5!3m4!1s0x865c62773ec4dc85:0x2d2b52ccb011ae2a!8m2!3d29.6428847!4d-98.4892086",jets_pizza,
Jet's Pizza,16376 26 Mile Rd,MACOMB,MI,48042-1057,5866771100.0,"https://www.google.com/maps/place/Jet's+Pizza/@42.7145392,-82.9614316,17z/data=!3m1!4b1!4m5!3m4!1s0x8824e1658a7f4933:0x5c0d12b53c7957d1!8m2!3d42.7145392!4d-82.9614316",jets_pizza,
Jet's Pizza,19 7th Ave S,SAINT CLOUD,MN,56301-4259,3202305387.0,"https://www.google.com/maps/place/Jet's+Pizza/@45.5594309,-94.160178,17z/data=!3m1!4b1!4m5!3m4!1s0x52b4607f664a1f99:0x7c85de6fd5ac17b5!8m2!3d45.5594309!4d-94.160178",jets_pizza,
Jet's Pizza,4401 Shallowford Rd,ROSWELL,GA,30075-3175,7706499950.0,"https://www.google.com/maps/place/Jet's+Pizza/@34.0277202,-84.4232314,17z/data=!3m1!4b1!4m5!3m4!1s0x88f572b4da4f0a3d:0x4019ad2f6e680179!8m2!3d34.0277202!4d-84.4232314",jets_pizza,
Jet's Pizza,3600 Dallas Hwy SW,MARIETTA,GA,30064-1675,7707925700.0,"https://www.google.com/maps/place/Jet's+Pizza/@33.9550369,-84.6554518,17z/data=!3m1!4b1!4m5!3m4!1s0x88f53e8462606add:0x4c2b919c66ee4500!8m2!3d33.9550369!4d-84.6554518",jets_pizza,
Jet's Pizza,5976 Meijer Dr,MILFORD,OH,45150-2191,5132480918.0,"https://www.google.com/maps/place/Jet's+Pizza/@39.1945662,-84.2392994,17z/data=!3m1!4b1!4m5!3m4!1s0x8840ffc60e61c165:0xb4c7adcc5f3b083!8m2!3d39.1945662!4d-84.2392994",jets_pizza,
Jet's Pizza,6523 Bardstown Rd,FERN CREEK,KY,40291-3042,5022390000.0,"https://www.google.com/maps/place/Jet's+Pizza/@38.1514672,-85.5874225,17z/data=!3m1!4b1!4m5!3m4!1s0x8869a0b36e4d52ed:0xa226219048e8ddac!8m2!3d38.1514672!4d-85.5874225",jets_pizza,
Jet's Pizza,101 S Hubbards Ln,SAINT MATTHEWS,KY,40207-3937,5028954655.0,"https://www.google.com/maps/place/Jet's+Pizza/@38.251138,-85.639739,17z/data=!3m1!4b1!4m5!3m4!1s0x886975213354a80f:0x79a2434413384e6e!8m2!3d38.251138!4d-85.639739",jets_pizza,
Jet's Pizza,4497 Forest Park Ave,SAINT LOUIS,MO,63108-2211,3144491118.0,"https://www.google.com/maps/place/Jet's+Pizza/@38.618181,-90.3107314,13z/data=!4m8!1m2!2m1!1sJet's+Pizza+4497+Forest+Park+Ave+SAINT+LOUIS+MO+63108-2211!3m4!1s0x87d8b4d91376b5d9:0xee32611c3dc8c1cf!8m2!3d38.6388277!4d-90.2589876?hl=en",jets_pizza,
Jet's Pizza,234 W Lockwood Ave,WEBSTER GROVES,MO,63119-2309,3146955320.0,"https://www.google.com/maps/place/Jet's+Pizza/@38.5931197,-90.3624979,17z/data=!3m1!4b1!4m5!3m4!1s0x87d8cb93bbf409fd:0xf4c4dd419731449a!8m2!3d38.5931197!4d-90.3624979",jets_pizza,
Jet's Pizza,123 Trade Ct,MOORESVILLE,NC,28117-5542,7046600905.0,"https://www.google.com/maps/place/Jet's+Pizza/@35.5537705,-80.855562,17z/data=!3m1!4b1!4m5!3m4!1s0x8856ab27a051ffbf:0x12e2c000543a06fd!8m2!3d35.5537705!4d-80.855562",jets_pizza,
Jet's Pizza,1601 E Debbie Ln,MANSFIELD,TX,76063-3674,8174535387.0,"https://www.google.com/maps/place/Jet's+Pizza/@32.6090459,-97.110678,17z/data=!3m1!4b1!4m5!3m4!1s0x864e621e49549ded:0xd5859f0a39a2c0b2!8m2!3d32.6090459!4d-97.110678",jets_pizza,
Jet's Pizza,1925 W Washington St,GREENVILLE,MI,48838-8272,6162258655.0,"https://www.google.com/maps/place/Jet's+Pizza/@43.17657,-85.286018,17z/data=!3m1!4b1!4m5!3m4!1s0x8818f339d5c3efcb:0x19d530adda928912!8m2!3d43.17657!4d-85.286018",jets_pizza,
Jet's Pizza,415 17th Ave N,HOPKINS,MN,55343-7224,9524001580.0,"https://www.google.com/maps/place/Jet's+Pizza/@44.9320052,-93.4207409,17z/data=!3m1!4b1!4m5!3m4!1s0x87f61ff56d339d9f:0x558d3a40e9c0382c!8m2!3d44.9320052!4d-93.4207409",jets_pizza,
Jet's Pizza,9853 Tamiami Trl N,NAPLES,FL,34108-1909,2395924369.0,"https://www.google.com/maps/place/Jet's+Pizza+(North+Naples)/@26.261033,-81.801956,17z/data=!3m1!4b1!4m5!3m4!1s0x88db1ec0b85d66ef:0x908efc228381d2ac!8m2!3d26.261033!4d-81.801956",jets_pizza,
Jet's Pizza,2695 Sugarloaf Pkwy,LAWRENCEVILLE,GA,30045-9456,7702370006.0,"https://www.google.com/maps/place/Jet's+Pizza/@33.917599,-83.9986849,17z/data=!3m1!4b1!4m5!3m4!1s0x88f5b94b2071d63b:0xa4bf1563dcc7d9ca!8m2!3d33.917599!4d-83.9986849",jets_pizza,
Jet's Pizza,201 Clint Dr,PICKERINGTON,OH,43147-7869,6147510800.0,"https://www.google.com/maps/place/Jet's+Pizza/@39.9210297,-82.7819427,17z/data=!3m1!4b1!4m5!3m4!1s0x883864d4b3ec8a49:0x632786ad1008338!8m2!3d39.9210297!4d-82.7819427",jets_pizza,
Jet's Pizza,1111 E Johnson St,FOND DU LAC,WI,54935-8925,9209225387.0,"https://www.google.com/maps/place/Jet's+Pizza/@43.78486,-88.4046388,17z/data=!3m1!4b1!4m5!3m4!1s0x88038a08bc22e44f:0xa80d154a57baeb81!8m2!3d43.78486!4d-88.4046388",jets_pizza,
Jet's Pizza,1810 Dormont Ave,PITTSBURGH,PA,15216-1847,4123439400.0,"https://www.google.com/maps/place/Jet's+Pizza/@40.3984734,-80.0443076,17z/data=!3m1!4b1!4m5!3m4!1s0x8834f7056dcdc42b:0xf483f06e845b3d5!8m2!3d40.3984734!4d-80.0443076",jets_pizza,
Jet's Pizza,2001 Cross Timbers Rd,FLOWER MOUND,TX,75028-2760,9722215387.0,"https://www.google.com/maps/place/Jet's+Pizza/@33.03393,-97.05845,17z/data=!3m1!4b1!4m5!3m4!1s0x864c2d0da8370c63:0xa63464bf60a5cbc2!8m2!3d33.03393!4d-97.05845",jets_pizza,
Jet's Pizza,24225 Kuykendahl Rd,TOMBALL,TX,77375-5330,2819424520.0,"https://www.google.com/maps/place/Jet's+Pizza/@30.112683,-95.555011,17z/data=!3m1!4b1!4m5!3m4!1s0x8647320cf7e949b3:0x7c7868ea82d3d549!8m2!3d30.112683!4d-95.555011",jets_pizza,
Jet's Pizza,2708 Pearland Pkwy,PEARLAND,TX,77581-5351,2814859700.0,"https://www.google.com/maps/place/Jet's+Pizza/@29.5584944,-95.2663846,17z/data=!3m1!5s0x864090e343e987b5:0xe52d7ca72e3c3bee!4m5!3m4!1s0x864090e336c52bb9:0x9c3d2d10dabb373f!8m2!3d29.5584898!4d-95.2641959?hl=en",jets_pizza,
Jet's Pizza,2849 E New York St,AURORA,IL,60502-9016,6309788500.0,"https://www.google.com/maps/place/Jet's+Pizza/@41.758607,-88.245026,17z/data=!3m1!4b1!4m5!3m4!1s0x880ef9f7c04de661:0x4a8aaac041a3746!8m2!3d41.758607!4d-88.245026",jets_pizza,
Jet's Pizza,4730 Chace Cir,HOOVER,AL,35244-3703,2055829798.0,"https://www.google.com/maps/place/Jet's+Pizza/@33.3687771,-86.80199,17z/data=!4m5!3m4!1s0x888922472ed59ce7:0x75d1f96895c8ec17!8m2!3d33.3687726!4d-86.7998013?hl=en",jets_pizza,
Jet's Pizza,5132 Delhi Ave,CINCINNATI,OH,45238-5391,5139222000.0,"https://www.google.com/maps/place/Jet's+Pizza/@39.0951755,-84.6143638,17z/data=!3m1!4b1!4m5!3m4!1s0x8841c9e651a77f3b:0x350909a65cc0f250!8m2!3d39.0951755!4d-84.6143638",jets_pizza,
Jet's Pizza,6241 Troy Pike,HUBER HEIGHTS,OH,45424-3646,9372364444.0,"https://www.google.com/maps/place/Jet's+Pizza/@39.8460037,-84.1399946,17z/data=!3m1!4b1!4m5!3m4!1s0x883f7d773df57341:0xdc4853f7d5177d5!8m2!3d39.8460037!4d-84.1399946",jets_pizza,
Jet's Pizza,643 Cape Coral Pkwy E,CAPE CORAL,FL,33904-8549,2392573270.0,"https://www.google.com/maps/place/Jet's+Pizza+Cape+Coral+Pkwy/@26.5630627,-81.959546,17z/data=!3m1!4b1!4m5!3m4!1s0x88db38aeba7e0a2b:0x906e79b49cc0a2bb!8m2!3d26.5630627!4d-81.959546",jets_pizza,
Jet's Pizza,6615 Roswell Rd,SANDY SPRINGS,GA,30328-3190,4042570222.0,"https://www.google.com/maps/place/Jet's+Pizza/@33.9352464,-84.3809917,17z/data=!3m1!5s0x88f50e9fd38100c5:0x7edf0a3a0b817515!4m5!3m4!1s0x88f50e9e3b7615b1:0x288f6f40d38eb84d!8m2!3d33.935242!4d-84.378803?hl=en",jets_pizza,
Jet's Pizza,721 Gallatin Ave,NASHVILLE,TN,37206-3226,6152625051.0,"https://www.google.com/maps/place/Jet's+Pizza/@36.1851576,-86.747395,17z/data=!3m1!4b1!4m5!3m4!1s0x886467d0c7ee8ce1:0x89be8ff1151a3147!8m2!3d36.1851576!4d-86.747395",jets_pizza,
Jet's Pizza,7737 Flying Cloud Dr,EDEN PRAIRIE,MN,55344-3708,9523560600.0,"https://www.google.com/maps/place/Jet's+Pizza/@44.8641923,-93.4215392,17z/data=!3m1!4b1!4m5!3m4!1s0x87f618a7d7b81981:0x4feeeb6dee467753!8m2!3d44.8641923!4d-93.4215392",jets_pizza,
Jet's Pizza,3004 Wake Forest Rd,RALEIGH,NC,27609-7874,9198778660.0,"https://www.google.com/maps/place/Jet's+Pizza/@35.8225186,-78.6203764,17z/data=!3m1!4b1!4m5!3m4!1s0x89ac58db2c88cc65:0x6f498ed676f7233d!8m2!3d35.8225186!4d-78.6203764",jets_pizza,
Jet's Pizza,558 S Hunt Club Blvd,APOPKA,FL,32703-4960,3212032675.0,"https://www.google.com/maps/place/Jet's+Pizza/@28.6707998,-81.4510595,17z/data=!3m1!4b1!4m5!3m4!1s0x88e776a2a8d8a6c5:0xa2157a10b8ac2219!8m2!3d28.6707998!4d-81.4510595",jets_pizza,
Jet's Pizza,207 W Superior St,CHICAGO,IL,60654-3507,3124652280.0,"https://www.google.com/maps/place/Jet's+Pizza/@41.895465,-87.6346894,17z/data=!3m1!4b1!4m5!3m4!1s0x880e2cb4bb1480a9:0xd785ecf047d2f8a0!8m2!3d41.895465!4d-87.6346894",jets_pizza,
Jet's Pizza,8903 Glades Rd,BOCA RATON,FL,33434-4074,5618525700.0,"https://www.google.com/maps/place/Jet's+Pizza/@26.368758,-80.183978,17z/data=!3m1!4b1!4m5!3m4!1s0x88d91eab7b0f5453:0x95e64aa6690b8822!8m2!3d26.368758!4d-80.183978",jets_pizza,
Jet's Pizza,9835 W Sample Rd,CORAL SPRINGS,FL,33065-4005,9543409999.0,"https://www.google.com/maps/place/Jet's+Pizza/@26.2729147,-80.2575811,17z/data=!3m1!4b1!4m5!3m4!1s0x88d9054bb23ff2db:0x273fd5756fd22aa6!8m2!3d26.2729147!4d-80.2575811",jets_pizza,
Jet's Pizza,1204 Royal Palm Beach Blvd,ROYAL PALM BEACH,FL,33411-1672,5615135387.0,"https://www.google.com/maps/place/Jet's+Pizza/@26.7083294,-80.2274388,17z/data=!3m1!4b1!4m5!3m4!1s0x88d92ef709571e1b:0x6b93fd4daadea2c1!8m2!3d26.7083294!4d-80.2274388",jets_pizza,
Jet's Pizza,1805 N Harlem Ave,CHICAGO,IL,60707-3716,7736375387.0,"https://www.google.com/maps/place/Jet's+Pizza/@41.912799,-87.805241,17z/data=!3m1!4b1!4m5!3m4!1s0x880fcb24b33790cf:0xf46358e2de544613!8m2!3d41.912799!4d-87.805241",jets_pizza,
Jet's Pizza,2165 Delaware Ave,BUFFALO,NY,14216-3211,7168776700.0,"https://www.google.com/maps/place/Jet's+Pizza/@42.9431392,-78.8676809,17z/data=!3m1!4b1!4m5!3m4!1s0x89d36d339db1553b:0x3ad156c4c33d599e!8m2!3d42.9431392!4d-78.8676809",jets_pizza,
Jet's Pizza,5344 Pearl Rd,PARMA,OH,44129-1548,4408882100.0,"https://www.google.com/maps/place/Jet's+Pizza/@41.415641,-81.731933,17z/data=!3m1!4b1!4m5!3m4!1s0x8830ef03036a6d59:0x4aff025725089360!8m2!3d41.415641!4d-81.731933",jets_pizza,
Jet's Pizza,2411 Coit Rd,PLANO,TX,75075-3750,4695544820.0,"https://www.google.com/maps/place/Jet's+Pizza/@33.0313863,-96.7706534,17z/data=!3m1!4b1!4m5!3m4!1s0x864c228ab312a26b:0x508b9b8f76a52152!8m2!3d33.0313863!4d-96.7706534",jets_pizza,
Jet's Pizza,1298 Anna J Stepp Dr,YPSILANTI,MI,48197-8442,7344841900.0,"https://www.google.com/maps/place/Jet's+Pizza/@42.2237622,-83.6201342,17z/data=!3m1!4b1!4m5!3m4!1s0x883ca8fa045221d9:0x9a64c3df1b7beee6!8m2!3d42.2237622!4d-83.6201342",jets_pizza,
Jet's Pizza,7035 Yankee Rd,LIBERTY TOWNSHP,OH,45069,5137770666.0,"https://www.google.com/maps/place/Jet's+Pizza/@39.3760301,-84.3819519,17z/data=!3m1!4b1!4m5!3m4!1s0x88405a69d6469b21:0xa8e30600e66355e3!8m2!3d39.3760301!4d-84.3819519",jets_pizza,
Jet's Pizza,4238 Pontiac Lake Rd,WATERFORD,MI,48328-1262,2486741700.0,"https://www.google.com/maps/place/Jet's+Pizza/@42.6555556,-83.3713889,17z/data=!3m1!4b1!4m5!3m4!1s0x8824bd985471c043:0x40d4911363fefb82!8m2!3d42.6555556!4d-83.3713889",jets_pizza,
Jet's Pizza,5308 Dixie Hwy,WATERFORD,MI,48329-1611,2486238727.0,"https://www.google.com/maps/place/Jet's+Pizza/@42.6967494,-83.3933849,17z/data=!3m1!4b1!4m5!3m4!1s0x882497b9239c22c3:0x8ba3d8166ef6529a!8m2!3d42.6967494!4d-83.3933849",jets_pizza,
Jet's Pizza,64860 Van Dyke Rd,WASHINGTON TOWNSHIP,MI,48095-2835,5867526200.0,"https://www.google.com/maps/place/Jet's+Pizza/@42.771628,-83.016284,17z/data=!3m1!4b1!4m5!3m4!1s0x8824e4f44661d4ff:0x49d509669a764d3c!8m2!3d42.771628!4d-83.016284",jets_pizza,
Jet's Pizza,22912 Ryan Rd,WARREN,MI,48091-5711,5867587733.0,"https://www.google.com/maps/place/Jet's+Pizza/@42.4609624,-83.0640147,17z/data=!3m1!4b1!4m5!3m4!1s0x8824d033a2e9f559:0xcb3503b71575c08c!8m2!3d42.4609624!4d-83.0640147",jets_pizza,
Jet's Pizza,29202 Ryan Rd,WARREN,MI,48092-4242,5865588588.0,"https://www.google.com/maps/place/Jet's+Pizza/@42.5071779,-83.0668731,17z/data=!3m1!4b1!4m5!3m4!1s0x8824daa545a9aabf:0xbed975e36c58f443!8m2!3d42.5071779!4d-83.0668731",jets_pizza,
Jet's Pizza,2031 West Rd,TRENTON,MI,48183-3611,7346715387.0,"https://www.google.com/maps/place/Jet's+Pizza/@42.14109,-83.193009,17z/data=!3m1!4b1!4m5!3m4!1s0x883b391197fd40e9:0xd7d83e3b3686886a!8m2!3d42.14109!4d-83.193009",jets_pizza,
Jet's Pizza,5392 Monroe St,TOLEDO,OH,43623-2849,4198417700.0,"https://www.google.com/maps/place/Jet's+Pizza/@41.704665,-83.659786,17z/data=!3m1!4b1!4m5!3m4!1s0x883c7e8a0d1e91b5:0x2a3038c3d6472d40!8m2!3d41.704665!4d-83.659786",jets_pizza,
Jet's Pizza,13450 15 Mile Rd,STERLING HEIGHTS,MI,48312-4213,5868263900.0,"https://www.google.com/maps/place/Jet's+Pizza/@42.5515272,-82.9910596,17z/data=!3m1!4b1!4m5!3m4!1s0x8824d95fd8274549:0x4123b31bae9df319!8m2!3d42.5515272!4d-82.9910596",jets_pizza,
Jet's Pizza,30114 Harper Ave,SAINT CLAIR SHORES,MI,48082-1689,5864150990.0,"https://www.google.com/maps/place/Jet's+Pizza/@42.5150723,-82.8980228,17z/data=!3m1!4b1!4m5!3m4!1s0x8825278f988ae691:0x8fd6296f6afc330d!8m2!3d42.5150723!4d-82.8980228",jets_pizza,
Jet's Pizza,21955 Pontiac Trl,SOUTH LYON,MI,48178-8727,2484461400.0,"https://www.google.com/maps/place/Jet's+Pizza/@42.4421871,-83.6513249,17z/data=!3m1!4b1!4m5!3m4!1s0x8823543b706e35c9:0xa972b489a4bd32a6!8m2!3d42.4421871!4d-83.6513249",jets_pizza,
Jet's Pizza,46370 Van Dyke Ave,SHELBY TOWNSHIP,MI,48317-4473,5867313700.0,"https://www.google.com/maps/place/Jet's+Pizza/@42.6361682,-83.0317737,17z/data=!3m1!4b1!4m5!3m4!1s0x8824dd9ef2aa76b1:0x68171e45c1ddac13!8m2!3d42.6361682!4d-83.0317737",jets_pizza,
Jet's Pizza,55125 Shelby Rd,SHELBY TOWNSHIP,MI,48316-1148,2486562920.0,"https://www.google.com/maps/place/Jet's+Pizza/@42.6981114,-83.0709121,17z/data=!3m1!4b1!4m5!3m4!1s0x8824e62e74ab76cd:0x831c3669c37a240a!8m2!3d42.6981114!4d-83.0709121",jets_pizza,
Jet's Pizza,1847 W Irving Park Rd,SCHAUMBURG,IL,60193-3509,8478916900.0,"https://www.google.com/maps/place/Jet's+Pizza/@42.0017257,-88.1257618,17z/data=!3m1!4b1!4m5!3m4!1s0x880fa974e8b5908d:0xa12c4404f9591594!8m2!3d42.0017257!4d-88.1257618",jets_pizza,
Jet's Pizza,901 Nordic Dr,WHITE LAKE,MI,48383-2445,2488890011.0,"https://www.google.com/maps/place/Jet's+Pizza/@42.6495533,-83.525022,17z/data=!3m1!4b1!4m5!3m4!1s0x8824a199a6631df1:0x23ed40e11773934f!8m2!3d42.6495533!4d-83.525022",jets_pizza,
Jet's Pizza,4482 Lake Michigan Dr NW,WALKER,MI,49534-6304,6167911777.0,"https://www.google.com/maps/place/Jet's+Pizza/@42.9716347,-85.7784952,17z/data=!3m1!4b1!4m5!3m4!1s0x8819a570473dd1b5:0x2ad9143749b20de4!8m2!3d42.9716347!4d-85.7784952",jets_pizza,
Jet's Pizza,5102 Rochester Rd,TROY,MI,48085-3454,2485281800.0,"https://www.google.com/maps/place/Jet's+Pizza/@42.5938585,-83.1282842,17z/data=!3m1!4b1!4m5!3m4!1s0x8824c39bc443902b:0x6572ab658f082f67!8m2!3d42.5938585!4d-83.1282842",jets_pizza,
Jet's Pizza,2922 Niles Ave,SAINT JOSEPH,MI,49085-2418,2699850085.0,"https://www.google.com/maps/place/Jet's+Pizza/@42.0826794,-86.4858639,17z/data=!3m1!4b1!4m5!3m4!1s0x8810c46c910c6e9f:0xaf27144f80e0a20e!8m2!3d42.0826794!4d-86.4858639",jets_pizza,
Jet's Pizza,1315 S Riverside Ave,SAINT CLAIR,MI,48079-5173,8103294950.0,"https://www.google.com/maps/place/Jet's+Pizza/@42.815749,-82.486517,17z/data=!3m1!4b1!4m5!3m4!1s0x882573cd8cc4b663:0x448a159bf8030e1!8m2!3d42.815749!4d-82.486517",jets_pizza,
Jet's Pizza,539 Almaville Rd,SMYRNA,TN,37167-4264,6152231028.0,"https://www.google.com/maps/place/Jet's/@35.941891,-86.528169,17z/data=!3m1!4b1!4m5!3m4!1s0x88640b8fdb0997b5:0x45c1a72ec9b2bf00!8m2!3d35.941891!4d-86.528169",jets_pizza,
Jet's Pizza,2128 Auburn Rd,SHELBY TOWNSHIP,MI,48317-3805,5867397490.0,"https://www.google.com/maps/place/Jet's+Pizza/@42.638488,-83.089477,17z/data=!3m1!4b1!4m5!3m4!1s0x8824c2b77a3a8577:0x2ff8ffc2f3063431!8m2!3d42.638488!4d-83.089477",jets_pizza,
Jet's Pizza,66755 Gratiot Ave,RICHMOND,MI,48062-1909,5867278400.0,"https://www.google.com/maps/place/Jet's+Pizza/@42.7941839,-82.7393607,17z/data=!4m5!3m4!1s0x882505548b250141:0xc2f1a827eb44197b!8m2!3d42.79418!4d-82.737172?hl=en",jets_pizza,
Jet's Pizza,15450 N Haggerty Rd,PLYMOUTH,MI,48170-4893,7344209756.0,"https://www.google.com/maps/place/Jet's+Pizza/@42.3971198,-83.4371467,17z/data=!3m1!4b1!4m5!3m4!1s0x883b533129fbac5b:0xd3e55abedc65b5b0!8m2!3d42.3971198!4d-83.4371467",jets_pizza,
Jet's Pizza,47273 Five Mile Rd,PLYMOUTH,MI,48170-3764,7344149800.0,"https://www.google.com/maps/place/Jet's+Pizza%C2%AE/@42.3935786,-83.5086725,17z/data=!3m1!4b1!4m5!3m4!1s0x8824ab63af6be353:0x2144d5bd0f656b34!8m2!3d42.3935786!4d-83.5086725",jets_pizza,
Jet's Pizza,9646 Chilson Cmns,PINCKNEY,MI,48169-9599,8102315500.0,"https://www.google.com/maps/place/Jet's+Pizza/@42.4621868,-83.8317185,17z/data=!3m1!4b1!4m5!3m4!1s0x8823493156b20a61:0x25cfe20e686937e!8m2!3d42.4621868!4d-83.8317185",jets_pizza,
Jet's Pizza,1257 N Peachtree Pkwy,PEACHTREE CITY,GA,30269-1743,7706328559.0,"https://www.google.com/maps/place/Jet's+Pizza/@33.4385131,-84.5910291,17z/data=!3m1!4b1!4m5!3m4!1s0x88f4e9c5ccc72955:0x40786e67588793cd!8m2!3d33.4385131!4d-84.5910291",jets_pizza,
Jet's Pizza,1669 E M 21,OWOSSO,MI,48867-9053,9897234100.0,"https://www.google.com/maps/place/Jet's+Pizza/@42.9995899,-84.1361935,17z/data=!3m1!4b1!4m5!3m4!1s0x882307a67921abbb:0xd3d58dbebc5a16c4!8m2!3d42.9995899!4d-84.1361935",jets_pizza,
Jet's Pizza,3344 S Route 59,NAPERVILLE,IL,60564-8143,6309047777.0,"https://www.google.com/maps/place/Jet's+Pizza/@41.7040662,-88.2047583,17z/data=!3m1!4b1!4m5!3m4!1s0x880ef655b32bfacd:0xd52ae3863fa0aaf2!8m2!3d41.7040662!4d-88.2047583",jets_pizza,
Jet's Pizza,2308 S Mission St,MOUNT PLEASANT,MI,48858-4433,9894004440.0,"https://www.google.com/maps/place/Jet's+Pizza/@43.579902,-84.768331,17z/data=!3m1!4b1!4m5!3m4!1s0x88221b496fe92d19:0x7eb1f3c18cd90067!8m2!3d43.579902!4d-84.768331",jets_pizza,
Jet's Pizza,950 W Norton Ave,MUSKEGON,MI,49441-4182,2317330101.0,"https://www.google.com/maps/place/Jet's+Pizza/@43.1914626,-86.266297,17z/data=!3m1!4b1!4m5!3m4!1s0x881bd5e2adfd00c9:0xa9d56c5bf78440ca!8m2!3d43.1914626!4d-86.266297",jets_pizza,
Jet's Pizza,1425 N Rochester Rd,ROCHESTER HILLS,MI,48307-1121,2486502900.0,"https://www.google.com/maps/place/Jet's+Pizza/@42.6937569,-83.1350927,17z/data=!3m1!4b1!4m5!3m4!1s0x8824e9a5df7151e7:0xd63f81bf81394051!8m2!3d42.6937569!4d-83.1350927",jets_pizza,
Jet's Pizza,631 Romence Rd,PORTAGE,MI,49024-3446,2693290528.0,"https://www.google.com/maps/place/Jet's+Pizza/@42.2136355,-85.5964029,17z/data=!3m1!4b1!4m5!3m4!1s0x88179e1e982f4b83:0xec12ba8c26cec519!8m2!3d42.2136355!4d-85.5964029",jets_pizza,
Jet's Pizza,2844 Pine Grove Ave,PORT HURON,MI,48060-1971,8109855559.0,"https://www.google.com/maps/place/Jet's+Pizza/@43.0050975,-82.4407062,17z/data=!3m1!4b1!4m5!3m4!1s0x88259b87c99e6b61:0xaa2e2ce527b0a0a1!8m2!3d43.0050975!4d-82.4407062",jets_pizza,
Jet's Pizza,1345 24th St,PORT HURON,MI,48060-4803,8109660705.0,"https://www.google.com/maps/place/Jet's+Pizza/@42.968349,-82.452887,17z/data=!3m1!4b1!4m5!3m4!1s0x88259c4a6cc3a163:0x3c2a74742dcc1dac!8m2!3d42.968349!4d-82.452887",jets_pizza,
Jet's Pizza,44473 Ann Arbor Rd W,PLYMOUTH,MI,48170-3907,7344165385.0,"https://www.google.com/maps/place/Jet's+Pizza/@42.3571588,-83.480518,17z/data=!3m1!4b1!4m5!3m4!1s0x8824acc94ec143c9:0x92615364ce59d228!8m2!3d42.3571588!4d-83.480518",jets_pizza,
Jet's Pizza,302 W Mitchell St,PETOSKEY,MI,49770-2328,2314871600.0,"https://www.google.com/maps/place/Jet's+Pizza/@45.37425,-84.964383,17z/data=!3m1!4b1!4m5!3m4!1s0x4d4a84f4339de6cf:0xbf18b2a05509a977!8m2!3d45.37425!4d-84.964383",jets_pizza,
Jet's Pizza,33486 US Highway 19 N,PALM HARBOR,FL,34684-2638,7277720313.0,"https://www.google.com/maps/place/Jet's+Pizza/@28.0766783,-82.7399289,17z/data=!3m1!4b1!4m5!3m4!1s0x88c2f2813c5eb8b1:0xad0de76219fce34c!8m2!3d28.0766783!4d-82.7399289",jets_pizza,
Jet's Pizza,204 S Washington St,OXFORD,MI,48371-4977,2489695387.0,"https://www.google.com/maps/place/Jet's+Pizza/@42.8180268,-83.2570218,17z/data=!3m1!4b1!4m5!3m4!1s0x882492a809760e53:0x5144b5bba16235f2!8m2!3d42.8180268!4d-83.2570218",jets_pizza,
Jet's Pizza,1053 Novi Rd,NORTHVILLE,MI,48167-1174,2484495387.0,"https://www.google.com/maps/place/Jet's+Pizza/@42.443642,-83.474824,17z/data=!3m1!4b1!4m5!3m4!1s0x8824ac26222852f3:0xf3312402f7de19b3!8m2!3d42.443642!4d-83.474824",jets_pizza,
Jet's Pizza,4216 Winnetka Ave N,NEW HOPE,MN,55428-4925,7635374100.0,"https://www.google.com/maps/place/Jet's+Pizza/@45.0337162,-93.3796523,17z/data=!3m1!4b1!4m5!3m4!1s0x52b336856a52a9d5:0x9d9e12a767fcb36f!8m2!3d45.0337162!4d-93.3796523",jets_pizza,
Jet's Pizza,214 25th Ave N,NASHVILLE,TN,37203-1702,6153298600.0,"https://www.google.com/maps/place/Jet's+Pizza/@36.1485793,-86.8090499,17z/data=!3m1!4b1!4m5!3m4!1s0x886466bc0b9b84bb:0x9cb6928c719ff648!8m2!3d36.1485793!4d-86.8090499",jets_pizza,
Jet's Pizza,825 Michigan Ave,MARYSVILLE,MI,48040-2122,8103641538.0,"https://www.google.com/maps/place/Jet's+Pizza/@42.917877,-82.479656,17z/data=!3m1!4b1!4m5!3m4!1s0x882575e34e771925:0xd50df2bdba7047c1!8m2!3d42.917877!4d-82.479656",jets_pizza,
Jet's Pizza,16852 21 Mile Rd,MACOMB,MI,48044-2601,5864120040.0,"https://www.google.com/maps/place/Jet's+Pizza/@42.6417969,-82.9540544,17z/data=!3m1!4b1!4m5!3m4!1s0x8824de2c76805dc1:0x77b87d2903c8defc!8m2!3d42.6417969!4d-82.9540544",jets_pizza,
Jet's Pizza,29443 5 Mile Rd,LIVONIA,MI,48154-3709,7342669333.0,"https://www.google.com/maps/place/Jet's+Pizza/@42.3965644,-83.3355789,17z/data=!3m1!4b1!4m5!3m4!1s0x8824b380737abe29:0x18fa461bbfeb330d!8m2!3d42.3965644!4d-83.3355789",jets_pizza,
Jet's Pizza,1225 Summit St,LAPEER,MI,48446-3919,8106675387.0,"https://www.google.com/maps/place/Jet's+Pizza/@43.04497,-83.320507,17z/data=!3m1!4b1!4m5!3m4!1s0x88246146863afe73:0x8c038f0b7eaa7f0d!8m2!3d43.04497!4d-83.320507",jets_pizza,
Jet's Pizza,3009 Vine St,LANSING,MI,48912-4622,5173511100.0,"https://www.google.com/maps/place/Jet's+Pizza/@42.7364401,-84.5094075,17z/data=!3m1!4b1!4m5!3m4!1s0x8822e9e30cca8b2d:0x8db3ff4d87afe7b6!8m2!3d42.7364401!4d-84.5094075",jets_pizza,
Jet's Pizza,3234 S Florida Ave,LAKELAND,FL,33803-4564,8637090999.0,"https://www.google.com/maps/place/Jet's+Pizza/@28.0052944,-81.9565203,17z/data=!3m1!4b1!4m5!3m4!1s0x88dd39327c1c5ef9:0x18400c500f07cd65!8m2!3d28.0052944!4d-81.9565203",jets_pizza,
Jet's Pizza,1812 S Van Dyke Rd,IMLAY CITY,MI,48444,8107211015.0,"https://www.google.com/maps/place/Jet's+Pizza/@43.012343,-83.0723323,17z/data=!3m1!4b1!4m5!3m4!1s0x8824507988485a57:0x26a1ab515018e4bf!8m2!3d43.012343!4d-83.0723323",jets_pizza,
Jet's Pizza,5205 Old Hickory Blvd,HERMITAGE,TN,37076-2593,6158855387.0,"https://www.google.com/maps/place/Jet's+Pizza%C2%AE/@36.189865,-86.615964,17z/data=!3m1!4b1!4m5!3m4!1s0x88646af4754dbc8d:0xa43623105f2e02e!8m2!3d36.189865!4d-86.615964",jets_pizza,
Jet's Pizza,10035 Joseph Campau St,HAMTRAMCK,MI,48212-3221,3138755200.0,"https://www.google.com/maps/place/Jet's+Pizza/@42.3982442,-83.0589682,17z/data=!3m1!4b1!4m5!3m4!1s0x8824d26a9344bddb:0x58f5fcd3050c15e6!8m2!3d42.3982442!4d-83.0589682",jets_pizza,
Jet's Pizza,17646 Mack Ave,GROSSE POINTE,MI,48230-6232,3134179770.0,"https://www.google.com/maps/place/Jet's+Pizza/@42.4009431,-82.917727,17z/data=!3m1!4b1!4m5!3m4!1s0x8824d5faaa9bd465:0x343b823e0e7b9851!8m2!3d42.4009431!4d-82.917727",jets_pizza,
Jet's Pizza,5150 Northland Dr NE,GRAND RAPIDS,MI,49525-1081,6164472555.0,"https://www.google.com/maps/place/Jet's+Pizza/@43.0555168,-85.5790007,17z/data=!3m1!4b1!4m5!3m4!1s0x881855192bba920f:0x3abf080baeabb210!8m2!3d43.0555168!4d-85.5790007",jets_pizza,
Jet's Pizza,111 West St,GAYLORD,MI,49735-1921,9897319929.0,"https://www.google.com/maps/place/Jet's+Pizza/@45.027846,-84.686494,17z/data=!3m1!4b1!4m5!3m4!1s0x4d354f5e133a88f3:0xd9f828d67a4d214f!8m2!3d45.027846!4d-84.686494",jets_pizza,
Jet's Pizza,3400 Radio Rd,NAPLES,FL,34104-3720,2394345389.0,"https://www.google.com/maps/place/Jet's+Pizza/@26.1528325,-81.7655928,17z/data=!3m1!4b1!4m5!3m4!1s0x88dae23b10444d0d:0x20fc42c8a3a44fab!8m2!3d26.1528325!4d-81.7655928",jets_pizza,
Jet's Pizza,32630 7 Mile Rd,LIVONIA,MI,48152-1356,2484733999.0,"https://www.google.com/maps/place/Jet's+Pizza/@42.4267841,-83.3701376,17z/data=!3m1!4b1!4m5!3m4!1s0x8824b3cf90d6ca89:0xd55cf838cee2f6ba!8m2!3d42.4267841!4d-83.3701376",jets_pizza,
Jet's Pizza,3022 Fort St,LINCOLN PARK,MI,48146-2428,3133865387.0,"https://www.google.com/maps/place/Jet's+Pizza/@42.241665,-83.180745,17z/data=!3m1!4b1!4m5!3m4!1s0x883b36c4989d1835:0x60abd2ef57aabecf!8m2!3d42.241665!4d-83.180745",jets_pizza,
Jet's Pizza,1091 S Lapeer Rd,LAKE ORION,MI,48360-1429,2488147559.0,"https://www.google.com/maps/place/Jet's+Pizza/@42.7668449,-83.2382597,17z/data=!3m1!4b1!4m5!3m4!1s0x8824ecc8a5b6c40f:0xc1852653b3c399ce!8m2!3d42.7668449!4d-83.2382597",jets_pizza,
Jet's Pizza,1019 S Baldwin Rd,LAKE ORION,MI,48360-1045,2483913400.0,"https://www.google.com/maps/place/Jet's+Pizza/@42.764968,-83.313116,17z/data=!3m1!4b1!4m5!3m4!1s0x8824939514ab28f3:0x4981dd2949459b02!8m2!3d42.764968!4d-83.313116",jets_pizza,
Jet's Pizza,7331 Kingston Pike,KNOXVILLE,TN,37919-5608,8655660750.0,"https://www.google.com/maps/place/Jet's+Pizza/@35.9307064,-84.0310827,17z/data=!3m1!4b1!4m5!3m4!1s0x885c24ba75c98ec1:0xda2276e9c538ad09!8m2!3d35.9307064!4d-84.0310827",jets_pizza,
Jet's Pizza,6750 Kalamazoo Ave SE,KENTWOOD,MI,49508-7897,6166569700.0,"https://www.google.com/maps/place/Jet's+Pizza/@42.8417977,-85.6233258,17z/data=!3m1!4b1!4m5!3m4!1s0x8819b495a52b81d5:0x110da5d2eaae67f5!8m2!3d42.8417977!4d-85.6233258",jets_pizza,
Jet's Pizza,3375 Orchard Lake Rd,KEEGO HARBOR,MI,48320-1302,2486823744.0,"https://www.google.com/maps/place/Jet's+Pizza/@42.599576,-83.348683,17z/data=!3m1!4b1!4m5!3m4!1s0x8824be7cb50f967b:0x7740f90ef116648d!8m2!3d42.599576!4d-83.348683",jets_pizza,
Jet's Pizza,3321 Stadium Dr,KALAMAZOO,MI,49008-1535,2693722600.0,"https://www.google.com/maps/place/Jet's+Pizza/@42.271054,-85.6314699,17z/data=!3m1!4b1!4m5!3m4!1s0x881777b2cce34c99:0xa5327357d58dc044!8m2!3d42.271054!4d-85.6314699",jets_pizza,
Jet's Pizza,2109 W Michigan Ave,JACKSON,MI,49202-4011,5177887833.0,"https://www.google.com/maps/place/Jet's+Pizza/@42.246363,-84.439855,17z/data=!3m1!4b1!4m5!3m4!1s0x883d3ab2fbdac391:0x835e3dd8d4243b64!8m2!3d42.246363!4d-84.439855",jets_pizza,
Jet's Pizza,112 Saundersville Rd,HENDERSONVILLE,TN,37075-8917,6158224221.0,"https://www.google.com/maps/place/Jet's+Pizza/@36.325524,-86.594551,17z/data=!3m1!4b1!4m5!3m4!1s0x88644768f1d0697d:0x59827d94fbf495e7!8m2!3d36.325524!4d-86.594551",jets_pizza,
Jet's Pizza,1640 Haslett Rd,HASLETT,MI,48840-8691,5173399606.0,"https://www.google.com/maps/place/Jet's+Pizza/@42.7478071,-84.4096578,17z/data=!3m1!4b1!4m5!3m4!1s0x8822e7bd9b9d8cbd:0xa9a9cd3d90afd6ba!8m2!3d42.7478071!4d-84.4096578",jets_pizza,
Jet's Pizza,29855 Ford Rd,GARDEN CITY,MI,48135-2382,7347629800.0,"https://www.google.com/maps/place/Jet's+Pizza/@42.3251969,-83.335475,17z/data=!3m1!4b1!4m5!3m4!1s0x883b4b7d8ffd3255:0x8706cd01dc37c431!8m2!3d42.3251969!4d-83.335475",jets_pizza,
Jet's Pizza,102 Lumber Dr,FRANKLIN,TN,37064-3980,6155994800.0,"https://www.google.com/maps/place/Jet's+Pizza/@35.9231217,-86.9075603,12z/data=!4m8!1m2!2m1!1sJet's+Pizza+102+Lumber+Dr+FRANKLIN+TN+37064-3980!3m4!1s0x88647fbc4cc68eed:0x4b24bea6b37f9721!8m2!3d35.899405!4d-86.8753119?hl=en",jets_pizza,
Jet's Pizza,30790 Grand River Ave,FARMINGTON,MI,48336-4319,2484428900.0,"https://www.google.com/maps/place/Jet's+Pizza/@42.45505,-83.35266,17z/data=!3m1!4b1!4m5!3m4!1s0x8824b140ca2315d3:0x81c312566828d05e!8m2!3d42.45505!4d-83.35266",jets_pizza,
Jet's Pizza,31130 Haggerty Rd,FARMINGTON HILLS,MI,48331-5803,2487882511.0,"https://www.google.com/maps/place/Jet's+Pizza/@42.524925,-83.43667,17z/data=!3m1!4b1!4m5!3m4!1s0x8824a55bf4333ea7:0xa3a9e071d855c852!8m2!3d42.524925!4d-83.43667",jets_pizza,
Jet's Pizza,3420 E Jefferson Ave,DETROIT,MI,48207-4200,3132590500.0,"https://www.google.com/maps/place/Jet's+Pizza/@42.342127,-83.01202,17z/data=!3m1!4b1!4m5!3m4!1s0x8824d34bdaa5fc95:0x6abe2321cb534d9d!8m2!3d42.342127!4d-83.01202",jets_pizza,
Jet's Pizza,23541 Ford Rd,DEARBORN,MI,48124,3132742600.0,"https://www.google.com/maps/place/Jet's+Pizza/@42.326715,-83.267185,17z/data=!3m1!4b1!4m5!3m4!1s0x883b4a93d0ccb8a3:0xfde2c735ecd3624b!8m2!3d42.326715!4d-83.267185",jets_pizza,
Jet's Pizza,5040 N Tarrant Pkwy,FORT WORTH,TX,76244-5390,8172818700.0,"https://www.google.com/maps/place/Jet%E2%80%99s+Pizza/@32.8932789,-97.2742413,17z/data=!3m1!4b1!4m5!3m4!1s0x864dd8231a7a19b1:0x410199f0de449e9b!8m2!3d32.8932789!4d-97.2742413",jets_pizza,
Jet's Pizza,7220 Burlington Pike,FLORENCE,KY,41042-1586,8593846600.0,"https://www.google.com/maps/place/Jet's+Pizza/@39.003599,-84.631294,17z/data=!3m1!4b1!4m5!3m4!1s0x8841c7bc6c6a540d:0x1ec3d5a4fc975ddf!8m2!3d39.003599!4d-84.631294",jets_pizza,
Jet's Pizza,28398 Telegraph Rd,FLAT ROCK,MI,48134-1668,7347830999.0,"https://www.google.com/maps/place/Jet's+Pizza/@42.099489,-83.291912,17z/data=!3m1!4b1!4m5!3m4!1s0x883b40e07618910f:0x4935522cd874f350!8m2!3d42.099489!4d-83.291912",jets_pizza,
Jet's Pizza,8910 W 8 Mile Rd,FERNDALE,MI,48220-2263,2485842267.0,"https://www.google.com/maps/place/Jet's+Pizza/@42.4465622,-83.1581569,17z/data=!3m1!4b1!4m5!3m4!1s0x8824cec86cf4ea79:0xe731d48f767680e5!8m2!3d42.4465622!4d-83.1581569",jets_pizza,
Jet's Pizza,235 N Leroy St,FENTON,MI,48430-2788,8107143100.0,"https://www.google.com/maps/place/Jet's+Pizza/@42.798551,-83.705527,17z/data=!3m1!4b1!4m5!3m4!1s0x8823645b4a69e671:0x4e6f32cfbcebd7ab!8m2!3d42.798551!4d-83.705527",jets_pizza,
Jet's Pizza,7011 Dexter Ann Arbor Rd,DEXTER,MI,48130-8568,7344249810.0,"https://www.google.com/maps/place/Jet's+Pizza/@42.3250527,-83.8710293,17z/data=!3m1!4b1!4m5!3m4!1s0x883cb438b50832df:0x682378435a52ef27!8m2!3d42.3250527!4d-83.8710293",jets_pizza,
Jet's Pizza,614 N State Rd,DAVISON,MI,48423-3505,8106583400.0,"https://www.google.com/maps/place/Jet's+Pizza/@43.0353191,-83.5165262,17z/data=!3m1!4b1!4m5!3m4!1s0x88247e88ab4fbadd:0xc21d1c6753e72ff3!8m2!3d43.0353191!4d-83.5165262",jets_pizza,
Jet's Pizza,1575 Union Lake Rd,COMMERCE TOWNSHIP,MI,48382-2239,2483660312.0,"https://www.google.com/maps/place/Jet's+Pizza/@42.6133088,-83.446456,17z/data=!3m1!4b1!4m5!3m4!1s0x8824a36bdedd8cad:0x9002918afe6f4f0b!8m2!3d42.6133088!4d-83.446456",jets_pizza,
Jet's Pizza,39101 Garfield Rd,CLINTON TOWNSHIP,MI,48038-2792,5862287440.0,"https://www.google.com/maps/place/Jet's+Pizza/@42.5847572,-82.9527485,17z/data=!3m1!4b1!4m5!3m4!1s0x8824dedf3c75d87b:0x6d88517cd57a59d6!8m2!3d42.5847572!4d-82.9527485",jets_pizza,
Jet's Pizza,230 W 14 Mile Rd,CLAWSON,MI,48017-1925,2482884488.0,"https://www.google.com/maps/place/Jet's+Pizza/@42.5337922,-83.150338,17z/data=!3m1!4b1!4m5!3m4!1s0x8824c5cf6b2d50ab:0x906330cbc96aa58d!8m2!3d42.5337922!4d-83.150338",jets_pizza,
Jet's Pizza,5843 Far Hills Ave,DAYTON,OH,45429-2209,9374344400.0,"https://www.google.com/maps/place/Jet's+Pizza/@39.66083,-84.1593037,17z/data=!3m1!4b1!4m5!3m4!1s0x88408f65dbbcedef:0xd261cfae8bec4938!8m2!3d39.66083!4d-84.1593037",jets_pizza,
Jet's Pizza,37525 Harper Ave,CLINTON TOWNSHIP,MI,48036-3018,5869541960.0,"https://www.google.com/maps/place/Jet's+Pizza/@42.5725757,-82.8719615,17z/data=!3m1!4b1!4m5!3m4!1s0x882520d0f265b673:0x57a9b04a05762b5a!8m2!3d42.5725757!4d-82.8719615",jets_pizza,
Jet's Pizza,6275 28th St SE,GRAND RAPIDS,MI,49546-6970,6169401888.0,"https://www.google.com/maps/place/Jet's+Pizza/@42.913696,-85.513318,17z/data=!3m1!4b1!4m5!3m4!1s0x88184e0ce90c8979:0xa9bb76fdc5bce605!8m2!3d42.913696!4d-85.513318",jets_pizza,
Jet's Pizza,2764 E 146th St,CARMEL,IN,46033-7718,3178155555.0,"https://www.google.com/maps/place/Jet's+Pizza/@40.0008503,-86.1138239,17z/data=!3m1!4b1!4m5!3m4!1s0x8814ae09a60125ed:0x1b65b37a33b5ab30!8m2!3d40.0008503!4d-86.1138239",jets_pizza,
Jet's Pizza,41266 Palmer Rd,CANTON,MI,48188-2016,7343978700.0,"https://www.google.com/maps/place/Jet's+Pizza/@42.294268,-83.446288,17z/data=!3m1!4b1!4m5!3m4!1s0x883b5224ed085d41:0x4f68593be06596ce!8m2!3d42.294268!4d-83.446288",jets_pizza,
Jet's Pizza,284 E Columbia Ave,BELLEVILLE,MI,48111-2782,7346977500.0,"https://www.google.com/maps/place/Jet's+Pizza/@42.2036548,-83.4814032,17z/data=!3m1!4b1!4m5!3m4!1s0x883b5a0a538447a9:0x24b2f83d27387da7!8m2!3d42.2036548!4d-83.4814032",jets_pizza,
Jet's Pizza,590 Columbia Ave W,BATTLE CREEK,MI,49015-3399,2695650800.0,"https://www.google.com/maps/place/Jet's+Pizza/@42.2989109,-85.210233,17z/data=!3m1!4b1!4m5!3m4!1s0x8817f274aee364cf:0x8ca5d19453e68ec3!8m2!3d42.2989109!4d-85.210233",jets_pizza,
Jet's Pizza,3127 Oak Valley Dr,ANN ARBOR,MI,48103-9248,7342227544.0,"https://www.google.com/maps/place/Jet's+Pizza/@42.2420574,-83.7699226,17z/data=!3m1!4b1!4m5!3m4!1s0x883cb018e75c5dcb:0xbf22cf3ac111c2e2!8m2!3d42.2420574!4d-83.7699226",jets_pizza,
Jet's Pizza,1071 Saint Clair River Dr,ALGONAC,MI,48001-1457,8107947777.0,"https://www.google.com/maps/place/Jet's+Pizza/@42.618567,-82.531428,17z/data=!3m1!4b1!4m5!3m4!1s0x882540264cd8932b:0x9f0fdb336425b44f!8m2!3d42.618567!4d-82.531428",jets_pizza,
Jet's Pizza,1390 S. Main St,ADRIAN,MI,49221-1803,5172661300.0,"https://www.google.com/maps/place/Jet's+Pizza/@41.8779316,-84.0437263,17z/data=!3m1!4b1!4m5!3m4!1s0x883cf04a3c7bff0d:0x8dfd8d2d1479a706!8m2!3d41.8779316!4d-84.0437263",jets_pizza,
Jet's Pizza,43173 Woodward Ave,BLOOMFIELD HILLS,MI,48302-5005,2488588800.0,"https://www.google.com/maps/place/Jet's+Pizza/@42.6054001,-83.2674726,17z/data=!3m1!4b1!4m5!3m4!1s0x8824bf43bc6be6b5:0xefb8bc3629f3caca!8m2!3d42.6054001!4d-83.2674726",jets_pizza,
Jet's Pizza,3429 Five Points Dr,AUBURN HILLS,MI,48326-2341,2484751900.0,"https://www.google.com/maps/place/Jet's+Pizza/@42.6780309,-83.2227228,17z/data=!3m1!4b1!4m5!3m4!1s0x8824ea91630adcf9:0x21313b4c69f83988!8m2!3d42.6780309!4d-83.2227228",jets_pizza,
Jet's Pizza,14624 N Dale Mabry Hwy,TAMPA,FL,33618-2024,8133970000.0,"https://www.google.com/maps/place/Jet's+Pizza/@28.0812445,-82.5071757,17z/data=!3m1!4b1!4m5!3m4!1s0x88c2c091f038e775:0xe2ca73836cae08fc!8m2!3d28.0812445!4d-82.5071757",jets_pizza,
Jet's Pizza,2491 N 124th St,BROOKFIELD,WI,53005-4630,2627885007.0,"https://www.google.com/maps/place/Jet's+Pizza/@43.0629197,-88.0679826,17z/data=!3m1!4b1!4m5!3m4!1s0x8805046a4a82e01d:0xdd111bd1c58e500b!8m2!3d43.0629197!4d-88.0679826",jets_pizza,
Jet's Pizza,3979 Indian Ripple Rd,BEAVERCREEK,OH,45440-5107,9374263333.0,"https://www.google.com/maps/place/Jet's+Pizza/@39.6946653,-84.0841312,17z/data=!3m1!4b1!4m5!3m4!1s0x88409ac3a755ebdb:0x24baca032b878403!8m2!3d39.6946653!4d-84.0841312",jets_pizza,
Jet's Pizza,159 Chartier,MARINE CITY,MI,48039-2352,8106434050.0,"https://www.google.com/maps/place/Jet's+Pizza/@42.7091548,-82.4982138,17z/data=!3m1!4b1!4m5!3m4!1s0x88256c6cc214515f:0xc8837732786d8efc!8m2!3d42.7091548!4d-82.4982138",jets_pizza,
Jet's Pizza,13724 E Quincy Ave,AURORA,CO,80015-1129,7209906000.0,"https://www.google.com/maps/place/Jet's+Pizza/@39.6373406,-104.8278918,17z/data=!3m1!4b1!4m5!3m4!1s0x876c8862028df34d:0xf6d84779933efe17!8m2!3d39.6373406!4d-104.8278918",jets_pizza,
Jet's Pizza,2635 E 62nd St,INDIANAPOLIS,IN,46220-3577,3172525445.0,"https://www.google.com/maps/place/Jet's+Pizza/@39.8679154,-86.1189181,17z/data=!3m1!4b1!4m5!3m4!1s0x886b525b5760a35b:0x5297c64678d4a452!8m2!3d39.8679154!4d-86.1189181",jets_pizza,
Jet's Pizza,3300 Bonita Beach Rd,BONITA SPRINGS,FL,34134-4162,2393014800.0,"https://www.google.com/maps/place/Jet's+Pizza+Bonita+Springs/@26.3321046,-81.8093436,17z/data=!3m1!4b1!4m5!3m4!1s0x88db19a67f49f78d:0xd806ee59f65bd3a4!8m2!3d26.3321046!4d-81.8093436",jets_pizza,
Jet's Pizza,946 W Lumsden Rd,BRANDON,FL,33511-6281,8136555388.0,"https://www.google.com/maps/place/Jet's+Pizza/@27.923771,-82.299153,17z/data=!3m1!4b1!4m5!3m4!1s0x88c2cddf00592ca3:0xac60740ff168d9fd!8m2!3d27.923771!4d-82.299153",jets_pizza,
Jet's Pizza,4418 Commons Dr E,DESTIN,FL,32541-8405,8506545387.0,"https://www.google.com/maps/place/Jet's+Pizza/@30.3900199,-86.4282266,17z/data=!3m1!4b1!4m5!3m4!1s0x889143577805e9e3:0x7b0f499246dbdd7!8m2!3d30.3900199!4d-86.4282266",jets_pizza,
Jet's Pizza,5045 Fruitville Rd,SARASOTA,FL,34232-2268,9413124225.0,"https://www.google.com/maps/place/Jet's+Pizza/@27.338381,-82.468902,17z/data=!3m1!4b1!4m5!3m4!1s0x88c347510a7ceded:0xb617f8df41827f1f!8m2!3d27.338381!4d-82.468902",jets_pizza,
Jet's Pizza,11706 Alpharetta Hwy,ROSWELL,GA,30076-4039,7707525387.0,"https://www.google.com/maps/place/Jet's+Pizza+-+Alpharetta+Hwy/@34.0656657,-84.3205467,17z/data=!3m1!4b1!4m5!3m4!1s0x88f574f86139ea0f:0x9c7cc2015ac8854f!8m2!3d34.0656657!4d-84.3205467",jets_pizza,
Jet's Pizza,59 W Golf Rd,ARLINGTON HEIGHTS,IL,60005-3905,8475935387.0,"https://www.google.com/maps/place/Jet's+Pizza/@42.0502807,-87.9835873,17z/data=!3m1!4b1!4m5!3m4!1s0x880fb07010adbded:0x4042d082f4c69763!8m2!3d42.0502807!4d-87.9835873",jets_pizza,
Jet's Pizza,720 E Ogden Ave,NAPERVILLE,IL,60563-2833,6309221111.0,"https://www.google.com/maps/place/Jet's+Pizza/@41.7865248,-88.1349706,17z/data=!3m1!4b1!4m5!3m4!1s0x880e56536aefe57f:0x2485ff9a7aab8412!8m2!3d41.7865248!4d-88.1349706",jets_pizza,
Jet's Pizza,2464 Lake Circle Dr,INDIANAPOLIS,IN,46268-4219,3172289565.0,"https://www.google.com/maps/place/Jet's+Pizza/@39.914,-86.2044936,17z/data=!3m1!4b1!4m5!3m4!1s0x886b54d1c08ca2b3:0x232a1eb5e1a44130!8m2!3d39.914!4d-86.2044936",jets_pizza,
Jet's Pizza,1305 Monmouth St,NEWPORT,KY,41071-2342,8592917000.0,"https://www.google.com/maps/place/Jet's+Pizza/@39.08572,-84.483935,17z/data=!3m1!4b1!4m5!3m4!1s0x8841b10b7c190671:0x80d5e9622bb88d3c!8m2!3d39.08572!4d-84.483935",jets_pizza,
Jet's Pizza,215 Maple St,BIG RAPIDS,MI,49307-1805,2315270122.0,"https://www.google.com/maps/place/Jet's+Pizza/@43.698552,-85.480874,17z/data=!3m1!4b1!4m5!3m4!1s0x8818d32a4b3d438b:0x633389119b162370!8m2!3d43.698552!4d-85.480874",jets_pizza,
Jet's Pizza,14111 White Creek Ave NE,CEDAR SPRINGS,MI,49319-8169,6166962077.0,"https://www.google.com/maps/place/Jet's+Pizza/@43.222203,-85.571763,17z/data=!3m1!4b1!4m5!3m4!1s0x8818fd177714e10b:0x7a9a1f5240751745!8m2!3d43.222203!4d-85.571763",jets_pizza,
Jet's Pizza,504 Lansing St,CHARLOTTE,MI,48813-1182,5175411500.0,"https://www.google.com/maps/place/Jet's+Pizza/@42.5702591,-84.8249801,17z/data=!3m1!4b1!4m5!3m4!1s0x8822af0d5e7c0b2d:0x864de5103868baae!8m2!3d42.5702591!4d-84.8249801",jets_pizza,
Jet's Pizza,425 W Vienna St,CLIO,MI,48420-1386,8106875555.0,"https://www.google.com/maps/place/Jet's+Pizza/@43.176762,-83.738672,17z/data=!3m1!4b1!4m5!3m4!1s0x88238f9576557bf1:0x4581fab4939b71fc!8m2!3d43.176762!4d-83.738672",jets_pizza,
Jet's Pizza,5151 Gull Rd,KALAMAZOO,MI,49048-4016,2694882000.0,"https://www.google.com/maps/place/Jet's+Pizza/@42.321129,-85.52789,17z/data=!3m1!4b1!4m5!3m4!1s0x8817835b141422cd:0x9562e764519b4cfc!8m2!3d42.321129!4d-85.52789",jets_pizza,
Jet's Pizza,1475 W Washington St,MARQUETTE,MI,49855-3115,9062281000.0,"https://www.google.com/maps/place/Jet's+Pizza/@46.5454806,-87.4250631,17z/data=!3m1!4b1!4m5!3m4!1s0x4d51df3e10505c5f:0x3c40ae29534b5f2e!8m2!3d46.5454806!4d-87.4250631",jets_pizza,
Jet's Pizza,1159 N Sumter Blvd,NORTH PORT,FL,34286-8074,9414295387.0,"https://www.google.com/maps/place/Jet's+Pizza/@27.070987,-82.210452,17z/data=!3m1!4b1!4m5!3m4!1s0x88dcacb67935ec85:0xd380029d01c09016!8m2!3d27.070987!4d-82.210452",jets_pizza,
Jet's Pizza,3606 Sterns Rd,LAMBERTVILLE,MI,48144-9578,7345686300.0,"https://www.google.com/maps/place/Jet's+Pizza/@41.7494806,-83.6303447,17z/data=!3m1!4b1!4m5!3m4!1s0x883c807c12d8e4bb:0x5dd836dca917a0e2!8m2!3d41.7494806!4d-83.6303447",jets_pizza,
Jet's Pizza,39711 Grand River Ave,NOVI,MI,48375-2107,2484735387.0,"https://www.google.com/maps/place/Jet's+Pizza/@42.471298,-83.436976,17z/data=!3m1!4b1!4m5!3m4!1s0x8824ae30a62754d7:0x917254d523e3b57b!8m2!3d42.471298!4d-83.436976",jets_pizza,
Jet's Pizza,3507 Round Lake Blvd NW,ANOKA,MN,55303-3309,7634324555.0,"https://www.google.com/maps/place/Jet's+Pizza/@45.2175375,-93.3603831,17z/data=!4m5!3m4!1s0x52b33dce7637d567:0x37d5d7784b742570!8m2!3d45.2175337!4d-93.3581944?hl=en",jets_pizza,
Jet's Pizza,1253 NW Maynard Rd,CARY,NC,27513-8726,9194694949.0,"https://www.google.com/maps/place/Jet's+Pizza/@35.785097,-78.812245,17z/data=!3m1!4b1!4m5!3m4!1s0x89acf25ed4aff1c1:0xc95195e51907db7d!8m2!3d35.785097!4d-78.812245",jets_pizza,
Jet's Pizza,1564 Highwoods Blvd,GREENSBORO,NC,27410-2058,3368546060.0,"https://www.google.com/maps/place/Jet's+Pizza/@36.1118808,-79.8783842,17z/data=!3m1!4b1!4m5!3m4!1s0x88531a6fffffffff:0x6ecec5787badc129!8m2!3d36.1118808!4d-79.8783842",jets_pizza,
Jet's Pizza,11928 Montgomery Rd,CINCINNATI,OH,45249-1789,5137740207.0,"https://www.google.com/maps/place/Jet's+Pizza/@39.286183,-84.30745,17z/data=!3m1!4b1!4m5!3m4!1s0x8840565e1a09c043:0x4b823b0f44928d1f!8m2!3d39.286183!4d-84.30745",jets_pizza,
Jet's Pizza,4740 Reed Rd,UPPER ARLINGTON,OH,43220-3073,6143260300.0,"https://www.google.com/maps/place/Jet's+Pizza/@40.0532182,-83.0665008,17z/data=!3m1!4b1!4m5!3m4!1s0x88388d9b0242175f:0xf95f27c6b3ce3a7b!8m2!3d40.0532182!4d-83.0665008",jets_pizza,
Jet's Pizza,25947 Detroit Rd,WESTLAKE,OH,44145-2426,4408921200.0,"https://www.google.com/maps/place/Jet's+Pizza/@41.4684803,-81.9068834,17z/data=!3m1!4b1!4m5!3m4!1s0x88309287072aa67b:0x4a378dc06c4d97fd!8m2!3d41.4684803!4d-81.9068834",jets_pizza,
Jet's Pizza,1940 Shady Brook St,COLUMBIA,TN,38401-3989,9315482200.0,"https://www.google.com/maps/place/Jet's+Pizza/@35.5986964,-87.0589323,17z/data=!3m1!4b1!4m5!3m4!1s0x8863720ba6633d25:0xfe556e8e5340189c!8m2!3d35.5986964!4d-87.0589323",jets_pizza,
Jet's Pizza,122 N Belvedere Dr,GALLATIN,TN,37066-5418,6154510252.0,"https://www.google.com/maps/place/Jet's+Pizza/@36.374823,-86.478378,17z/data=!3m1!4b1!4m5!3m4!1s0x88643a7288a8f075:0xb08a837b41346739!8m2!3d36.374823!4d-86.478378",jets_pizza,
Jet's Pizza,202 W Main St,LITTLE CHUTE,WI,54140-1752,9206878510.0,"https://www.google.com/maps/place/Jet's+Pizza/@44.28012,-88.317374,17z/data=!3m1!4b1!4m5!3m4!1s0x8803ae2efaa6ebab:0x97f7bcce3001c5e3!8m2!3d44.28012!4d-88.317374",jets_pizza,
Jet's Pizza,9129 W Greenfield Ave,WEST ALLIS,WI,53214-2810,4148315800.0,"https://www.google.com/maps/place/Jet's+Pizza/@43.016168,-88.026582,17z/data=!3m1!4b1!4m5!3m4!1s0x88050543f748b931:0xdcbe326ce9eb86f4!8m2!3d43.016168!4d-88.026582",jets_pizza,
Jet's Pizza,5058 N Clark St,CHICAGO,IL,60640-2845,7737847070.0,"https://www.google.com/maps/place/Jet's+Pizza/@41.974191,-87.6683515,17z/data=!3m1!4b1!4m5!3m4!1s0x880fd227e7972807:0xb82f30acbf95a361!8m2!3d41.974191!4d-87.6683515",jets_pizza,
Jet's Pizza,2712 W Mallard Creek Church Rd,CHARLOTTE,NC,28262-2409,7045951991.0,"https://www.google.com/maps/place/Jet's+Pizza/@35.3411109,-80.7646038,17z/data=!3m1!4b1!4m5!3m4!1s0x88541c5523e78379:0x6e3f4eac67914504!8m2!3d35.3411109!4d-80.7646038",jets_pizza,
Jet's Pizza,2418 Esquire Dr,BEAVERCREEK,OH,45431-2577,9374311111.0,"https://www.google.com/maps/place/Jet's+Pizza/@39.7595895,-84.0541417,17z/data=!3m1!4b1!4m5!3m4!1s0x88409c6378f6ab65:0x8c67c1ba37053a54!8m2!3d39.7595895!4d-84.0541417",jets_pizza,
Jet's Pizza,2666 Memorial Blvd,SPRINGFIELD,TN,37172-3925,6156671557.0,"https://www.google.com/maps/place/Jet's+Pizza/@36.4874073,-86.8641785,17z/data=!3m1!4b1!4m5!3m4!1s0x886455d37ddaf999:0x167f34e55c691111!8m2!3d36.4874073!4d-86.8641785",jets_pizza,
Jet's Pizza,13550 Reflections Pkwy,FORT MYERS,FL,33907-6539,2392457019.0,"https://www.google.com/maps/place/Jet's+Pizza+Fort+Myers/@26.5455878,-81.8821937,17z/data=!3m1!4b1!4m5!3m4!1s0x88db3fe97c611ac9:0x5a5edb42f4d2a45e!8m2!3d26.5455878!4d-81.8821937",jets_pizza,
Jet's Pizza,1983 West Morris Blvd,MORRISTOWN,TN,37814,4236160616.0,"https://www.google.com/maps/place/Jet's+Pizza/@36.2058784,-83.3201479,17z/data=!3m1!4b1!4m5!3m4!1s0x885b96df4b892d5f:0x828f49673a01d53a!8m2!3d36.2058784!4d-83.3201479",jets_pizza,
Jet's Pizza,210 South Creasy Ln,LAFAYETTE,IN,47905,7654460011.0,"https://www.google.com/maps/place/Jet's+Pizza/@40.4134867,-86.8393465,17z/data=!3m1!4b1!4m5!3m4!1s0x88131cbed44dee9f:0xb8639dfa32ed3f3d!8m2!3d40.4134867!4d-86.8393465",jets_pizza,
Jet's Pizza,2831 Parmenter,MIDDLETON,WI,53562,6088411700.0,"https://www.google.com/maps/place/Jet's+Pizza/@43.1052807,-89.5101147,17z/data=!3m1!4b1!4m5!3m4!1s0x8807a9287a53bcaf:0xeb668a97614a51f7!8m2!3d43.1052807!4d-89.5101147",jets_pizza,
Jet's Pizza,3735 Palomar Centre Dr,LEXINGTON,KY,40513,8592240133.0,"https://www.google.com/maps/place/Jet's+Pizza/@38.0046222,-84.5714322,17z/data=!3m1!4b1!4m5!3m4!1s0x88425d3d517498c3:0x2f8066cc652b427a!8m2!3d38.0046222!4d-84.5714322",jets_pizza,
Jet's Pizza,405 the Pkwy,GREER,SC,29650-5201,8649891900.0,"https://www.google.com/maps/place/Jet's+Pizza/@34.8707533,-82.256193,17z/data=!3m1!4b1!4m5!3m4!1s0x88582982e7f00e89:0x8b1c6c64e4050a38!8m2!3d34.8707533!4d-82.256193",jets_pizza,
Jet's Pizza,2811 N Ashland Ave,CHICAGO,IL,60657-4001,7738572080.0,"https://www.google.com/maps/place/Jet's+Pizza/@41.9327997,-87.6679078,17z/data=!3m1!4b1!4m5!3m4!1s0x880fd2f77c340531:0x21df1df5cb984fb2!8m2!3d41.9327997!4d-87.6679078",jets_pizza,
Jet's Pizza,936 E Roosevelt Rd,WHEATON,IL,60187-5651,6306532800.0,"https://www.google.com/maps/place/Jet's+Pizza/@41.8586078,-88.0924041,17z/data=!3m1!4b1!4m5!3m4!1s0x880e54792bc82835:0x73538e8bc049dfd4!8m2!3d41.8586078!4d-88.0924041",jets_pizza,
Jet's Pizza,4222 Saron Dr,LEXINGTON,KY,40515-6300,8592735387.0,"https://www.google.com/maps/place/Jet's+Pizza/@37.9674283,-84.5006218,17z/data=!3m1!4b1!4m5!3m4!1s0x88425ba2bb2c78e9:0x662fc98968d0649b!8m2!3d37.9674283!4d-84.5006218",jets_pizza,
Jet's Pizza,2075 Exeter Rd,GERMANTOWN,TN,38138-3962,9017375387.0,"https://www.google.com/maps/place/Jet's+Pizza/@35.092767,-89.8059848,17z/data=!4m5!3m4!1s0x887f9bbaef2aa225:0x3da3eaafeb288c67!8m2!3d35.0927626!4d-89.8037961?hl=en",jets_pizza,
Jet's Pizza,8233 Byron Center Ave SW,BYRON CENTER,MI,49315-8111,6168784748.0,"https://www.google.com/maps/place/Jet's+Pizza/@42.8151243,-85.7236331,17z/data=!3m1!4b1!4m5!3m4!1s0x8819b652f35ad3ab:0x3c77cfb042ec0213!8m2!3d42.8151243!4d-85.7236331",jets_pizza,
Jet's Pizza,8846 E 34 Rd,CADILLAC,MI,49601-9580,2317792000.0,"https://www.google.com/maps/place/Jet's+Pizza/@44.2808829,-85.4028583,17z/data=!4m5!3m4!1s0x881f084e8456fa61:0xe931aa4792b0df3c!8m2!3d44.2808791!4d-85.4006696?hl=en",jets_pizza,
Jet's Pizza,820 Forest Hill Ave SE,GRAND RAPIDS,MI,49546-2342,6169408860.0,"https://www.google.com/maps/place/Jet's+Pizza/@42.9477758,-85.5551432,17z/data=!3m1!4b1!4m5!3m4!1s0x881852641ab07d1d:0x6485e1796ab4c5!8m2!3d42.9477758!4d-85.5551432",jets_pizza,
Jet's Pizza,1207 W Chicago Blvd,TECUMSEH,MI,49286-1262,5178151810.0,"https://www.google.com/maps/place/Jet's+Pizza/@42.0069603,-83.9637816,17z/data=!3m1!4b1!4m5!3m4!1s0x883ceb652eb01659:0x7781ee618ad56101!8m2!3d42.0069603!4d-83.9637816",jets_pizza,
Jet's Pizza,6489 Pullman Dr,LEWIS CENTER,OH,43035-7377,7405481616.0,"https://www.google.com/maps/place/Jet's+Pizza/@40.201614,-83.026379,17z/data=!3m1!4b1!4m5!3m4!1s0x8838f10d2d918ba5:0x35356acc5972f6d4!8m2!3d40.201614!4d-83.026379",jets_pizza,
Jet's Pizza,7356 Fodor Rd,NEW ALBANY,OH,43054-8336,6148552404.0,"https://www.google.com/maps/place/Jet's+Pizza/@40.0882604,-82.8258411,17z/data=!3m1!4b1!4m5!3m4!1s0x88385e021cf403b5:0x1dd420901c05d364!8m2!3d40.0882604!4d-82.8258411",jets_pizza,
Jet's Pizza,228 W Central Ave,SPRINGBORO,OH,45066-1189,9377485555.0,"https://www.google.com/maps/place/Jet's+Pizza/@39.5591658,-84.2385235,17z/data=!3m1!4b1!4m5!3m4!1s0x88408a5a80433e9d:0x78e1b52a303abee1!8m2!3d39.5591658!4d-84.2385235",jets_pizza,
Jet's Pizza,167 State Route 3,SUNBURY,OH,43074-6900,7409651172.0,"https://www.google.com/maps/place/Jet's+Pizza/@40.2449047,-82.8694579,17z/data=!3m1!4b1!4m5!3m4!1s0x8838582d9894f967:0xf4966e517f19d5af!8m2!3d40.2449047!4d-82.8694579",jets_pizza,
Jet's Pizza,660 High St,WORTHINGTON,OH,43085-4153,6148444400.0,"https://www.google.com/maps/place/Jet's+Pizza/@40.087385,-83.017849,17z/data=!3m1!4b1!4m5!3m4!1s0x88388cc639a6f4d7:0x5e0e574e9a70989b!8m2!3d40.087385!4d-83.017849",jets_pizza,
Jet's Pizza,3624 S Hurstbourne Pkwy,LOUISVILLE,KY,40299-7316,5024911700.0,"https://www.google.com/maps/place/Jet's+Pizza/@38.195881,-85.605192,17z/data=!3m1!4b1!4m5!3m4!1s0x88690a81ae218c57:0x27128934b96b85fa!8m2!3d38.195881!4d-85.605192",jets_pizza,
Jet's Pizza,1030 S Broadway,LEXINGTON,KY,40504-2681,8592315387.0,"https://www.google.com/maps/place/Jet's+Pizza/@38.0362555,-84.5152343,17z/data=!3m1!4b1!4m5!3m4!1s0x88424455410f0219:0x7abe8ceed53e92b!8m2!3d38.0362555!4d-84.5152343",jets_pizza,
Jet's Pizza,235 Blankenbaker Pkwy,MIDDLETOWN,KY,40243-1877,5022444440.0,"https://www.google.com/maps/place/Jet's+Pizza/@38.2417886,-85.5451991,17z/data=!3m1!4b1!4m5!3m4!1s0x88699f65e0a3a3ff:0xd829e594c1ef43bd!8m2!3d38.2417886!4d-85.5451991",jets_pizza,
Jet's Pizza,14940 Manchester Rd,BALLWIN,MO,63011-4623,6362208929.0,"https://www.google.com/maps/place/Jet's+Pizza/@38.5925027,-90.5450957,17z/data=!3m1!4b1!4m5!3m4!1s0x87d8d441c5bb4421:0x832ff34c4446bb2f!8m2!3d38.5925027!4d-90.5450957",jets_pizza,
Jet's Pizza,1108 Broadway St E,LENOIR CITY,TN,37772-3136,8652710222.0,"https://www.google.com/maps/place/Jet's+Pizza/@35.7976913,-84.255724,17z/data=!3m1!4b1!4m5!3m4!1s0x885c2ab8e6adb917:0xb8ef7db02d2fbc3b!8m2!3d35.7976913!4d-84.255724",jets_pizza,
Jet's Pizza,2037 N Mount Juliet Rd,MOUNT JULIET,TN,37122-3937,6157544100.0,"https://www.google.com/maps/place/Jet's+Pizza/@36.1982791,-86.5186041,17z/data=!3m1!4b1!4m5!3m4!1s0x886415ecc5f2d1db:0xee650c77dea1675d!8m2!3d36.1982791!4d-86.5186041",jets_pizza,
Jet's Pizza,9001 Brodie Ln,AUSTIN,TX,78748-5002,5122801010.0,"https://www.google.com/maps/place/Jet's+Pizza/@30.193878,-97.842645,17z/data=!3m1!4b1!4m5!3m4!1s0x865b4c7126be9d97:0xecdc47450e4fe616!8m2!3d30.193878!4d-97.842645",jets_pizza,
Jet's Pizza,9349 Cherry Valley Ave SE,CALEDONIA,MI,49316-9506,6168918800.0,"https://www.google.com/maps/place/Jet's+Pizza/@42.7947899,-85.5095538,17z/data=!3m1!4b1!4m5!3m4!1s0x881849ecde391d77:0x3c93dfa895ea2a98!8m2!3d42.7947899!4d-85.5095538",jets_pizza,
Jet's Pizza,2417 Ontario Dr,SAINT JOHNS,MI,48879-8267,9892241711.0,"https://www.google.com/maps/place/Jet's+Pizza/@42.980589,-84.5401421,17z/data=!3m1!4b1!4m5!3m4!1s0x8822f413a9d9ef8f:0x83e2169d1a970aa!8m2!3d42.980589!4d-84.5401421",jets_pizza,
Jet's Pizza,8721 E State Road 70,BRADENTON,FL,34202-9408,9417395387.0,"https://www.google.com/maps/place/Jet's+Pizza/@27.4389536,-82.4503068,17z/data=!3m1!4b1!4m5!3m4!1s0x88c33bdf627cdd77:0x32693b933e47d4ac!8m2!3d27.4389536!4d-82.4503068",jets_pizza,
Jet's Pizza,17940 N Tamiami Trl,NORTH FORT MYERS,FL,33903-1413,2397315500.0,"https://www.google.com/maps/place/Jet's+Pizza+North+Fort+Myers/@26.7236215,-81.9042959,17z/data=!3m1!4b1!4m5!3m4!1s0x88db42e4062931a3:0x4701d54d149238fb!8m2!3d26.7236215!4d-81.9042959",jets_pizza,
Jet's Pizza,2090 Dunwoody Club Dr,SANDY SPRINGS,GA,30350-5406,7707308779.0,"https://www.google.com/maps/place/Jet's+Pizza/@33.9600948,-84.3023487,17z/data=!4m5!3m4!1s0x88f50a45fcd3ce17:0xcbf2c4be0608ff55!8m2!3d33.9600904!4d-84.30016?hl=en",jets_pizza,
Jet's Pizza,1064 Old Peachtree Rd NW,LAWRENCEVILLE,GA,30043-3302,7706827474.0,"https://www.google.com/maps/place/Jet's+Pizza/@34.0001344,-84.0736177,17z/data=!4m5!3m4!1s0x88f5bd6568a90617:0xf721d0928ee93cfa!8m2!3d34.00013!4d-84.071429?hl=en",jets_pizza,
Jet's Pizza,2900 Delk Rd SE,MARIETTA,GA,30067-5321,7709521711.0,"https://www.google.com/maps/place/Jet's+Pizza/@33.9227712,-84.4677571,17z/data=!3m1!4b1!4m5!3m4!1s0x88f51197295c16a1:0xfc899eb875e247a1!8m2!3d33.9227712!4d-84.4677571",jets_pizza,
Jet's Pizza,6679 Dixie Hwy,FAIRFIELD,OH,45014-5496,5138605387.0,"https://www.google.com/maps/place/Jet's+Pizza/@39.318922,-84.497949,17z/data=!3m1!4b1!4m5!3m4!1s0x88404f1eb8cb35db:0xa2a93c097b4d251f!8m2!3d39.318922!4d-84.497949",jets_pizza,
Jet's Pizza,55 McNaughten Rd,COLUMBUS,OH,43213-5129,6147597200.0,"https://www.google.com/maps/place/Jet's+Pizza/@39.9792466,-82.8369593,17z/data=!3m1!4b1!4m5!3m4!1s0x8838639158e75451:0x609083ab0905267d!8m2!3d39.9792466!4d-82.8369593",jets_pizza,
Jet's Pizza,35535 Euclid Ave,WILLOUGHBY,OH,44094-4627,4409547700.0,"https://www.google.com/maps/place/Jet's+Pizza/@41.6266766,-81.433885,17z/data=!3m1!4b1!4m5!3m4!1s0x8831aa24233911bd:0x4c73c9c2d02221e6!8m2!3d41.6266766!4d-81.433885",jets_pizza,
Jet's Pizza,1907 W Springfield Ave,CHAMPAIGN,IL,61821-3067,2173529992.0,"https://www.google.com/maps/place/Jet's+Pizza/@40.112486,-88.278108,17z/data=!3m1!4b1!4m5!3m4!1s0x880cd08cd3ff4c07:0xd564e8d31cf73d20!8m2!3d40.112486!4d-88.278108",jets_pizza,
Jet's Pizza,3951 N Kimball Ave,CHICAGO,IL,60618-3318,7739931111.0,"https://www.google.com/maps/place/Jet's+Pizza/@41.9534888,-87.7125021,17z/data=!3m1!4b1!4m5!3m4!1s0x880fcd9479484d4f:0xa653d0ace1fb8bad!8m2!3d41.9534888!4d-87.7125021",jets_pizza,
Jet's Pizza,153 County Road 6 W,ELKHART,IN,46514-5557,5743333382.0,"https://www.google.com/maps/place/Jet's+Pizza/@41.7238692,-85.9791846,17z/data=!3m1!4b1!4m5!3m4!1s0x8816dcfc118fc017:0xc2a13fea3b6a7716!8m2!3d41.7238692!4d-85.9791846",jets_pizza,
Jet's Pizza,3122 E Colonial Dr,ORLANDO,FL,32803-5175,4078968977.0,"https://www.google.com/maps/place/Jet's+Pizza/@27.9968696,-82.9439938,8z/data=!4m8!1m2!2m1!1sJet's+Pizza+3122+E+Colonial+Dr+ORLANDO+FL+32803-5175!3m4!1s0x88e77acc6b2de8a5:0x8968126afaafbf76!8m2!3d28.5529542!4d-81.3439364?hl=en",jets_pizza,
Jet's Pizza,3533 Hampton Ave,SAINT LOUIS,MO,63139-1943,3143510955.0,"https://www.google.com/maps/place/Jet's+Pizza/@38.5974106,-90.2929937,17z/data=!3m1!4b1!4m5!3m4!1s0x87d8b58efd159227:0x30c369ee2189561!8m2!3d38.5974106!4d-90.2929937",jets_pizza,
Jet's Pizza,4695 Poplar Ave,MEMPHIS,TN,38117-4401,9012074200.0,"https://www.google.com/maps/place/Jet's+Pizza/@35.1151623,-89.9056267,17z/data=!3m1!4b1!4m5!3m4!1s0x887f846d613188ad:0x9ab83de22e8a1329!8m2!3d35.1151623!4d-89.9056267",jets_pizza,
Jet's Pizza,7935 S Broadway,LITTLETON,CO,80122-2710,3037071100.0,"https://www.google.com/maps/place/Jet's+Pizza/@39.5719731,-104.9927699,17z/data=!3m1!5s0x876c822b8cba797b:0xdb78b1e2f8de9c0!4m5!3m4!1s0x876c822ba0998801:0x76278d324df9771f!8m2!3d39.571969!4d-104.9905812?hl=en",jets_pizza,
Jet's Pizza,8190 Beechmont Ave,ANDERSON,OH,45255-6117,5134745387.0,"https://www.google.com/maps/place/Jet's+Pizza/@39.0732513,-84.3280522,17z/data=!3m1!4b1!4m5!3m4!1s0x8841a916b20dc46b:0x9c3577a598defb8f!8m2!3d39.0732513!4d-84.3280522",jets_pizza,
Jet's Pizza,437 E Atlantic Blvd,POMPANO BEACH,FL,33060-6214,9547825387.0,"https://www.google.com/maps/place/Jet's+Pizza/@26.2319622,-80.1195068,17z/data=!3m1!4b1!4m5!3m4!1s0x88d902929f333a3d:0xa248a51655228842!8m2!3d26.2319622!4d-80.1195068",jets_pizza,
Jet's Pizza,5430 McGinnis Ferry Rd,ALPHARETTA,GA,30005-3923,7707770691.0,"https://www.google.com/maps/place/Jet%E2%80%99s+Pizza+-+McGinnis+Ferry/@34.090345,-84.19878,17z/data=!3m1!4b1!4m5!3m4!1s0x88f59eba4ae3a18b:0xa50ed1548e5b88c4!8m2!3d34.090345!4d-84.19878",jets_pizza,
Jet's Pizza,24001 Peachland Blvd,PORT CHARLOTTE,FL,33954-3715,9416134040.0,"https://www.google.com/maps/place/Jet's+Pizza+Port+Charlotte/@27.0165841,-82.0566045,17z/data=!3m1!4b1!4m5!3m4!1s0x88dca896814fe0d7:0x8c5068fbd720341c!8m2!3d27.0165841!4d-82.0566045",jets_pizza,
Jet's Pizza,12410 Aberdeen St NE,BLAINE,MN,55449-5130,7637545387.0,"https://www.google.com/maps/place/Jet's+Pizza/@45.1953092,-93.2338972,17z/data=!3m1!4b1!4m5!3m4!1s0x52b32397a1c06283:0xffc1d52df4f4cc8e!8m2!3d45.1953092!4d-93.2338972",jets_pizza,
Jet's Pizza,26 Troy Rd,DELAWARE,OH,43015-4503,7403631600.0,"https://www.google.com/maps/place/Jet's+Pizza/@40.307243,-83.0891227,17z/data=!3m1!4b1!4m5!3m4!1s0x8838e4d81b1992cf:0xb08c60ce1a3b443a!8m2!3d40.307243!4d-83.0891227",jets_pizza,
Jet's Pizza,6813 N Green Bay Ave,GLENDALE,WI,53209-2820,4145330082.0,"https://www.google.com/maps/place/Jet's+Pizza/@43.1413411,-87.9342843,17z/data=!3m1!4b1!4m5!3m4!1s0x88051de2028d52c1:0xb0066e6c66a609f9!8m2!3d43.1413411!4d-87.9342843",jets_pizza,
Jet's Pizza,1490 E 86th St,INDIANAPOLIS,IN,46240-1912,3175717070.0,"https://www.google.com/maps/place/Jet's+Pizza+Nora/@39.9139197,-86.134234,17z/data=!3m1!4b1!4m5!3m4!1s0x886b532a79a9ac5b:0x8bafab3c2e2a52ea!8m2!3d39.9139197!4d-86.134234",jets_pizza,
Jet's Pizza,4637 S University Dr,DAVIE,FL,33328-3817,9548585387.0,"https://www.google.com/maps/place/Jet's+Pizza/@26.063423,-80.2539565,17z/data=!3m1!4b1!4m5!3m4!1s0x88d9a8405aa7b831:0xdd568376fff00725!8m2!3d26.063423!4d-80.2539565",jets_pizza,
Jet's Pizza,1811 W North Ave,CHICAGO,IL,60622-0202,7739048283.0,"https://www.google.com/maps/place/Jet's+Pizza/@41.9102344,-87.6731585,17z/data=!3m1!4b1!4m5!3m4!1s0x880fd2c6a695bfeb:0xc127969ffb388c5!8m2!3d41.9102344!4d-87.6731585",jets_pizza,
Jet's Pizza,16338 County Road 30,MAPLE GROVE,MN,55311-1207,7634167835.0,"https://www.google.com/maps/place/Jet's+Pizza/@45.1264219,-93.4879848,17z/data=!3m1!4b1!4m5!3m4!1s0x52b34651a207fd07:0xceb4beb97ef2d684!8m2!3d45.1264219!4d-93.4879848",jets_pizza,
Jet's Pizza,9 Chloe Pl,JACKSON,TN,38305-7014,7313007992.0,"https://www.google.com/maps/place/Jet's+Pizza/@35.6741927,-88.7826012,17z/data=!3m1!4b1!4m5!3m4!1s0x887c1d8c1a44021f:0xde85e3bfce3397a0!8m2!3d35.6741927!4d-88.7826012",jets_pizza,
Jet's Pizza,1110 Hillsboro Rd,FRANKLIN,TN,37064-2053,6154353375.0,"https://www.google.com/maps/place/Jet's+Pizza/@35.946601,-86.8795684,17z/data=!3m1!4b1!4m5!3m4!1s0x88647e6c89a7dac7:0x3b90627cdbbdb3fb!8m2!3d35.946601!4d-86.8795684",jets_pizza,
Jet's Pizza,2500 Bardstown Rd,LOUISVILLE,KY,40205-2675,5024585387.0,"https://www.google.com/maps/place/Jet's+Pizza/@38.222596,-85.684285,17z/data=!3m1!4b1!4m5!3m4!1s0x88690b58a0d0f5c5:0xb65225ab4ef7d2e4!8m2!3d38.222596!4d-85.684285",jets_pizza,
Jet's Pizza,10494 Westport Rd,LOUISVILLE,KY,40241-2093,5024261181.0,"https://www.google.com/maps/place/Jet's+Pizza/@38.293366,-85.558083,17z/data=!3m1!4b1!4m5!3m4!1s0x88699ef4f86af9dd:0xa2bd35940c24ab52!8m2!3d38.293366!4d-85.558083",jets_pizza,
Jet's Pizza,8176 S Holly St,CENTENNIAL,CO,80122-4004,3037415387.0,"https://www.google.com/maps/place/Jet's+Pizza/@39.5678706,-104.9221358,17z/data=!3m1!4b1!4m5!3m4!1s0x876c8413bd34311f:0x209a556f0d047ca4!8m2!3d39.5678706!4d-104.9221358",jets_pizza,
Jet's Pizza,7878 Broadview Rd,PARMA,OH,44134-6705,2163281900.0,"https://www.google.com/maps/place/Jet's+Pizza/@41.3514948,-81.6856405,17z/data=!3m1!4b1!4m5!3m4!1s0x8830e625e2ec2fe3:0x2cd2b95eb0afb974!8m2!3d41.3514948!4d-81.6856405",jets_pizza,
Jet's Pizza,1025 W Madison St,CHICAGO,IL,60607-2134,3125867290.0,"https://www.google.com/maps/place/Jet's+Pizza/@41.8815301,-87.6531985,17z/data=!3m1!4b1!4m5!3m4!1s0x880e2cdbe2e3e8c5:0x8d024d3e1611069!8m2!3d41.8815301!4d-87.6531985",jets_pizza,
Jet's Pizza,1216 N Main St,BOWLING GREEN,OH,43402-2348,4193530316.0,"https://www.google.com/maps/place/Jet's+Pizza/@41.3970675,-83.6499083,17z/data=!3m1!4b1!4m5!3m4!1s0x883c0b11ec13fe8b:0x49a18a8c71e7d650!8m2!3d41.3970675!4d-83.6499083",jets_pizza,
Jet's Pizza,10001 Springfield Pike,CINCINNATI,OH,45215-1426,5137715387.0,"https://www.google.com/maps/place/Jet's+Pizza/@39.2476073,-84.4712729,17z/data=!3m1!4b1!4m5!3m4!1s0x88404db74674f07b:0xf4022f5ac7a7bcfa!8m2!3d39.2476073!4d-84.4712729",jets_pizza,
Jet's Pizza,3160 Broadway,GROVE CITY,OH,43123,6149915999.0,"https://www.google.com/maps/place/Jet's+Pizza/@39.8994888,-83.078954,17z/data=!3m1!4b1!4m5!3m4!1s0x8838852acb0d3377:0x1ee7ef3068d41524!8m2!3d39.8994888!4d-83.078954",jets_pizza,
Jet's Pizza,1857 E. Kenilworth Pl,MILWAUKEE,WI,53202,4142763000.0,"https://www.google.com/maps/place/Jet's+Pizza/@43.0593222,-87.8866361,17z/data=!3m1!4b1!4m5!3m4!1s0x880518dd9fc71459:0xa07a23378a596391!8m2!3d43.0593222!4d-87.8866361",jets_pizza,
Jet's Pizza,1725 E. 10th St,JEFFERSONVILLE,IN,47130,8122822220.0,"https://www.google.com/maps/place/Jet's+Pizza/@38.3029058,-85.724717,17z/data=!3m1!4b1!4m5!3m4!1s0x886973cabc22d70b:0xf01fe688556ac7f4!8m2!3d38.3029058!4d-85.724717",jets_pizza,
Jet's Pizza,3510 W. Armitage,CHICAGO,IL,60647,7739055387.0,"https://www.google.com/maps/place/Jet's+Pizza/@41.9174917,-87.7141094,17z/data=!3m1!4b1!4m5!3m4!1s0x880fcd6a6fe9f69b:0x300cd4f6cffba4f5!8m2!3d41.9174917!4d-87.7141094",jets_pizza,
Jet's Pizza,3473 Hudson Dr,CUYAHOGA FALLS,OH,44221,2343340932.0,"https://www.google.com/maps/place/Jet's+Pizza/@41.162782,-81.4764582,17z/data=!3m1!4b1!4m5!3m4!1s0x883127aa2af68913:0x3bda20370fbbd3c1!8m2!3d41.162782!4d-81.4764582",jets_pizza,
Jet's Pizza,2408 Spring Garden Rd,GREENSBORO,NC,27403,3362797099.0,"https://www.google.com/maps/place/Jet's+Pizza/@36.0645461,-79.8330881,17z/data=!3m1!4b1!4m5!3m4!1s0x88531bdedce0786d:0xdb86c1a677eda4a8!8m2!3d36.0645461!4d-79.8330881",jets_pizza,
Jet's Pizza,19878 East Hilltop Rd,PARKER,CO,80134,7204407200.0,"https://www.google.com/maps/place/Jet's+Pizza/@39.5089355,-104.7582583,17z/data=!3m1!4b1!4m5!3m4!1s0x876c91f38a892807:0x826a1a592ae07b24!8m2!3d39.5089355!4d-104.7582583",jets_pizza,
Jet's Pizza,1242 West 5Th Ave,GRANDVIEW,OH,43212,6145020428.0,"https://www.google.com/maps/place/Jet's+Pizza/@39.9888422,-83.0393675,17z/data=!3m1!4b1!4m5!3m4!1s0x88388fab26b31959:0xf56e7ee09f016511!8m2!3d39.9888422!4d-83.0393675",jets_pizza,
Jet's Pizza,5124K Old Charlotte Hwy,MONROE,NC,28110,7042902101.0,"https://www.google.com/maps/place/Jet's+Pizza/@35.0474069,-80.6415896,17z/data=!3m1!4b1!4m5!3m4!1s0x8854257e0426c9d5:0x925a0dd4d2468f1d!8m2!3d35.0474069!4d-80.6415896",jets_pizza,
Jet's Pizza,831 North Lincoln Rd,ESCANABA,MI,49829,9062122156.0,"https://www.google.com/maps/place/Jet's+Pizza/@45.756249,-87.0775429,17z/data=!3m1!4b1!4m5!3m4!1s0x4d4dbc61601e6013:0x4dc369b1e8dc55d4!8m2!3d45.756249!4d-87.0775429",jets_pizza,
Jet's Pizza,4245 South Arizona Ave,CHANDLER,AZ,85248,4808957492.0,"https://www.google.com/maps/place/Jet's+Pizza/@33.244199,-111.840542,17z/data=!3m1!4b1!4m5!3m4!1s0x872baabbb53ad405:0x52f4e83b509829fa!8m2!3d33.244199!4d-111.840542",jets_pizza,
Jet's Pizza,10855 North Tatum Blvd,PHOENIX,AZ,85028,4809989889.0,"https://www.google.com/maps/place/Jet's+Pizza/@33.5859531,-111.9767696,17z/data=!3m1!4b1!4m5!3m4!1s0x872b730b490f1b3d:0xc0bd8defa48f5e!8m2!3d33.5859531!4d-111.9767696",jets_pizza,
