Company Name,Address 1,City,State,Zip,Phone,Google Link,Status
Mellow Mushroom,9734 Deer Lake Ct,JACKSONVILLE,FL,32246-4468,9049971955.0,"https://www.google.com/maps/place/Mellow+Mushroom+Jacksonville+-+Town+Center/@30.2651668,-81.5550453,17z/data=!3m1!4b1!4m5!3m4!1s0x88e5b5799157db19:0xbbcf78ab6549164e!8m2!3d30.2651668!4d-81.5550453",
Mellow Mushroom,960 Highway 98 E,DESTIN,FL,32541-2843,8506506420.0,"https://www.google.com/maps/place/Mellow+Mushroom+Destin/@30.3875821,-86.4765873,17z/data=!3m1!4b1!4m5!3m4!1s0x88914475782a087d:0xc40dfecd72b35df1!8m2!3d30.3875821!4d-86.4765873",
Mellow Mushroom,903 Parkway,GATLINBURG,TN,37738-3181,8652770600.0,"https://www.google.com/maps/place/Mellow+Mushroom+Gatlinburg/@35.7107838,-83.5193713,17z/data=!3m1!4b1!4m5!3m4!1s0x885955c51f27e651:0xa90c300135ed615d!8m2!3d35.7107838!4d-83.5193713",
Mellow Mushroom,767 Huffman Mill Rd,BURLINGTON,NC,27215-5124,3365841104.0,"https://www.google.com/maps/place/Mellow+Mushroom+Burlington/@36.0714457,-79.4942265,17z/data=!3m1!4b1!4m5!3m4!1s0x88532937947b5f2f:0xc1741c2c916ef1bc!8m2!3d36.0714457!4d-79.4942265",
Mellow Mushroom,740 S Mill Ave,TEMPE,AZ,85281-3629,4809676355.0,"https://www.google.com/maps/place/Mellow+Mushroom+Tempe/@33.4230072,-111.9403907,17z/data=!3m1!4b1!4m5!3m4!1s0x872b08d77df86b43:0xcc0c4ccecc5e33c6!8m2!3d33.4230072!4d-111.9403907",
Mellow Mushroom,6121 Cedarcrest Rd NW,ACWORTH,GA,30101-4205,6784026009.0,"https://www.google.com/maps/place/Mellow+Mushroom+Acworth/@34.062675,-84.7253737,17z/data=!3m1!4b1!4m5!3m4!1s0x88f547f911377615:0xc00c29af9f1b812c!8m2!3d34.062675!4d-84.7253737",
Mellow Mushroom,609 S Elm St,GREENSBORO,NC,27406-1327,3362352840.0,"https://www.google.com/maps/place/Mellow+Mushroom+Greensboro/@36.0655658,-79.790541,17z/data=!3m1!4b1!4m5!3m4!1s0x88531921f8ede867:0x8b004857a15da73a!8m2!3d36.0655658!4d-79.790541",
Mellow Mushroom,5575 Chamblee Dunwoody Rd,DUNWOODY,GA,30338-4150,7703961696.0,"https://www.google.com/maps/place/Mellow+Mushroom+Dunwoody/@33.9505111,-84.3359547,17z/data=!3m1!4b1!4m5!3m4!1s0x88f50be97eb087ad:0xd177338750c30e27!8m2!3d33.9505111!4d-84.3359547",
Mellow Mushroom,4855 Tanger Outlet Blvd,NORTH CHARLESTON,SC,29418-6950,8437909000.0,"https://www.google.com/maps/place/Mellow+Mushroom+North+Charleston/@32.872197,-80.0157063,17z/data=!3m1!4b1!4m5!3m4!1s0x88fe635bb81b3355:0x4cd56b3a4fc4e22d!8m2!3d32.872197!4d-80.0157063",
Mellow Mushroom,464 E Main St,SPARTANBURG,SC,29302-1926,8645825495.0,"https://www.google.com/maps/place/Mellow+Mushroom/@34.9526748,-81.9220447,17z/data=!4m5!3m4!1s0x88577585eb81acc9:0x324307dab091d6c4!8m2!3d34.9526704!4d-81.919856?hl=en",
Mellow Mushroom,440 Kings Way,ST SIMONS IS,GA,31522-4320,9122919108.0,"https://www.google.com/maps/place/Mellow+Mushroom+St.+Simons+Island/@31.1367943,-81.3962372,17z/data=!3m1!4b1!4m5!3m4!1s0x88e4da6868fe9577:0xdec15fecca07df55!8m2!3d31.1367943!4d-81.3962372",
Mellow Mushroom,4348 Washington Rd,EVANS,GA,30809-3938,7063646756.0,"https://www.google.com/maps/place/Mellow+Mushroom+Evans/@33.5397288,-82.1327933,17z/data=!3m1!4b1!4m5!3m4!1s0x88f9d4a949beccf3:0x66081a1707ca12e7!8m2!3d33.5397288!4d-82.1327933",
Mellow Mushroom,4300 NW Cary Pkwy,CARY,NC,27513-8413,9194637779.0,"https://www.google.com/maps/place/Mellow+Mushroom+Cary/@35.7902031,-78.8280888,17z/data=!3m1!4b1!4m5!3m4!1s0x89acf27ca0ed491f:0x9fae344e4ed2a6dc!8m2!3d35.7902031!4d-78.8280888",
Mellow Mushroom,4058 Peachtree Rd NE,BROOKHAVEN,GA,30319-3019,4042661661.0,"https://www.google.com/maps/place/Mellow+Mushroom+Atlanta+-+Brookhaven/@33.8613636,-84.3400242,17z/data=!3m1!4b1!4m5!3m4!1s0x88f508bbce2d0c37:0x10d2ba02eb030c5e!8m2!3d33.8613636!4d-84.3400242",
Mellow Mushroom,3611 Saint Johns Ave,JACKSONVILLE,FL,32205-9025,9043880200.0,"https://www.google.com/maps/place/Mellow+Mushroom+Jacksonville+-+Avondale/@30.2963658,-81.7046972,17z/data=!3m1!4b1!4m5!3m4!1s0x88e5b83b003f55c1:0xed1f32c6f02de4cd!8m2!3d30.2963658!4d-81.7046972",
Mellow Mushroom,3500 Lee Hwy,BRISTOL,VA,24202-5544,2766443663.0,"https://www.google.com/maps/place/Mellow+Mushroom+Bristol/@36.637469,-82.1157088,17z/data=!3m1!4b1!4m5!3m4!1s0x8850739033649805:0x8607227932e7d0a3!8m2!3d36.637469!4d-82.1157088",
Mellow Mushroom,3012 W Cary St,RICHMOND,VA,23221-3502,8043708210.0,"https://www.google.com/maps/place/Mellow+Mushroom+Richmond+-+Carytown/@37.5528358,-77.4792654,17z/data=!3m1!4b1!4m5!3m4!1s0x89b113e52ea2f825:0xf6e41baddfe327c!8m2!3d37.5528358!4d-77.4792654",
Mellow Mushroom,29698 Frederick Blvd,DAPHNE,AL,36526-9578,2516213911.0,"https://www.google.com/maps/place/Mellow+Mushroom+Daphne/@30.6597325,-87.8532616,17z/data=!3m1!4b1!4m5!3m4!1s0x889a429d528aaa29:0x850bf999f7298168!8m2!3d30.6597325!4d-87.8532616",
Mellow Mushroom,2955 S Rutherford Blvd,MURFREESBORO,TN,37130-0718,6158908898.0,"https://www.google.com/maps/place/Mellow+Mushroom/@35.8330193,-86.3543087,17z/data=!4m5!3m4!1s0x8863f8c6a168daa7:0x1c24f2b646a460b8!8m2!3d35.833015!4d-86.35212?hl=en",
Mellow Mushroom,2950 New Paces Ferry Rd SE,VININGS,GA,30339-6226,7704355949.0,"https://www.google.com/maps/place/Mellow+Mushroom+Atlanta+-+Vinings/@33.8650912,-84.4677438,17z/data=!3m1!4b1!4m5!3m4!1s0x88f5106f00d5227b:0x337f5f519a8d3d20!8m2!3d33.8650912!4d-84.4677438",
Mellow Mushroom,2825 Nottingham Way,ALBANY,GA,31707-1284,2298884646.0,"https://www.google.com/maps/place/Mellow+Mushroom+Albany/@31.621736,-84.2048314,17z/data=!3m1!4b1!4m5!3m4!1s0x88f27c686305fdcb:0xeb098c94b40e9265!8m2!3d31.621736!4d-84.2048314",
Mellow Mushroom,275 Highway 74 N,PEACHTREE CITY,GA,30269-1492,7706326018.0,"https://www.google.com/maps/place/Mellow+Mushroom+Peachtree+City/@33.4070066,-84.6000694,17z/data=!3m1!4b1!4m5!3m4!1s0x88f4e9fd1f6221ff:0x3201d4a9d252f121!8m2!3d33.4070066!4d-84.6000694",
Mellow Mushroom,260 Market St,NEW ALBANY,OH,43054-9714,6142454234.0,"https://www.google.com/maps/place/Mellow+Mushroom+New+Albany/@40.0807321,-82.8144976,17z/data=!3m1!4b1!4m5!3m4!1s0x883867514eb77a3d:0xea68f8767f17cb27!8m2!3d40.0807321!4d-82.8144976",
Mellow Mushroom,2436 18th St NW,WASHINGTON,DC,20009-2004,2022902778.0,"https://www.google.com/maps/place/Mellow+Mushroom+Washington+DC+-+Adams+Morgan/@38.9215402,-77.042678,17z/data=!3m1!4b1!4m5!3m4!1s0x89b7b7da310e67dd:0x9387ca1e917e7281!8m2!3d38.9215402!4d-77.042678",
Mellow Mushroom,238 Broad St,ROME,GA,30161-3022,7062349000.0,"https://www.google.com/maps/place/Mellow+Mushroom+Rome/@34.2532268,-85.1732581,17z/data=!3m1!4b1!4m5!3m4!1s0x888aa4beb2588241:0xcac007f35e7360bf!8m2!3d34.2532268!4d-85.1732581",
Mellow Mushroom,2340 E 116th St,CARMEL,IN,46032-3217,3178462400.0,"https://www.google.com/maps/place/Mellow+Mushroom+Carmel/@39.9577274,-86.1156666,17z/data=!3m1!4b1!4m5!3m4!1s0x8814ad0a8f8e7ae7:0xbc019fffe5695800!8m2!3d39.9577274!4d-86.1156666",
Mellow Mushroom,2303 S McKenzie St,FOLEY,AL,36535-3403,2519701414.0,"https://www.google.com/maps/place/Mellow+Mushroom+Foley/@30.3803262,-87.682421,17z/data=!3m1!4b1!4m5!3m4!1s0x889a0e312e6da413:0x7b3bce9cb37b69b6!8m2!3d30.3803262!4d-87.682421",
Mellow Mushroom,2239 Franklin Rd SW,ROANOKE,VA,24014-1109,5405129822.0,"https://www.google.com/maps/place/Mellow+Mushroom+Roanoke/@37.250966,-79.954629,17z/data=!3m1!4b1!4m5!3m4!1s0x884d0d064eaba4c9:0xf0fe949c6d9e7632!8m2!3d37.250966!4d-79.954629",
Mellow Mushroom,2230 Cecil Ashburn Dr SE,HUNTSVILLE,AL,35802-2585,2568830232.0,"https://www.google.com/maps/place/Mellow+Mushroom+Huntsville+South/@34.6722793,-86.534537,17z/data=!3m1!4b1!4m5!3m4!1s0x886212513ce62bf3:0x9e20c6ecaf157b1c!8m2!3d34.6722793!4d-86.534537",
Mellow Mushroom,2109 Cumberland Ave,KNOXVILLE,TN,37916-2809,8656874766.0,"https://www.google.com/maps/place/Mellow+Mushroom+Knoxville/@35.9546803,-83.9380247,17z/data=!3m1!4b1!4m5!3m4!1s0x885c3d5c24e560fd:0x47b6b7a11e4209f5!8m2!3d35.9546803!4d-83.9380247",
Mellow Mushroom,2000 Powers Ferry Rd SE,MARIETTA,GA,30067-9476,7709338584.0,"https://www.google.com/maps/place/Mellow+Mushroom+Marietta+-+Powers+Ferry/@33.906101,-84.4651794,17z/data=!3m1!4b1!4m5!3m4!1s0x88f511b0afc5339d:0x90b9a3b68bc2de4d!8m2!3d33.906101!4d-84.4651794",
Mellow Mushroom,2000 Main Street East Hwy 78,SNELLVILLE,GA,30078,7707369396.0,"https://www.google.com/maps/place/Mellow+Mushroom+Snellville/@33.8560854,-83.9972882,17z/data=!3m1!4b1!4m5!3m4!1s0x88f5b995dd73f1cb:0x75e4d6efb19af556!8m2!3d33.8560854!4d-83.9972882",
Mellow Mushroom,1940 Cinema Dr,ROCK HILL,SC,29730-8909,8033294743.0,"https://www.google.com/maps/place/Mellow+Mushroom+Rock+Hill/@34.9439054,-80.9777245,17z/data=!3m1!4b1!4m5!3m4!1s0x8856f59e7b547343:0x88d76fcbc49e7b28!8m2!3d34.9439054!4d-80.9777245",
Mellow Mushroom,1919 Magnolia Road,CHARLESTON,SC,29407,8437474992.0,"https://www.google.com/maps/place/Mellow+Mushroom+Charleston+-+West+Ashley/@32.7825896,-79.9860971,17z/data=!3m1!4b1!4m5!3m4!1s0x88fe7bc274f5a7d7:0x8546344e5d3047e0!8m2!3d32.7825896!4d-79.9860971",
Mellow Mushroom,920 Inverness Cors,BIRMINGHAM,AL,35242-3785,2059819914.0,"https://www.google.com/maps/place/Mellow+Mushroom+Hoover/@33.4161503,-86.6954933,17z/data=!3m1!4b1!4m5!3m4!1s0x888917cdbb377ab5:0x9db51693f2790575!8m2!3d33.4161503!4d-86.6954933",
Mellow Mushroom,7915 Vaughn Rd,MONTGOMERY,AL,36116-6632,3342136443.0,"https://www.google.com/maps/place/Mellow+Mushroom/@32.3403344,-86.1770923,17z/data=!3m1!4b1!4m5!3m4!1s0x888c2b7ea29dd113:0x6323e5efe254bd64!8m2!3d32.3403344!4d-86.1770923",
Mellow Mushroom,635 N Campbell Station Rd,FARRAGUT,TN,37934-1628,8657776768.0,"https://www.google.com/maps/place/Mellow+Mushroom+Farragut/@35.8940185,-84.1747068,17z/data=!3m1!4b1!4m5!3m4!1s0x885c2e8fded3af81:0xe229734467586400!8m2!3d35.8940185!4d-84.1747068",
Mellow Mushroom,5790 Journeys End Way,PORT ORANGE,FL,32127-4714,3869449900.0,"https://www.google.com/maps/place/Mellow+Mushroom+Port+Orange/@29.1065835,-81.0266547,17z/data=!3m1!4b1!4m5!3m4!1s0x88e7279cb5f1e717:0xab430641065f12a2!8m2!3d29.1065835!4d-81.0266547",
Mellow Mushroom,5175 Bayou Blvd,PENSACOLA,FL,32503-2101,8504757575.0,"https://www.google.com/maps/place/Mellow+Mushroom+Pensacola/@30.4742593,-87.2169317,17z/data=!3m1!4b1!4m5!3m4!1s0x8890c0735f53386f:0x81b9dba2cfb839e2!8m2!3d30.4742593!4d-87.2169317",
Mellow Mushroom,5138 Park Ave,MEMPHIS,TN,38117-5718,9015621211.0,"https://www.google.com/maps/place/Mellow+Mushroom+Memphis/@35.1066505,-89.8905305,17z/data=!3m1!4b1!4m5!3m4!1s0x887f8460f6b34799:0x888ce7136894bed2!8m2!3d35.1066505!4d-89.8905305",
Mellow Mushroom,470 Providence Main St NW,HUNTSVILLE,AL,35806-4840,2568642727.0,"https://www.google.com/maps/place/Mellow+Mushroom+Huntsville/@34.7543565,-86.6918105,17z/data=!3m1!4b1!4m5!3m4!1s0x88626919d2f33397:0x654202dda049fb5f!8m2!3d34.7543565!4d-86.6918105",
Mellow Mushroom,4311 Oleander Dr,WILMINGTON,NC,28403-5007,9104523773.0,"https://www.google.com/maps/place/Mellow+Mushroom+Wilmington/@34.2110926,-77.8899669,17z/data=!3m1!4b1!4m5!3m4!1s0x89a9f5a937005ec9:0x93f20626c221805b!8m2!3d34.2110926!4d-77.8899669",
Mellow Mushroom,4250 Burbank Dr,BATON ROUGE,LA,70808-4572,2254906355.0,"https://www.google.com/maps/place/Mellow+Mushroom/@30.2549026,-94.4412083,7z/data=!4m8!1m2!2m1!1sMellow+Mushroom+4250+Burbank+Dr+BATON+ROUGE+LA+70808-4572!3m4!1s0x8626a71dd3c032ff:0x8ec83b4dad76c6cf!8m2!3d30.4006976!4d-91.1760537?hl=en",
Mellow Mushroom,410 Peachtree Pkwy,CUMMING,GA,30041-7066,7708888885.0,"https://www.google.com/maps/place/Mellow+Mushroom+Cumming/@34.1525907,-84.1762145,17z/data=!3m1!4b1!4m5!3m4!1s0x88f59b79f48d4b71:0xa15f13b4f2d86832!8m2!3d34.1525907!4d-84.1762145",
Mellow Mushroom,3455 Blue Bonnet Cir,FORT WORTH,TX,76109-2953,8172079677.0,"https://www.google.com/maps/place/Mellow+Mushroom+Fort+Worth/@32.6998283,-97.3600895,17z/data=!3m1!4b1!4m5!3m4!1s0x864e721a28284545:0x54b2a0ad2bca19b3!8m2!3d32.6998283!4d-97.3600895",
Mellow Mushroom,33 Office Park Rd,HILTON HEAD ISLAND,SC,29928-4612,8436862474.0,"https://www.google.com/maps/place/Mellow+Mushroom+Hilton+Head+Island/@32.1537704,-80.7674484,17z/data=!3m1!4b1!4m5!3m4!1s0x88fc78fff338e8ef:0xf653708a4d337b78!8m2!3d32.1537704!4d-80.7674484",
Mellow Mushroom,320 Town Center Ave,SUWANEE,GA,30024-8100,6787142233.0,"https://www.google.com/maps/place/Mellow+Mushroom+Suwanee/@34.0560302,-84.0628252,17z/data=!3m1!4b1!4m5!3m4!1s0x88f59700b523a14f:0xe24ee94a3cfcec97!8m2!3d34.0560302!4d-84.0628252",
Mellow Mushroom,309 King St,CHARLESTON,SC,29401-1410,8437237374.0,"https://www.google.com/maps/place/Mellow+Mushroom/@32.8277676,-80.0453661,12z/data=!4m8!1m2!2m1!1sMellow+Mushroom+309+King+St+CHARLESTON+SC+29401-1410!3m4!1s0x88fe7a136c25db1d:0x2532a89effdfb2c0!8m2!3d32.783651!4d-79.934946?hl=en",
Mellow Mushroom,224 Causeway Dr,WRIGHTSVILLE BEACH,NC,28480-1735,9106794645.0,"https://www.google.com/maps/place/Mellow+Mushroom+Wrightsville+Beach/@34.2153437,-77.8086823,17z/data=!3m1!4b1!4m5!3m4!1s0x89a9f30c24954b1f:0xb2c823c7360dc98b!8m2!3d34.2153437!4d-77.8086823",
Mellow Mushroom,218 E Louisiana St,MCKINNEY,TX,75069-4343,9725482800.0,"https://www.google.com/maps/place/Mellow+Mushroom+McKinney/@33.1970775,-96.6141215,17z/data=!3m1!4b1!4m5!3m4!1s0x864c1249b8170641:0x61e456587a0c3559!8m2!3d33.1970775!4d-96.6141215",
Mellow Mushroom,212 21st Ave S,NASHVILLE,TN,37203-2401,6153420044.0,"https://www.google.com/maps/place/Mellow+Mushroom+Nashville+-+Vanderbilt/@36.1475075,-86.7990762,17z/data=!3m1!4b1!4m5!3m4!1s0x88646696f3546719:0x9043bdfd1e56441f!8m2!3d36.1475075!4d-86.7990762",
Mellow Mushroom,1800 Town Center Blvd,FLEMING ISLAND,FL,32003-6312,9045411999.0,"https://www.google.com/maps/place/Mellow+Mushroom+Fleming+Island/@30.0985913,-81.7132852,17z/data=!3m1!4b1!4m5!3m4!1s0x88e5c538a8f1b8e1:0xfed10c27d63b8e05!8m2!3d30.0985913!4d-81.7132852",
Mellow Mushroom,1679 Lavista Rd NE,ATLANTA,GA,30329-3414,4043250330.0,"https://www.google.com/maps/place/Mellow+Mushroom+Atlanta+-+Emory/@33.8161704,-84.3350127,17z/data=!4m5!3m4!1s0x88f506420eb7ce51:0xb2c6c7c4e5482cdc!8m2!3d33.816166!4d-84.332824?hl=en",
Mellow Mushroom,1571 21st Ave N,MYRTLE BEACH,SC,29577-7441,8434441122.0,"https://www.google.com/maps/place/Mellow+Mushroom+Myrtle+Beach/@33.7151231,-78.8899953,17z/data=!3m1!4b1!4m5!3m4!1s0x89006918d9be7a15:0xa792259af25ab75c!8m2!3d33.7151231!4d-78.8899953",
Mellow Mushroom,14835 Ballantyne Village Way,CHARLOTTE,NC,28277-4305,7043695300.0,"https://www.google.com/maps/place/Mellow+Mushroom+Charlotte+-+Ballantyne/@35.0536994,-80.8512597,17z/data=!3m1!4b1!4m5!3m4!1s0x88569d29a997c7cf:0x80ca914447250777!8m2!3d35.0536994!4d-80.8512597",
Mellow Mushroom,1201 16th St,DENVER,CO,80202-1567,7203289114.0,"https://www.google.com/maps/place/Mellow+Mushroom+Downtown+Denver/@39.7489503,-104.9967004,17z/data=!3m1!4b1!4m5!3m4!1s0x876c78dad46217b7:0xeca31ee91a946800!8m2!3d39.7489503!4d-104.9967004",
Mellow Mushroom,1167 Broad St,AUGUSTA,GA,30901-1117,7068285578.0,"https://www.google.com/maps/place/Mellow+Mushroom+Augusta/@33.4779841,-81.9723684,17z/data=!3m1!4b1!4m5!3m4!1s0x88f9cc68f96a4b95:0xb1983ad1ae56bb61!8m2!3d33.4779841!4d-81.9723684",
Mellow Mushroom,1101 Highway 17 N,NORTH MYRTLE BEACH,SC,29582,8432730595.0,"https://www.google.com/maps/place/Mellow+Mushroom/@33.8389762,-78.6674418,17z/data=!3m1!4b1!4m5!3m4!1s0x890068ff710a550d:0x6008a05089015078!8m2!3d33.8389762!4d-78.6674418",
Mellow Mushroom,1098 Bermuda Run,STATESBORO,GA,30458-0877,9126814743.0,"https://www.google.com/maps/place/Mellow+Mushroom+Statesboro/@32.4126018,-81.771872,17z/data=!3m1!4b1!4m5!3m4!1s0x88fa4731e18aff99:0x55e89a66aab13e3f!8m2!3d32.4126018!4d-81.771872",
Mellow Mushroom,10959 Causeway Blvd,BRANDON,FL,33511-1997,8136851122.0,"https://www.google.com/maps/place/Mellow+Mushroom+Brandon/@27.9222504,-82.328602,17z/data=!3m1!4b1!4m5!3m4!1s0x88c2ce40abf234b5:0x571731c7d15fc84c!8m2!3d27.9222504!4d-82.328602",
Mellow Mushroom,10725 International Dr,ORLANDO,FL,32821-7420,4073519670.0,"https://www.google.com/maps/place/Mellow+Mushroom+Orlando+-+International+Drive/@28.4105116,-81.4555308,17z/data=!3m1!4b1!4m5!3m4!1s0x88e77e241c851873:0x5a1332b614931bc5!8m2!3d28.4105116!4d-81.4555308",
Mellow Mushroom,105 Harmony Xing,EATONTON,GA,31024-9522,7064842074.0,"https://www.google.com/maps/place/Mellow+Mushroom+Lake+Oconee/@33.4228119,-83.2678797,17z/data=!3m1!4b1!4m5!3m4!1s0x88f692bcb8500559:0x7a1fc0466b309fae!8m2!3d33.4228119!4d-83.2678797",
Mellow Mushroom,79 Commerce St,MONTGOMERY,AL,36104-2508,3342393688.0,"https://www.google.com/maps/place/Mellow+Mushroom+Downtown+Montgomery/@32.3786284,-86.3107357,17z/data=!3m1!4b1!4m5!3m4!1s0x888e816ee1893a99:0x954b86d7d3cb19f1!8m2!3d32.3786284!4d-86.3107357",
Mellow Mushroom,1 Augusta St,GREENVILLE,SC,29601-3525,8642339020.0,"https://www.google.com/maps/place/Mellow+Mushroom+Greenville/@34.8439797,-82.4044864,17z/data=!3m1!4b1!4m5!3m4!1s0x885830335cd645d7:0x6c0ba2d6ba0a8195!8m2!3d34.8439797!4d-82.4044864",
Mellow Mushroom,205 Broad St,CHATTANOOGA,TN,37402-1010,4232665564.0,"https://www.google.com/maps/place/Mellow+Mushroom+Chattanooga+-+Downtown/@35.0542261,-85.3110919,17z/data=!3m1!4b1!4m5!3m4!1s0x88605e6175728a0b:0x646538c7793d4ed8!8m2!3d35.0542261!4d-85.3110919",
Mellow Mushroom,2020 Charles Blvd,GREENVILLE,NC,27858-5146,2525658220.0,"https://www.google.com/maps/place/Mellow+Mushroom+Greenville/@35.5871465,-77.3657955,17z/data=!3m1!4b1!4m5!3m4!1s0x89aedd5a7bddd1cf:0x89c231ee63b6c511!8m2!3d35.5871465!4d-77.3657955",
Mellow Mushroom,202 Moulton St E,DECATUR,AL,35601-2324,2563555161.0,"https://www.google.com/maps/place/Mellow+Mushroom+Decatur/@34.6041078,-86.9848612,17z/data=!3m1!4b1!4m5!3m4!1s0x8862842ad675a2a3:0x51a12f2e3c77b09c!8m2!3d34.6041078!4d-86.9848612",
Mellow Mushroom,2015 Aloma Ave,WINTER PARK,FL,32792-3319,4076577755.0,"https://www.google.com/maps/place/Mellow+Mushroom+Winter+Park/@28.6009723,-81.3237228,17z/data=!3m1!4b1!4m5!3m4!1s0x88e76fe96145f46f:0xc572051a56449d4!8m2!3d28.6009723!4d-81.3237228",
Mellow Mushroom,200 N Center St,ARLINGTON,TX,76011-7535,8172747173.0,"https://www.google.com/maps/place/Mellow+Mushroom+Arlington/@32.7380418,-97.1072989,17z/data=!3m1!4b1!4m5!3m4!1s0x864e7d76c4b230df:0xabddbb9ed3b5ff86!8m2!3d32.7380418!4d-97.1072989",
Mellow Mushroom,19333 Detroit Rd,CLEVELAND,OH,44116,4403567171.0,"https://www.google.com/maps/place/Mellow+Mushroom+Rocky+River/@41.4811919,-81.8364882,17z/data=!3m1!4b1!4m5!3m4!1s0x8830f290845de281:0x938547f3dd51f90b!8m2!3d41.4811919!4d-81.8364882",
Mellow Mushroom,1919 N Shepherd Dr,HOUSTON,TX,77008-3627,2819745010.0,"https://www.google.com/maps/place/Mellow+Mushroom+Houston+Heights/@29.8034583,-95.4107605,17z/data=!3m1!4b1!4m5!3m4!1s0x8640c76dc901eb4d:0xa194ce91cd55fc7!8m2!3d29.8034583!4d-95.4107605",
Mellow Mushroom,1880 Highway 20 SE,CONYERS,GA,30013-2046,7707614500.0,"https://www.google.com/maps/place/Mellow+Mushroom+Conyers/@33.6378948,-84.0137811,17z/data=!3m1!4b1!4m5!3m4!1s0x88f44b59aa1a8b93:0xf593b4f5a8b66146!8m2!3d33.6378948!4d-84.0137811",
Mellow Mushroom,1665 S Stapley Dr,MESA,AZ,85204,4808921399.0,"https://www.google.com/maps/place/Mellow+Mushroom+Mesa/@33.3825383,-111.8051024,17z/data=!3m1!4b1!4m5!3m4!1s0x872ba8f44fbe6959:0x3a60a8ccd824554b!8m2!3d33.3825383!4d-111.8051024",
Mellow Mushroom,1641 W Pensacola St,TALLAHASSEE,FL,32304-3641,8505750050.0,"https://www.google.com/maps/place/Mellow+Mushroom/@30.4398568,-84.3090433,17z/data=!3m1!4b1!4m5!3m4!1s0x88ecf5036a5c31df:0x639cabff9a85e5df!8m2!3d30.4398568!4d-84.3090433",
Mellow Mushroom,16103 Chenal Pkwy,LITTLE ROCK,AR,72223-5903,5013799157.0,"https://www.google.com/maps/place/Mellow+Mushroom+Little+Rock/@34.75647,-92.4473214,17z/data=!3m1!4b1!4m5!3m4!1s0x87d2a0b1127e4eb7:0xae8dd55b30d973f7!8m2!3d34.75647!4d-92.4473214",
Mellow Mushroom,1460 E Augustine Ln,FAYETTEVILLE,AR,72703,4795211001.0,"https://www.google.com/maps/place/Mellow+Mushroom+Fayetteville/@36.1216925,-94.1384891,17z/data=!3m1!4b1!4m5!3m4!1s0x87c96bec2c93bf43:0xf84e108b98e7058b!8m2!3d36.1216925!4d-94.1384891",
Mellow Mushroom,1200 20th St S,BIRMINGHAM,AL,35205-3859,2052129420.0,"https://www.google.com/maps/place/Mellow+Mushroom+Birmingham/@33.4992621,-86.7959398,17z/data=!3m1!4b1!4m5!3m4!1s0x88891bc4bc1c4939:0x74f142cb2142b1b8!8m2!3d33.4992621!4d-86.7959398",
Mellow Mushroom,11 W Liberty St,SAVANNAH,GA,31401-3905,9124950705.0,"https://www.google.com/maps/place/Mellow+Mushroom+Savannah/@32.0745104,-81.0941103,17z/data=!3m1!4b1!4m5!3m4!1s0x88fb9e68e937b827:0x56aa76881395b96!8m2!3d32.0745104!4d-81.0941103",
Mellow Mushroom,1080 E 2100 S,SALT LAKE CITY,UT,84106,8018441444.0,"https://www.google.com/maps/place/Mellow+Mushroom/@37.0238616,-114.1435445,7z/data=!4m8!1m2!2m1!1sMellow+Mushroom+1080+E+2100+S+SALT+LAKE+CITY+UT+84106!3m4!1s0x87528aa6cd6b88cf:0xace035552a6a853b!8m2!3d40.725102!4d-111.860202?hl=en",
Mellow Mushroom,10600 Forest Hill Blvd,WELLINGTON,FL,33414-3165,5613339939.0,"https://www.google.com/maps/place/Mellow+Mushroom/@26.6506999,-80.217022,17z/data=!4m5!3m4!1s0x88d92f616973e615:0xd426586bd8049ccd!8m2!3d26.6506951!4d-80.2148333?hl=en",
Mellow Mushroom,1035 Chestnut St,BOWLING GREEN,KY,42101-2609,2703931800.0,"https://www.google.com/maps/place/Mellow+Mushroom+Bowling+Green/@36.9903275,-86.4422867,17z/data=!3m1!4b1!4m5!3m4!1s0x8865ef34450ffa81:0x5263143d6ab7405c!8m2!3d36.9903275!4d-86.4422867",
Mellow Mushroom,1030 Elden St,HERNDON,VA,20170-3801,7037079300.0,"https://www.google.com/maps/place/Mellow+Mushroom+Herndon/@38.9676002,-77.396362,17z/data=!3m1!4b1!4m5!3m4!1s0x89b6380a1088ac79:0x712603bf8f5735a5!8m2!3d38.9676002!4d-77.396362",
Mellow Mushroom,101 W 2nd St,OWENSBORO,KY,42303-4112,2706847800.0,"https://www.google.com/maps/place/Mellow+Mushroom+Owensboro/@37.7751875,-87.1113789,17z/data=!3m1!4b1!4m5!3m4!1s0x886fb082c13c1bc3:0x50150a140e07dd30!8m2!3d37.7751875!4d-87.1113789",
Mellow Mushroom,12171 West Broad St,RICHMOND,VA,23233,8043643111.0,"https://www.google.com/maps/place/Mellow+Mushroom+Short+Pump/@37.6594158,-77.6359946,17z/data=!3m1!4b1!4m5!3m4!1s0x89b16a0bf0c7cc03:0x72d3a3a062c2dfc!8m2!3d37.6594158!4d-77.6359946",
Mellow Mushroom,131 Island Dr,PIGEON FORGE,TN,37863,8652863800.0,"https://www.google.com/maps/place/Mellow+Mushroom+Pigeon+Forge+Island/@35.8064659,-83.5788422,16z/data=!4m8!1m2!2m1!1sMellow+Mushroom+131+Island+Dr+PIGEON+FORGE+TN+37863!3m4!1s0x885bff6b84484f47:0x20563e5d442f4f2e!8m2!3d35.8041716!4d-83.5717216?hl=en",
Mellow Mushroom,1409 Huguenot Rd,MIDLOTHIAN,VA,23113,8045940100.0,"https://www.google.com/maps/place/Mellow+Mushroom+Midlothian/@37.5128282,-77.6142442,17z/data=!3m1!4b1!4m5!3m4!1s0x89b16d9929131f87:0x885419e61f52738d!8m2!3d37.5128282!4d-77.6142442",
Mellow Mushroom,14335 Newbrook Dr,CHANTILLY,VA,20151,7034801295.0,"https://www.google.com/maps/place/Mellow+Mushroom+Chantilly/@38.8778027,-77.4416247,17z/data=!3m1!4b1!4m5!3m4!1s0x89b6443d19301381:0x25fdd11fce832a61!8m2!3d38.8778027!4d-77.4416247",
Mellow Mushroom,15170 Max Leggett Pkwy,JACKSONVILLE,FL,32218,9047578843.0,"https://www.google.com/maps/place/Mellow+Mushroom+Jacksonville+-+River+City/@30.4833365,-81.6367361,17z/data=!3m1!4b1!4m5!3m4!1s0x88e5ae5095c5fdef:0x4188dc9770c09ba2!8m2!3d30.4833365!4d-81.6367361",
Mellow Mushroom,3121 Broadway,PADUCAH,KY,42001,2702164050.0,"https://www.google.com/maps/place/Mellow+Mushroom/@37.07101,-88.63779,17z/data=!3m1!4b1!4m5!3m4!1s0x887a1a7ebcc9d89d:0x8a56c13bc523c189!8m2!3d37.07101!4d-88.63779",
Mellow Mushroom,3280 US 17,MURRELLS INLET,SC,29576,8436510909.0,"https://www.google.com/maps/place/Mellow+Mushroom+Murrells+Inlet/@33.5782023,-79.0244121,17z/data=!3m1!4b1!4m5!3m4!1s0x890038b19ed71455:0x51ebed08ef35f9fd!8m2!3d33.5782023!4d-79.0244121",
Mellow Mushroom,3805 Dallas Highway SW,MARIETTA,GA,30064,4706320999.0,"https://www.google.com/maps/place/Mellow+Mushroom+Marietta+-+West+Cobb/@33.9507524,-84.6637577,17z/data=!3m1!4b1!4m5!3m4!1s0x88f53e9dde4f2969:0x54fe6c9f725d3354!8m2!3d33.9507524!4d-84.6637577",
Mellow Mushroom,423 Broadway,NASHVILLE,TN,37203,6154544990.0,"https://www.google.com/maps/place/Mellow+Mushroom/@36.1604093,-86.777885,17z/data=!3m1!4b1!4m5!3m4!1s0x886466594ba5855b:0xf2e52a9621662eae!8m2!3d36.1604093!4d-86.777885",
Mellow Mushroom,601 R St,LINCOLN,NE,68508,4022613362.0,"https://www.google.com/maps/place/Mellow+Mushroom+Lincoln/@40.8167658,-96.7122389,17z/data=!3m1!4b1!4m5!3m4!1s0x8796bf1c63dd2f7f:0xcabc6ce9d5872a97!8m2!3d40.8167658!4d-96.7122389",
Mellow Mushroom,6727 South Tamiami Trl,SARASOTA,FL,34231,9413887504.0,"https://www.google.com/maps/place/Mellow+Mushroom+Sarasota/@27.2579522,-82.5194081,17z/data=!3m1!4b1!4m5!3m4!1s0x88c341803baa7811:0x16c05a432493a2f1!8m2!3d27.2579522!4d-82.5194081",
Mellow Mushroom,935 Woodstock Rd,ROSWELL,GA,30075-2364,7706458383.0,"https://www.google.com/maps/place/Mellow+Mushroom+Roswell/@34.0621886,-84.3887412,17z/data=!3m1!4b1!4m5!3m4!1s0x88f5730458552ae7:0xef652255566fb06a!8m2!3d34.0621886!4d-84.3887412",
Mellow Mushroom,878 Fording Island Rd,BLUFFTON,SC,29910-8663,8437060800.0,"https://www.google.com/maps/place/Mellow+Mushroom+Bluffton/@32.2662138,-80.8613454,17z/data=!3m1!4b1!4m5!3m4!1s0x88fb8908e598542d:0x9b9eaf3536fd5ece!8m2!3d32.2662138!4d-80.8613454",
Mellow Mushroom,601 W Peace St,RALEIGH,NC,27605-1519,9198323499.0,"https://www.google.com/maps/place/Mellow+Mushroom+Raleigh/@35.7883787,-78.6474394,17z/data=!3m1!4b1!4m5!3m4!1s0x89ac5f6792f345e7:0x4b2e442f6238983b!8m2!3d35.7883787!4d-78.6474394",
Mellow Mushroom,6000 Medlock Bridge Pkwy,ALPHARETTA,GA,30022-8172,7708130818.0,"https://www.google.com/maps/place/Mellow+Mushroom+John's+Creek/@34.030326,-84.1880592,17z/data=!3m1!4b1!4m5!3m4!1s0x88f59f4dbb3bad41:0xd1190c3d5fcd7b90!8m2!3d34.030326!4d-84.1880592",
Mellow Mushroom,5350 E High St,PHOENIX,AZ,85054-5465,4808890999.0,"https://www.google.com/maps/place/Mellow+Mushroom+Phoenix+-+High+Street/@33.6761371,-111.9651771,17z/data=!3m1!4b1!4m5!3m4!1s0x872b7127e76ce4d7:0x6b0bda27e0325e4f!8m2!3d33.6761371!4d-111.9651771",
Mellow Mushroom,5157 Jimmy Lee Smith Pkwy,HIRAM,GA,30141-2785,7702221943.0,"https://www.google.com/maps/place/Mellow+Mushroom+Hiram/@33.8887314,-84.7425023,17z/data=!3m1!4b1!4m5!3m4!1s0x88f53ae883e41919:0x4e0f2db2e8a78142!8m2!3d33.8887314!4d-84.7425023",
Mellow Mushroom,50 Broadway St,ASHEVILLE,NC,28801-2916,8282369800.0,"https://www.google.com/maps/place/Mellow+Mushroom+Asheville/@35.5968993,-82.5519932,17z/data=!3m1!4b1!4m5!3m4!1s0x8859f357ec170b17:0x81e09417e282f263!8m2!3d35.5968993!4d-82.5519932",
Mellow Mushroom,410 Anastasia Blvd,SAINT AUGUSTINE,FL,32080-4509,9048264040.0,"https://www.google.com/maps/place/Mellow+Mushroom+St.+Augustine/@29.8910636,-81.2964725,17z/data=!3m1!4b1!4m5!3m4!1s0x88e4279e2fc18417:0x4a4519a753b1e73c!8m2!3d29.8910636!4d-81.2964725",
Mellow Mushroom,3811 S Lindbergh Blvd,SAINT LOUIS,MO,63127-1307,3144731135.0,"https://www.google.com/maps/place/Mellow+Mushroom+St.+Louis/@38.5490503,-90.4067418,17z/data=!3m1!4b1!4m5!3m4!1s0x87d8ce8cec539677:0xc246695a46a4dee1!8m2!3d38.5490503!4d-90.4067418",
Mellow Mushroom,3555 Lakeland Highlands Rd,LAKELAND,FL,33803-4386,8638256000.0,"https://www.google.com/maps/place/Mellow+Mushroom+Lakeland/@27.998939,-81.9244916,17z/data=!3m1!4b1!4m5!3m4!1s0x88dd3eeef0264da3:0xba98de837fc89214!8m2!3d27.998939!4d-81.9244916",
Mellow Mushroom,3110 N Highway 17,MOUNT PLEASANT,SC,29466-6925,8438814743.0,"https://www.google.com/maps/place/Mellow+Mushroom+Mount+Pleasant/@32.8666413,-79.7851504,17z/data=!3m1!4b1!4m5!3m4!1s0x88fe6da08f32d9ab:0x64baadbd0a2fc3eb!8m2!3d32.8666413!4d-79.7851504",
Mellow Mushroom,3070 Windward Plz,ALPHARETTA,GA,30005-8771,6785667888.0,"https://www.google.com/maps/place/Mellow+Mushroom+Alpharetta+-+Milton/@34.093619,-84.2404207,17z/data=!3m1!4b1!4m5!3m4!1s0x88f59e6efd873213:0xc0da0822e5755f81!8m2!3d34.093619!4d-84.2404207",
Mellow Mushroom,946 Main St,BLOWING ROCK,NC,28605-8279,8282953399.0,"https://www.google.com/maps/place/Mellow+Mushroom+Blowing+Rock/@36.1347745,-81.6781508,17z/data=!3m1!4b1!4m5!3m4!1s0x8850e54450368879:0x10c2f182ba39f902!8m2!3d36.1347745!4d-81.6781508",
Mellow Mushroom,931 Monroe Dr NE,ATLANTA,GA,30308-1793,4048742291.0,"https://www.google.com/maps/place/Mellow+Mushroom+Atlanta+-+Midtown/@33.7803435,-84.3684414,17z/data=!3m1!4b1!4m5!3m4!1s0x88f50416110283f5:0x5a56f6ccf5c0902c!8m2!3d33.7803435!4d-84.3684414",
Mellow Mushroom,9238 Floer Dr,WEST CHESTER,OH,45069-6732,5138600888.0,"https://www.google.com/maps/place/Mellow+Mushroom/@39.323228,-84.43042,17z/data=!3m1!4b1!4m5!3m4!1s0x8840502598b8b951:0xf487b88505456caa!8m2!3d39.323228!4d-84.43042",
Mellow Mushroom,8227 Oak St,NEW ORLEANS,LA,70118-2041,5043458229.0,"https://www.google.com/maps/place/Mellow+Mushroom+New+Orleans+-+Oak+Street/@30.073561,-92.2107726,8z/data=!4m8!1m2!2m1!1sMellow+Mushroom+8227+Oak+St+NEW+ORLEANS+LA+70118-2041!3m4!1s0x8620a53fd06123b9:0xf108e7903565399d!8m2!3d29.9486701!4d-90.1311269?hl=en",
Mellow Mushroom,805 W King St,BOONE,NC,28607-3466,8288651515.0,"https://www.google.com/maps/place/Mellow+Mushroom+Boone/@36.2197982,-81.6863703,17z/data=!3m1!4b1!4m5!3m4!1s0x8850fa0bffea45d3:0x2c0bfbab670ede7c!8m2!3d36.2197982!4d-81.6863703",
Mellow Mushroom,710 Lake Joy Rd,WARNER ROBINS,GA,31088-6724,4782876355.0,"https://www.google.com/maps/place/Mellow+Mushroom+Warner+Robins/@32.5524091,-83.6907047,17z/data=!3m1!4b1!4m5!3m4!1s0x88f3ddf11d677fab:0x6b56783300ae47bb!8m2!3d32.5524091!4d-83.6907047",
Mellow Mushroom,700 Green St NE,GAINESVILLE,GA,30501-3322,7705311500.0,"https://www.google.com/maps/place/Mellow+Mushroom+Gainesville/@34.3087356,-83.8266045,17z/data=!3m1!4b1!4m5!3m4!1s0x88f5f66001fc9d45:0x32bf76161971d632!8m2!3d34.3087356!4d-83.8266045",
Mellow Mushroom,6505 Dublin Center Dr,DUBLIN,OH,43017-5016,6143895445.0,"https://www.google.com/maps/place/Mellow+Mushroom+Dublin/@40.0993822,-83.094992,17z/data=!3m1!4b1!4m5!3m4!1s0x883892b40a942b0b:0xf307f7f10d8d72c0!8m2!3d40.0993822!4d-83.094992",
Mellow Mushroom,6100 Veterans Pkwy,COLUMBUS,GA,31909-6223,7063224602.0,"https://www.google.com/maps/place/Mellow+Mushroom+Columbus/@32.5322002,-84.9549101,17z/data=!3m1!4b1!4m5!3m4!1s0x888ccb595ea48a0b:0x6189c3603bf106b!8m2!3d32.5322002!4d-84.9549101",
Mellow Mushroom,6100 Roswell Rd,SANDY SPRINGS,GA,30328-3904,4042525560.0,"https://www.google.com/maps/place/Mellow+Mushroom+Sandy+Springs/@33.9217834,-84.3795239,17z/data=!3m1!4b1!4m5!3m4!1s0x88f50e96da5ef3e3:0x84704421f5c5fd4b!8m2!3d33.9217834!4d-84.3795239",
Mellow Mushroom,5660 Old Shell Rd,MOBILE,AL,36608-3041,2513801500.0,"https://www.google.com/maps/place/Mellow+Mushroom+Mobile/@30.6898283,-88.1733507,17z/data=!3m1!4b1!4m5!3m4!1s0x889bb2add94c1f2d:0x48292850005c2e0b!8m2!3d30.6898283!4d-88.1733507",
Mellow Mushroom,5425 Bowman Rd,MACON,GA,31210-8880,4782546789.0,"https://www.google.com/maps/place/Mellow+Mushroom+Macon/@32.9249553,-83.7320217,17z/data=!3m1!4b1!4m5!3m4!1s0x88f407888125e19b:0x6da5f22999370164!8m2!3d32.9249553!4d-83.7320217",
Mellow Mushroom,5364 Sunset Blvd,LEXINGTON,SC,29072-9260,8033590778.0,"https://www.google.com/maps/place/Mellow+Mushroom+Lexington/@34.0024088,-81.2110693,17z/data=!3m1!4b1!4m5!3m4!1s0x88f89776fc871d01:0x9a1f998da3c4dfb4!8m2!3d34.0024088!4d-81.2110693",
Mellow Mushroom,503 S Upper St,LEXINGTON,KY,40508-2919,8592816111.0,"https://www.google.com/maps/place/Mellow+Mushroom+Lexington/@38.0434962,-84.5035556,17z/data=!3m1!4b1!4m5!3m4!1s0x88424494fec1f8fb:0x8bb7e6223b705a51!8m2!3d38.0434962!4d-84.5035556",
Mellow Mushroom,2929 N Roan St,JOHNSON CITY,TN,37601-1507,4239286356.0,"https://www.google.com/maps/place/Mellow+Mushroom+Johnson+City/@36.3592818,-82.3875255,17z/data=!3m1!4b1!4m5!3m4!1s0x885a7d525135f01b:0x37e1f66d9ca67b29!8m2!3d36.3592818!4d-82.3875255",
Mellow Mushroom,2641 Legends Dr,PRATTVILLE,AL,36066-7761,3342902088.0,"https://www.google.com/maps/place/Mellow+Mushroom+Prattville/@32.4587154,-86.4012943,17z/data=!3m1!4b1!4m5!3m4!1s0x888e856ea43b91d5:0x8137de843540196c!8m2!3d32.4587154!4d-86.4012943",
Mellow Mushroom,2630 Gulf To Bay Blvd,CLEARWATER,FL,33759-3901,7277232000.0,"https://www.google.com/maps/place/Mellow+Mushroom+Clearwater/@27.9611573,-82.7285097,17z/data=!3m1!4b1!4m5!3m4!1s0x88c2efd158520f0d:0x848e998885b2cb2f!8m2!3d27.9611573!4d-82.7285097",
Mellow Mushroom,2530 N Eastown Rd,LIMA,OH,45807-1600,5672895543.0,"https://www.google.com/maps/place/Mellow+Mushroom+Lima/@40.7737266,-84.1647269,17z/data=!3m1!4b1!4m5!3m4!1s0x883ef374d5a8b211:0xf3e290c6cc14e4b8!8m2!3d40.7737266!4d-84.1647269",
Mellow Mushroom,2490 W Happy Valley Rd,PHOENIX,AZ,85085-8500,6235801111.0,"https://www.google.com/maps/place/Mellow+Mushroom+Phoenix+-+Happy+Valley/@33.7134539,-112.1139689,17z/data=!3m1!4b1!4m5!3m4!1s0x872b659623130867:0x4047df7ff8c18235!8m2!3d33.7134539!4d-112.1139689",
Mellow Mushroom,217 E Hickory St,DENTON,TX,76201-4217,9403231100.0,"https://www.google.com/maps/place/Mellow+Mushroom+Denton/@33.2147552,-97.1301838,17z/data=!3m1!4b1!4m5!3m4!1s0x864dca8c7c309dbb:0xb0847d8cd291265!8m2!3d33.2147552!4d-97.1301838",
Mellow Mushroom,207 S Main St,BLACKSBURG,VA,24060-4823,5406057074.0,"https://www.google.com/maps/place/Mellow+Mushroom+Blacksburg/@37.228189,-80.4124244,17z/data=!3m1!4b1!4m5!3m4!1s0x884d950acd97c659:0xc911463be8ede669!8m2!3d37.228189!4d-80.4124244",
Mellow Mushroom,1831 Rinehart Rd,SANFORD,FL,32771-7300,4073214827.0,"https://www.google.com/maps/place/Mellow+Mushroom+Sanford/@28.8088214,-81.3304937,17z/data=!3m1!4b1!4m5!3m4!1s0x88e712866cc0e177:0x36f5914591aa816e!8m2!3d28.8088214!4d-81.3304937",
Mellow Mushroom,1770 Peachtree St NW,ATLANTA,GA,30309-2304,4046874766.0,"https://www.google.com/maps/place/Mellow+Mushroom+Atlanta+-+Buckhead/@33.8022595,-84.3932008,17z/data=!3m1!4b1!4m5!3m4!1s0x88f50454dbae3261:0x99e303706866e543!8m2!3d33.8022595!4d-84.3932008",
Mellow Mushroom,1410 Hudson Bridge Rd,STOCKBRIDGE,GA,30281-5018,6785653966.0,"https://www.google.com/maps/place/Mellow+Mushroom+Stockbridge/@33.5057391,-84.2333338,17z/data=!3m1!4b1!4m5!3m4!1s0x88f45798ab244c4b:0x8c86b0335b0216aa!8m2!3d33.5057391!4d-84.2333338",
Mellow Mushroom,1306 N Main St,SUMMERVILLE,SC,29483-7308,8438732253.0,"https://www.google.com/maps/place/Mellow+Mushroom+Summerville/@33.0365037,-80.1572337,17z/data=!3m1!4b1!4m5!3m4!1s0x88fe8b3a66fa0ccb:0x5ac79e304e45395b!8m2!3d33.0365037!4d-80.1572337",
Mellow Mushroom,128 N College St,AUBURN,AL,36830-4706,3348876356.0,"https://www.google.com/maps/place/Mellow+Mushroom+Auburn/@32.6073693,-85.4813913,17z/data=!3m1!4b1!4m5!3m4!1s0x888cf31c4af9a6ef:0xdaea0ada19e251e5!8m2!3d32.6073693!4d-85.4813913",
Mellow Mushroom,4135 Lavista Rd,TUCKER,GA,30084-5314,7704916112.0,"https://www.google.com/maps/place/Mellow+Mushroom+Tucker/@33.8449974,-84.2503883,17z/data=!3m1!4b1!4m5!3m4!1s0x88f5a7e0a1e36aeb:0xd925ad97b952b28c!8m2!3d33.8449974!4d-84.2503883",
Mellow Mushroom,410 Blackwell St,DURHAM,NC,27701-3986,9196808500.0,"https://www.google.com/maps/place/Mellow+Mushroom+Durham/@35.9916034,-78.9057226,17z/data=!3m1!4b1!4m5!3m4!1s0x89ace46ceb0ca511:0x44f37ad12275ea2d!8m2!3d35.9916034!4d-78.9057226",
Mellow Mushroom,409 Pooler Pkwy,POOLER,GA,31322-5102,9123307133.0,"https://www.google.com/maps/place/Mellow+Mushroom+Pooler/@32.1368071,-81.2524168,17z/data=!3m1!4b1!4m5!3m4!1s0x88fba6ac97ba1ce9:0xf1d7c90bc22ac693!8m2!3d32.1368071!4d-81.2524168",
Mellow Mushroom,400 W Peachtree St NW,ATLANTA,GA,30308-3536,4045771001.0,"https://www.google.com/maps/place/Mellow+Mushroom+Atlanta+-+Downtown/@33.7653662,-84.3882896,17z/data=!3m1!4b1!4m5!3m4!1s0x88f5047a4773fe71:0x4698c2e4ff546341!8m2!3d33.7653662!4d-84.3882896",
Mellow Mushroom,340 W Ponce De Leon Ave,DECATUR,GA,30030-2459,4047489612.0,"https://www.google.com/maps/place/Mellow+Mushroom+Decatur/@33.7754,-84.3011009,17z/data=!3m1!4b1!4m5!3m4!1s0x88f50717df14478f:0x3e7839e473007d18!8m2!3d33.7754!4d-84.3011009",
Mellow Mushroom,33 Industrial Drive Ext,OXFORD,AL,36203-8058,2568351444.0,"https://www.google.com/maps/place/Mellow+Mushroom+Oxford+-+Anniston/@33.6108134,-85.7950202,17z/data=!3m1!4b1!4m5!3m4!1s0x888bb1a314e1b8f9:0x673d86414870e27d!8m2!3d33.6108134!4d-85.7950202",
Mellow Mushroom,320 E Clayton St,ATHENS,GA,30601-2765,7066130892.0,"https://www.google.com/maps/place/Mellow+Mushroom+Athens/@33.9586104,-83.3742175,17z/data=!3m1!4b1!4m5!3m4!1s0x88f66cd9528ea791:0x5ab0ff35c2260b08!8m2!3d33.9586104!4d-83.3742175",
Mellow Mushroom,317 Main St,FRANKLIN,TN,37064-2679,6156280181.0,"https://www.google.com/maps/place/Mellow+Mushroom+Franklin/@35.9247571,-86.8692329,17z/data=!3m1!4b1!4m5!3m4!1s0x88647e517385d4f9:0x26d5de5807f5819b!8m2!3d35.9247571!4d-86.8692329",
Mellow Mushroom,314 W 4th St,WINSTON SALEM,NC,27101-2840,3362452820.0,"https://www.google.com/maps/place/Mellow+Mushroom+Winston-Salem/@36.0978817,-80.2476914,17z/data=!3m1!4b1!4m5!3m4!1s0x8853ae440a55351d:0x6cc7a33a1a8f35c2!8m2!3d36.0978817!4d-80.2476914",
Mellow Mushroom,9155 Highway 72,GERMANTOWN,TN,38138,9019070243.0,"https://www.google.com/maps/place/Mellow+Mushroom+Germantown/@35.0669786,-89.7609083,17z/data=!4m5!3m4!1s0x887f99964307a8bf:0xb5b86a2c92fbd667!8m2!3d35.0669742!4d-89.7587196?hl=en",
Mellow Mushroom,305 S Main St,ANDERSON,SC,29624-1622,8646426767.0,"https://www.google.com/maps/place/Mellow+Mushroom/@34.5020234,-82.6519211,17z/data=!4m5!3m4!1s0x88586e78bfc574bd:0xcb865054b4c17bc1!8m2!3d34.502019!4d-82.6497324?hl=en",
Mellow Mushroom,301 N McPherson Church Rd,FAYETTEVILLE,NC,28303-4405,9107792442.0,"https://www.google.com/maps/place/Mellow+Mushroom+Fayetteville/@35.0719554,-78.9527218,17z/data=!3m1!4b1!4m5!3m4!1s0x89ab6b38140d722d:0xccc6a4a328b5bf49!8m2!3d35.0719554!4d-78.9527218",
Mellow Mushroom,2820 Selwyn Ave,CHARLOTTE,NC,28209-1785,7049667499.0,"https://www.google.com/maps/place/Mellow+Mushroom+Charlotte+-+Myers+Park/@35.1745776,-80.8399859,17z/data=!3m1!4b1!4m5!3m4!1s0x88569e4ce0192d9b:0xc07d9fdea9a4a4a7!8m2!3d35.1745776!4d-80.8399859",
Mellow Mushroom,28 S Wall St,CARTERSVILLE,GA,30120-3334,4702277049.0,"https://www.google.com/maps/place/Mellow+Mushroom+Cartersville/@34.1655185,-84.7948547,17z/data=!3m1!4b1!4m5!3m4!1s0x88f54f0d58214993:0x9ec2e21c92ebd331!8m2!3d34.1655185!4d-84.7948547",
Mellow Mushroom,255 W Martin Luther King Blvd,CHARLOTTE,NC,28202-1981,7043714725.0,"https://www.google.com/maps/place/Mellow+Mushroom+Charlotte+-+Uptown/@35.2259784,-80.8478193,17z/data=!3m1!4b1!4m5!3m4!1s0x8856a02ebe53d0b9:0xf9b4bcb1fe1cae50!8m2!3d35.2259784!4d-80.8478193",
Mellow Mushroom,2520 Monticello Rd,SOMERSET,KY,42501-3060,6064165146.0,"https://www.google.com/maps/place/Mellow+Mushroom+Somerset/@37.0510981,-84.6248354,17z/data=!3m1!4b1!4m5!3m4!1s0x885d49ca48171b7b:0x9b4bf95d4420771a!8m2!3d37.0510981!4d-84.6248354",
Mellow Mushroom,25 SE 6th Ave,DELRAY BEACH,FL,33483-5313,5613303040.0,"https://www.google.com/maps/place/Mellow+Mushroom+Delray+Beach/@26.4611709,-80.0667706,17z/data=!3m1!4b1!4m5!3m4!1s0x88d8dfdacfe37e73:0x1efd1be46842b831!8m2!3d26.4611709!4d-80.0667706",
Mellow Mushroom,2485 Parkway,PIGEON FORGE,TN,37863-3228,8652862229.0,"https://www.google.com/maps/place/Mellow+Mushroom+Pigeon+Forge/@35.8087127,-83.5793968,17z/data=!4m5!3m4!1s0x885bff699bfb8645:0xf8710adfca2f6772!8m2!3d35.8087084!4d-83.5772081?hl=en",
Mellow Mushroom,2421 Shallowford Rd,MARIETTA,GA,30066-2006,7705161500.0,"https://www.google.com/maps/place/Mellow+Mushroom+Marietta+-+Shallowford/@34.0426516,-84.4800481,17z/data=!3m1!4b1!4m5!3m4!1s0x88f56cd878569045:0xb894b06e035760ed!8m2!3d34.0426516!4d-84.4800481",
Mellow Mushroom,2370 Towne Lake Pkwy,WOODSTOCK,GA,30189-8227,7705913331.0,"https://www.google.com/maps/place/Mellow+Mushroom+Woodstock/@34.1148024,-84.5532744,17z/data=!3m1!4b1!4m5!3m4!1s0x88f56bda1394a8a9:0xc8e5a802bb292179!8m2!3d34.1148024!4d-84.5532744",
Mellow Mushroom,2318 Lifestyle Way,CHATTANOOGA,TN,37421-2291,4234683737.0,"https://www.google.com/maps/place/Mellow+Mushroom+Chattanooga+-+Hamilton+Place/@35.0416221,-85.150705,17z/data=!3m1!4b1!4m5!3m4!1s0x8860639cd142110f:0xbf96dce7cf14d9bb!8m2!3d35.0416221!4d-85.150705",
Mellow Mushroom,2170 Polaris Pkwy,COLUMBUS,OH,43240-2192,6148856355.0,"https://www.google.com/maps/place/Mellow+Mushroom+Columbus/@40.1463396,-82.9595942,17z/data=!3m1!4b1!4m5!3m4!1s0x8838f4501ec163b5:0x3d11c0da9ccb6836!8m2!3d40.1463396!4d-82.9595942",
Mellow Mushroom,2125 S Main St,WAKE FOREST,NC,27587-1637,9195568884.0,"https://www.google.com/maps/place/Mellow+Mushroom+Wake+Forest/@35.9471216,-78.5355209,17z/data=!3m1!4b1!4m5!3m4!1s0x89ac5113b46cf4b3:0x1ab7d3103f71c960!8m2!3d35.9471216!4d-78.5355209",
Mellow Mushroom,18221 US Highway 441,MOUNT DORA,FL,32757-6718,3527358257.0,"https://www.google.com/maps/place/Mellow+Mushroom+Mount+Dora/@28.8245646,-81.6550582,17z/data=!3m1!4b1!4m5!3m4!1s0x88e7a2fa4076c871:0xda661444b80a3ad6!8m2!3d28.8245646!4d-81.6550582",
Mellow Mushroom,16000 Stuebner Airline Rd,SPRING,TX,77379-7363,3468087320.0,"https://www.google.com/maps/place/Mellow+Mushroom+Spring/@30.0119455,-95.5146364,17z/data=!3m1!4b1!4m5!3m4!1s0x8640cce3791fcad1:0xf4d7c54d60ebca73!8m2!3d30.0119455!4d-95.5146364",
Mellow Mushroom,1526 Baytree Rd,VALDOSTA,GA,31602-2738,2293331891.0,"https://www.google.com/maps/place/Mellow+Mushroom+Valdosta/@30.8474708,-83.3170389,17z/data=!3m1!4b1!4m5!3m4!1s0x88ee66e37ccf6969:0xb30f081e26e8cee7!8m2!3d30.8474708!4d-83.3170389",
Mellow Mushroom,151 Bee Ln,AIKEN,SC,29801-3801,8034748454.0,"https://www.google.com/maps/place/Mellow+Mushroom+Aiken/@33.5597573,-81.7223631,17z/data=!3m1!4b1!4m5!3m4!1s0x88f84d08c14028bd:0x9e4c6bdff5de41ea!8m2!3d33.5597573!4d-81.7223631",
Mellow Mushroom,1477 Virginia Ave,ATLANTA,GA,30337,4047481844.0,"https://www.google.com/maps/place/Mellow+Mushroom+College+Park/@33.6596435,-84.4376649,17z/data=!3m1!4b1!4m5!3m4!1s0x88f4fd4d456e514d:0x9fda74c5f7a48239!8m2!3d33.6596435!4d-84.4376649",
Mellow Mushroom,1451 Coral Ridge Ave,CORALVILLE,IA,52241-2800,3196252031.0,"https://www.google.com/maps/place/Mellow+Mushroom+Coralville/@41.6914104,-91.6001305,17z/data=!3m1!4b1!4m5!3m4!1s0x87e444751171c425:0xfd40e840e83e9c30!8m2!3d41.6914104!4d-91.6001305",
Mellow Mushroom,14205 S 50th St,PHOENIX,AZ,85044-6425,4803055900.0,"https://www.google.com/maps/place/Mellow+Mushroom+Ahwatukee/@33.3182083,-111.9756498,17z/data=!3m1!4b1!4m5!3m4!1s0x872b0438acf31ad3:0xf6ce5f5e368faa9!8m2!3d33.3182083!4d-111.9756498",
Mellow Mushroom,1321 W Main St,CHARLOTTESVILLE,VA,22903-2825,4349729366.0,"https://www.google.com/maps/place/Mellow+Mushroom+Charlottesville/@38.0337158,-78.4986122,17z/data=!3m1!4b1!4m5!3m4!1s0x89b3863877d19bf9:0x93e5577e3cd3bda8!8m2!3d38.0337158!4d-78.4986122",
Mellow Mushroom,120 Dunbarton Dr,FLORENCE,SC,29501-1991,8434071442.0,"https://www.google.com/maps/place/Mellow+Mushroom+Florence/@34.1909433,-79.8377075,17z/data=!3m1!4b1!4m5!3m4!1s0x8855641bd1706cbb:0xdd7dd00d11144481!8m2!3d34.1909433!4d-79.8377075",
Mellow Mushroom,11955 Sheldon Rd,TAMPA,FL,33626-3644,8139263600.0,"https://www.google.com/maps/place/Mellow+Mushroom/@28.0574151,-82.5843544,17z/data=!4m5!3m4!1s0x88c2ea8b5ecba9f1:0xa31077a364191806!8m2!3d28.0574104!4d-82.5821657?hl=en",
Mellow Mushroom,11770 Haynes Bridge Rd,ALPHARETTA,GA,30009-1966,7706633812.0,"https://www.google.com/maps/place/Mellow+Mushroom+Haynes+Bridge/@34.0517559,-84.4225616,11z/data=!3m1!5s0x88f57450b2962acb:0x2c2fa971d81a0fb1!4m8!1m2!2m1!1sMellow+Mushroom+11770+Haynes+Bridge+Rd+ALPHARETTA+GA+30009-1966!3m4!1s0x88f575a114ba5a91:0x54173deca1222553!8m2!3d34.0701522!4d-84.2947235?hl=en",
Mellow Mushroom,11680 E Colonial Dr,ORLANDO,FL,32817-4607,4073844455.0,"https://www.google.com/maps/place/Mellow+Mushroom+Orlando/@28.5665014,-81.2098471,17z/data=!3m1!4b1!4m5!3m4!1s0x88e7662cf083a169:0xeaffea23fb8fd5b8!8m2!3d28.5665014!4d-81.2098471",
Mellow Mushroom,115 N Loop 1604 E,SAN ANTONIO,TX,78232-1398,2103709219.0,"https://www.google.com/maps/place/Mellow+Mushroom+San+Antonio/@29.6099124,-98.4901306,17z/data=!3m1!4b1!4m5!3m4!1s0x865c62021cd23391:0xbb895cce22c52368!8m2!3d29.6099124!4d-98.4901306",
Mellow Mushroom,1133 Chastain Rd NW,KENNESAW,GA,30144-5500,7704269900.0,"https://www.google.com/maps/place/Mellow+Mushroom+Kennesaw/@34.0301354,-84.5825903,17z/data=!3m1!4b1!4m5!3m4!1s0x88f51521b1618da5:0x7afc47c7c4c25ecc!8m2!3d34.0301354!4d-84.5825903",
Mellow Mushroom,1110 Boll Weevil Cir,ENTERPRISE,AL,36330-1389,3343081711.0,"https://www.google.com/maps/place/Mellow+Mushroom+Enterprise/@31.3351314,-85.8571141,17z/data=!3m1!4b1!4m5!3m4!1s0x88926dd2ef279bed:0x6ce523a9192c1868!8m2!3d31.3351314!4d-85.8571141",
Mellow Mushroom,1018 23rd St N,JACKSONVILLE BEACH,FL,32250-2854,9042415600.0,"https://www.google.com/maps/place/Mellow+Mushroom+Jacksonvillle+Beach/@30.2980326,-81.396316,17z/data=!4m5!3m4!1s0x88e4490593bf9beb:0x44b6fc61c7f331bc!8m2!3d30.298028!4d-81.3941273?hl=en",
Mellow Mushroom,12090 Jefferson Ave,NEWPORT NEWS,VA,23606-4566,7579311700.0,"https://www.google.com/maps/place/Mellow+Mushroom+Newport+News/@37.1039113,-76.4920936,17z/data=!3m1!4b1!4m5!3m4!1s0x89b078db287c8401:0x181ee54cd5030b36!8m2!3d37.1039113!4d-76.4920936",
Mellow Mushroom,1185 Lenoir Rhyne Blvd SE,HICKORY,NC,28602-5128,8283228491.0,"https://www.google.com/maps/place/Mellow+Mushroom+Hickory/@35.7160192,-81.3128434,17z/data=!3m1!4b1!4m5!3m4!1s0x885131b951403841:0x3543f4e5ae98eba9!8m2!3d35.7160192!4d-81.3128434",
Mellow Mushroom,1111 Route 37 W,TOMS RIVER,NJ,8755,7322444202.0,"https://www.google.com/maps/place/Mellow+Mushroom+Toms+River/@39.9773974,-74.2480049,17z/data=!3m1!4b1!4m5!3m4!1s0x89c17642210a609d:0xa9278a6391c5597c!8m2!3d39.9773974!4d-74.2480049",
Mellow Mushroom,1108 Bienville Blvd,OCEAN SPRINGS,MS,39564-2821,2288754888.0,"https://www.google.com/maps/place/Mellow+Mushroom/@30.4158196,-88.8281187,17z/data=!4m5!3m4!1s0x889c099d847844af:0x22bc452d069183e9!8m2!3d30.415815!4d-88.82593?hl=en",
Mellow Mushroom,1014 Town Dr,HIGHLAND HEIGHTS,KY,41076-9753,8594416600.0,"https://www.google.com/maps/place/Mellow+Mushroom/@39.019002,-84.483227,17z/data=!3m1!4b1!4m5!3m4!1s0x8841ba7eeb28a6f1:0x559c066406d41221!8m2!3d39.019002!4d-84.483227",
Mellow Mushroom,1009 Gervais St,COLUMBIA,SC,29201-3129,8039339201.0,"https://www.google.com/maps/place/Mellow+Mushroom+Columbia/@34.0006379,-81.0364804,17z/data=!3m1!4b1!4m5!3m4!1s0x88f8bb2b85c25309:0xb34b638b6716a15e!8m2!3d34.0006379!4d-81.0364804",
Mellow Mushroom,1007 Tiger Blvd,CLEMSON,SC,29631,8647185062.0,"https://www.google.com/maps/place/Mellow+Mushroom+Clemson/@34.6926236,-82.8424146,17z/data=!3m1!4b1!4m5!3m4!1s0x88585e609e455fb3:0x3ea83641a7781684!8m2!3d34.6926236!4d-82.8424146",
Mellow Mushroom,10950 Eagle Village Dr,FORT MYERS,FL,33913,2395992616.0,"https://www.google.com/maps/place/Mellow+Mushroom+Estero/@26.4519744,-81.7740892,17z/data=!3m1!4b1!4m5!3m4!1s0x88db1139c2e11b21:0x292ae2d7c4388e56!8m2!3d26.4519744!4d-81.7740892",
Mellow Mushroom,2409 Schillinger Rd S,MOBILE,AL,36608,2515258431.0,"https://www.google.com/maps/place/Mellow+Mushroom+Mobile+-+West/@30.6419698,-88.2242222,17z/data=!3m1!4b1!4m5!3m4!1s0x889bb3b82b402733:0x81d36de3b65c9b3!8m2!3d30.6419698!4d-88.2242222",
Mellow Mushroom,3420 Ryan St,LAKE CHARLES,LA,70605,3374191001.0,"https://www.google.com/maps/place/Mellow+Mushroom+Lake+Charles/@30.1953825,-93.2192123,17z/data=!3m1!4b1!4m5!3m4!1s0x863b866219d7f0bd:0xb43e201567e0fa57!8m2!3d30.1953825!4d-93.2192123",
Mellow Mushroom,4716 Mid Rivers Mall Dr,SAINT PETERS,MO,63376,6364776001.0,"https://www.google.com/maps/place/Mellow+Mushroom/@38.7581294,-90.6364444,17z/data=!3m1!4b1!4m5!3m4!1s0x87ded7db03f64cf9:0x869d3e489bb9909!8m2!3d38.7581294!4d-90.6364444",
Mellow Mushroom,9600 Brier Creek Pkwy,RALEIGH,NC,27617,9848880513.0,"https://www.google.com/maps/place/Mellow+Mushroom+Brier+Creek/@35.9032556,-78.8015382,17z/data=!3m1!4b1!4m5!3m4!1s0x89acf10397df9121:0xefee0a355817911b!8m2!3d35.9032556!4d-78.8015382",
Mellow Mushroom,110 South Henry St,WILLIAMSBURG,VA,23185,7579034762.0,"https://www.google.com/maps/place/Mellow+Mushroom+Williamsburg/@37.2701024,-76.7060694,17z/data=!3m1!4b1!4m5!3m4!1s0x89b0898ddead2dbb:0xd3831397ff8c152c!8m2!3d37.2701024!4d-76.7060694",
Mellow Mushroom,25662 Sierra Center Blvd,LUTZ,FL,33559,8139487337.0,"https://www.google.com/maps/place/Mellow+Mushroom+Wesley+Chapel/@28.1948509,-82.3923645,17z/data=!3m1!4b1!4m5!3m4!1s0x88c2ba08e852373d:0xb9157239fd7eece6!8m2!3d28.1948509!4d-82.3923645",
Mellow Mushroom,4375 Dowlen Rd,BEAUMONT,TX,77706,4093476469.0,"https://www.google.com/maps/place/Mellow+Mushroom+Beaumont/@30.1222254,-94.1612256,17z/data=!3m1!4b1!4m5!3m4!1s0x8639339aabcab84f:0xf1fcb326eaec747c!8m2!3d30.1222254!4d-94.1612256",
Mellow Mushroom,6911 Daniels Pkwy,FORT MYERS,FL,33912,2392150500.0,"https://www.google.com/maps/place/Mellow+Mushroom+Fort+Myers/@26.5473194,-81.8397735,17z/data=!3m1!4b1!4m5!3m4!1s0x88db15bf6ca6af79:0x74a995e022f22127!8m2!3d26.5473194!4d-81.8397735",
Mellow Mushroom,557 20Th Ave,TUSCALOOSA,AL,35401,2057102187.0,"https://www.google.com/maps/place/Mellow+Mushroom+Tuscaloosa/@33.2107263,-87.5624012,17z/data=!3m1!4b1!4m5!3m4!1s0x888603bb67675c81:0xceca2c2325368862!8m2!3d33.2107263!4d-87.5624012",
Mellow Mushroom,333 Branson Landing Blvd,BRANSON,MO,65616,4173205082.0,"https://www.google.com/maps/place/Mellow+Mushroom+Branson/@36.6425739,-93.213893,17z/data=!3m1!4b1!4m5!3m4!1s0x87cf03ea9fe9c209:0x7d5b281977d4d44b!8m2!3d36.6425739!4d-93.213893",
