Company Name,Address 1,City,State,Zip,Phone,Google Link,Company Name Processed,Status
Papa Gino's Pizzeria,103 Pleasant St,ATTLEBORO,MA,02703-2360,5082265690.0,"https://www.google.com/maps/place/Papa+Gino's/@41.947347,-71.2787242,17z/data=!3m1!4b1!4m5!3m4!1s0x89e460b6e653fcb3:0xce410663a9e81e16!8m2!3d41.947347!4d-71.2787242",papa_ginos_pizzeria,
Papa Gino's Pizzeria,113 E Main St,WEBSTER,MA,01570-1713,5089492022.0,"https://www.google.com/maps/place/Papa+Gino's/@42.0588668,-71.8650881,17z/data=!3m1!4b1!4m5!3m4!1s0x89e41f2e4e4244f9:0x214580746b68430b!8m2!3d42.0588668!4d-71.8650881",papa_ginos_pizzeria,
Papa Gino's Pizzeria,103 Main St,NORTH READING,MA,01864-2297,9786643320.0,"https://www.google.com/maps/place/Papa+Gino's/@42.5770058,-71.1108363,17z/data=!3m1!4b1!4m5!3m4!1s0x89e30bee253e78bb:0x3ef271582b52b8dd!8m2!3d42.5770058!4d-71.1108363",papa_ginos_pizzeria,
Papa Gino's Pizzeria,166 Sturbridge Rd,CHARLTON,MA,1507,5082481061.0,"https://www.google.com/maps/place/Papa+Gino's/@42.1396269,-72.0249423,17z/data=!3m1!4b1!4m5!3m4!1s0x89e6a74000000001:0xa32e47cd666ec0e7!8m2!3d42.1396269!4d-72.0249423",papa_ginos_pizzeria,
Papa Gino's Pizzeria,117 Mass Tpke W,NATICK,MA,1760,5086552958.0,"https://www.google.com/maps/place/Papa+Gino's/@42.3114847,-71.3647012,17z/data=!3m1!4b1!4m5!3m4!1s0x89e38615d57df78d:0x370b02c58dde0b1a!8m2!3d42.3114847!4d-71.3647012",papa_ginos_pizzeria,
Papa Gino's Pizzeria,77 Derry Rd,HUDSON,NH,3051,6035988001.0,"https://www.google.com/maps/place/Papa+Gino's/@42.7756822,-71.4436033,17z/data=!3m1!4b1!4m5!3m4!1s0x89e3b11254412967:0x7c0aa1402543247c!8m2!3d42.7756822!4d-71.4436033",papa_ginos_pizzeria,
Papa Gino's Pizzeria,9 Plaistow Rd,PLAISTOW,NH,03865-2824,6033829204.0,"https://www.google.com/maps/place/Papa+Gino's/@42.8173007,-71.102775,17z/data=!3m1!4b1!4m5!3m4!1s0x89e2fe0168b5bfab:0x3bc528734d873e0d!8m2!3d42.8173007!4d-71.102775",papa_ginos_pizzeria,
Papa Gino's Pizzeria,81 Carver Rd,PLYMOUTH,MA,02360-4643,5087475386.0,"https://www.google.com/maps/place/Papa+Gino's/@41.944833,-70.709697,17z/data=!3m1!4b1!4m5!3m4!1s0x89e4bb8480e94c0d:0xb0d10d66d5f37732!8m2!3d41.944833!4d-70.709697",papa_ginos_pizzeria,
Papa Gino's Pizzeria,233 Broad St,BRIDGEWATER,MA,02324-1741,5086978137.0,"https://www.google.com/maps/place/Papa+Gino's/@41.994526,-70.9719013,17z/data=!3m1!4b1!4m5!3m4!1s0x89e4904b64aba68d:0xfe3c70822a9611e5!8m2!3d41.994526!4d-70.9719013",papa_ginos_pizzeria,
Papa Gino's Pizzeria,600 Providence Hwy,DEDHAM,MA,02026-6804,7813291946.0,"https://www.google.com/maps/place/Papa+Gino's/@42.2433586,-71.1738128,17z/data=!3m1!4b1!4m5!3m4!1s0x89e37f9419d7a5ff:0xade870a57ee6b559!8m2!3d42.2433586!4d-71.1738128",papa_ginos_pizzeria,
Papa Gino's Pizzeria,35 Commercial Rd,LEOMINSTER,MA,01453-3305,9785374430.0,"https://www.google.com/maps/place/Papa+Gino's/@42.5339047,-71.7448767,17z/data=!4m5!3m4!1s0x89e3ef6aa401bce5:0x5b27f7712f460bab!8m2!3d42.5339008!4d-71.742688?hl=en",papa_ginos_pizzeria,
Papa Gino's Pizzeria,190 Main St,STONEHAM,MA,02180-1619,7814388422.0,"https://www.google.com/maps/place/Papa+Gino's/@42.4895544,-71.0998107,17z/data=!3m1!4b1!4m5!3m4!1s0x89e3749e50dc1ad7:0xe2b04a79a007c8a3!8m2!3d42.4895544!4d-71.0998107",papa_ginos_pizzeria,
Papa Gino's Pizzeria,42 Cape Rd,MILFORD,MA,01757-3292,5086340244.0,"https://www.google.com/maps/place/Papa+Gino's/@42.1270621,-71.5193626,17z/data=!3m1!4b1!4m5!3m4!1s0x89e4727ef45301fb:0x566b7194a06b18a6!8m2!3d42.1270621!4d-71.5193626",papa_ginos_pizzeria,
Papa Gino's Pizzeria,10 Lilac Mall,ROCHESTER,NH,03867-1350,6033329843.0,"https://www.google.com/maps/place/Papa+Gino's/@43.3189482,-70.9732305,17z/data=!3m1!4b1!4m5!3m4!1s0x89e29c9e35376781:0x2f43734aa91f8104!8m2!3d43.3189482!4d-70.9732305",papa_ginos_pizzeria,
Papa Gino's Pizzeria,594 Washington St,SOUTH EASTON,MA,02375-1918,5082380118.0,"https://www.google.com/maps/place/Papa+Gino's/@42.0473924,-71.0804565,17z/data=!3m1!4b1!4m5!3m4!1s0x89e48ed000000001:0xf44e055a7d3aa811!8m2!3d42.0473924!4d-71.0804565",papa_ginos_pizzeria,
Papa Gino's Pizzeria,2899 Cranberry Hwy,EAST WAREHAM,MA,02538-1313,5082957474.0,"https://www.google.com/maps/place/Papa+Gino's/@41.7594858,-70.6660956,17z/data=!3m1!4b1!4m5!3m4!1s0x89e4c662d5d8242b:0xe14b9cbb83f433f4!8m2!3d41.7594858!4d-70.6660956",papa_ginos_pizzeria,
Papa Gino's Pizzeria,685 Merrill Rd,PITTSFIELD,MA,01201-3722,4134455307.0,"https://www.google.com/maps/place/Papa+Gino's/@42.4659841,-73.2066448,17z/data=!3m1!4b1!4m5!3m4!1s0x89e74ea06c22821d:0x1571fb5c460eee62!8m2!3d42.4659841!4d-73.2066448",papa_ginos_pizzeria,
Papa Gino's Pizzeria,430 Route 44,RAYNHAM,MA,2767,5088231300.0,"https://www.google.com/maps/place/Papa+Gino's/@41.9064281,-71.0517434,17z/data=!4m5!3m4!1s0x876c76b83e2ed06f:0xce2ea6934801a108!8m2!3d41.9064241!4d-71.0495547?hl=en",papa_ginos_pizzeria,
Papa Gino's Pizzeria,294 Winthrop St,TAUNTON,MA,02780-4306,5088238800.0,"https://www.google.com/maps/place/Papa+Gino's/@41.8885645,-71.1209735,17z/data=!3m1!4b1!4m5!3m4!1s0x89e4f4c0783af735:0x4c0eb6266138dc50!8m2!3d41.8885645!4d-71.1209735",papa_ginos_pizzeria,
Papa Gino's Pizzeria,80 Highland Ave,EAST PROVIDENCE,RI,02914-1221,4014341880.0,"https://www.google.com/maps/place/Papa+Gino's/@41.8056826,-71.3402005,17z/data=!3m1!4b1!4m5!3m4!1s0x89e45a8b7a56b881:0xdffe52f56b2423ae!8m2!3d41.8056826!4d-71.3402005",papa_ginos_pizzeria,
Papa Gino's Pizzeria,129 Loudon Rd,CONCORD,NH,03301-5609,6032252011.0,"https://www.google.com/maps/place/Papa+Gino's/@43.2147175,-71.5109392,17z/data=!3m1!4b1!4m5!3m4!1s0x89e26a4e4f89d2e3:0xfc3a0f444e5b4471!8m2!3d43.2147175!4d-71.5109392",papa_ginos_pizzeria,
Papa Gino's Pizzeria,65 Taunton Depot Dr,TAUNTON,MA,02780-6962,5088029622.0,"https://www.google.com/maps/place/Papa+Gino's/@41.8792071,-71.0686583,17z/data=!3m1!5s0x89e4f33dcd209f4f:0xaafe7e17242a8c1d!4m5!3m4!1s0x89e4f33c336be1bb:0x2e4bcb96204d8d34!8m2!3d41.8792031!4d-71.0664696?hl=en",papa_ginos_pizzeria,
Papa Gino's Pizzeria,770 Washington St,WEYMOUTH,MA,02188-3325,7813312660.0,"https://www.google.com/maps/place/Papa+Gino's/@42.2021543,-70.9458204,17z/data=!3m1!4b1!4m5!3m4!1s0x89e3625daa084c7d:0xe1fee4f01551b754!8m2!3d42.2021543!4d-70.9458204",papa_ginos_pizzeria,
Papa Gino's Pizzeria,765 Bridge St,WEYMOUTH,MA,02191-2148,7813403385.0,"https://www.google.com/maps/place/Papa+Gino's/@42.2454641,-70.934077,17z/data=!3m1!4b1!4m5!3m4!1s0x89e36391f7662851:0x22c6c1613199dfc6!8m2!3d42.2454641!4d-70.934077",papa_ginos_pizzeria,
Papa Gino's Pizzeria,400 Putnam Pike,SMITHFIELD,RI,02917-2408,4012325250.0,"https://www.google.com/maps/place/Papa+Gino's/@41.8696491,-71.5287013,17z/data=!3m1!4b1!4m5!3m4!1s0x89e4471cf9d71b77:0x3b0f93981b656ebf!8m2!3d41.8696491!4d-71.5287013",papa_ginos_pizzeria,
Papa Gino's Pizzeria,8 Commercial St,FOXBORO,MA,02035-2509,5085436100.0,"https://www.google.com/maps/place/Papa+Gino's/@42.0543262,-71.2411532,17z/data=!3m1!4b1!4m5!3m4!1s0x89e4625445af01b1:0xddd949333abea98c!8m2!3d42.0543262!4d-71.2411532",papa_ginos_pizzeria,
Papa Gino's Pizzeria,10 Washington St,NORWELL,MA,02061-1730,7818788417.0,"https://www.google.com/maps/place/Papa+Gino's/@42.1724778,-70.8845286,17z/data=!3m1!4b1!4m5!3m4!1s0x89e361e0b7659b15:0xde2a287241802217!8m2!3d42.1724778!4d-70.8845286",papa_ginos_pizzeria,
Papa Gino's Pizzeria,1425 Lake Shore Rd,GILFORD,NH,03249-2236,6035283355.0,"https://www.google.com/maps/place/Papa+Gino's/@43.5615953,-71.4448294,17z/data=!3m1!4b1!4m5!3m4!1s0x4cb3316aaaaaaaab:0xcb8b7990739bc583!8m2!3d43.5615953!4d-71.4448294",papa_ginos_pizzeria,
Papa Gino's Pizzeria,134 Nahatan St,NORWOOD,MA,2062,7812780717.0,"https://www.google.com/maps/place/Papa+Gino's/@42.1915379,-71.1965575,17z/data=!3m1!4b1!4m5!3m4!1s0x89e47fd702acb52b:0xc60e7ee139096c58!8m2!3d42.1915379!4d-71.1965575",papa_ginos_pizzeria,
Papa Gino's Pizzeria,623 Metacom Ave,WARREN,RI,02885-2814,4012456700.0,"https://www.google.com/maps/place/Papa+Gino's/@41.717775,-71.2690009,17z/data=!3m1!4b1!4m5!3m4!1s0x89e456bf47494363:0x3cba8328c707a145!8m2!3d41.717775!4d-71.2690009",papa_ginos_pizzeria,
Papa Gino's Pizzeria,681 W Boylston St,WORCESTER,MA,01606-2043,5088527871.0,"https://www.google.com/maps/place/Papa+Gino's/@42.3153146,-71.7969968,17z/data=!3m1!4b1!4m5!3m4!1s0x89e4078f92513513:0x89d17069d8b80c72!8m2!3d42.3153146!4d-71.7969968",papa_ginos_pizzeria,
Papa Gino's Pizzeria,940 Main St,SOUTH YARMOUTH,MA,2664,5083981146.0,"https://www.google.com/maps/place/Papa+Gino's/@41.6555952,-70.2081785,17z/data=!3m1!4b1!4m5!3m4!1s0x89fb3a3bcb13c59f:0xe28082b995854484!8m2!3d41.6555952!4d-70.2081785",papa_ginos_pizzeria,
Papa Gino's Pizzeria,319 Washington St,STOUGHTON,MA,02072-1737,7813441764.0,"https://www.google.com/maps/place/Papa+Gino's/@42.1370256,-71.1023561,17z/data=!3m1!4b1!4m5!3m4!1s0x89e48156b91a1523:0xdc8f26c3c27519ea!8m2!3d42.1370256!4d-71.1023561",papa_ginos_pizzeria,
Papa Gino's Pizzeria,56 Davis Straits,FALMOUTH,MA,02540-3926,5085404024.0,"https://www.google.com/maps/place/Papa+Gino's/@41.5578483,-70.6002768,17z/data=!3m1!4b1!4m5!3m4!1s0x89e4d76cffd500df:0x112eb5688321ddb5!8m2!3d41.5578483!4d-70.6002768",papa_ginos_pizzeria,
Papa Gino's Pizzeria,748 Gallivan Blvd,BOSTON,MA,02122-3141,6172822404.0,"https://www.google.com/maps/place/Papa+Gino's/@42.2847276,-71.0454269,17z/data=!3m1!4b1!4m5!3m4!1s0x89e37b7741cdb40d:0x308a5f8e0786dd35!8m2!3d42.2847276!4d-71.0454269",papa_ginos_pizzeria,
Papa Gino's Pizzeria,674 Bedford St,WHITMAN,MA,02382-1825,7814470052.0,"https://www.google.com/maps/place/Papa+Gino's/@42.0790281,-70.9498867,17z/data=!4m5!3m4!1s0x89e49ba4469a6097:0xf356eef1557b8f65!8m2!3d42.0790241!4d-70.947698?hl=en",papa_ginos_pizzeria,
Papa Gino's Pizzeria,829 Central Ave,DOVER,NH,03820-2506,6037424242.0,"https://www.google.com/maps/place/Papa+Gino's/@43.2160858,-70.8796075,17z/data=!3m1!4b1!4m5!3m4!1s0x89e29768c05d21b1:0x35dc6b10930d25a1!8m2!3d43.2160858!4d-70.8796075",papa_ginos_pizzeria,
Papa Gino's Pizzeria,P O Box 968,CHARLTON CITY,MA,1508,,"https://www.google.com/maps/place/Papa+Gino's/@42.1396269,-72.0249423,17z/data=!3m1!4b1!4m5!3m4!1s0x89e6a74000000001:0xa32e47cd666ec0e7!8m2!3d42.1396269!4d-72.0249423",papa_ginos_pizzeria,
Papa Gino's Pizzeria,700 E Greenwich Ave,WEST WARWICK,RI,02893-7522,4018212820.0,"https://www.google.com/maps/place/Papa+Gino's/@41.6740074,-71.5002557,17z/data=!3m1!4b1!4m5!3m4!1s0x89e44b476c0d1875:0x8f770bb2e28df3f!8m2!3d41.6740074!4d-71.5002557",papa_ginos_pizzeria,
Papa Gino's Pizzeria,797 Main St,HOLDEN,MA,01520-1825,5088295491.0,"https://www.google.com/maps/place/Papa+Gino's/@42.3420683,-71.8455205,17z/data=!3m1!4b1!4m5!3m4!1s0x89e3f8b074f33e61:0xe2866c7ae7de84e1!8m2!3d42.3420683!4d-71.8455205",papa_ginos_pizzeria,
Papa Gino's Pizzeria,164 Milk St,WESTBOROUGH,MA,01581-1158,5083664680.0,"https://www.google.com/maps/place/Papa+Gino's/@42.2807849,-71.6313527,17z/data=!3m1!4b1!4m5!3m4!1s0x89e40a6621c0e1f9:0xc7da43427463eef8!8m2!3d42.2807849!4d-71.6313527",papa_ginos_pizzeria,
Papa Gino's Pizzeria,1900 Main St,TEWKSBURY,MA,01876-2112,9788516100.0,"https://www.google.com/maps/place/Papa+Gino's/@42.590674,-71.2038182,17z/data=!3m1!5s0x89e3a0a4994fb733:0x2c65fc664cc123ed!4m5!3m4!1s0x89e3a0a4903382c7:0x7239f24fa2eb9f36!8m2!3d42.5906701!4d-71.2016295?hl=en",papa_ginos_pizzeria,
Papa Gino's Pizzeria,537 Lincoln St,WORCESTER,MA,01605-1926,5084594599.0,"https://www.google.com/maps/place/Papa+Gino's/@42.294362,-71.7740332,17z/data=!3m1!4b1!4m5!3m4!1s0x89e407db5b23c923:0xa0f178dbc0a92783!8m2!3d42.294362!4d-71.7740332",papa_ginos_pizzeria,
Papa Gino's Pizzeria,10 N Meadows Rd,MEDFIELD,MA,02052-2319,5083592040.0,"https://www.google.com/maps/place/Papa+Gino's/@42.1861238,-71.310558,17z/data=!3m1!4b1!4m5!3m4!1s0x89e4791573d2c14d:0x116dd09606533bf1!8m2!3d42.1861238!4d-71.310558",papa_ginos_pizzeria,
Papa Gino's Pizzeria,240 Grove St,BRAINTREE,MA,02184-7209,7813807744.0,"https://www.google.com/maps/place/Papa+Gino's/@42.1912849,-70.9887572,17z/data=!3m1!4b1!4m5!3m4!1s0x89e362a64bc22fb3:0x3e9c457fde3de0dc!8m2!3d42.1912849!4d-70.9887572",papa_ginos_pizzeria,
Papa Gino's Pizzeria,915 Grafton St,WORCESTER,MA,01604-2003,5087929313.0,"https://www.google.com/maps/place/Papa+Gino's/@42.2470863,-71.7600909,17z/data=!3m1!4b1!4m5!3m4!1s0x89e408a997819689:0x1b0a1110dbf48922!8m2!3d42.2470863!4d-71.7600909",papa_ginos_pizzeria,
Papa Gino's Pizzeria,Massachusetts Tpke W,WESTBORO,MA,1581,5083668792.0,"https://www.google.com/maps/place/papa+gino+s,+Papa+Gino's+Westboro+Mass+Pike+West/@42.245474,-71.5919776,17z/data=!3m1!4b1!4m5!3m4!1s0x89e40b23bea33603:0x10cad2683b49ef9!8m2!3d42.245474!4d-71.5919776",papa_ginos_pizzeria,
Papa Gino's Pizzeria,1 Samoset St,PLYMOUTH,MA,02360-4545,5087473535.0,"https://www.google.com/maps/place/Papa+Gino's/@41.9524325,-70.725416,13z/data=!4m8!1m2!2m1!1sPapa+Gino's+Pizzeria+1+Samoset+St+PLYMOUTH+MA+02360-4545!3m4!1s0x89e4bb1fc204ebb7:0xeabc114f1489790c!8m2!3d41.9599149!4d-70.6710963?hl=en",papa_ginos_pizzeria,
Papa Gino's Pizzeria,782 River St,HAVERHILL,MA,01832-3612,9783725468.0,"https://www.google.com/maps/place/Papa+Gino's/@42.7705543,-71.1146398,17z/data=!3m1!4b1!4m5!3m4!1s0x89e301718367a993:0x663ba2c7c705dbe6!8m2!3d42.7705543!4d-71.1146398",papa_ginos_pizzeria,
Papa Gino's Pizzeria,885 Belmont St,BROCKTON,MA,02301-5545,5085881911.0,"https://www.google.com/maps/place/Papa+Gino's/@42.0663766,-71.0533016,17z/data=!3m1!4b1!4m5!3m4!1s0x89e485a1d0f1b609:0xd9624d7a29b834a7!8m2!3d42.0663766!4d-71.0533016",papa_ginos_pizzeria,
Papa Gino's Pizzeria,326 Timpany Blvd,GARDNER,MA,01440-5200,9786328051.0,"https://www.google.com/maps/place/Papa+Gino's/@42.5600328,-71.9890763,17z/data=!3m1!4b1!4m5!3m4!1s0x89e158e445ec53a7:0x7ce29b42a39c1510!8m2!3d42.5600328!4d-71.9890763",papa_ginos_pizzeria,
Papa Gino's Pizzeria,55 Crystal Ave,DERRY,NH,03038-1702,6034324223.0,"https://www.google.com/maps/place/Papa+Gino's/@42.8930754,-71.3260308,17z/data=!3m1!5s0x89e25307c3187f19:0xf1faae977e11f039!4m5!3m4!1s0x89e253a890818315:0x52458a651db540d9!8m2!3d42.8930715!4d-71.3238421?hl=en",papa_ginos_pizzeria,
Papa Gino's Pizzeria,532 Pond St,WEYMOUTH,MA,02190-1233,7813312266.0,"https://www.google.com/maps/place/Papa+Gino's/@42.1520903,-70.9543143,17z/data=!3m1!4b1!4m5!3m4!1s0x89e49da83ce8537b:0xe0ca74b3f0012931!8m2!3d42.1520903!4d-70.9543143",papa_ginos_pizzeria,
Papa Gino's Pizzeria,861 Massachusetts Tpke,LUDLOW,MA,1056,4133083262.0,"https://www.google.com/maps/place/Papa+Gino's/@42.1710474,-72.455526,17z/data=!3m1!4b1!4m5!3m4!1s0x89e6c3b0aaffd173:0xd5474a88d58bf4c9!8m2!3d42.1710474!4d-72.455526",papa_ginos_pizzeria,
Papa Gino's Pizzeria,283 Washington St,SOUTH ATTLEBORO,MA,02703-5517,5087619292.0,"https://www.google.com/maps/place/Papa+Gino's/@41.9203449,-71.35989,17z/data=!3m1!4b1!4m5!3m4!1s0x89e45d161c8e8103:0x60aaa2c31ac2925e!8m2!3d41.9203449!4d-71.35989",papa_ginos_pizzeria,
Papa Gino's Pizzeria,869 Grand Army Hwy,SOMERSET,MA,02726-1204,5083240826.0,"https://www.google.com/maps/place/Papa+Gino's/@41.7301376,-71.171851,17z/data=!3m1!4b1!4m5!3m4!1s0x89e4f850b0fcfa41:0x3746aad7beff719!8m2!3d41.7301376!4d-71.171851",papa_ginos_pizzeria,
Papa Gino's Pizzeria,182 Summer St,KINGSTON,MA,02364-1277,7815856568.0,"https://www.google.com/maps/place/Papa+Gino's/@42.0106223,-70.7352082,17z/data=!3m1!4b1!4m5!3m4!1s0x89e4a369b7517a13:0xe4648f6274f456dd!8m2!3d42.0106223!4d-70.7352082",papa_ginos_pizzeria,
Papa Gino's Pizzeria,553 Main St,TEWKSBURY,MA,01876-1857,9788516221.0,"https://www.google.com/maps/place/Papa+Gino's/@42.6189444,-71.2534642,17z/data=!3m1!4b1!4m5!3m4!1s0x89e3a0a4903382c7:0x57d1ccd9f53949ff!8m2!3d42.6189444!4d-71.2534642",papa_ginos_pizzeria,
Papa Gino's Pizzeria,245 Franklin Village Dr,FRANKLIN,MA,02038-4005,5085203533.0,"https://www.google.com/maps/place/Papa+Gino's/@42.0880244,-71.4263088,17z/data=!3m1!5s0x89e46fb616803455:0x7edf0a3a1daa71e5!4m5!3m4!1s0x89e46fc9bfbb4d75:0x8c56b967312dc453!8m2!3d42.0880204!4d-71.4241201?hl=en",papa_ginos_pizzeria,
Papa Gino's Pizzeria,545 Hooksett Rd,MANCHESTER,NH,03104-2654,6036456773.0,"https://www.google.com/maps/place/Papa+Gino's/@43.0156501,-71.4533234,17z/data=!3m1!5s0x89e24f67cef60c7b:0xad0170a7bee9c9e0!4m5!3m4!1s0x89e24f66fc12558d:0xb557cd0c9c5dd67e!8m2!3d43.0156462!4d-71.4511347?hl=en",papa_ginos_pizzeria,
Papa Gino's Pizzeria,179 Cambridge St,BURLINGTON,MA,01803-2922,7812733020.0,"https://www.google.com/maps/place/Papa+Gino's/@42.5099305,-71.2000335,17z/data=!3m1!4b1!4m5!3m4!1s0x89e3776f5753dd33:0xebd9159e9cbaac7c!8m2!3d42.5099305!4d-71.2000335",papa_ginos_pizzeria,
Papa Gino's Pizzeria,95 Storrs Rd,WILLIMANTIC,CT,06226-4012,8604561884.0,"https://www.google.com/maps/place/Papa+Gino's/@41.7347049,-72.2016388,17z/data=!3m1!4b1!4m5!3m4!1s0x89e663ad6de85893:0x895f4fa87ffe975a!8m2!3d41.7347049!4d-72.2016388",papa_ginos_pizzeria,
Papa Gino's Pizzeria,307 Elsbree St,FALL RIVER,MA,02720-7211,5086763037.0,"https://www.google.com/maps/place/Papa+Gino's/@41.7134003,-71.1278178,17z/data=!3m1!4b1!4m5!3m4!1s0x89e4f909f9efd1d3:0x903f6fbad99fe052!8m2!3d41.7134003!4d-71.1278178",papa_ginos_pizzeria,
Papa Gino's Pizzeria,211 North St,FOXBORO,MA,02035-1045,5085431516.0,"https://www.google.com/maps/place/Papa+Gino's+(Rte+1)/@42.1026706,-71.2589651,17z/data=!3m1!4b1!4m5!3m4!1s0x89e47cea3929e7c5:0xdc97e0ec5e9c0425!8m2!3d42.1026706!4d-71.2589651",papa_ginos_pizzeria,
Papa Gino's Pizzeria,385 Newburyport Tpke,SAUGUS,MA,1906,7812334419.0,"https://www.google.com/maps/place/papa+gino+s,+Papa+Gino's+Saugus/@42.4868941,-71.0186251,17z/data=!3m1!4b1!4m5!3m4!1s0x89e372ba14dab28f:0xe13b69c3c02592c4!8m2!3d42.4868941!4d-71.0186251",papa_ginos_pizzeria,
Papa Gino's Pizzeria,438 W Grove St,MIDDLEBORO,MA,02346-1459,5089461066.0,"https://www.google.com/maps/place/Papa+Gino's/@41.8965475,-70.9512289,17z/data=!3m1!4b1!4m5!3m4!1s0x89e4931ed7f64c0b:0xfa749c5c25d379cb!8m2!3d41.8965475!4d-70.9512289",papa_ginos_pizzeria,
Papa Gino's Pizzeria,20 Boston Tpke,SHREWSBURY,MA,01545-3522,5084595397.0,"https://www.google.com/maps/place/Papa+Gino's/@42.2736376,-71.7524847,17z/data=!3m1!4b1!4m5!3m4!1s0x89e4088984c19c09:0x71b78ffae1504722!8m2!3d42.2736376!4d-71.7524847",papa_ginos_pizzeria,
Papa Gino's Pizzeria,16 Ma 6A,ORLEANS,MA,2653,5082558641.0,"https://www.google.com/maps/place/Papa+Gino's/@41.7951826,-69.9836362,17z/data=!3m1!4b1!4m5!3m4!1s0x89fb69649acd327b:0x71fce544747dd5ef!8m2!3d41.7951826!4d-69.9836362",papa_ginos_pizzeria,
Papa Gino's Pizzeria,1270 River St,BOSTON,MA,02136-2833,6173644300.0,"https://www.google.com/maps/place/Papa+Gino's/@42.2556574,-71.123903,17z/data=!3m1!4b1!4m5!3m4!1s0x89e37ef3099146f9:0xb6464822a290e8b3!8m2!3d42.2556574!4d-71.123903",papa_ginos_pizzeria,
Papa Gino's Pizzeria,100 Granite St,QUINCY,MA,02169-5043,6177869088.0,"https://www.google.com/maps/place/Papa+Gino's/@42.2463027,-71.0047237,17z/data=!3m1!4b1!4m5!3m4!1s0x89e37cca5e40a7a3:0xd98332dcc7811740!8m2!3d42.2463027!4d-71.0047237",papa_ginos_pizzeria,
Papa Gino's Pizzeria,340 Mariano Bishop Blvd,FALL RIVER,MA,02721-2328,5086751100.0,"https://www.google.com/maps/place/Papa+Gino's/@41.6733095,-71.1629157,17z/data=!3m1!4b1!4m5!3m4!1s0x89e4ff3734a15455:0x8b4a7ffa6e56bb98!8m2!3d41.6733095!4d-71.1629157",papa_ginos_pizzeria,
Papa Gino's Pizzeria,29 Chelmsford St,CHELMSFORD,MA,01824-3016,9782566999.0,"https://www.google.com/maps/place/Papa+Gino's/@42.5980581,-71.3520879,17z/data=!4m5!3m4!1s0x89e3a31ba84fd3fb:0xba74415681edb942!8m2!3d42.5980542!4d-71.3498992?hl=en",papa_ginos_pizzeria,
Papa Gino's Pizzeria,1422 Washington St,HANOVER,MA,02339-1647,7818262371.0,"https://www.google.com/maps/place/Papa+Gino's/@42.1446349,-70.8474604,17z/data=!4m8!1m2!2m1!1sPapa+Gino's+Pizzeria+1422+Washington+St+HANOVER+MA+02339-1647!3m4!1s0x89e49fb881ad460f:0x90486a1b2a8c4f26!8m2!3d42.1442531!4d-70.8456151?hl=en",papa_ginos_pizzeria,
Papa Gino's Pizzeria,1018 Lexington St,WALTHAM,MA,02452-7204,7818936440.0,"https://www.google.com/maps/place/Papa+Gino's/@42.4103087,-71.2343798,17z/data=!3m1!4b1!4m5!3m4!1s0x89e39d1ca8b906d3:0xbb850a804fa20888!8m2!3d42.4103087!4d-71.2343798",papa_ginos_pizzeria,
Papa Gino's Pizzeria,1600 Falmouth Rd,CENTERVILLE,MA,02632-2939,5087785500.0,"https://www.google.com/maps/place/Papa+Gino's/@41.6580079,-70.3469636,17z/data=!3m1!5s0x89fb33d256c15005:0x6050dc3ca2ddfc47!4m5!3m4!1s0x89fb33d000000001:0x4f86700e40a33f45!8m2!3d41.6580039!4d-70.3447749?hl=en",papa_ginos_pizzeria,
Papa Gino's Pizzeria,36 American Legion Dr,NORTH ADAMS,MA,01247-3913,4136647811.0,"https://www.google.com/maps/place/Papa+Gino's/@42.6982516,-73.1128373,17z/data=!3m1!4b1!4m5!3m4!1s0x89e0b83e6c06761b:0x39ea268308e5ea92!8m2!3d42.6982516!4d-73.1128373",papa_ginos_pizzeria,
Papa Gino's Pizzeria,99 Cluff Crossing Rd,SALEM,NH,03079-3508,6038938476.0,"https://www.google.com/maps/place/Papa+Gino's/@42.7669703,-71.2208135,17z/data=!3m1!4b1!4m5!3m4!1s0x89e3aa22f42d499b:0xb0252bb1ab314e1e!8m2!3d42.7669703!4d-71.2208135",papa_ginos_pizzeria,
Papa Gino's Pizzeria,3 Continental Blvd,MERRIMACK,NH,03054-4303,6034291476.0,"https://www.google.com/maps/place/Papa+Gino's/@42.8384318,-71.4968983,17z/data=!3m1!4b1!4m5!3m4!1s0x89e3b460e8b4f5cb:0x5a633caf4d78dcd5!8m2!3d42.8384318!4d-71.4968983",papa_ginos_pizzeria,
Papa Gino's Pizzeria,44 Nashua Rd,LONDONDERRY,NH,03053-3450,6034348555.0,"https://www.google.com/maps/place/Papa+Gino's/@42.8660858,-71.3485059,17z/data=!3m1!4b1!4m5!3m4!1s0x89e252c52ccc6b2f:0xd62541fa7fd277e6!8m2!3d42.8660858!4d-71.3485059",papa_ginos_pizzeria,
Papa Gino's Pizzeria,459 Southbridge St,AUBURN,MA,01501-2404,5088326583.0,"https://www.google.com/maps/place/Papa+Gino's/@42.1986124,-71.8414487,17z/data=!3m1!4b1!4m5!3m4!1s0x89e404f314278eaf:0xba0dd0a0c98b59d7!8m2!3d42.1986124!4d-71.8414487",papa_ginos_pizzeria,
Papa Gino's Pizzeria,144 N Main St,UXBRIDGE,MA,01569-1736,5082786881.0,"https://www.google.com/maps/place/Papa+Gino's/@42.0816001,-71.6382782,17z/data=!3m1!4b1!4m5!3m4!1s0x89e41393fed318c7:0xcc53100bb3eb946c!8m2!3d42.0816001!4d-71.6382782",papa_ginos_pizzeria,
Papa Gino's Pizzeria,104 Boston Post Rd,SUDBURY,MA,01776-2404,9784437136.0,"https://www.google.com/maps/place/Papa+Gino's/@42.3634555,-71.393129,17z/data=!3m1!4b1!4m5!3m4!1s0x89e38f7a8c11b499:0x3eb02a92ea5d40ac!8m2!3d42.3634555!4d-71.393129",papa_ginos_pizzeria,
Papa Gino's Pizzeria,1750 Diamond Hill Rd,WOONSOCKET,RI,02895-1507,4017658181.0,"https://www.google.com/maps/place/Papa+Gino's/@42.0156823,-71.4741258,17z/data=!3m1!4b1!4m5!3m4!1s0x89e46963b42bbd6d:0x9bf6100c814ca66a!8m2!3d42.0156823!4d-71.4741258",papa_ginos_pizzeria,
Papa Gino's Pizzeria,74 Main St,MEDWAY,MA,02053-1826,5085334301.0,"https://www.google.com/maps/place/Papa+Gino's/@42.151496,-71.4121837,17z/data=!3m1!4b1!4m5!3m4!1s0x89e471277729eb9f:0x90b053401f5cca4c!8m2!3d42.151496!4d-71.4121837",papa_ginos_pizzeria,
Papa Gino's Pizzeria,622 George Washington Hwy,LINCOLN,RI,02865-4211,4013336888.0,"https://www.google.com/maps/place/Papa+Gino's/@41.9044301,-71.5380584,13z/data=!3m1!5s0x89e442278a3b5b67:0xdef2b13bf3e3180!4m8!1m2!2m1!1sPapa+Gino's+Pizzeria+622+George+Washington+Hwy+LINCOLN+RI+02865-4211!3m4!1s0x89e443a555555555:0xd617e8bceb139a58!8m2!3d41.9388598!4d-71.4773767?hl=en",papa_ginos_pizzeria,
Papa Gino's Pizzeria,15 Taunton St,PLAINVILLE,MA,02762-2139,5086950214.0,"https://www.google.com/maps/place/Papa+Gino's/@42.0126746,-71.3056971,17z/data=!3m1!4b1!4m5!3m4!1s0x89e466a0d110c19f:0x7d225d939ab5796c!8m2!3d42.0126746!4d-71.3056971",papa_ginos_pizzeria,
Papa Gino's Pizzeria,171 Huttleston Ave,FAIRHAVEN,MA,02719-4620,5089971535.0,"https://www.google.com/maps/place/Papa+Gino's/@41.6421902,-70.8893555,17z/data=!3m1!4b1!4m5!3m4!1s0x89e4e6b72cc21293:0xac3c258ad22ff4ea!8m2!3d41.6421902!4d-70.8893555",papa_ginos_pizzeria,
