Company Name,Address 1,City,State,Zip,Phone,Google Link,Company Name Processed,Status
PIEOLOGY PIZZERIA,100 Citadel Dr,LOS ANGELES,CA,90040,,"https://www.google.com/maps/place/Pieology+Pizzeria,+Citadel+Outlets/@34.005646,-118.152907,17z/data=!3m1!4b1!4m5!3m4!1s0x80c2ce538106d65d:0xcac18ecea0f00a93!8m2!3d34.005646!4d-118.152907",pieology_pizzeria,
PIEOLOGY PIZZERIA,1071 E 19th St,UPLAND,CA,91784,9099818838.0,"https://www.google.com/maps/place/Pieology+Pizzeria+Upland,+CA/@34.1320894,-117.6362621,17z/data=!3m1!4b1!4m5!3m4!1s0x80c336d67e66f645:0x78da6565eec26333!8m2!3d34.1320894!4d-117.6362621",pieology_pizzeria,
PIEOLOGY PIZZERIA,1147 Broadway St,DENVER,CO,80203,7203282271.0,"https://www.google.com/maps/place/Pieology+Downtown+Denver/@39.734927,-104.987821,17z/data=!3m1!4b1!4m5!3m4!1s0x876c7f2a51c618ff:0xff9ae9ed709a0a55!8m2!3d39.734927!4d-104.987821",pieology_pizzeria,
PIEOLOGY PIZZERIA,1201 Barbara Jordan Blvd,AUSTIN,TX,78723,7372226652.0,"https://www.google.com/maps/place/Pieology+Pizzeria,+Austin,+TX/@30.3063575,-97.709001,17z/data=!3m1!4b1!4m5!3m4!1s0x8644ca0601ce9c1d:0x376dc361519293d3!8m2!3d30.3063575!4d-97.709001",pieology_pizzeria,
PIEOLOGY PIZZERIA,12130 SE 82nd Ave,HAPPY VALLEY,OR,97086,5033034486.0,"https://www.google.com/maps/place/Pieology+Pizzeria+Clackamas+Town+Center/@45.4342789,-122.5723567,17z/data=!3m1!4b1!4m5!3m4!1s0x54957577ac29bef1:0xda8926803731c446!8m2!3d45.4342789!4d-122.5723567",pieology_pizzeria,
PIEOLOGY PIZZERIA,122 S County Center Way,ST LOUIS,MO,63129,3144161413.0,"https://www.google.com/maps/place/Pieology+Pizzeria,+South+County/@38.5040581,-90.3291986,17z/data=!3m1!4b1!4m5!3m4!1s0x87d8c867befb3af7:0x9b39ea5cb1ae187c!8m2!3d38.5040581!4d-90.3291986",pieology_pizzeria,
PIEOLOGY PIZZERIA,12259 La Mirada Blvd,LA MIRADA,CA,90638,5629413000.0,"https://www.google.com/maps/place/Pieology+Pizzeria+La+Mirada,+CA/@33.9185736,-118.0123851,17z/data=!3m1!4b1!4m5!3m4!1s0x80dd2b5368ad0cd5:0x32142f8e0235996e!8m2!3d33.9185736!4d-118.0123851",pieology_pizzeria,
PIEOLOGY PIZZERIA,128 W McMillan St,CINCINNATI,OH,45219,5132211300.0,"https://www.google.com/maps/place/Pieology+Pizzeria+U+Square,+Cincinnati,+OH/@39.1278797,-84.5169487,17z/data=!3m1!4b1!4m5!3m4!1s0x8841b3f49cd5ab99:0xb5a4544c95c3dd92!8m2!3d39.1278797!4d-84.5169487",pieology_pizzeria,
PIEOLOGY PIZZERIA,12848 Day St,MORENO VALLEY,CA,92553,,"https://www.google.com/maps/place/Pieology+Pizzeria,+Moreno+Valley/@33.9339105,-117.2784383,17z/data=!3m1!4b1!4m5!3m4!1s0x80dcaf57e5887659:0x9dec87719d7c6425!8m2!3d33.9339105!4d-117.2784383",pieology_pizzeria,
PIEOLOGY PIZZERIA,1334 West Valley Parkway Dr,ESCONDIDO,CA,92029,7604899889.0,"https://www.google.com/maps/place/Pieology+Pizzeria+Escondido,+CA/@33.113478,-117.1022199,17z/data=!3m1!4b1!4m5!3m4!1s0x80dbf48d46653671:0xa8994d00604d42f7!8m2!3d33.113478!4d-117.1022199",pieology_pizzeria,
PIEOLOGY PIZZERIA,13394 Limonite Ave,EASTVALE,CA,92880,9514446737.0,"https://www.google.com/maps/place/Pieology+Pizzeria/@33.9758992,-117.575453,17z/data=!3m1!4b1!4m5!3m4!1s0x80dccbefff608d91:0x68dcd0114e128fc6!8m2!3d33.9758992!4d-117.575453",pieology_pizzeria,
PIEOLOGY PIZZERIA,1630 Gateway Blvd,FAIRFIELD,CA,94533,7074271169.0,"https://www.google.com/maps/place/Pieology+Pizzeria+Gateway+Courtyard/@38.259629,-122.0588055,17z/data=!3m1!4b1!4m5!3m4!1s0x80851421a4ce65c3:0x53b4ee59141c1b08!8m2!3d38.259629!4d-122.0588055",pieology_pizzeria,
PIEOLOGY PIZZERIA,19953 Rinaldi St,LOS ANGELES,CA,91326,8183630182.0,"https://www.google.com/maps/place/Pieology+Pizzeria+Porter+Ranch,+Los+Angeles/@34.2759855,-118.5695853,17z/data=!3m1!4b1!4m5!3m4!1s0x80c284ad9584c6fb:0x9b4963a41bf7e4c2!8m2!3d34.2759855!4d-118.5695853",pieology_pizzeria,
PIEOLOGY PIZZERIA,2051 Rancho Valley Dr,POMONA,CA,91766,9096296800.0,"https://www.google.com/maps/place/Pieology+Pizzeria,+Pomona,+CA/@34.0343175,-117.7584611,17z/data=!3m1!4b1!4m5!3m4!1s0x80c32d978512be51:0xca478136d6522fc8!8m2!3d34.0343175!4d-117.7584611",pieology_pizzeria,
PIEOLOGY PIZZERIA,2092 N Bellflower Blvd,LONG BEACH,CA,90815,5624305890.0,"https://www.google.com/maps/place/Pieology+Pizzeria/@33.7944636,-118.1249981,17z/data=!3m1!4b1!4m5!3m4!1s0x80dd31e8b3062af9:0xe18886b3afafd01a!8m2!3d33.7944636!4d-118.1249981",pieology_pizzeria,
PIEOLOGY PIZZERIA,230 Tresser Blvd,STAMFORD,CT,6901,2033887669.0,"https://www.google.com/maps/place/Pieology+Pizzeria,+Stamford/@41.0517258,-73.5365058,17z/data=!3m1!4b1!4m5!3m4!1s0x89c2a1e76f54af51:0xced13ff88d07d981!8m2!3d41.0517258!4d-73.5365058",pieology_pizzeria,
PIEOLOGY PIZZERIA,2347 California Ave,CORONA,CA,92881,9512729508.0,"https://www.google.com/maps/place/Pieology+Pizzeria+Corona,+CA/@33.865947,-117.5461966,14z/data=!4m8!1m2!2m1!1sPIEOLOGY+PIZZERIA+2347+California+Ave+CORONA+CA+92881!3m4!1s0x80dcb86e2149c827:0x9c4dcd795217d7af!8m2!3d33.843703!4d-117.537502?hl=en",pieology_pizzeria,
PIEOLOGY PIZZERIA,2405 Iron Point Rd,FOLSOM,CA,95630,9169844194.0,"https://www.google.com/maps/place/Pieology+Pizzeria,+Folsom/@38.6451148,-121.1219409,17z/data=!3m1!4b1!4m5!3m4!1s0x809ae5090464a43f:0xbfaaadeecb8ed69a!8m2!3d38.6451148!4d-121.1219409",pieology_pizzeria,
PIEOLOGY PIZZERIA,250 Cochrane Plz,MORGAN HILL,CA,95037,4087827088.0,"https://www.google.com/maps/place/Pieology+Pizzeria/@37.1510164,-121.6547937,17z/data=!3m1!4b1!4m5!3m4!1s0x808e20c8e509b2f9:0xf84519b0346a3d42!8m2!3d37.1510164!4d-121.6547937",pieology_pizzeria,
PIEOLOGY PIZZERIA,2998 E Hwy 412,SILOAM SPRINGS,AR,72761,4793736325.0,"https://www.google.com/maps/place/Pieology+Pizzeria+Siloam+Springs/@36.1801489,-94.5125225,17z/data=!3m1!4b1!4m5!3m4!1s0x87c9a2784f53c705:0x16d3f09ea9177175!8m2!3d36.1801489!4d-94.5125225",pieology_pizzeria,
PIEOLOGY PIZZERIA,30075 Haun Rd,MENIFEE,CA,92584,9516726554.0,"https://www.google.com/maps/place/Pieology+Pizzeria,+Menifee/@33.6842902,-117.1759346,17z/data=!3m1!4b1!4m5!3m4!1s0x80dc9d8a28cd8e3d:0x512589118e5c251a!8m2!3d33.6842902!4d-117.1759346",pieology_pizzeria,
PIEOLOGY PIZZERIA,3450 West Chandler Blvd,CHANDLER,AZ,85226,4809633499.0,"https://www.google.com/maps/place/Pieology+Pizzeria+Chandler+Gateway,+Chandler,+AZ/@33.3071092,-111.89931,17z/data=!3m1!4b1!4m5!3m4!1s0x872b072ad818a137:0x63338113a9742dec!8m2!3d33.3071092!4d-111.89931",pieology_pizzeria,
PIEOLOGY PIZZERIA,3908 Grand Ave,CHINO,CA,91710,9095917778.0,"https://www.google.com/maps/place/Pieology+Pizzeria/@33.9993865,-117.7187158,17z/data=!3m1!4b1!4m5!3m4!1s0x80c332b6cfa891c3:0x74133b6f43fb3920!8m2!3d33.9993865!4d-117.7187158",pieology_pizzeria,
PIEOLOGY PIZZERIA,39338 Paseo Padre Pkwy,FREMONT,CA,94538,5104942001.0,"https://www.google.com/maps/place/Pieology+Pizzeria+Gateway+Plaza,+Fremont,+CA/@37.5524151,-121.97816,17z/data=!3m1!4b1!4m5!3m4!1s0x808fc0902b43e05d:0xde85075555b469b9!8m2!3d37.5524151!4d-121.97816",pieology_pizzeria,
PIEOLOGY PIZZERIA,4624 Town Crossing Dr,JACKSONVILLE,FL,32246,9046667575.0,"https://www.google.com/maps/place/Pieology+Pizzeria,+St.+John's+Town+Center,+Jacksonville+FL/@30.2594231,-81.5276578,17z/data=!3m1!4b1!4m5!3m4!1s0x88e5b55a1bacaebf:0x45b78ec4c7a9e93d!8m2!3d30.2594231!4d-81.5276578",pieology_pizzeria,
PIEOLOGY PIZZERIA,5100 N 9th Ave,PENSACOLA,FL,32504,8503325355.0,"https://www.google.com/maps/place/Pieology+Pizzeria,+Cordova+Mall+Next+to+World+Market/@30.4746954,-87.2073245,17z/data=!3m1!4b1!4m5!3m4!1s0x8890c01355590fd5:0xdbfc478c71fd794a!8m2!3d30.4746954!4d-87.2073245",pieology_pizzeria,
PIEOLOGY PIZZERIA,5575 Balboa Ave,SAN DIEGO,CA,92111,8585650600.0,"https://www.google.com/maps/place/Pieology+Pizzeria+Balboa+Mesa,+San+Diego,+CA/@32.8194476,-117.1805995,17z/data=!3m1!4b1!4m5!3m4!1s0x80dc0073ffa54141:0xe1cd0fb03aba0c0a!8m2!3d32.8194476!4d-117.1805995",pieology_pizzeria,
PIEOLOGY PIZZERIA,6709 North Riverside Dr,FRESNO,CA,93722,5592773201.0,"https://www.google.com/maps/place/Pieology+Pizzeria+El+Paseo,+Fresno,+CA/@36.8358438,-119.9107839,17z/data=!3m1!4b1!4m5!3m4!1s0x80946f1c1de7494d:0xbda4ab0c0b6acb26!8m2!3d36.8358438!4d-119.9107839",pieology_pizzeria,
PIEOLOGY PIZZERIA,6951 N Mesa St,EL PASO,TX,79912,9154005555.0,"https://www.google.com/maps/place/Pieology+Pizzeria,+El+Paso/@31.8349861,-106.5488108,17z/data=!3m1!4b1!4m5!3m4!1s0x86ddf86f97f2ae65:0xdc7a51c10a55e0c9!8m2!3d31.8349861!4d-106.5488108",pieology_pizzeria,
PIEOLOGY PIZZERIA,11165 Park Blvd,SEMINOLE,FL,33772,7274987547.0,"https://www.google.com/maps/place/Pieology+Pizzeria,+Seminole/@27.8410394,-82.7937617,17z/data=!3m1!4b1!4m5!3m4!1s0x88c2fb8e0b81a581:0xfade569e65e63ea4!8m2!3d27.8410394!4d-82.7937617",pieology_pizzeria,
PIEOLOGY PIZZERIA,12218 Apple Valley Rd,APPLE VALLEY,CA,92308,7609618189.0,"https://www.google.com/maps/place/Pieology+Pizzeria+Apple+Valley,+CA/@34.4727838,-117.2429152,17z/data=!3m1!4b1!4m5!3m4!1s0x80c360e09243c00f:0x390cedf837c79f78!8m2!3d34.4727838!4d-117.2429152",pieology_pizzeria,
PIEOLOGY PIZZERIA,1255 NW 128th St,CLIVE,IA,50325,5152243983.0,"https://www.google.com/maps/place/Pieology+Pizzeria/@41.6017127,-93.7936296,17z/data=!3m1!4b1!4m5!3m4!1s0x87ec212333ea8ba5:0x263b4f3a18c83ebb!8m2!3d41.6017127!4d-93.7936296",pieology_pizzeria,
PIEOLOGY PIZZERIA,12841 Towne Ctr,CERRITOS,CA,90703,5628605202.0,"https://www.google.com/maps/place/Pieology+Pizzeria+Cerritos,+CA/@33.8691826,-118.0579974,17z/data=!3m1!4b1!4m5!3m4!1s0x80dd2cfedec9f9d3:0x89f2cdc2572ab8d8!8m2!3d33.8691826!4d-118.0579974",pieology_pizzeria,
PIEOLOGY PIZZERIA,13325 Main St,HESPERIA,CA,92345,7609982785.0,"https://www.google.com/maps/place/Pieology+Pizzeria,+Hesperia,+CA/@34.4263953,-117.3717626,17z/data=!3m1!4b1!4m5!3m4!1s0x80c36872c233e659:0x840789316e5d5fd6!8m2!3d34.4263953!4d-117.3717626",pieology_pizzeria,
PIEOLOGY PIZZERIA,13786 Jamboree Rd,IRVINE,CA,92602,7143890522.0,"https://www.google.com/maps/place/Pieology+Pizzeria+The+Market+Place/@33.7225917,-117.7899311,17z/data=!3m1!4b1!4m5!3m4!1s0x80dcdc7eacda4e35:0x5345c9b4dc9fa037!8m2!3d33.7225917!4d-117.7899311",pieology_pizzeria,
PIEOLOGY PIZZERIA,1411 Hamner Ave,NORCO,CA,92860,9514795340.0,"https://www.google.com/maps/place/Pieology+Pizzeria,+Norco,+CA/@33.9026322,-117.5615434,17z/data=!3m1!4b1!4m5!3m4!1s0x80dcc82df5efd9c7:0xf115fa22a772a668!8m2!3d33.9026322!4d-117.5615434",pieology_pizzeria,
PIEOLOGY PIZZERIA,1470 Taylor Rd,MONTGOMERY,AL,36117,3346949060.0,"https://www.google.com/maps/place/Pieology+Pizzeria,+Montgomery+%2F+Chase+Corner/@32.3578622,-86.1730124,17z/data=!3m1!4b1!4m5!3m4!1s0x888c2c76549a705f:0xd0acc6978979e281!8m2!3d32.3578622!4d-86.1730124",pieology_pizzeria,
PIEOLOGY PIZZERIA,151 Hekili St,KAILUA,HI,96734,8082635550.0,"https://www.google.com/maps/place/Pieology+Pizzeria,+Kailua/@21.3917375,-157.7413399,17z/data=!3m1!4b1!4m5!3m4!1s0x7c0014c32c8bef8f:0x18d16860bfa21995!8m2!3d21.3917375!4d-157.7413399",pieology_pizzeria,
PIEOLOGY PIZZERIA,1620 E 1st St,BEAUMONT,CA,92223,9518459333.0,"https://www.google.com/maps/place/Pieology+Pizzeria/@33.9230051,-116.9492291,17z/data=!3m1!4b1!4m5!3m4!1s0x80db43fb0328a33f:0x11c889c3cf9e8d4!8m2!3d33.9230051!4d-116.9492291",pieology_pizzeria,
PIEOLOGY PIZZERIA,16338 Beach Blvd,WESTMINSTER,CA,92683,7144659304.0,"https://www.google.com/maps/place/Pieology+Huntington+Beach%2FWestminster/@33.7262453,-117.9878815,17z/data=!3m1!4b1!4m5!3m4!1s0x80dd265bc2cd7835:0x5d2ecad4bc13723f!8m2!3d33.7262453!4d-117.9878815",pieology_pizzeria,
PIEOLOGY PIZZERIA,1693 West Lacey Blvd,HANFORD,CA,93230,5595875755.0,"https://www.google.com/maps/place/Pieology+Pizzeria+Hanford+Mall/@36.3251228,-119.6724319,17z/data=!3m1!4b1!4m5!3m4!1s0x8094c392b0c42217:0xcf2548ceb5098a77!8m2!3d36.3251228!4d-119.6724319",pieology_pizzeria,
PIEOLOGY PIZZERIA,1766 S Greenfield Rd,MESA,AZ,85206,4808134292.0,"https://www.google.com/maps/place/Pieology+Pizzeria,+Mesa+%2F+Greenfield+Gateway/@33.3823717,-111.7397337,17z/data=!3m1!4b1!4m5!3m4!1s0x872baf218f153213:0xb2ca8c4cad603bf7!8m2!3d33.3823717!4d-111.7397337",pieology_pizzeria,
PIEOLOGY PIZZERIA,1777 Martin Luther King Blvd,FAYETTEVILLE,AR,72701,4792499466.0,"https://www.google.com/maps/place/Pieology+Pizzeria,+Fayetteville,+AR/@36.0562683,-94.1858139,17z/data=!3m1!4b1!4m5!3m4!1s0x87c96f03c04e1837:0x3331c4dca0268e9c!8m2!3d36.0562683!4d-94.1858139",pieology_pizzeria,
PIEOLOGY PIZZERIA,2350 Sunrise Blvd,RANCHO CORDOVA,CA,95670,9166354694.0,"https://www.google.com/maps/place/Pieology+Pizzeria+Rancho+Cordova,+CA/@38.6168888,-121.269,17z/data=!3m1!4b1!4m5!3m4!1s0x809add83d9816e99:0xce38e1173d7a9dad!8m2!3d38.6168888!4d-121.269",pieology_pizzeria,
PIEOLOGY PIZZERIA,2520 E Craig Rd,NORTH LAS VEGAS,NV,89030,7023316760.0,"https://www.google.com/maps/place/Pieology+Cannery+Corner/@36.2406193,-115.1164391,17z/data=!3m1!4b1!4m5!3m4!1s0x80c8e81f6d0599d1:0xa4f946803be273c8!8m2!3d36.2406193!4d-115.1164391",pieology_pizzeria,
PIEOLOGY PIZZERIA,2860 Gateway St,SPRINGFIELD,OR,97477,5416544350.0,"https://www.google.com/maps/place/Pieology+Pizzeria,+Springfield/@44.0734393,-123.0431628,17z/data=!3m1!4b1!4m5!3m4!1s0x54c0e18e0d09dd53:0xb4365edd3ead702!8m2!3d44.0734393!4d-123.0431628",pieology_pizzeria,
PIEOLOGY PIZZERIA,3455 Sports Arena Blvd,SAN DIEGO,CA,92110,6192230600.0,"https://www.google.com/maps/place/Pieology+Pizzeria/@32.7531018,-117.2100017,17z/data=!3m1!4b1!4m5!3m4!1s0x80dc0073ffa54141:0xebdb58e726e65551!8m2!3d32.7531018!4d-117.2100017",pieology_pizzeria,
PIEOLOGY PIZZERIA,346 Main St,FRANKLIN,TN,37064,6157168414.0,"https://www.google.com/maps/place/Pieology+Pizzeria+Franklin/@35.9248492,-86.8701615,17z/data=!3m1!4b1!4m5!3m4!1s0x88647e519871d4fb:0x68cc030cf23ebb18!8m2!3d35.9248492!4d-86.8701615",pieology_pizzeria,
PIEOLOGY PIZZERIA,365 Hughes Center Dr,LAS VEGAS,NV,89169,7028881295.0,"https://www.google.com/maps/place/Pieology+Pizzeria+Hughes+Center,+Las+Vegas,+LV/@36.1148648,-115.1554129,17z/data=!3m1!4b1!4m5!3m4!1s0x80c8c44fa52a7ed1:0xfa20f1d5541e3345!8m2!3d36.1148648!4d-115.1554129",pieology_pizzeria,
PIEOLOGY PIZZERIA,4608 N University Dr,CORAL SPRINGS,FL,33076,9546889780.0,"https://www.google.com/maps/place/Pieology+Pizzeria,+Coral+Springs/@26.2874426,-80.2511137,17z/data=!3m1!4b1!4m5!3m4!1s0x88d91ac878a263b3:0x7afad741730db12a!8m2!3d26.2874426!4d-80.2511137",pieology_pizzeria,
PIEOLOGY PIZZERIA,484 Howe Ave,SACRAMENTO,CA,95825,9169990832.0,"https://www.google.com/maps/place/Pieology+Pizzeria,+Sacramento%2FUniversity+Village/@38.573579,-121.4144082,17z/data=!3m1!4b1!4m5!3m4!1s0x809ada59064f71d3:0xbe4fabc50ef7c162!8m2!3d38.573579!4d-121.4144082",pieology_pizzeria,
PIEOLOGY PIZZERIA,505 N Grand Ave,WALNUT,CA,91789,9095943988.0,"https://www.google.com/maps/place/Pieology+Pizzeria/@34.0273357,-117.8366639,17z/data=!3m1!4b1!4m5!3m4!1s0x80c32bf47d9d6f23:0x505fd81666ee889f!8m2!3d34.0273357!4d-117.8366639",pieology_pizzeria,
PIEOLOGY PIZZERIA,5068 North Palm Ave,FRESNO,CA,93704,5592252546.0,"https://www.google.com/maps/place/Pieology+Pizzeria+Fig+Garden,+Fresno,+CA/@36.8096578,-119.8079337,17z/data=!3m1!4b1!4m5!3m4!1s0x809467eb32d08d0d:0x3298591572e523c0!8m2!3d36.8096578!4d-119.8079337",pieology_pizzeria,
PIEOLOGY PIZZERIA,516 North State College Blvd,FULLERTON,CA,92831,7144474064.0,"https://www.google.com/maps/place/Pieology+Fullerton+(Chapman%2FState+College)/@33.8748151,-117.8891728,17z/data=!3m1!4b1!4m5!3m4!1s0x80dcd5d09a25cca3:0xc026c63f7d87c918!8m2!3d33.8748151!4d-117.8891728",pieology_pizzeria,
PIEOLOGY PIZZERIA,623 Orange St,REDLANDS,CA,92374,9097927329.0,"https://www.google.com/maps/place/Pieology+Pizzeria/@34.0603818,-117.1828734,17z/data=!3m1!4b1!4m5!3m4!1s0x80dcaa72dc5801a5:0x969583ad9aa2d0f6!8m2!3d34.0603818!4d-117.1828734",pieology_pizzeria,
PIEOLOGY PIZZERIA,6627 Pacific Ave,STOCKTON,CA,95207,2099100798.0,"https://www.google.com/maps/place/Pieology+Pizzeria,+Stockton/@38.010293,-121.3211319,17z/data=!3m1!4b1!4m5!3m4!1s0x80900c6888cbfd75:0x25317dcd3d97c78b!8m2!3d38.010293!4d-121.3211319",pieology_pizzeria,
PIEOLOGY PIZZERIA,6955 Camino Arroyo,GILROY,CA,95020,4088472400.0,"https://www.google.com/maps/place/Pieology+Pizzeria/@37.0029273,-121.55224,17z/data=!3m1!4b1!4m5!3m4!1s0x8091e39bf575fe73:0x3f7272498f523ae7!8m2!3d37.0029273!4d-121.55224",pieology_pizzeria,
PIEOLOGY PIZZERIA,870 Herndon Ave,CLOVIS,CA,93612,5599407330.0,"https://www.google.com/maps/place/Pieology+Pizzeria,+Clovis+%2F+Trading+Post/@36.8370526,-119.6987984,17z/data=!3m1!4b1!4m5!3m4!1s0x80945c9e41020d77:0x5cafa6066ada5eb4!8m2!3d36.8370526!4d-119.6987984",pieology_pizzeria,
PIEOLOGY PIZZERIA,8144 Delta Shores Circle S,SACRAMENTO,CA,95832,,"https://www.google.com/maps/place/Pieology+Pizzeria,+Delta+Shores+Sacramento/@38.464821,-121.4932266,17z/data=!3m1!4b1!4m5!3m4!1s0x809acefda4994471:0xbf955a9b8d782151!8m2!3d38.464821!4d-121.4932266",pieology_pizzeria,
PIEOLOGY PIZZERIA,9118 Reseda Blvd,NORTHRIDGE,CA,91325,8182803950.0,"https://www.google.com/maps/place/Pieology+Pizzeria/@34.2361572,-118.5354437,17z/data=!3m1!4b1!4m5!3m4!1s0x80c29bab71608ed5:0xf309c108c31abdab!8m2!3d34.2361572!4d-118.5354437",pieology_pizzeria,
PIEOLOGY PIZZERIA,98 1005 Monalua Rd,AIEA,HI,96701,8082005085.0,"https://www.google.com/maps/place/Pieology+Pizzeria+Aiea+%2F+Pearl+Ridge+Mall/@21.3854712,-157.9417009,17z/data=!3m1!4b1!4m5!3m4!1s0x7c0068ad4dbaee25:0x1dde9c60d1fa90d2!8m2!3d21.3854712!4d-157.9417009",pieology_pizzeria,
PIEOLOGY PIZZERIA,131 Macheche Ave,DEDEDO,GU,96912,6719897800.0,"https://www.google.com/maps/place/Pieology+Pizzeria,+Dededo/@13.5135857,144.8378609,17z/data=!4m5!3m4!1s0x671f831aaaf65555:0x913fd9adc0817260!8m2!3d13.5135805!4d144.8400496?hl=en",pieology_pizzeria,
PIEOLOGY PIZZERIA,341 Chalan San Antonio,TAMUNING,GU,96931,6719699224.0,"https://www.google.com/maps/place/Pieology+Pizzeria/@13.4912923,144.7794762,17z/data=!4m5!3m4!1s0x671f780b2bbbac07:0xe80bc15fccbeee93!8m2!3d13.4912871!4d144.7816649?hl=en",pieology_pizzeria,
PIEOLOGY PIZZERIA,101 N College St,AUBURN,AL,36830,3348265415.0,"https://www.google.com/maps/place/Pieology+Pizzeria+Auburn,+AL/@32.4822495,-86.387938,9z/data=!4m8!1m2!2m1!1sPIEOLOGY+PIZZERIA+101+N+College+St+AUBURN+AL+36830!3m4!1s0x888cf31c5010146f:0xa4599d19aa8857b9!8m2!3d32.6068027!4d-85.4819938?hl=en",pieology_pizzeria,
PIEOLOGY PIZZERIA,10141 W Flagler St,MIAMI,FL,33174,3052210740.0,"https://www.google.com/maps/place/Pieology+Pizzeria,+Miami,+FL/@25.7692728,-80.3600609,17z/data=!3m1!4b1!4m5!3m4!1s0x88d9b929f988a92b:0x2ac6824424e70b89!8m2!3d25.7692728!4d-80.3600609",pieology_pizzeria,
PIEOLOGY PIZZERIA,1020 16th St,SACRAMENTO,CA,95814,9164471695.0,"https://www.google.com/maps/place/Pieology+Pizzeria+Sacramento,+CA/@38.5772805,-121.4858263,17z/data=!3m1!4b1!4m5!3m4!1s0x809ad0d9f8583e5d:0xd0db75748dbc66e1!8m2!3d38.5772805!4d-121.4858263",pieology_pizzeria,
PIEOLOGY PIZZERIA,11604 Amargosa Rd,VICTORVILLE,CA,92392,4422674451.0,"https://www.google.com/maps/place/Pieology+Pizzeria/@34.4627164,-117.353186,17z/data=!3m1!4b1!4m5!3m4!1s0x80c3662598766e4d:0x321c11c0c02eea39!8m2!3d34.4627164!4d-117.353186",pieology_pizzeria,
PIEOLOGY PIZZERIA,1420 South Riverside Ave,RIALTO,CA,92376,9095664491.0,"https://www.google.com/maps/place/Pieology+Pizzeria,+Rialto/@34.0754978,-117.3709192,17z/data=!3m1!4b1!4m5!3m4!1s0x80dcb2ad28ad3297:0x799caacfa5158b6a!8m2!3d34.0754978!4d-117.3709192",pieology_pizzeria,
PIEOLOGY PIZZERIA,17943 Chatsworth St,GRANADA HILLS,CA,91344,8188318500.0,"https://www.google.com/maps/place/Pieology+Pizzeria+Granada+Village/@34.2655932,-118.5249811,17z/data=!3m1!4b1!4m5!3m4!1s0x80c29adda4de9cab:0xbb876b763298c15!8m2!3d34.2655932!4d-118.5249811",pieology_pizzeria,
PIEOLOGY PIZZERIA,1870 North Perris Blvd,PERRIS,CA,92571,9514904774.0,"https://www.google.com/maps/place/Pieology+Pizzeria+Perris/@33.8072187,-117.2266002,17z/data=!3m1!4b1!4m5!3m4!1s0x80dca1b428f6c427:0x31af60c3015598d2!8m2!3d33.8072187!4d-117.2266002",pieology_pizzeria,
PIEOLOGY PIZZERIA,2030 Douglas Blvd,ROSEVILLE,CA,95661,9164744281.0,"https://www.google.com/maps/place/Pieology+Pizzeria+Rocky+Ridge,+Roseville,+CA/@38.7427741,-121.2507972,17z/data=!3m1!4b1!4m5!3m4!1s0x809b1feffc2a6d81:0xb1c0bc5e6fada8e1!8m2!3d38.7427741!4d-121.2507972",pieology_pizzeria,
PIEOLOGY PIZZERIA,2043 S Hurstbourne Pkwy,LOUISVILLE,KY,40220,5027497072.0,"https://www.google.com/maps/place/Pieology+Pizzeria/@38.2165572,-85.5896201,17z/data=!4m8!1m2!2m1!1sPIEOLOGY+PIZZERIA+2043+S+Hurstbourne+Pkwy+LOUISVILLE+KY+40220!3m4!1s0x8869a0140b7eb651:0xdaedc0b7acfad7f!8m2!3d38.2165447!4d-85.5874253?hl=en",pieology_pizzeria,
PIEOLOGY PIZZERIA,20700 Avalon Blvd,CARSON,CA,90746,3105151100.0,"https://www.google.com/maps/place/Pieology+Pizzeria+Southbay+Pavillion+Mall/@33.8446916,-118.2644492,17z/data=!3m1!5s0x80dd35245f5a147f:0x7edf0a3acfd2ebc5!4m5!3m4!1s0x80dd3524a29a6bdb:0xc7242cf076a07ba0!8m2!3d33.8446872!4d-118.2622605?hl=en",pieology_pizzeria,
PIEOLOGY PIZZERIA,2098 South Atlantic Blvd,MONTEREY PARK,CA,91754,3237244813.0,"https://www.google.com/maps/place/Pieology+Pizzeria,+Monterey+Park,+CA/@34.0393084,-118.143155,17z/data=!3m1!4b1!4m5!3m4!1s0x80c2cf91a790abf1:0x190159aa20f25608!8m2!3d34.0393084!4d-118.143155",pieology_pizzeria,
PIEOLOGY PIZZERIA,26460 Ynez Rd,TEMECULA,CA,92591,9517191001.0,"https://www.google.com/maps/place/Pieology+Pizzeria,+Temecula/@33.5237217,-117.1586111,17z/data=!3m1!4b1!4m5!3m4!1s0x80db7e3c5ec752ab:0x475cb16362448a44!8m2!3d33.5237217!4d-117.1586111",pieology_pizzeria,
PIEOLOGY PIZZERIA,2647 Gateway Rd,CARLSBAD,CA,92009,7609308988.0,"https://www.google.com/maps/place/Pieology+Pizzeria+Bressi+Village,+Carlsbad,+CA/@33.1266258,-117.253887,17z/data=!3m1!4b1!4m5!3m4!1s0x80dc74bc852bbd37:0x5e2458815273d0e4!8m2!3d33.1266258!4d-117.253887",pieology_pizzeria,
PIEOLOGY PIZZERIA,3601 North Digital Dr,LEHI,UT,84043,3854554102.0,"https://www.google.com/maps/place/Pieology+Pizzeria+Lehi/@40.4320735,-111.8883111,17z/data=!3m1!4b1!4m5!3m4!1s0x87528024ed3dfb49:0x17d62250f89186b5!8m2!3d40.4320735!4d-111.8883111",pieology_pizzeria,
PIEOLOGY PIZZERIA,4158 Main at North Hills,RALEIGH,NC,27609,9198035860.0,"https://www.google.com/maps/place/Pieology+Pizzeria+North+Hills/@35.8372116,-78.6422122,17z/data=!3m1!4b1!4m5!3m4!1s0x89ac5896d4863d5d:0x3eff3039a4288e85!8m2!3d35.8372116!4d-78.6422122",pieology_pizzeria,
PIEOLOGY PIZZERIA,4922 Elm St,BETHESDA,MD,20814,3013128150.0,"https://www.google.com/maps/place/Pieology+Pizzeria,+Bethesda/@39.0498626,-77.2117002,12z/data=!4m8!1m2!2m1!1sPIEOLOGY+PIZZERIA+4922+Elm+St+BETHESDA+MD+20814!3m4!1s0x89b7c97c7a37a2dd:0x561397461f2b2eff!8m2!3d38.982004!4d-77.097201?hl=en",pieology_pizzeria,
PIEOLOGY PIZZERIA,508 W Trenton Rd,EDINBURG,TX,78539,,"https://www.google.com/maps/place/Pieology+Pizzeria+Edinburg/@26.2618546,-98.1768997,17z/data=!3m1!4b1!4m5!3m4!1s0x8665a1d26ac56f19:0x8b9ba406cde8c9b1!8m2!3d26.2618546!4d-98.1768997",pieology_pizzeria,
PIEOLOGY PIZZERIA,5555 Laval Rd,ARVIN,CA,93203,6618582689.0,"https://www.google.com/maps/place/Pieology+Pizzeria+Tejon+Ranch,+CA/@34.9901067,-118.9413862,17z/data=!3m1!4b1!4m5!3m4!1s0x80ea033b0b8e23f5:0xa98abf03da01cfa0!8m2!3d34.9901067!4d-118.9413862",pieology_pizzeria,
PIEOLOGY PIZZERIA,641 Crosswater Pkwy,PONTE VEDRA,FL,32081,9045080803.0,"https://www.google.com/maps/place/Pieology+Pizzeria,+Ponte+Vedra,+FL/@30.1081956,-81.4154293,17z/data=!3m1!4b1!4m5!3m4!1s0x88e4319d679fac07:0x778c1fbd7e87cabb!8m2!3d30.1081956!4d-81.4154293",pieology_pizzeria,
PIEOLOGY PIZZERIA,7000 Hollister Ave,GOLETA,CA,93117,8055620041.0,"https://www.google.com/maps/place/Pieology+Pizzeria/@34.4305432,-119.8746572,17z/data=!4m8!1m2!2m1!1sPIEOLOGY+PIZZERIA+7000+Hollister+Ave+GOLETA+CA+93117!3m4!1s0x80e940b02f5ab727:0x64756264af8ab26!8m2!3d34.4305099!4d-119.8724981?hl=en",pieology_pizzeria,
PIEOLOGY PIZZERIA,7695 SW Nyberg St,TUALATIN,OR,97062,5036923773.0,"https://www.google.com/maps/place/Pieology+Pizzeria+Nyberg+Rivers,+Tualatin,+OR/@45.384073,-122.7556277,17z/data=!3m1!4b1!4m5!3m4!1s0x5495728e9a016f6d:0xbb4cac1e7e226882!8m2!3d45.384073!4d-122.7556277",pieology_pizzeria,
PIEOLOGY PIZZERIA,8158 Day Creek Blvd,RANCHO CUCAMONGA,CA,91730,9098038999.0,"https://www.google.com/maps/place/Pieology+Pizzeria+Foothill+Crossing/@34.1052658,-117.5378193,17z/data=!3m1!4b1!4m5!3m4!1s0x80c34a0e2a9ff9b1:0x4ec8655e8ddef535!8m2!3d34.1052658!4d-117.5378193",pieology_pizzeria,
PIEOLOGY PIZZERIA,10965 Lavender Hills Dr,LAS VEGAS,NV,89135,7023314454.0,"https://www.google.com/maps/place/Pieology+Pizzeria+Summerlin,+Las+Vegas,+LV/@36.1449625,-115.3326378,17z/data=!3m1!4b1!4m5!3m4!1s0x80c8c501f74585c7:0x1aa4f75468047f65!8m2!3d36.1449625!4d-115.3326378",pieology_pizzeria,
PIEOLOGY PIZZERIA,12073 E Arapahoe Rd,CENTENNIAL,CO,80112,3039276146.0,"https://www.google.com/maps/place/Pieology+Pizzeria,+Centennial/@39.5954265,-104.8489676,17z/data=!3m1!4b1!4m5!3m4!1s0x876c86008fa7feb3:0xa5a7e2a226bc81dd!8m2!3d39.5954265!4d-104.8489676",pieology_pizzeria,
PIEOLOGY PIZZERIA,12502 Washington Blvd,WHITTIER,CA,90605,5624642535.0,"https://www.google.com/maps/place/Pieology+Pizzeria,+Washington+Blvd.+%2F+Whittier/@33.9676742,-118.0447532,17z/data=!3m1!4b1!4m5!3m4!1s0x80c2d3bdcf3b080b:0x1336bec3596e9946!8m2!3d33.9676742!4d-118.0447532",pieology_pizzeria,
PIEOLOGY PIZZERIA,1269 Marina Blvd,SAN LEANDRO,CA,94577,5103573918.0,"https://www.google.com/maps/place/Pieology+Pizzeria,+San+Leandro,+CA/@37.7103524,-122.1631333,17z/data=!3m1!4b1!4m5!3m4!1s0x808f8fee262a0be9:0x89e9b86669213b5c!8m2!3d37.7103524!4d-122.1631333",pieology_pizzeria,
PIEOLOGY PIZZERIA,1405 Beale St,ST CHARLES,MO,63303,6369253912.0,"https://www.google.com/maps/place/Pieology+Pizzeria/@38.7673228,-90.4933191,17z/data=!3m1!4b1!4m5!3m4!1s0x87df2ef0f52bcfd3:0x85a756504587d949!8m2!3d38.7673228!4d-90.4933191",pieology_pizzeria,
PIEOLOGY PIZZERIA,14345 West Bell Rd,SURPRISE,AZ,85374,6232302759.0,"https://www.google.com/maps/place/Pieology+Pizzeria/@33.6380709,-112.3690376,17z/data=!3m1!4b1!4m5!3m4!1s0x872b45b941f3d8e5:0xda97b8a43bedda67!8m2!3d33.6380709!4d-112.3690376",pieology_pizzeria,
PIEOLOGY PIZZERIA,15 S River Rd,ST GEORGE,UT,84790,,"https://www.google.com/maps/place/Pieology+Pizzeria/@37.1066632,-113.5540499,17z/data=!3m1!4b1!4m5!3m4!1s0x80ca5b2114b8c8f1:0x54187ff4c45fdea3!8m2!3d37.1066632!4d-113.5540499",pieology_pizzeria,
PIEOLOGY PIZZERIA,15780 Shady Grove Rd,GAITHERSBURG,MD,20877,3015191200.0,"https://www.google.com/maps/place/Pieology+Pizzeria,+Gaithersburg,+MD/@39.117047,-77.1861197,17z/data=!3m1!4b1!4m5!3m4!1s0x89b7d2ae33840bd7:0x6fc6b03631069ca6!8m2!3d39.117047!4d-77.1861197",pieology_pizzeria,
PIEOLOGY PIZZERIA,1650 E Monte Vista Ave,VACAVILLE,CA,95688,7074745328.0,"https://www.google.com/maps/place/Pieology+Pizzeria+Vacaville,+CA/@38.3679969,-121.9608201,17z/data=!3m1!4b1!4m5!3m4!1s0x808522cd2cea4af1:0x25f982bcf20d40fb!8m2!3d38.3679969!4d-121.9608201",pieology_pizzeria,
PIEOLOGY PIZZERIA,17525 Colima Rd,CITY OF INDUSTRY,CA,91748,6268396777.0,"https://www.google.com/maps/place/Pieology+Pizzeria+Puente+Hills+East/@33.9907277,-117.9239827,17z/data=!3m1!4b1!4m5!3m4!1s0x80c32a7862f9b233:0xd15ba704eb4d1e0!8m2!3d33.9907277!4d-117.9239827",pieology_pizzeria,
PIEOLOGY PIZZERIA,1760 N University Dr,PLANTATION,FL,33322,9549995886.0,"https://www.google.com/maps/place/Pieology+Pizzeria+Plantation/@26.1472888,-80.2563366,17z/data=!3m1!4b1!4m5!3m4!1s0x88d9063820aab685:0xa06e5e24e7f70353!8m2!3d26.1472888!4d-80.2563366",pieology_pizzeria,
PIEOLOGY PIZZERIA,820 West Hind Dr,HONOLULU,HI,96821,8083771364.0,"https://www.google.com/maps/place/Pieology+Pizzeria+Aina+Haina,+Honolulu,+HI/@21.279123,-157.754162,17z/data=!3m1!4b1!4m5!3m4!1s0x7c0012ae42dfde85:0x4d4ddc8878bd3713!8m2!3d21.279123!4d-157.754162",pieology_pizzeria,
PIEOLOGY PIZZERIA,9543 Valley View St,CYPRESS,CA,90630,7149955483.0,"https://www.google.com/maps/place/Pieology+Pizzeria+Cypress+Village/@33.8231356,-118.0289514,17z/data=!3m1!4b1!4m5!3m4!1s0x80dd2eb01f1018c7:0xa95c89157e674876!8m2!3d33.8231356!4d-118.0289514",pieology_pizzeria,
PIEOLOGY PIZZERIA,9915 W McDowell Rd,AVONDALE,AZ,85392,6239070300.0,"https://www.google.com/maps/place/Pieology+Pizzeria+Avondale,+AZ/@33.4641455,-112.2729819,17z/data=!3m1!4b1!4m5!3m4!1s0x872b3fbb4409b521:0xd16b28b5e9aa1cfb!8m2!3d33.4641455!4d-112.2729819",pieology_pizzeria,
PIEOLOGY PIZZERIA,1850 3rd St S,JACKSONVILLE BEACH,FL,32250,9047467096.0,"https://www.google.com/maps/place/Pieology+Pizzeria+Jacksonville+Beach,+FL/@30.2717816,-81.3894519,17z/data=!3m1!4b1!4m5!3m4!1s0x88e449b43031f3d1:0x79b48d29ecea19cc!8m2!3d30.2717816!4d-81.3894519",pieology_pizzeria,
PIEOLOGY PIZZERIA,2280 Mendocino Ave,SANTA ROSA,CA,94503,7075416380.0,"https://www.google.com/maps/place/Pieology+Pizzeria/@38.462313,-122.7168002,17z/data=!3m1!4b1!4m5!3m4!1s0x80844789eb475339:0x8da4fda1196ef560!8m2!3d38.462313!4d-122.7168002",pieology_pizzeria,
PIEOLOGY PIZZERIA,2380 Monument Blvd,PLEASANT HILL,CA,94523,9253382475.0,"https://www.google.com/maps/place/Pieology+Pizzeria+Pleasant+Hill+Plaza/@37.9449272,-122.0571819,17z/data=!3m1!4b1!4m5!3m4!1s0x8085613eb5325625:0x350396aafe8e9358!8m2!3d37.9449272!4d-122.0571819",pieology_pizzeria,
PIEOLOGY PIZZERIA,300 N McKinley St,CORONA,CA,92879,9512793192.0,"https://www.google.com/maps/place/Pieology+Pizzeria,+Corona+Hills/@33.8881222,-117.519872,17z/data=!3m1!4b1!4m5!3m4!1s0x80dcb791816dd2db:0xc5fbb1bfa380fa38!8m2!3d33.8881222!4d-117.519872",pieology_pizzeria,
PIEOLOGY PIZZERIA,304 SW 145th Ave,PEMBROKE PINES,FL,33027,9543676656.0,"https://www.google.com/maps/place/Pieology+Pizzeria+Pembroke+Pines/@26.0057717,-80.3337883,17z/data=!3m1!4b1!4m5!3m4!1s0x88d9a4274dc2fa39:0xf047711f4ace0d3d!8m2!3d26.0057717!4d-80.3337883",pieology_pizzeria,
PIEOLOGY PIZZERIA,3123 East Campus Pointe Dr,FRESNO,CA,93710,5592970013.0,"https://www.google.com/maps/place/Pieology+Pizzeria+Campus+Pointe,+Fresno,+CA/@36.8119327,-119.7341222,17z/data=!3m1!4b1!4m5!3m4!1s0x80945d16a7f20e63:0x94f211a6cd5d46df!8m2!3d36.8119327!4d-119.7341222",pieology_pizzeria,
PIEOLOGY PIZZERIA,325 Summit Blvd,BIRMINGHAM,AL,35243,2052623022.0,"https://www.google.com/maps/place/Pieology+Pizzeria+Summit/@33.451455,-86.7287884,17z/data=!3m1!4b1!4m5!3m4!1s0x8889176e2c081e31:0x779e887cfb4bafc!8m2!3d33.451455!4d-86.7287884",pieology_pizzeria,
PIEOLOGY PIZZERIA,3316 W Friendly Ave,GREENSBORO,NC,27408,3368566004.0,"https://www.google.com/maps/place/Pieology+Pizzeria/@36.0859282,-79.8351416,17z/data=!3m1!4b1!4m5!3m4!1s0x88531bfebf8efe77:0x5092c99a76330aca!8m2!3d36.0859282!4d-79.8351416",pieology_pizzeria,
PIEOLOGY PIZZERIA,365 The Bridge St,HUNTSVILLE,AL,35806,2568018132.0,"https://www.google.com/maps/place/Pieology+Pizzeria+Bridge+Street/@34.7182672,-86.6738893,17z/data=!3m1!4b1!4m5!3m4!1s0x88626eb088cf26b5:0xf4584819286a36b2!8m2!3d34.7182672!4d-86.6738893",pieology_pizzeria,
PIEOLOGY PIZZERIA,3733 Mooney Blvd,VISALIA,CA,93277,5596241342.0,"https://www.google.com/maps/place/Pieology+Pizzeria,+Visalia-Gateway+Plaza,+CA/@36.2960699,-119.3145228,17z/data=!3m1!4b1!4m5!3m4!1s0x80952f28bbf18b6b:0x1830ba7bfa18ff9!8m2!3d36.2960699!4d-119.3145228",pieology_pizzeria,
PIEOLOGY PIZZERIA,3799 South Las Vegas Blvd,LAS VEGAS,NV,89109,7024636200.0,"https://www.google.com/maps/place/Pieology+Pizzeria,+MGM+Grand/@36.1020653,-115.1686382,17z/data=!3m1!4b1!4m5!3m4!1s0x80c8c5cb192b9b8b:0x6b460d1d09dfc05!8m2!3d36.1020653!4d-115.1686382",pieology_pizzeria,
PIEOLOGY PIZZERIA,42500 Bob Hope Dr,RANCHO MIRAGE,CA,92270,7606747117.0,"https://www.google.com/maps/place/Pieology+Pizzeria,+Rancho+Mirage,+CA/@33.7378216,-116.4078967,17z/data=!3m1!4b1!4m5!3m4!1s0x80dafdf1fc5fa57d:0xe3d692e2a0b138bb!8m2!3d33.7378216!4d-116.4078967",pieology_pizzeria,
PIEOLOGY PIZZERIA,5027 Lakewood Blvd,LAKEWOOD,CA,90712,5626342625.0,"https://www.google.com/maps/place/Pieology+Pizzeria+Lakewood+Square,+Lakewood,+CA/@33.8491134,-118.143279,17z/data=!3m1!4b1!4m5!3m4!1s0x80dd32f6942b7801:0xe73e6d93f51a6922!8m2!3d33.8491134!4d-118.143279",pieology_pizzeria,
PIEOLOGY PIZZERIA,5503 Calloway Dr,BAKERSFIELD,CA,93312,6616958223.0,"https://www.google.com/maps/place/Pieology+Pizzeria+Bakersfield,+CA/@35.4108819,-119.110421,17z/data=!3m1!4b1!4m5!3m4!1s0x80ea433ef31b2311:0xf8104cae5df75c2c!8m2!3d35.4108819!4d-119.110421",pieology_pizzeria,
PIEOLOGY PIZZERIA,6450 N Desert Blvd,EL PASO,TX,79912,9152391000.0,"https://www.google.com/maps/place/Pieology+Pizzeria+El+Paso,+Towne+Marketplace/@31.8858516,-106.5833674,17z/data=!4m5!3m4!1s0x86ddf91ab36387e1:0x8c225bffcc7778cb!8m2!3d31.8858471!4d-106.5811787?hl=en",pieology_pizzeria,
PIEOLOGY PIZZERIA,6509 Panama Ln,BAKERSFIELD,CA,93313,6618321612.0,"https://www.google.com/maps/place/Pieology+Pizzeria,+Bakersfield,+CA/@35.2945279,-119.0749045,17z/data=!3m1!4b1!4m5!3m4!1s0x80ea4069a75fc03d:0xa2f3259016b76a06!8m2!3d35.2945279!4d-119.0749045",pieology_pizzeria,
PIEOLOGY PIZZERIA,6785 Houston Rd,FLORENCE,KY,41042,8592824397.0,"https://www.google.com/maps/place/Pieology+Pizzeria/@39.0116088,-84.646285,17z/data=!3m1!4b1!4m5!3m4!1s0x8841c7ca99e3aed7:0xf271d511ca07f397!8m2!3d39.0116088!4d-84.646285",pieology_pizzeria,
PIEOLOGY PIZZERIA,6920 Amador Plaza Rd,DUBLIN,CA,94568,9258759152.0,"https://www.google.com/maps/place/Pieology+Pizzeria,+Dublin+Place/@37.7055669,-121.9284139,17z/data=!3m1!4b1!4m5!3m4!1s0x808fec6c69e11d23:0xed8aad82cdbb2172!8m2!3d37.7055669!4d-121.9284139",pieology_pizzeria,
PIEOLOGY PIZZERIA,713 Spectrum Center Dr,IRVINE,CA,92618,9494501000.0,"https://www.google.com/maps/place/Pieology+Pizzeria/@33.650177,-117.7419128,17z/data=!3m1!4b1!4m5!3m4!1s0x80dce7fc13a618d3:0xac5629342c3869fd!8m2!3d33.650177!4d-117.7419128",pieology_pizzeria,
PIEOLOGY PIZZERIA,8464 N Friant Rd,FRESNO,CA,93720,5594340362.0,"https://www.google.com/maps/place/Pieology+Pizzeria+Fresno,+Park+Crossing/@36.8572446,-119.7838946,17z/data=!3m1!4b1!4m5!3m4!1s0x8094429f317b8a33:0x9e1ab7c8a3e8e487!8m2!3d36.8572446!4d-119.7838946",pieology_pizzeria,
PIEOLOGY PIZZERIA,849 E Commerce St,SAN ANTONIO,TX,78205,,"https://www.google.com/maps/place/Margaritaville+Restaurant+San+Antonio/@29.4237221,-98.4876756,17z/data=!4m8!1m2!2m1!1sPIEOLOGY+PIZZERIA+849+E+Commerce+St+SAN+ANTONIO+TX+78205!3m4!1s0x865c58aa9dab891b:0x94ca9a734c49c120!8m2!3d29.4232449!4d-98.4848468?hl=en",pieology_pizzeria,
PIEOLOGY PIZZERIA,903 E Bell Rd,PHOENIX,AZ,85022,6029780000.0,"https://www.google.com/maps/place/Pieology+Pizzeria+Phoenix/@33.6392197,-112.4951077,10z/data=!4m8!1m2!2m1!1sPIEOLOGY+PIZZERIA+903+E+Bell+Rd+PHOENIX+AZ+85022!3m4!1s0x872b6e3d3c982de3:0x210f24c9d53f0d66!8m2!3d33.639857!4d-112.06081?hl=en",pieology_pizzeria,
PIEOLOGY PIZZERIA,905 E Whitestone Blvd,CEDAR PARK,TX,78613,5129867496.0,"https://www.google.com/maps/place/Pieology+Pizzeria+Cedar+Park,+TX/@30.5252394,-97.8205432,17z/data=!3m1!4b1!4m5!3m4!1s0x865b2cfd3903ce63:0xb328058481e58d51!8m2!3d30.5252394!4d-97.8205432",pieology_pizzeria,
PIEOLOGY PIZZERIA,915 West Huntington Dr,MONROVIA,CA,91016,6263576973.0,"https://www.google.com/maps/place/Pieology+Pizzeria+Monrovia,+CA/@34.140527,-118.0190499,17z/data=!3m1!4b1!4m5!3m4!1s0x80c2dbdf66f406b1:0xe103a6bd4f1161a9!8m2!3d34.140527!4d-118.0190499",pieology_pizzeria,
PIEOLOGY PIZZERIA,1318 George Dieter Dr,EL PASO,TX,79936,9152353020.0,"https://www.google.com/maps/place/Pieology+Pizzeria/@31.7241538,-106.3020751,17z/data=!3m1!4b1!4m5!3m4!1s0x86e7431fb8693419:0x469f43e876023c18!8m2!3d31.7241538!4d-106.3020751",pieology_pizzeria,
PIEOLOGY PIZZERIA,2615 King St,HONOLULU,HI,96826,8089529232.0,"https://www.google.com/maps/place/Pieology+Pizzeria/@21.2914972,-157.8218574,17z/data=!3m1!4b1!4m5!3m4!1s0x7c006d9ef414a38d:0x325f24af645414dc!8m2!3d21.2914972!4d-157.8218574",pieology_pizzeria,
