Company Name,Address 1,City,State,Zip,Phone,Google Link,Company Name Processed,Status
Round Table Pizza,1003 Guerneville Rd,SANTA ROSA,CA,95405,7075279999.0,"https://www.google.com/maps/place/Round+Table+Pizza/@38.4604382,-122.7299077,17z/data=!4m5!3m4!1s0x80843871a61ac02f:0x9a821a1b911f4c60!8m2!3d38.460434!4d-122.727719?hl=en",round_table_pizza,
Round Table Pizza,10101 Valley View St,CYPRESS,CA,90630-4602,7149952422.0,"https://www.google.com/maps/place/Round+Table+Pizza/@33.815301,-118.029344,17z/data=!3m1!4b1!4m5!3m4!1s0x80dd2eb7b8dde0c7:0x95866decf84c3977!8m2!3d33.815301!4d-118.029344",round_table_pizza,
Round Table Pizza,1020 N Mountain Ave,ONTARIO,CA,91764,9099888444.0,"https://www.google.com/maps/place/Round+Table+Pizza/@34.077087,-117.668612,17z/data=!3m1!4b1!4m5!3m4!1s0x80c333dcd505f59b:0x78f61b4d94e7a90c!8m2!3d34.077087!4d-117.668612",round_table_pizza,
Round Table Pizza,1020 Pleasant Grove Blvd,ROSEVILLE,CA,95661,9167899440.0,"https://www.google.com/maps/place/Round+Table+Pizza/@38.778676,-121.289955,17z/data=!3m1!4b1!4m5!3m4!1s0x809b2195f6cd5f21:0x9e95a910d6788b8d!8m2!3d38.778676!4d-121.289955",round_table_pizza,
Round Table Pizza,10375 Folsom Blvd,RANCHO CORDOVA,CA,95826,9163622348.0,"https://www.google.com/maps/place/Round+Table+Pizza/@38.589461,-121.305035,17z/data=!3m1!4b1!4m5!3m4!1s0x809add1e9715f123:0x41949375c85c949e!8m2!3d38.589461!4d-121.305035",round_table_pizza,
Round Table Pizza,10389 SE 82nd Ave,HAPPY VALLEY,OR,97215,5037743129.0,"https://www.google.com/maps/place/Round+Table+Pizza/@45.44765,-122.580044,17z/data=!3m1!4b1!4m5!3m4!1s0x54957563d1802d41:0xb60d40d98fbe2046!8m2!3d45.44765!4d-122.580044",round_table_pizza,
Round Table Pizza,10415 Tierrasanta Blvd,SAN DIEGO,CA,92123,8582773111.0,"https://www.google.com/maps/place/Round+Table+Pizza/@32.823067,-117.103094,17z/data=!3m1!4b1!4m5!3m4!1s0x80dbfe3d5cecf6db:0xa307a7f521765425!8m2!3d32.823067!4d-117.103094",round_table_pizza,
Round Table Pizza,11095 Warner Ave,FOUNTAIN VALLEY,CA,92704,7148390276.0,"https://www.google.com/maps/place/Round+Table+Pizza/@33.7267795,-118.0264834,12z/data=!4m8!1m2!2m1!1sRound+Table+Pizza+11095+Warner+Ave+FOUNTAIN+VALLEY+CA+92704!3m4!1s0x80dd276614195931:0xa95d66294a1aeb4!8m2!3d33.716768!4d-117.935456?hl=en",round_table_pizza,
Round Table Pizza,2550 Berryessa Rd,SAN JOSE,CA,95116,4082588505.0,"https://www.google.com/maps/place/Round+Table+Pizza/@37.3220173,-122.233816,10z/data=!4m8!1m2!2m1!1sRound+Table+Pizza+3730+N+1st+St+SAN+JOSE+CA+95131!3m4!1s0x808fcc4a75cac61d:0x4519ba02e529002f!8m2!3d37.3877708!4d-121.8576794?hl=en",round_table_pizza,
Round Table Pizza,1175 Baker St,COSTA MESA,CA,92799,7145492101.0,"https://www.google.com/maps/place/Round+Table+Pizza/@33.679823,-117.906521,17z/data=!3m1!4b1!4m5!3m4!1s0x80dcdf41ee8f6505:0x9b64e79744db0f3f!8m2!3d33.679823!4d-117.906521",round_table_pizza,
Round Table Pizza,1175 Lincoln Ave,SAN JOSE,CA,95110,4082954644.0,"https://www.google.com/maps/place/Round+Table+Pizza+Willow+Glen/@37.307099,-121.900344,17z/data=!3m1!4b1!4m5!3m4!1s0x808e335821100401:0x16f7e16ea720c10c!8m2!3d37.307099!4d-121.900344",round_table_pizza,
Round Table Pizza,"10894 Combie Road, No. 128",AUBURN,CA,95602-8954,5302680433.0,"https://www.google.com/maps/place/Round+Table+Pizza/@38.973542,-121.1455589,12z/data=!4m8!1m2!2m1!1sRound+Table+Pizza+AUBURN+CA!3m4!1s0x809b1278ea8318d7:0x44016d04d0db6fe7!8m2!3d39.041433!4d-121.078567?hl=en",round_table_pizza,
Round Table Pizza,1118 Branham Ln,SAN JOSE,CA,95124,4082647155.0,"https://www.google.com/maps/place/Round+Table+Pizza/@37.26215,-121.877525,17z/data=!3m1!4b1!4m5!3m4!1s0x808e33c1c49739a1:0x638399b09f13222e!8m2!3d37.26215!4d-121.877525",round_table_pizza,
Round Table Pizza,1127 Fair Oaks Ave,SOUTH PASADENA,CA,91030-3311,6264414269.0,"https://www.google.com/maps/place/Round+Table+Pizza/@34.113288,-118.151261,17z/data=!3m1!4b1!4m5!3m4!1s0x80c2c48ce00ac70f:0x10a20680c46d61e9!8m2!3d34.113288!4d-118.151261",round_table_pizza,
Round Table Pizza,1159 Redmond Ave,SAN JOSE,CA,95120-2749,4082687474.0,"https://www.google.com/maps/place/Round+Table+Pizza/@37.230074,-121.871744,17z/data=!3m1!4b1!4m5!3m4!1s0x808e316cb6a8a255:0x485ef86f58a3591b!8m2!3d37.230074!4d-121.871744",round_table_pizza,
Round Table Pizza,1139 Grand Ave,DIAMOND BAR,CA,91765-4120,9098619432.0,"https://www.google.com/maps/place/Round+Table+Pizza/@34.000726,-117.812605,17z/data=!3m1!4b1!4m5!3m4!1s0x80c32c927e755a2f:0x7849b25a9fd7a558!8m2!3d34.000726!4d-117.812605",round_table_pizza,
Round Table Pizza,1237 W Wood St,WILLOWS,CA,95988-2616,5309342838.0,"https://www.google.com/maps/place/Round+Table+Pizza/@39.5244529,-122.2100933,17z/data=!3m1!4b1!4m5!3m4!1s0x808305051c7966ab:0x405569c4ba6f4d4d!8m2!3d39.5244529!4d-122.2100933",round_table_pizza,
Round Table Pizza,11617 Cherry Ave,FONTANA,CA,92336,9093573050.0,"https://www.google.com/maps/place/Round+Table+Pizza/@34.042825,-117.48603,17z/data=!3m1!4b1!4m5!3m4!1s0x80dcb4cec969d763:0xfdc9a180e811e6b1!8m2!3d34.042825!4d-117.48603",round_table_pizza,
Round Table Pizza,120 Nugget Ln,WEAVERVILLE,CA,96033,5306234551.0,"https://www.google.com/maps/place/Round+Table+Pizza/@40.720767,-122.9290069,17z/data=!3m1!4b1!4m5!3m4!1s0x54d2522f015d36e9:0x54fda15599122678!8m2!3d40.720767!4d-122.9290069",round_table_pizza,
Round Table Pizza,1212 E 17th St,SANTA ANA,CA,92706,7145426111.0,"https://www.google.com/maps/place/Round+Table+Pizza/@33.759655,-117.853625,17z/data=!3m1!4b1!4m5!3m4!1s0x80dcd998964bab2d:0xca738c2647b3f39!8m2!3d33.759655!4d-117.853625",round_table_pizza,
Round Table Pizza,1225 El Camino Real,MENLO PARK,CA,94304,6503216861.0,"https://www.google.com/maps/place/Round+Table+Pizza/@37.454376,-122.184997,17z/data=!3m1!4b1!4m5!3m4!1s0x808fa4af9d427ec9:0xecfb27f12a215115!8m2!3d37.454376!4d-122.184997",round_table_pizza,
Round Table Pizza,1202 S Idaho St,LA HABRA,CA,90631-0607,5626902205.0,"https://www.google.com/maps/place/Round+Table+Pizza/@33.9164896,-117.9587714,17z/data=!3m1!4b1!4m5!3m4!1s0x80dd2ac340fdb423:0x3b0dd7733d098a7c!8m2!3d33.9164896!4d-117.9587714",round_table_pizza,
Round Table Pizza,1285 Linda Mar Shopping Ctr,PACIFICA,CA,94044-3347,6507381010.0,"https://www.google.com/maps/place/Round+Table+Pizza/@37.594661,-122.504532,17z/data=!3m1!4b1!4m5!3m4!1s0x808f708c0c5ec3b7:0xac7501e1c4d81b15!8m2!3d37.594661!4d-122.504532",round_table_pizza,
Round Table Pizza,1304 W Hillsdale Blvd,SAN MATEO,CA,94402,6505735858.0,"https://www.google.com/maps/place/Round+Table+Pizza/@37.534027,-122.326945,17z/data=!3m1!4b1!4m5!3m4!1s0x808f9fb34ba60c33:0x6b759002c9a182cf!8m2!3d37.534027!4d-122.326945",round_table_pizza,
Round Table Pizza,13293 Black Mountain Rd,SAN DIEGO,CA,92126,8584846800.0,"https://www.google.com/maps/place/Round+Table+Pizza/@32.9588681,-117.1249219,17z/data=!3m1!4b1!4m5!3m4!1s0x80dbf833351306a5:0x17e642502f40b42a!8m2!3d32.9588681!4d-117.1249219",round_table_pizza,
Round Table Pizza,13503 SE Mill Plain Blvd,VANCOUVER,WA,98664,3602534921.0,"https://www.google.com/maps/place/Round+Table+Pizza/@45.617696,-122.534326,17z/data=!3m1!4b1!4m5!3m4!1s0x5495a4d84bf34893:0xeffeb0bf238aa9a0!8m2!3d45.617696!4d-122.534326",round_table_pizza,
Round Table Pizza,13771 Newport Ave,TUSTIN,CA,92701,7148382242.0,"https://www.google.com/maps/place/Round+Table+Pizza/@33.740389,-117.820769,17z/data=!3m1!4b1!4m5!3m4!1s0x80dcdbdd43d56db7:0x7484b46ae5d2e840!8m2!3d33.740389!4d-117.820769",round_table_pizza,
Round Table Pizza,14020 SE Petrovitsky Rd,RENTON,WA,98056,4252772100.0,"https://www.google.com/maps/place/Round+Table+Pizza/@47.3674847,-122.3816253,11z/data=!4m8!1m2!2m1!1sRound+Table+Pizza+14020+SE+Petrovitsky+Rd+RENTON+WA+98056!3m4!1s0x5490677de120e6a3:0x218d35ddef7fb36d!8m2!3d47.44591!4d-122.152606?hl=en",round_table_pizza,
Round Table Pizza,1307 Florin Rd,SACRAMENTO,CA,95824,9164227557.0,"https://www.google.com/maps/place/Round+Table+Pizza/@38.496447,-121.509554,17z/data=!3m1!4b1!4m5!3m4!1s0x809ace22e0e206ad:0x71139de04b206720!8m2!3d38.496447!4d-121.509554",round_table_pizza,
Round Table Pizza,150 Alamo Plz,ALAMO,CA,94506,9258376660.0,"https://www.google.com/maps/place/Round+Table+Pizza/@37.852197,-122.036275,17z/data=!3m1!4b1!4m5!3m4!1s0x808f8b01979f76b3:0x42f9beca7b7745dd!8m2!3d37.852197!4d-122.036275",round_table_pizza,
Round Table Pizza,1321 Encinitas Blvd,ENCINITAS,CA,92024-2845,7607538303.0,"https://www.google.com/maps/place/Round+Table+Pizza/@33.044843,-117.261252,17z/data=!3m1!4b1!4m5!3m4!1s0x80dc0bf35cbf3945:0x5166cde70eab726b!8m2!3d33.044843!4d-117.261252",round_table_pizza,
Round Table Pizza,1327 US Highway 395 N,GARDNERVILLE,NV,89410-7355,7757839777.0,"https://www.google.com/maps/place/Round+Table+Pizza/@38.9359702,-119.7385779,17z/data=!3m1!4b1!4m5!3m4!1s0x8099be813bd88327:0xd59b5ca87158d7f9!8m2!3d38.9359702!4d-119.7385779",round_table_pizza,
Round Table Pizza,1359 Washington Ave,SAN LEANDRO,CA,94577-3645,5106143400.0,"https://www.google.com/maps/place/Round+Table+Pizza/@37.723815,-122.156426,17z/data=!3m1!4b1!4m5!3m4!1s0x808f8f942664bd91:0xd03515b8ca73da8f!8m2!3d37.723815!4d-122.156426",round_table_pizza,
Round Table Pizza,1449 E F St,OAKDALE,CA,95361-9266,2098472296.0,"https://www.google.com/maps/place/Round+Table+Pizza/@37.771508,-120.832926,17z/data=!3m1!4b1!4m5!3m4!1s0x8090f9c115f76b7b:0x7f2171c1e5b8047a!8m2!3d37.771508!4d-120.832926",round_table_pizza,
Round Table Pizza,1457 N Main St,SALINAS,CA,93905,8314499121.0,"https://www.google.com/maps/place/Round+Table+Pizza/@36.707353,-121.655091,17z/data=!3m1!4b1!4m5!3m4!1s0x808dff38f846fd99:0x59f1e23d12d0313d!8m2!3d36.707353!4d-121.655091",round_table_pizza,
Round Table Pizza,1503 N Point St,SAN FRANCISCO,CA,94123-1711,4155631001.0,"https://www.google.com/maps/place/Round+Table+Pizza/@37.804095,-122.432152,17z/data=!3m1!4b1!4m5!3m4!1s0x808580d8fc3c8c63:0x6bf26f1d4439f5ac!8m2!3d37.804095!4d-122.432152",round_table_pizza,
Round Table Pizza,1515 Mitchell Rd,CERES,CA,95354,2095411177.0,"https://www.google.com/maps/place/Round+Table+Pizza/@37.608584,-120.940075,17z/data=!3m1!4b1!4m5!3m4!1s0x809055283f4b3c69:0xbf245a27399b73c1!8m2!3d37.608584!4d-120.940075",round_table_pizza,
Round Table Pizza,1516 State Highway 99,GRIDLEY,CA,95948-3126,5308468077.0,"https://www.google.com/maps/place/Round+Table+Pizza/@39.359937,-121.687678,17z/data=!3m1!4b1!4m5!3m4!1s0x80834d88cef6e355:0xdbdafa9bdfd7d90a!8m2!3d39.359937!4d-121.687678",round_table_pizza,
Round Table Pizza,15200 W Whitesbridge Ave,KERMAN,CA,93630-1021,5598467373.0,"https://www.google.com/maps/place/Round+Table+Pizza/@36.735166,-120.062493,17z/data=!3m1!4b1!4m5!3m4!1s0x80947a213759263f:0xb9b69b8beda11701!8m2!3d36.735166!4d-120.062493",round_table_pizza,
Round Table Pizza,15730 1st Ave S,BURIEN,WA,98158,2064318600.0,"https://www.google.com/maps/place/Round+Table+Pizza/@47.461711,-122.333663,17z/data=!3m1!4b1!4m5!3m4!1s0x5490449f6cb48f5f:0x7f82e58eec7d3b8f!8m2!3d47.461711!4d-122.333663",round_table_pizza,
Round Table Pizza,15730 Bellflower Blvd,BELLFLOWER,CA,90650,5628667579.0,"https://www.google.com/maps/place/Round+Table+Pizza/@33.890646,-118.124909,17z/data=!3m1!4b1!4m5!3m4!1s0x80dd32b294887d25:0xbee89c015134b616!8m2!3d33.890646!4d-118.124909",round_table_pizza,
Round Table Pizza,15255 E 14th St,SAN LEANDRO,CA,94541,5102783002.0,"https://www.google.com/maps/place/Round+Table+Pizza/@37.703856,-122.127212,17z/data=!3m1!4b1!4m5!3m4!1s0x808f91d482a11131:0x4c7b81c951ba770a!8m2!3d37.703856!4d-122.127212",round_table_pizza,
Round Table Pizza,15402 E Sprague Ave,SPOKANE VALLEY,WA,99216,5099265452.0,"https://www.google.com/maps/place/Round+Table+Pizza/@47.655799,-117.197345,17z/data=!3m1!4b1!4m5!3m4!1s0x549e183bc2fa85e7:0x1b9e2cb3dbe52d76!8m2!3d47.655799!4d-117.197345",round_table_pizza,
Round Table Pizza,16550 SE McLoughlin Blvd,MILWAUKIE,OR,97015,5036536444.0,"https://www.google.com/maps/place/Round+Table+Clubhouse/@45.403995,-122.621769,17z/data=!3m1!4b1!4m5!3m4!1s0x549574422d4fa88b:0x2a134d6c55a894ce!8m2!3d45.403995!4d-122.621769",round_table_pizza,
Round Table Pizza,15501 San Pablo Ave,RICHMOND,CA,94803,5102235800.0,"https://www.google.com/maps/place/Round+Table+Pizza/@37.970424,-122.3511076,14z/data=!4m8!1m2!2m1!1sRound+Table+Pizza+15501+San+Pablo+Ave+RICHMOND+CA+94803!3m4!1s0x8085763513ef5c75:0x1761b56e5e16d6cc!8m2!3d37.990138!4d-122.33589?hl=en",round_table_pizza,
Round Table Pizza,1566 Howe Ave,SACRAMENTO,CA,95838,9169243731.0,"https://www.google.com/maps/place/Round+Table+Pizza/@38.594685,-121.414861,17z/data=!3m1!4b1!4m5!3m4!1s0x809ada3bd7222c79:0x73be1923d6f2c9df!8m2!3d38.594685!4d-121.414861",round_table_pizza,
Round Table Pizza,1717 Fremont Blvd,SEASIDE,CA,93940,8313946869.0,"https://www.google.com/maps/place/Round+Table+Pizza/@36.611835,-121.84461,17z/data=!3m1!4b1!4m5!3m4!1s0x808de4ee21f57dfb:0xfb0b77d67283d359!8m2!3d36.611835!4d-121.84461",round_table_pizza,
Round Table Pizza,1791 Marlow Rd,SANTA ROSA,CA,95405,7075278686.0,"https://www.google.com/maps/place/Round+Table+Pizza/@38.4513872,-122.7538717,17z/data=!4m5!3m4!1s0x80843845882adeb7:0x162b504d42a0bc7!8m2!3d38.451383!4d-122.751683?hl=en",round_table_pizza,
Round Table Pizza,16761 Bernardo Center Dr,SAN DIEGO,CA,92128-2584,8584874994.0,"https://www.google.com/maps/place/Round+Table+Pizza/@33.017251,-117.074623,17z/data=!3m1!4b1!4m5!3m4!1s0x80dbf0d2060249c3:0x59adb765ada8a513!8m2!3d33.017251!4d-117.074623",round_table_pizza,
Round Table Pizza,1769 Leslie Rd,RICHLAND,WA,99336,5096289895.0,"https://www.google.com/maps/place/Round+Table+Pizza/@46.228726,-119.2652239,17z/data=!3m1!4b1!4m5!3m4!1s0x549870a7761756d9:0x3c860248a6833016!8m2!3d46.228726!4d-119.2652239",round_table_pizza,
Round Table Pizza,18365 Ventura Blvd,TARZANA,CA,91335,8183445054.0,"https://www.google.com/maps/place/Round+Table+Pizza/@34.168189,-118.532798,17z/data=!3m1!4b1!4m5!3m4!1s0x80c29a1f94d0c94f:0x84bfb5e3dbce08cf!8m2!3d34.168189!4d-118.532798",round_table_pizza,
Round Table Pizza,18482 Prospect Rd,SARATOGA,CA,95130,4082520277.0,"https://www.google.com/maps/place/Round+Table+Pizza/@37.291421,-121.994289,17z/data=!3m1!4b1!4m5!3m4!1s0x808fb554303f3fe5:0x31b3e4cfd0a319bc!8m2!3d37.291421!4d-121.994289",round_table_pizza,
Round Table Pizza,185 Damonte Ranch Pkwy,RENO,NV,89502,7758538822.0,"https://www.google.com/maps/place/Round+Table+Pizza/@39.421064,-119.754575,17z/data=!3m1!4b1!4m5!3m4!1s0x809914e549162301:0xda12568d6b6f893a!8m2!3d39.421064!4d-119.754575",round_table_pizza,
Round Table Pizza,186 Northgate One,SAN RAFAEL,CA,94901,4154723232.0,"https://www.google.com/maps/place/Round+Table+Pizza/@38.007672,-122.546483,17z/data=!3m1!4b1!4m5!3m4!1s0x8085978ffd0e2b27:0x34bd2beb9411798e!8m2!3d38.007672!4d-122.546483",round_table_pizza,
Round Table Pizza,18518 Yorba Linda Blvd,YORBA LINDA,CA,92887,7149709295.0,"https://www.google.com/maps/place/Round+Table+Pizza/@33.887765,-117.810551,17z/data=!3m1!4b1!4m5!3m4!1s0x80dcd3e1ca758215:0x33f978d93438c323!8m2!3d33.887765!4d-117.810551",round_table_pizza,
Round Table Pizza,1908 W Francis Ave,SPOKANE,WA,99205-6901,5093242414.0,"https://www.google.com/maps/place/Round+Table+Pizza/@47.716455,-117.4397049,17z/data=!3m1!4b1!4m5!3m4!1s0x549e195fb360fa53:0x9102557dea95a369!8m2!3d47.716455!4d-117.4397049",round_table_pizza,
Round Table Pizza,19121 Willamette Dr,WEST LINN,OR,97035,5036356654.0,"https://www.google.com/maps/place/Round+Table+Pizza/@45.386889,-122.6423151,17z/data=!3m1!4b1!4m5!3m4!1s0x549573f5e6c58303:0x86a8717d92883905!8m2!3d45.386889!4d-122.6423151",round_table_pizza,
Round Table Pizza,1975 Main St,WATSONVILLE,CA,95076-3027,8317222492.0,"https://www.google.com/maps/place/Round+Table+Pizza/@36.91793,-121.782409,17z/data=!3m1!4b1!4m5!3m4!1s0x808e1aee2193910b:0x7f8664073d599e1f!8m2!3d36.91793!4d-121.782409",round_table_pizza,
Round Table Pizza,2060 E Avenida De Los Arboles,THOUSAND OAKS,CA,91362-1395,8054922403.0,"https://www.google.com/maps/place/Round+Table+Pizza/@34.210069,-118.84018,17z/data=!3m1!4b1!4m5!3m4!1s0x80e82f8c23330603:0x3ad6c1abb7c018eb!8m2!3d34.210069!4d-118.84018",round_table_pizza,
Round Table Pizza,2129 Morrill Ave,SAN JOSE,CA,95101,4082638900.0,"https://www.google.com/maps/place/Round+Table+Pizza/@37.413529,-121.875685,17z/data=!3m1!4b1!4m5!3m4!1s0x808fce96c3cdf25f:0x48e8f4514dc8762b!8m2!3d37.413529!4d-121.875685",round_table_pizza,
Round Table Pizza,2182 Highway 4,ARNOLD,CA,95222,2097950193.0,"https://www.google.com/maps/place/Round+Table+Pizza/@38.240054,-120.363428,17z/data=!3m1!4b1!4m5!3m4!1s0x8090a547a54c71fd:0x4f4bcb9ad60d6ea1!8m2!3d38.240054!4d-120.363428",round_table_pizza,
Round Table Pizza,20 Chestnut Ave,SOUTH SAN FRANCISCO,CA,94066,6507429755.0,"https://www.google.com/maps/place/Round+Table+Pizza/@37.655827,-122.432453,17z/data=!3m1!4b1!4m5!3m4!1s0x808f7977a226ca3b:0xa3be08c4e63290db!8m2!3d37.655827!4d-122.432453",round_table_pizza,
Round Table Pizza,201 W Napa St,SONOMA,CA,95476-6621,7079385564.0,"https://www.google.com/maps/place/Round+Table+Pizza/@38.289929,-122.461928,17z/data=!3m1!4b1!4m5!3m4!1s0x8085aea75d783a33:0x1c3c4bbea6447487!8m2!3d38.289929!4d-122.461928",round_table_pizza,
Round Table Pizza,202 9th St,MARYSVILLE,CA,95903,5307401112.0,"https://www.google.com/maps/place/Round+Table+Pizza/@39.144717,-121.58725,17z/data=!3m1!4b1!4m5!3m4!1s0x809b53745c32513f:0x512a76b0c9b1365f!8m2!3d39.144717!4d-121.58725",round_table_pizza,
Round Table Pizza,22722 Lambert St,LAKE FOREST,CA,92610,9498598888.0,"https://www.google.com/maps/place/Round+Table+Pizza/@33.632747,-117.712656,17z/data=!3m1!4b1!4m5!3m4!1s0x80dce842b4fcc721:0x1f094b94ec7a1df2!8m2!3d33.632747!4d-117.712656",round_table_pizza,
Round Table Pizza,239 W Los Angeles Ave,MOORPARK,CA,93021-1867,8055292207.0,"https://www.google.com/maps/place/Round+Table+Pizza/@34.2276121,-118.9891041,10z/data=!4m8!1m2!2m1!1sRound+Table+Pizza+239+W+Los+Angeles+Ave+MOORPARK+CA+93021-1867!3m4!1s0x80e83222138e746b:0x8d32f664b49d91b4!8m2!3d34.279811!4d-118.885043?hl=en",round_table_pizza,
Round Table Pizza,2401 E Orangeburg Ave,MODESTO,CA,95351,2095227213.0,"https://www.google.com/maps/place/Round+Table+Pizza/@37.664,-120.95422,17z/data=!3m1!4b1!4m5!3m4!1s0x809054251633415d:0x6476023479bfb20c!8m2!3d37.664!4d-120.95422",round_table_pizza,
Round Table Pizza,2227 Gellert Blvd,SOUTH SAN FRANCISCO,CA,94014,6508781001.0,"https://www.google.com/maps/place/Round+Table+Pizza/@37.649129,-122.452969,17z/data=!3m1!4b1!4m5!3m4!1s0x808f7bd3450c3467:0x2aecc4e793e2b25e!8m2!3d37.649129!4d-122.452969",round_table_pizza,
Round Table Pizza,2401 Waterman Blvd,FAIRFIELD,CA,94585,7074253127.0,"https://www.google.com/maps/place/Round+Table+Pizza/@38.271963,-122.054075,17z/data=!3m1!4b1!4m5!3m4!1s0x8085169a4fcf7851:0xa59d7161c8e14baa!8m2!3d38.271963!4d-122.054075",round_table_pizza,
Round Table Pizza,2424 Magowan Dr,SANTA ROSA,CA,95405-5006,7075281200.0,"https://www.google.com/maps/place/Round+Table+Pizza/@38.445339,-122.685997,17z/data=!3m1!4b1!4m5!3m4!1s0x80844877a4e63329:0x3295aabdcec90a78!8m2!3d38.445339!4d-122.685997",round_table_pizza,
Round Table Pizza,2351 McKee Rd,SAN JOSE,CA,95116-1623,4082593940.0,"https://www.google.com/maps/place/Round+Table+Pizza/@37.367644,-121.848959,17z/data=!3m1!4b1!4m5!3m4!1s0x808fcd069b9db9b5:0x4da65bb2846d079e!8m2!3d37.367644!4d-121.848959",round_table_pizza,
Round Table Pizza,2405 Pacific Ave,STOCKTON,CA,95205,2094667988.0,"https://www.google.com/maps/place/Round+Table+Pizza/@37.973048,-121.301796,17z/data=!3m1!4b1!4m5!3m4!1s0x80900d7370197607:0xbe8cc70fe0b50a34!8m2!3d37.973048!4d-121.301796",round_table_pizza,
Round Table Pizza,2500 E 2nd St,RENO,NV,89512,7757892452.0,"https://www.google.com/maps/place/Round+Table+Pizza/@39.522473,-119.780197,17z/data=!3m1!4b1!4m5!3m4!1s0x80993f5bbaa7ba1b:0xf4723877bd454010!8m2!3d39.522473!4d-119.780197",round_table_pizza,
Round Table Pizza,2506 E Chapman Ave,FULLERTON,CA,92831-3606,7148714481.0,"https://www.google.com/maps/place/Round+Table+Pizza/@33.873562,-117.887504,17z/data=!3m1!4b1!4m5!3m4!1s0x80dcd5d72d270271:0xd48c7692fd6df90!8m2!3d33.873562!4d-117.887504",round_table_pizza,
Round Table Pizza,2540 Sand Creek Rd,BRENTWOOD,CA,94513-7091,9252408778.0,"https://www.google.com/maps/place/Round+Table+Pizza/@37.943149,-121.738181,17z/data=!3m1!4b1!4m5!3m4!1s0x808ff8d8112a6edd:0xb72c45c07fe9ed89!8m2!3d37.943149!4d-121.738181",round_table_pizza,
Round Table Pizza,2544 W 16th St,YUMA,AZ,85365,9287835895.0,"https://www.google.com/maps/place/Round+Table+Pizza/@32.699663,-114.650935,17z/data=!3m1!4b1!4m5!3m4!1s0x80d6f638e3f403a9:0xb791dd6e52f3c8a6!8m2!3d32.699663!4d-114.650935",round_table_pizza,
Round Table Pizza,2503 Mountain City Hwy,ELKO,NV,89815,7757382300.0,"https://www.google.com/maps/place/Round+Table+Pizza/@40.837759,-115.791795,17z/data=!3m1!4b1!4m5!3m4!1s0x80a606e2a4975539:0x4c0941ed31b6e0a9!8m2!3d40.837759!4d-115.791795",round_table_pizza,
Round Table Pizza,2580 Kekaa Dr,LAHAINA,HI,96761-2908,8086620777.0,"https://www.google.com/maps/place/Round+Table+Pizza/@20.925613,-156.690527,17z/data=!3m1!4b1!4m5!3m4!1s0x79552b47eb91ccd7:0x31543875c640b762!8m2!3d20.925613!4d-156.690527",round_table_pizza,
Round Table Pizza,263 University Ave,PALO ALTO,CA,94304,6503222893.0,"https://www.google.com/maps/place/Round+Table+Pizza/@37.4370051,-122.7251313,9z/data=!4m8!1m2!2m1!1sRound+Table+Pizza+263+University+Ave+PALO+ALTO+CA+94304!3m4!1s0x808fbb39ea766b03:0x3404d29c76070685!8m2!3d37.445664!4d-122.162088?hl=en",round_table_pizza,
Round Table Pizza,2633 Springs Rd,VALLEJO,CA,94592,7076491234.0,"https://www.google.com/maps/place/Round+Table+Pizza/@38.1054982,-122.2099917,17z/data=!4m5!3m4!1s0x808572f77dc64df9:0xcd9d27bc15e3ded4!8m2!3d38.105494!4d-122.207803?hl=en",round_table_pizza,
Round Table Pizza,2650 Geer Rd,TURLOCK,CA,95382-1114,2096321083.0,"https://www.google.com/maps/place/Round+Table+Pizza/@37.517217,-120.848645,17z/data=!3m1!4b1!4m5!3m4!1s0x809106fd96f7ce7f:0xcd95868e29397d23!8m2!3d37.517217!4d-120.848645",round_table_pizza,
Round Table Pizza,2629 N Pearl St,TACOMA,WA,98407-2416,2537565313.0,"https://www.google.com/maps/place/Round+Table+Clubhouse/@47.272283,-122.514111,17z/data=!3m1!4b1!4m5!3m4!1s0x549054c7875e6e5d:0xcefa7712d83b0caf!8m2!3d47.272283!4d-122.514111",round_table_pizza,
Round Table Pizza,27140 Eucalyptus Ave,MORENO VALLEY,CA,92557,9512424980.0,"https://www.google.com/maps/place/Round+Table+Pizza/@33.936575,-117.187789,17z/data=!3m1!4b1!4m5!3m4!1s0x80dca7ed0f573b2b:0x63103a7a83ce19d1!8m2!3d33.936575!4d-117.187789",round_table_pizza,
Round Table Pizza,2808 McMurray Dr,ANDERSON,CA,96007-3546,5303652747.0,"https://www.google.com/maps/place/Round+Table+Clubhouse/@40.453468,-122.291674,17z/data=!3m1!4b1!4m5!3m4!1s0x54d2c169326c6f8d:0x1e77ec56ce87518!8m2!3d40.453468!4d-122.291674",round_table_pizza,
Round Table Pizza,2810 E St,EUREKA,CA,95503,7074453227.0,"https://www.google.com/maps/place/Round+Table+Pizza/@40.782605,-124.164948,17z/data=!3m1!4b1!4m5!3m4!1s0x54d3ffec3b8cd36b:0x221064b405295b02!8m2!3d40.782605!4d-124.164948",round_table_pizza,
Round Table Pizza,2819 W March Ln,STOCKTON,CA,95210,2094778277.0,"https://www.google.com/maps/place/Round+Table+Pizza/@37.985114,-121.346792,17z/data=!3m1!4b1!4m5!3m4!1s0x80900c2c24f1cb53:0x67f2becc16d90b34!8m2!3d37.985114!4d-121.346792",round_table_pizza,
Round Table Pizza,2860 S Bristol St,SANTA ANA,CA,92799,7147511600.0,"https://www.google.com/maps/place/Round+Table+Pizza/@33.708042,-117.886769,17z/data=!3m1!4b1!4m5!3m4!1s0x80dcd8d3ca798acb:0x25ca221e0cdcd416!8m2!3d33.708042!4d-117.886769",round_table_pizza,
Round Table Pizza,10054 Bruceville Rd,ELK GROVE,CA,95758,9166864009.0,"https://www.google.com/maps/place/Round+Table+Pizza/@38.393401,-121.4186,17z/data=!3m1!4b1!4m5!3m4!1s0x809ac793f4eb4b27:0x237d2076c436215e!8m2!3d38.393401!4d-121.4186",round_table_pizza,
Round Table Pizza,2960 Treat Blvd,CONCORD,CA,94519,9256761818.0,"https://www.google.com/maps/place/Round+Table+Clubhouse/@37.937395,-122.026395,17z/data=!3m1!4b1!4m5!3m4!1s0x808560f087655fe3:0x7b3c236821bc93be!8m2!3d37.937395!4d-122.026395",round_table_pizza,
Round Table Pizza,2854 Mountain Blvd,OAKLAND,CA,94619,5103363333.0,"https://www.google.com/maps/place/Round+Table+Pizza/@37.811282,-122.19762,17z/data=!3m1!4b1!4m5!3m4!1s0x808f87b7ff23c53b:0xdccc2a37805dac61!8m2!3d37.811282!4d-122.19762",round_table_pizza,
Round Table Pizza,292 S State St,UKIAH,CA,95482-4905,7074628866.0,"https://www.google.com/maps/place/Round+Table+Pizza/@39.1488271,-123.2101187,17z/data=!4m5!3m4!1s0x808164fbee8f23ab:0xc4b494b018887b27!8m2!3d39.148823!4d-123.20793?hl=en",round_table_pizza,
Round Table Pizza,10070 SW Barbur Blvd,PORTLAND,OR,97258,5032452211.0,"https://www.google.com/maps/place/Round+Table+Pizza/@45.452285,-122.722869,17z/data=!3m1!4b1!4m5!3m4!1s0x54950b61b6d57ae9:0x8d6d84d15576b057!8m2!3d45.452285!4d-122.722869",round_table_pizza,
Round Table Pizza,1015 E Capitol Expy,SAN JOSE,CA,95138,4086294242.0,"https://www.google.com/maps/place/Round+Table+Pizza/@37.300039,-121.824317,17z/data=!3m1!4b1!4m5!3m4!1s0x808e3262d8cff173:0x5a0301aaa739863c!8m2!3d37.300039!4d-121.824317",round_table_pizza,
Round Table Pizza,302 SW 43rd St,RENTON,WA,98058,4252510606.0,"https://www.google.com/maps/place/Round+Table+Pizza/@47.441497,-122.221661,17z/data=!3m1!4b1!4m5!3m4!1s0x5490427b6b2fee1f:0x717a2dafcaa588b8!8m2!3d47.441497!4d-122.221661",round_table_pizza,
Round Table Pizza,10150 SW Beaverton Hillsdale Hwy,BEAVERTON,OR,97008,5036466168.0,"https://www.google.com/maps/place/Round+Table+Clubhouse/@45.486143,-122.781256,17z/data=!3m1!4b1!4m5!3m4!1s0x54950c04fe966cd5:0x2f35f51acc0020bc!8m2!3d45.486143!4d-122.781256",round_table_pizza,
Round Table Pizza,1020 Keolu Dr,KAILUA,HI,96734-3869,8082614644.0,"https://www.google.com/maps/place/Round+Table+Pizza/@21.377915,-157.729511,17z/data=!3m1!4b1!4m5!3m4!1s0x7c001492d5b46dd3:0x362434b0c2d3b3ba!8m2!3d21.377915!4d-157.729511",round_table_pizza,
Round Table Pizza,1024 E Stanley Blvd,LIVERMORE,CA,94550-4157,9254551345.0,"https://www.google.com/maps/place/Round+Table+Pizza/@37.679596,-121.783655,17z/data=!3m1!4b1!4m5!3m4!1s0x808fe7be3fdd5749:0x9ce58234cf805032!8m2!3d37.679596!4d-121.783655",round_table_pizza,
Round Table Pizza,1031 Bridge St,COLUSA,CA,95932-2883,5304588151.0,"https://www.google.com/maps/place/Round+Table+Pizza/@39.203641,-122.00418,17z/data=!3m1!4b1!4m5!3m4!1s0x80836768093273b7:0xe63ea4949590451c!8m2!3d39.203641!4d-122.00418",round_table_pizza,
Round Table Pizza,1062 Emerald Bay Rd,SOUTH LAKE TAHOE,CA,96150-6200,5305445500.0,"https://www.google.com/maps/place/Round+Table+Pizza/@38.911332,-120.004084,17z/data=!3m1!4b1!4m5!3m4!1s0x80998fb0a3d56ff9:0xaa7f220b044000de!8m2!3d38.911332!4d-120.004084",round_table_pizza,
Round Table Pizza,1075 N Hills Blvd,RENO,NV,89503,7756772100.0,"https://www.google.com/maps/place/Round+Table+Pizza/@39.604852,-119.841322,17z/data=!3m1!4b1!4m5!3m4!1s0x80994888b849674b:0x5c8c70796f779470!8m2!3d39.604852!4d-119.841322",round_table_pizza,
Round Table Pizza,1084 Foster City Blvd,FOSTER CITY,CA,94402,6503417457.0,"https://www.google.com/maps/place/Round+Table+Pizza/@37.553484,-122.256838,17z/data=!3m1!4b1!4m5!3m4!1s0x808f98d7c5c15311:0x18b5f61fd389f7e3!8m2!3d37.553484!4d-122.256838",round_table_pizza,
Round Table Pizza,10952 Trinity Pkwy,STOCKTON,CA,95210,2099516863.0,"https://www.google.com/maps/place/Round+Table+Pizza/@38.057385,-121.375676,17z/data=!3m1!4b1!4m5!3m4!1s0x809009981260f5fb:0x3c19c5b5ec7ddaa9!8m2!3d38.057385!4d-121.375676",round_table_pizza,
Round Table Pizza,1067 C St,GALT,CA,95632-1760,2097455500.0,"https://www.google.com/maps/place/Round+Table+Pizza/@38.253777,-121.295439,17z/data=!3m1!4b1!4m5!3m4!1s0x809aa2cf8bb5cf27:0x30fe81de85806dd9!8m2!3d38.253777!4d-121.295439",round_table_pizza,
Round Table Pizza,11200 Donner Pass Rd,TRUCKEE,CA,96161-4844,5305870577.0,"https://www.google.com/maps/place/Round+Table+Pizza/@39.3268018,-120.2045182,17z/data=!3m1!4b1!4m5!3m4!1s0x809bdfccb0b61da3:0x7102ea9a73abee3a!8m2!3d39.3268018!4d-120.2045182",round_table_pizza,
Round Table Pizza,1124 Oro Dam Blvd E,OROVILLE,CA,95966,5305336710.0,"https://www.google.com/maps/place/Round+Table+Pizza/@39.502332,-121.562668,17z/data=!3m1!4b1!4m5!3m4!1s0x809cb44a4bef5bef:0x9abb6b5139dc0ecd!8m2!3d39.502332!4d-121.562668",round_table_pizza,
Round Table Pizza,302 E Walker St,ORLAND,CA,95963-2200,5308654343.0,"https://www.google.com/maps/place/Round+Table+Pizza/@39.7476978,-122.1778182,17z/data=!3m1!4b1!4m5!3m4!1s0x8082fb35a36df837:0x2af19d2398c356c6!8m2!3d39.7476978!4d-122.1778182",round_table_pizza,
Round Table Pizza,1125 S Bascom Ave,SAN JOSE,CA,95110,4082866222.0,"https://www.google.com/maps/place/Round+Table+Pizza/@37.305887,-121.932248,17z/data=!3m1!4b1!4m5!3m4!1s0x808e34ccebef9cf9:0xee885e2bf9b2c768!8m2!3d37.305887!4d-121.932248",round_table_pizza,
Round Table Pizza,1145 E Sunset Dr,BELLINGHAM,WA,98226-3587,3606716305.0,"https://www.google.com/maps/place/Round+Table+Clubhouse/@48.773203,-122.460577,17z/data=!3m1!4b1!4m5!3m4!1s0x5485a48016f92b05:0x8880845de1d1a9ad!8m2!3d48.773203!4d-122.460577",round_table_pizza,
Round Table Pizza,115 E College Way,MOUNT VERNON,WA,98273-5468,3604247979.0,"https://www.google.com/maps/place/Round+Table+Pizza/@48.436358,-122.33957,17z/data=!3m1!4b1!4m5!3m4!1s0x54856c273c21e671:0xe0c603cc0a6867cc!8m2!3d48.436358!4d-122.33957",round_table_pizza,
Round Table Pizza,1151 Riley St,FOLSOM,CA,95762,9169830184.0,"https://www.google.com/maps/place/Round+Table+Pizza/@38.67107,-121.163801,17z/data=!3m1!4b1!4m5!3m4!1s0x809ae41ba4640dff:0xce434bd5a83b242!8m2!3d38.67107!4d-121.163801",round_table_pizza,
Round Table Pizza,11250 Merritt St,CASTROVILLE,CA,95012-3420,8316335227.0,"https://www.google.com/maps/place/Round+Table+Pizza/@36.762272,-121.753753,17z/data=!3m1!4b1!4m5!3m4!1s0x808e0712a5dfb0a7:0x677998c619fb5c32!8m2!3d36.762272!4d-121.753753",round_table_pizza,
Round Table Pizza,1138 W Henderson Ave,PORTERVILLE,CA,93257-1453,5597813602.0,"https://www.google.com/maps/place/Round+Table+Pizza/@36.080823,-119.042351,17z/data=!3m1!4b1!4m5!3m4!1s0x80eab806d24b8389:0xc88fcda32cc061eb!8m2!3d36.080823!4d-119.042351",round_table_pizza,
Round Table Pizza,3253 Stevens Creek Blvd,SAN JOSE,CA,95126,4082963040.0,"https://www.google.com/maps/place/Round+Table+Pizza/@37.323527,-121.954438,17z/data=!3m1!4b1!4m5!3m4!1s0x808fcae6954d0d61:0xdbeee8572ad9a0b6!8m2!3d37.323527!4d-121.954438",round_table_pizza,
Round Table Pizza,3300 W Clearwater Ave,KENNEWICK,WA,99338,5097832204.0,"https://www.google.com/maps/place/Round+Table+Pizza/@46.21255,-119.166415,17z/data=!3m1!4b1!4m5!3m4!1s0x5498790f5ef02109:0x15827c4ac1c260e6!8m2!3d46.21255!4d-119.166415",round_table_pizza,
Round Table Pizza,3325 Retail Dr,CARSON CITY,NV,89701,7758848080.0,"https://www.google.com/maps/place/Round+Table+Pizza/@39.189668,-119.757815,17z/data=!3m1!4b1!4m5!3m4!1s0x80990aef1c8c8f77:0x87f50920b47da616!8m2!3d39.189668!4d-119.757815",round_table_pizza,
Round Table Pizza,116 Belle Mill Rd,RED BLUFF,CA,96080-2850,5305291760.0,"https://www.google.com/maps/place/Round+Table+Pizza/@40.18195,-122.228953,17z/data=!3m1!4b1!4m5!3m4!1s0x808283a5713bf1fd:0x8f2c32ee624c5af6!8m2!3d40.18195!4d-122.228953",round_table_pizza,
Round Table Pizza,1160 S Main St,SALINAS,CA,93905,8317577400.0,"https://www.google.com/maps/place/Round+Table+Pizza/@36.658652,-121.660901,17z/data=!3m1!4b1!4m5!3m4!1s0x808df8f12e9e05a3:0xc8e16aaef6afe9be!8m2!3d36.658652!4d-121.660901",round_table_pizza,
Round Table Pizza,1161 E Washington Ave,ESCONDIDO,CA,92027,7604890191.0,"https://www.google.com/maps/place/Round+Table+Pizza/@33.13221,-117.06796,17z/data=!3m1!4b1!4m5!3m4!1s0x80dbf367e3a638f3:0x188e645e32cb4933!8m2!3d33.13221!4d-117.06796",round_table_pizza,
Round Table Pizza,3120 Del Monte Blvd,MARINA,CA,93933-3047,8313847227.0,"https://www.google.com/maps/place/Round+Table+Pizza/@36.685599,-121.801206,17z/data=!3m1!4b1!4m5!3m4!1s0x808dfcd71439caab:0x35c40d0a20b199b3!8m2!3d36.685599!4d-121.801206",round_table_pizza,
Round Table Pizza,31775 Date Palm Dr,CATHEDRAL CITY,CA,92262,7603211756.0,"https://www.google.com/maps/place/Round+Table+Pizza/@33.817922,-116.45864,17z/data=!3m1!4b1!4m5!3m4!1s0x80db1d191c87e959:0x3298a11f178cc574!8m2!3d33.817922!4d-116.45864",round_table_pizza,
Round Table Pizza,3201 W Court St,PASCO,WA,99301-3810,5095451091.0,"https://www.google.com/maps/place/Round+Table+Pizza/@46.241873,-119.133451,17z/data=!3m1!4b1!4m5!3m4!1s0x54987eb211fee28d:0x97420a5b0cbd4634!8m2!3d46.241873!4d-119.133451",round_table_pizza,
Round Table Pizza,1201 Baring Blvd,SPARKS,NV,89502,7753588200.0,"https://www.google.com/maps/place/Round+Table+Pizza/@39.555652,-119.723654,17z/data=!3m1!4b1!4m5!3m4!1s0x80993935b1736a0d:0x4c40ba43ae075123!8m2!3d39.555652!4d-119.723654",round_table_pizza,
Round Table Pizza,121 Hartnell Ave,REDDING,CA,96001,5302249996.0,"https://www.google.com/maps/place/Round+Table+Pizza/@40.569263,-122.369187,17z/data=!3m1!4b1!4m5!3m4!1s0x54d2ec95ccff36d3:0xbd7e09f1787efb5e!8m2!3d40.569263!4d-122.369187",round_table_pizza,
Round Table Pizza,3290 Arena Blvd,SACRAMENTO,CA,95838,9162856747.0,"https://www.google.com/maps/place/Round+Table+Pizza/@38.64224,-121.53494,17z/data=!3m1!4b1!4m5!3m4!1s0x809ad6073d0f2203:0xa8898d7c1e7e6600!8m2!3d38.64224!4d-121.53494",round_table_pizza,
Round Table Pizza,3327 Watt Ave,SACRAMENTO,CA,95864,9164824800.0,"https://www.google.com/maps/place/Round+Table+Pizza/@38.626883,-121.383729,17z/data=!3m1!4b1!4m5!3m4!1s0x809ad965fb379f67:0x5a3b885bf5be087b!8m2!3d38.626883!4d-121.383729",round_table_pizza,
Round Table Pizza,3375 Port Chicago Hwy,CONCORD,CA,94519,9258251993.0,"https://www.google.com/maps/place/Round+Table+Pizza/@37.995,-122.032001,17z/data=!3m1!4b1!4m5!3m4!1s0x8085671b37a1ba41:0x5b947b33df1863ce!8m2!3d37.995!4d-122.032001",round_table_pizza,
Round Table Pizza,3440 Marron Rd,OCEANSIDE,CA,92056-4672,7604345977.0,"https://www.google.com/maps/place/Round+Table+Pizza/@33.178352,-117.297089,17z/data=!3m1!4b1!4m5!3m4!1s0x80dc73deab2f5e15:0x218690c067d2695a!8m2!3d33.178352!4d-117.297089",round_table_pizza,
Round Table Pizza,127 K St,SACRAMENTO,CA,95816,9164437461.0,"https://www.google.com/maps/place/Round+Table+Pizza/@38.58231,-121.505009,17z/data=!3m1!4b1!4m5!3m4!1s0x809ad6cd2586af87:0xe670dc7f32918b3e!8m2!3d38.58231!4d-121.505009",round_table_pizza,
Round Table Pizza,3567 Geary Blvd,SAN FRANCISCO,CA,94129,4153875054.0,"https://www.google.com/maps/place/Round+Table+Pizza/@37.7811374,-122.4575506,17z/data=!3m1!4b1!4m5!3m4!1s0x808587378f9e3c07:0xfc1d542dacfd57cb!8m2!3d37.7811374!4d-122.4575506",round_table_pizza,
Round Table Pizza,3710 W Shields Ave,FRESNO,CA,93705,5592717575.0,"https://www.google.com/maps/place/Round+Table+Pizza/@36.779795,-119.859834,17z/data=!3m1!4b1!4m5!3m4!1s0x80946660c9e5304f:0x6b40985d0ab9a7f0!8m2!3d36.779795!4d-119.859834",round_table_pizza,
Round Table Pizza,3730 N 1st St,SAN JOSE,CA,95131,4083219922.0,"https://www.google.com/maps/place/Round+Table+Pizza/@37.4107882,-121.9480227,17z/data=!3m1!5s0x808fc9aa06070ced:0xd4dbd7fd2f3cbb43!4m8!1m2!2m1!1sRound+Table+Pizza+3730+N+1st+St+SAN+JOSE+CA+95131!3m4!1s0x808fc90795efe1bf:0x38b9f7ee0d93ad73!8m2!3d37.410784!4d-121.945834?hl=en",round_table_pizza,
Round Table Pizza,375 S State Highway 65,LINCOLN,CA,95648-6306,9164080447.0,"https://www.google.com/maps/place/Round+Table+Pizza/@38.87916,-121.294465,17z/data=!3m1!4b1!4m5!3m4!1s0x809b3d3056320a3f:0x30ce95dbe6d70871!8m2!3d38.87916!4d-121.294465",round_table_pizza,
Round Table Pizza,398 Grand Ave,OAKLAND,CA,94612,5108344444.0,"https://www.google.com/maps/place/Round+Table+Pizza/@37.808962,-122.254018,17z/data=!3m1!4b1!4m5!3m4!1s0x808f8745f8fc2231:0x5e90612043994072!8m2!3d37.808962!4d-122.254018",round_table_pizza,
Round Table Pizza,1278 Stabler Ln,YUBA CITY,CA,95993-2620,5307554090.0,"https://www.google.com/maps/place/Round+Table+Pizza/@39.1468465,-121.6481835,17z/data=!4m5!3m4!1s0x8084ab5eba0baaf9:0x13080c5ca61ef9f4!8m2!3d39.1468424!4d-121.6459948?hl=en",round_table_pizza,
Round Table Pizza,128 Woodside Plz,REDWOOD CITY,CA,94061-2553,6503652770.0,"https://www.google.com/maps/place/Round+Table+Pizza/@37.457708,-122.229896,17z/data=!3m1!4b1!4m5!3m4!1s0x808fa3a7176d5fbd:0xc7cf44399fca0c00!8m2!3d37.457708!4d-122.229896",round_table_pizza,
Round Table Pizza,12829 Harbor Blvd,GARDEN GROVE,CA,92840-5806,7145391934.0,"https://www.google.com/maps/place/Round+Table+Pizza/@33.777536,-117.917522,17z/data=!3m1!4b1!4m5!3m4!1s0x80dcd8023ee021cd:0xa948b08d3e2ab73d!8m2!3d33.777536!4d-117.917522",round_table_pizza,
Round Table Pizza,12881 Mountain Ave,CHINO,CA,91710-4556,9095919984.0,"https://www.google.com/maps/place/Round+Table+Pizza/@34.019589,-117.665873,17z/data=!3m1!4b1!4m5!3m4!1s0x80c33338ad049893:0xd79b1ca7ee8b0ee7!8m2!3d34.019589!4d-117.665873",round_table_pizza,
Round Table Pizza,13009 NE Highway 99,VANCOUVER,WA,98685,3605745755.0,"https://www.google.com/maps/place/Round+Table+Pizza/@45.716614,-122.650316,17z/data=!3m1!4b1!4m5!3m4!1s0x5495adef63155a9f:0xc6907b10ec20cb83!8m2!3d45.716614!4d-122.650316",round_table_pizza,
Round Table Pizza,1331 Buchanan Rd,PITTSBURG,CA,94565-6406,9254321000.0,"https://www.google.com/maps/place/Round+Table+Pizza/@37.998663,-121.873367,17z/data=!3m1!4b1!4m5!3m4!1s0x8085596b8801cc17:0xc16b5923d8c3776d!8m2!3d37.998663!4d-121.873367",round_table_pizza,
Round Table Pizza,1271 E Calaveras Blvd,MILPITAS,CA,95101,4082627822.0,"https://www.google.com/maps/place/Round+Table+Pizza/@37.436069,-121.885269,17z/data=!3m1!4b1!4m5!3m4!1s0x808fced8ca3196ef:0x3bec4f1dbd8d7597!8m2!3d37.436069!4d-121.885269",round_table_pizza,
Round Table Pizza,13761 Mono Way,SONORA,CA,95370-8856,2095321018.0,"https://www.google.com/maps/place/Round+Table+Pizza/@37.974308,-120.343031,17z/data=!3m1!4b1!4m5!3m4!1s0x8090cf62a5e54f6d:0x928b920bb1acc92e!8m2!3d37.974308!4d-120.343031",round_table_pizza,
Round Table Pizza,370 Elm Ave,AUBURN,CA,95602,5308855182.0,"https://www.google.com/maps/place/Round+Table+Pizza/@38.905426,-121.0724713,17z/data=!3m1!4b1!4m5!3m4!1s0x809b052bff591149:0xeaa86992178b0caf!8m2!3d38.905426!4d-121.0724713",round_table_pizza,
Round Table Pizza,407 W Foothill Blvd,GLENDORA,CA,91740,6269635997.0,"https://www.google.com/maps/place/Round+Table+Pizza/@34.136531,-117.870738,17z/data=!3m1!4b1!4m5!3m4!1s0x80c32636951cc0d9:0xff0c75b486da710e!8m2!3d34.136531!4d-117.870738",round_table_pizza,
Round Table Pizza,3975 Missouri Flat Rd,PLACERVILLE,CA,95667-5251,5306210682.0,"https://www.google.com/maps/place/Round+Table+Pizza/@38.712547,-120.839617,17z/data=!3m1!4b1!4m5!3m4!1s0x809a57706d87e557:0x49745032645d51a3!8m2!3d38.712547!4d-120.839617",round_table_pizza,
Round Table Pizza,398 Florin Rd,SACRAMENTO,CA,95824,9163950507.0,"https://www.google.com/maps/place/Round+Table+Pizza/@38.507799,-121.541744,17z/data=!3m1!4b1!4m5!3m4!1s0x809ad21c5b9bd18f:0x62ac4916c3805b1!8m2!3d38.507799!4d-121.541744",round_table_pizza,
Round Table Pizza,1300 N 40th Ave,YAKIMA,WA,98901,5092487210.0,"https://www.google.com/maps/place/Round+Table+Pizza/@46.621178,-120.563042,17z/data=!3m1!4b1!4m5!3m4!1s0x549762a010cb34cb:0x3e9515d4fe84744e!8m2!3d46.621178!4d-120.563042",round_table_pizza,
Round Table Pizza,13100 San Pablo Ave,RICHMOND,CA,94804,5102327071.0,"https://www.google.com/maps/place/Round+Table+Pizza/@37.950645,-122.331306,17z/data=!3m1!4b1!4m5!3m4!1s0x80857820096f4081:0xb396f754ca8646b7!8m2!3d37.950645!4d-122.331306",round_table_pizza,
Round Table Pizza,430 S Norfolk St,SAN MATEO,CA,94402,6503751300.0,"https://www.google.com/maps/place/Round+Table+Pizza/@37.57162,-122.31077,17z/data=!3m1!4b1!4m5!3m4!1s0x808f9e874d4d0da1:0xd9c829d052890b8b!8m2!3d37.57162!4d-122.31077",round_table_pizza,
Round Table Pizza,1324 El Camino Real,SAN CARLOS,CA,94070-5005,6505911998.0,"https://www.google.com/maps/place/Round+Table+Pizza/@37.498264,-122.249966,17z/data=!3m1!4b1!4m5!3m4!1s0x808fa23d937dfcad:0xae761db04b8549eb!8m2!3d37.498264!4d-122.249966",round_table_pizza,
Round Table Pizza,1351 Healdsburg Ave,HEALDSBURG,CA,95448-3246,7074338877.0,"https://www.google.com/maps/place/Round+Table+Pizza/@38.627017,-122.87299,17z/data=!3m1!4b1!4m5!3m4!1s0x808410c71d5e19b1:0xa8f8648713a40d9a!8m2!3d38.627017!4d-122.87299",round_table_pizza,
Round Table Pizza,13510 Poway Rd,POWAY,CA,92064-4716,8587482333.0,"https://www.google.com/maps/place/Round+Table+Pizza/@32.957217,-117.038533,17z/data=!3m1!4b1!4m5!3m4!1s0x80dbfa53f6621edf:0x7b5ccc522df3ce3b!8m2!3d32.957217!4d-117.038533",round_table_pizza,
Round Table Pizza,13700 Doolittle Dr,SAN LEANDRO,CA,94579,5106140500.0,"https://www.google.com/maps/place/Round+Table+Pizza/@37.699614,-122.176322,17z/data=!3m1!4b1!4m5!3m4!1s0x808f855669d93569:0x6cafc258bf05f438!8m2!3d37.699614!4d-122.176322",round_table_pizza,
Round Table Pizza,4007 S Virginia St,RENO,NV,89509,7758265111.0,"https://www.google.com/maps/place/Round+Table+Pizza/@39.486698,-119.795523,17z/data=!3m1!4b1!4m5!3m4!1s0x8099407961760f17:0x8a7d4ca217e56508!8m2!3d39.486698!4d-119.795523",round_table_pizza,
Round Table Pizza,4035 S Mooney Blvd,VISALIA,CA,93291,5596255030.0,"https://www.google.com/maps/place/Round+Table+Pizza/@36.294091,-119.315812,17z/data=!3m1!4b1!4m5!3m4!1s0x80952f2876b5d111:0xa8940cc6d835a97e!8m2!3d36.294091!4d-119.315812",round_table_pizza,
Round Table Pizza,140 Browns Valley Pkwy,VACAVILLE,CA,95688-3062,7074517224.0,"https://www.google.com/maps/place/Round+Table+Pizza/@38.3655639,-121.9694056,17z/data=!3m1!4b1!4m5!3m4!1s0x80853d3522ebaaff:0x5aff8d5bbcf0bc60!8m2!3d38.3655639!4d-121.9694056",round_table_pizza,
Round Table Pizza,1409 Fitzgerald Dr,PINOLE,CA,94803,5102225555.0,"https://www.google.com/maps/place/Round+Table+Pizza/@37.988768,-122.3112,17z/data=!3m1!4b1!4m5!3m4!1s0x808577a9d4b07f83:0xc98b459024771bfc!8m2!3d37.988768!4d-122.3112",round_table_pizza,
Round Table Pizza,4400 San Juan Ave,FAIR OAKS,CA,95628-6746,9169622758.0,"https://www.google.com/maps/place/Round+Table+Pizza/@38.643864,-121.291431,17z/data=!3m1!4b1!4m5!3m4!1s0x809adddf3592cb9b:0x73ffe1d4b18bc2e1!8m2!3d38.643864!4d-121.291431",round_table_pizza,
Round Table Pizza,4523 Mission St,SAN FRANCISCO,CA,94131,4155861200.0,"https://www.google.com/maps/place/Round+Table+Pizza/@37.725787,-122.433806,17z/data=!3m1!4b1!4m5!3m4!1s0x808f7e88c0e27fd7:0xb86179e9dd5ee8c7!8m2!3d37.725787!4d-122.433806",round_table_pizza,
Round Table Pizza,4551 Jamboree Rd,NEWPORT BEACH,CA,92660-2521,9493879877.0,"https://www.google.com/maps/place/Round+Table+Pizza/@33.66397,-117.857034,17z/data=!3m1!4b1!4m5!3m4!1s0x80dcde5dc6682d79:0x30607120a9bc135a!8m2!3d33.66397!4d-117.857034",round_table_pizza,
Round Table Pizza,1600 W Grand Ave,ARROYO GRANDE,CA,93420,8054816996.0,"https://www.google.com/maps/place/Round+Table+Pizza/@35.120827,-120.611361,17z/data=!3m1!4b1!4m5!3m4!1s0x80ec5eb904864037:0x76b8a7ea8c7e39b2!8m2!3d35.120827!4d-120.611361",round_table_pizza,
Round Table Pizza,40831 Fremont Blvd,FREMONT,CA,94539,5106512111.0,"https://www.google.com/maps/place/Round+Table+Pizza/@37.534241,-121.962359,17z/data=!3m1!4b1!4m5!3m4!1s0x808fc0ce88b3d4e3:0xf95950a9e676462c!8m2!3d37.534241!4d-121.962359",round_table_pizza,
Round Table Pizza,4098 East Ave,LIVERMORE,CA,94550-4941,9254432700.0,"https://www.google.com/maps/place/Round+Table+Pizza/@37.680245,-121.746978,17z/data=!3m1!4b1!4m5!3m4!1s0x808fe7662073cde7:0x75a2a0e6caa605da!8m2!3d37.680245!4d-121.746978",round_table_pizza,
Round Table Pizza,4141 NE 122nd Ave,PORTLAND,OR,97216,5032533557.0,"https://www.google.com/maps/place/Round+Table+Pizza/@45.552854,-122.5375929,17z/data=!3m1!4b1!4m5!3m4!1s0x5495a3c1d8813a6d:0x70b29e6e84540481!8m2!3d45.552854!4d-122.5375929",round_table_pizza,
Round Table Pizza,415 N Mary Ave,SUNNYVALE,CA,94085-4189,4087331365.0,"https://www.google.com/maps/place/Round+Table+Pizza/@37.390229,-122.042068,17z/data=!3m1!4b1!4m5!3m4!1s0x808fb701d0700b91:0x6e548e720039452!8m2!3d37.390229!4d-122.042068",round_table_pizza,
Round Table Pizza,4215 Norwood Ave,SACRAMENTO,CA,95838-4933,9166492686.0,"https://www.google.com/maps/place/Round+Table+Pizza/@38.645597,-121.45744,17z/data=!3m1!4b1!4m5!3m4!1s0x809ad791d334d923:0x19dc6368ffe3a0a5!8m2!3d38.645597!4d-121.45744",round_table_pizza,
Round Table Pizza,1472 Pollard Rd,LOS GATOS,CA,95008,4083794691.0,"https://www.google.com/maps/place/Round+Table+Pizza/@37.2640332,-121.9858447,17z/data=!3m1!5s0x808e35651f99d1fb:0x7dffb78d7b41a3c6!4m5!3m4!1s0x808e356512cf7999:0x106201df0b8e4ba4!8m2!3d37.264029!4d-121.983656?hl=en",round_table_pizza,
Round Table Pizza,14940 Camden Ave,SAN JOSE,CA,95008,4083719550.0,"https://www.google.com/maps/place/Round+Table+Pizza/@37.261433,-121.929443,17z/data=!3m1!4b1!4m5!3m4!1s0x808e345c973ba5f9:0x2929c406fb974b5b!8m2!3d37.261433!4d-121.929443",round_table_pizza,
Round Table Pizza,4330 Redondo Beach Blvd,TORRANCE,CA,90277,3103718009.0,"https://www.google.com/maps/place/Round+Table+Pizza/@33.874221,-118.351132,17z/data=!3m1!4b1!4m5!3m4!1s0x80c2b4fed9977a6b:0x238d4c2aa851654a!8m2!3d33.874221!4d-118.351132",round_table_pizza,
Round Table Pizza,1400 W Campbell Ave,CAMPBELL,CA,95008-1694,4083742640.0,"https://www.google.com/maps/place/Round+Table+Pizza/@37.2859502,-121.9776207,17z/data=!4m5!3m4!1s0x808e3548c829f7bf:0x31d7dbe2ee10fa4e!8m2!3d37.285946!4d-121.975432?hl=en",round_table_pizza,
Round Table Pizza,4855 Hopyard Rd,PLEASANTON,CA,94566,9258470750.0,"https://www.google.com/maps/place/Round+Table+Pizza/@37.693347,-121.902219,17z/data=!3m1!4b1!4m5!3m4!1s0x808febfd83e9cb3f:0x6321c2a744a9a23a!8m2!3d37.693347!4d-121.902219",round_table_pizza,
Round Table Pizza,4935 Junipero Serra Blvd,COLMA,CA,94014-3216,6509941140.0,"https://www.google.com/maps/place/Round+Table+Pizza/@37.674174,-122.465309,17z/data=!3m1!4b1!4m5!3m4!1s0x808f7bf24bd4e449:0xec239dc71a972afe!8m2!3d37.674174!4d-122.465309",round_table_pizza,
Round Table Pizza,15002 Summit Ave,FONTANA,CA,91739,9094636500.0,"https://www.google.com/maps/place/Round+Table+Pizza/@34.148385,-117.477421,17z/data=!3m1!4b1!4m5!3m4!1s0x80c349418ad078c7:0x8002241d0b0e620d!8m2!3d34.148385!4d-117.477421",round_table_pizza,
Round Table Pizza,502 Foothill Blvd,LA CANADA FLT,CA,91214,8189521100.0,"https://www.google.com/maps/place/Round+Table+Pizza/@34.199195,-118.189489,17z/data=!3m1!4b1!4m5!3m4!1s0x80c2c2094b81485f:0x4533bf6ff92589c8!8m2!3d34.199195!4d-118.189489",round_table_pizza,
Round Table Pizza,150 E Cross Ave,TULARE,CA,93274-2850,5596862222.0,"https://www.google.com/maps/place/Round+Table+Pizza/@36.213344,-119.347788,17z/data=!3m1!4b1!4m5!3m4!1s0x80952b9803f1943f:0xd784b58e5cc549ab!8m2!3d36.213344!4d-119.347788",round_table_pizza,
Round Table Pizza,150 N Wilma Ave,RIPON,CA,95366-9445,2095995188.0,"https://www.google.com/maps/place/Round+Table+Pizza/@37.7399791,-121.1345792,17z/data=!3m1!4b1!4m5!3m4!1s0x8090445224c1fbe9:0x1af88b98955d105d!8m2!3d37.7399791!4d-121.1345792",round_table_pizza,
Round Table Pizza,1511 Sycamore Ave,HERCULES,CA,94547-1769,5107991966.0,"https://www.google.com/maps/place/Round+Table+Pizza/@38.010771,-122.27125,17z/data=!3m1!4b1!4m5!3m4!1s0x808576d429368527:0x78a511cb4a3da5e9!8m2!3d38.010771!4d-122.27125",round_table_pizza,
Round Table Pizza,46600 Mission Blvd,FREMONT,CA,94539-7063,5104900440.0,"https://www.google.com/maps/place/Round+Table+Pizza/@37.491253,-121.926655,17z/data=!3m1!4b1!4m5!3m4!1s0x808fc65d2e17f485:0xf28dacc8c9723427!8m2!3d37.491253!4d-121.926655",round_table_pizza,
Round Table Pizza,4680 Natomas Blvd,SACRAMENTO,CA,95835-2222,9169282222.0,"https://www.google.com/maps/place/Round+Table+Pizza/@38.6582566,-121.5108406,17z/data=!3m1!4b1!4m5!3m4!1s0x809b29dc4a14a311:0xd280392dbab338fa!8m2!3d38.6582566!4d-121.5108406",round_table_pizza,
Round Table Pizza,154 W Stockton St,SONORA,CA,95370-4952,2095323443.0,"https://www.google.com/maps/place/Round+Table+Pizza/@37.983207,-120.385134,17z/data=!3m1!4b1!4m5!3m4!1s0x8090c5d23719ac97:0x6fe4772b4e732e11!8m2!3d37.983207!4d-120.385134",round_table_pizza,
Round Table Pizza,2940 N Highway 97,BEND,OR,97703-7510,5413892963.0,"https://www.google.com/maps/place/Round+Table+Clubhouse/@44.1746637,-121.3819233,11z/data=!4m8!1m2!2m1!1sRound+Table+Pizza+2940+N+Highway+97+BEND+OR+97703-7510!3m4!1s0x54b8c8a175f7552b:0x4c9e4e5cde43219f!8m2!3d44.079593!4d-121.304413?hl=en",round_table_pizza,
Round Table Pizza,1565 S Novato Blvd,NOVATO,CA,94947-4143,4158972512.0,"https://www.google.com/maps/place/Round+Table+Pizza/@38.100078,-122.572617,17z/data=!3m1!4b1!4m5!3m4!1s0x8085bc835fc2b3a7:0xcf3ab2c79e82f3c1!8m2!3d38.100078!4d-122.572617",round_table_pizza,
Round Table Pizza,8822 Madison Ave,FAIR OAKS,CA,95628-3908,9169622700.0,"https://www.google.com/maps/place/Round+Table+Pizza/@38.662878,-121.22945,17z/data=!3m1!4b1!4m5!3m4!1s0x809ae0cc9a7e61e5:0x4641d532d5fd6bc1!8m2!3d38.662878!4d-121.22945",round_table_pizza,
Round Table Pizza,5085 Business Center Dr,FAIRFIELD,CA,94533,7072070378.0,"https://www.google.com/maps/place/Round+Table+Pizza/@38.216551,-122.143543,17z/data=!3m1!4b1!4m5!3m4!1s0x808512470beed879:0xc7c74a6030bcbfd4!8m2!3d38.216551!4d-122.143543",round_table_pizza,
Round Table Pizza,15960 Hesperian Blvd,SAN LORENZO,CA,94541,5102786311.0,"https://www.google.com/maps/place/Round+Table+Pizza/@37.680059,-122.126514,17z/data=!3m1!4b1!4m5!3m4!1s0x808f91ad7ed95297:0xac82fa6503cd1c3c!8m2!3d37.680059!4d-122.126514",round_table_pizza,
Round Table Pizza,16016 Meridian E,PUYALLUP,WA,98372,2538405500.0,"https://www.google.com/maps/place/Round+Table+Pizza/@47.110772,-122.2947709,17z/data=!3m1!4b1!4m5!3m4!1s0x5490fd37cda3cb45:0xddef7de52a9d1b4c!8m2!3d47.110772!4d-122.2947709",round_table_pizza,
Round Table Pizza,5150 Mae Anne Ave,RENO,NV,89501,7757476400.0,"https://www.google.com/maps/place/Round+Table+Pizza/@39.531989,-119.867203,17z/data=!3m1!4b1!4m5!3m4!1s0x80994696618e0d8b:0xacdee82f9ab72ce5!8m2!3d39.531989!4d-119.867203",round_table_pizza,
Round Table Pizza,5500 Olympic Dr,GIG HARBOR,WA,98335-1491,2538516250.0,"https://www.google.com/maps/place/Round+Table+Pizza/@47.307017,-122.57658,17z/data=!3m1!4b1!4m5!3m4!1s0x5490532ded8385ff:0x8cc18e0539eee3ce!8m2!3d47.307017!4d-122.57658",round_table_pizza,
Round Table Pizza,5547 Main St,SPRINGFIELD,OR,97408,5417412165.0,"https://www.google.com/maps/place/Round+Table+Pizza/@44.04524,-122.93249,17z/data=!3m1!4b1!4m5!3m4!1s0x54c0e0a51e9896fb:0x536ebc30a5ee18e8!8m2!3d44.04524!4d-122.93249",round_table_pizza,
Round Table Pizza,555 W Country Club Ln,ESCONDIDO,CA,92027,7604890955.0,"https://www.google.com/maps/place/Round+Table+Pizza/@33.158509,-117.099735,17z/data=!3m1!4b1!4m5!3m4!1s0x80db8b47af51b103:0xb9bc10b7a815d294!8m2!3d33.158509!4d-117.099735",round_table_pizza,
Round Table Pizza,570 N Shoreline Blvd,MOUNTAIN VIEW,CA,94043-3106,6509610361.0,"https://www.google.com/maps/place/Round+Table+Pizza/@37.402695,-122.079443,17z/data=!3m1!4b1!4m5!3m4!1s0x808fb74c0e400625:0x3edc20ab868b68a2!8m2!3d37.402695!4d-122.079443",round_table_pizza,
Round Table Pizza,16444 Boones Ferry Rd,LAKE OSWEGO,OR,97035-4208,5036363350.0,"https://www.google.com/maps/place/Round+Table+Clubhouse/@45.407176,-122.724754,17z/data=!3m1!4b1!4m5!3m4!1s0x54957322874a33b7:0x2f4f7863aef881fe!8m2!3d45.407176!4d-122.724754",round_table_pizza,
Round Table Pizza,5040 N W Avenue,FRESNO,CA,93711,5594497676.0,"https://www.google.com/maps/place/Round+Table+Pizza/@36.808883,-119.826118,17z/data=!3m1!4b1!4m5!3m4!1s0x809467c8d6de4db9:0xc997fec994e93ab1!8m2!3d36.808883!4d-119.826118",round_table_pizza,
Round Table Pizza,598 E Baseline Rd,CLAREMONT,CA,91711-2236,9096216913.0,"https://www.google.com/maps/place/Round+Table+Pizza/@34.121318,-117.705226,17z/data=!3m1!4b1!4m5!3m4!1s0x80c3304daca378bd:0x1fb2599862a90295!8m2!3d34.121318!4d-117.705226",round_table_pizza,
Round Table Pizza,616 NE 81st St,VANCOUVER,WA,98685,3605741666.0,"https://www.google.com/maps/place/Round+Table+Clubhouse/@45.681328,-122.665527,17z/data=!3m1!4b1!4m5!3m4!1s0x5495ae8c8bad0b6d:0x42e2da3fe2d6505a!8m2!3d45.681328!4d-122.665527",round_table_pizza,
Round Table Pizza,610 Quintana Rd,MORRO BAY,CA,93442-1939,8057721800.0,"https://www.google.com/maps/place/Round+Table+Pizza/@35.368873,-120.844978,17z/data=!3m1!4b1!4m5!3m4!1s0x80ece176b24a66a5:0xadc2e9a2530c26ce!8m2!3d35.368873!4d-120.844978",round_table_pizza,
Round Table Pizza,6111 Horseshoe Bar Rd,LOOMIS,CA,95650-8528,9166600400.0,"https://www.google.com/maps/place/Round+Table+Pizza/@38.818358,-121.189024,17z/data=!3m1!4b1!4m5!3m4!1s0x809b1eb9df8a1d29:0x2387bf2a7288cd67!8m2!3d38.818358!4d-121.189024",round_table_pizza,
Round Table Pizza,612 Camino De Los Mares,SAN CLEMENTE,CA,92624,9494967701.0,"https://www.google.com/maps/place/Round+Table+Pizza/@33.459318,-117.653828,17z/data=!3m1!4b1!4m5!3m4!1s0x80dcf16540d545e7:0xbcd95178aff65fff!8m2!3d33.459318!4d-117.653828",round_table_pizza,
Round Table Pizza,16534 Soledad Canyon Rd,CANYON COUNTRY,CA,91350,6612528000.0,"https://www.google.com/maps/place/Round+Table+Pizza/@34.425782,-118.424584,17z/data=!3m1!4b1!4m5!3m4!1s0x80c28908bbd1520d:0x59913d14f1ca6c4b!8m2!3d34.425782!4d-118.424584",round_table_pizza,
Round Table Pizza,1691 E Noble Ave,VISALIA,CA,93291,5596258753.0,"https://www.google.com/maps/place/Round+Table+Pizza/@36.325038,-119.274499,17z/data=!3m1!4b1!4m5!3m4!1s0x80952f9ec2a993b1:0xc6e7cdeb6968fbc1!8m2!3d36.325038!4d-119.274499",round_table_pizza,
Round Table Pizza,6222 Mission St,DALY CITY,CA,94014-2009,6509913339.0,"https://www.google.com/maps/place/Round+Table+Pizza/@37.7066422,-122.4621707,17z/data=!4m5!3m4!1s0x808f7c3c9122974d:0x155f3894e94bc430!8m2!3d37.706638!4d-122.459982?hl=en",round_table_pizza,
Round Table Pizza,6267 Graham Hill Rd,FELTON,CA,95018-9723,8313355344.0,"https://www.google.com/maps/place/Round+Table+Pizza/@37.053021,-122.069374,17z/data=!3m1!4b1!4m5!3m4!1s0x808e46bd06ad51df:0x9533bebf15b3bdfe!8m2!3d37.053021!4d-122.069374",round_table_pizza,
Round Table Pizza,1663 Hollenbeck Ave,SUNNYVALE,CA,94085,4082455905.0,"https://www.google.com/maps/place/Round+Table+Pizza/@37.338889,-122.042452,17z/data=!3m1!4b1!4m5!3m4!1s0x808fb433aeb768d7:0x349b0a1a2cf5d950!8m2!3d37.338889!4d-122.042452",round_table_pizza,
Round Table Pizza,16740 Monterey St,MORGAN HILL,CA,95037-5105,4087796300.0,"https://www.google.com/maps/place/Round+Table+Pizza/@37.12186,-121.64772,17z/data=!3m1!4b1!4m5!3m4!1s0x808e2061da7342ad:0x29cf66e2e1582889!8m2!3d37.12186!4d-121.64772",round_table_pizza,
Round Table Pizza,1159 Redmond Ave & Almaden Expressway,SAN JOSE,CA,95123,4082687474.0,"https://www.google.com/maps/place/Round+Table+Pizza/@37.230074,-121.871744,17z/data=!3m1!4b1!4m5!3m4!1s0x808e316cb6a8a255:0x485ef86f58a3591b!8m2!3d37.230074!4d-121.871744",round_table_pizza,
Round Table Pizza,702 Colorado Ave,PALO ALTO,CA,94304,6503225914.0,"https://www.google.com/maps/place/Round+Table+Pizza/@37.433024,-122.12808,17z/data=!3m1!4b1!4m5!3m4!1s0x808fba5634a49f85:0x1627e755f1f4dd8b!8m2!3d37.433024!4d-122.12808",round_table_pizza,
Round Table Pizza,680 Edith Ave,CORNING,CA,96021-2349,5308242134.0,"https://www.google.com/maps/place/Round+Table+Pizza/@39.929337,-122.19934,17z/data=!3m1!4b1!4m5!3m4!1s0x8082f2c0a8c004db:0x91dfb7a16f5dd533!8m2!3d39.929337!4d-122.19934",round_table_pizza,
Round Table Pizza,701 Lincoln Ave,NAPA,CA,94558-5109,7072247000.0,"https://www.google.com/maps/place/Round+Table+Pizza/@38.3095952,-122.2876877,17z/data=!4m5!3m4!1s0x8085068b035b6b43:0xefddd22f5b8e3138!8m2!3d38.309591!4d-122.285499?hl=en",round_table_pizza,
Round Table Pizza,732 N Brea Blvd,BREA,CA,92823,7146712821.0,"https://www.google.com/maps/place/Round+Table+Pizza/@33.930501,-117.893792,17z/data=!3m1!4b1!4m5!3m4!1s0x80dcd53db9936d9b:0xb764439588a9e6aa!8m2!3d33.930501!4d-117.893792",round_table_pizza,
Round Table Pizza,1728 W Olive Ave,MERCED,CA,95348-1201,2093832999.0,"https://www.google.com/maps/place/Round+Table+Pizza/@37.318755,-120.496062,17z/data=!3m1!4b1!4m5!3m4!1s0x80914247af3b93d9:0xefcaa82da125f031!8m2!3d37.318755!4d-120.496062",round_table_pizza,
Round Table Pizza,1743 Willow Pass Rd,CONCORD,CA,94519,9256898900.0,"https://www.google.com/maps/place/Round+Table+Pizza/@37.974289,-122.040626,17z/data=!3m1!4b1!4m5!3m4!1s0x808566d82f81697d:0x324aad7324a86747!8m2!3d37.974289!4d-122.040626",round_table_pizza,
Round Table Pizza,1744 Decoto Rd,UNION CITY,CA,94587-3524,5104893131.0,"https://www.google.com/maps/place/Round+Table+Pizza/@37.588413,-122.018917,17z/data=!3m1!4b1!4m5!3m4!1s0x808f95618e815923:0xc3d07ec3942b7f64!8m2!3d37.588413!4d-122.018917",round_table_pizza,
Round Table Pizza,7141 S Eastern Ave,LAS VEGAS,NV,89122,7024836700.0,"https://www.google.com/maps/place/Round+Table+Pizza/@36.059506,-115.119242,17z/data=!3m1!4b1!4m5!3m4!1s0x80c8cf936a352ab7:0x946c77c8a4de46f!8m2!3d36.059506!4d-115.119242",round_table_pizza,
Round Table Pizza,7201 Archibald Ave,RANCHO CUCAMONGA,CA,91784,9099808040.0,"https://www.google.com/maps/place/Round+Table+Pizza/@34.123292,-117.593007,17z/data=!3m1!4b1!4m5!3m4!1s0x80c33660fb07195d:0xba1786d8912daf95!8m2!3d34.123292!4d-117.593007",round_table_pizza,
Round Table Pizza,740 S Main St,FORT BRAGG,CA,95437-5302,7079644987.0,"https://www.google.com/maps/place/Round+Table+Pizza/@39.431586,-123.80555,17z/data=!3m1!4b1!4m5!3m4!1s0x80803557bd243d9b:0x66d0283738a704f5!8m2!3d39.431586!4d-123.80555",round_table_pizza,
Round Table Pizza,7460 W Lake Mead Blvd,LAS VEGAS,NV,89122,7023316700.0,"https://www.google.com/maps/place/Round+Table+Pizza/@36.197211,-115.256178,17z/data=!3m1!4b1!4m5!3m4!1s0x80c8c022a2d848e1:0x3b41b111e12645bc!8m2!3d36.197211!4d-115.256178",round_table_pizza,
Round Table Pizza,1737 E Katella Ave,ORANGE,CA,92861,7146397344.0,"https://www.google.com/maps/place/Round+Table+Pizza/@33.809521,-117.834986,17z/data=!3m1!4b1!4m5!3m4!1s0x80dcd74d87ded347:0xd2b9823af6ce5102!8m2!3d33.809521!4d-117.834986",round_table_pizza,
Round Table Pizza,759 S Fortuna Blvd,FORTUNA,CA,95540-3034,7077254459.0,"https://www.google.com/maps/place/Round+Table+Pizza/@40.582359,-124.145844,17z/data=!3m1!4b1!4m5!3m4!1s0x54d40e732f854cef:0x7570bec318c633df!8m2!3d40.582359!4d-124.145844",round_table_pizza,
Round Table Pizza,7700 Sunrise Blvd,CITRUS HEIGHTS,CA,95678,9167250323.0,"https://www.google.com/maps/place/Round+Table+Clubhouse/@38.706291,-121.271352,17z/data=!3m1!4b1!4m5!3m4!1s0x809adfdd5d8279bd:0xa71f2bd08c025f3d!8m2!3d38.706291!4d-121.271352",round_table_pizza,
Round Table Pizza,7732 Limonite Ave,RIVERSIDE,CA,91752,9516810895.0,"https://www.google.com/maps/place/Round+Table+Pizza/@33.977381,-117.452044,17z/data=!3m1!4b1!4m5!3m4!1s0x80dcb3fefac324a5:0x6f9993cce184e4c5!8m2!3d33.977381!4d-117.452044",round_table_pizza,
Round Table Pizza,7873 Linchen Drive,CITRUS HEIGHTS,CA,95678,9167235910.0,"https://www.google.com/maps/place/Round+Table+Pizza/@38.7094386,-121.3141851,17z/data=!4m5!3m4!1s0x809adf7911a78aab:0x93e1195f1f4d3285!8m2!3d38.7094344!4d-121.3119964?hl=en",round_table_pizza,
Round Table Pizza,7921 S Hosmer St,TACOMA,WA,98404,2534736121.0,"https://www.google.com/maps/place/Round+Table+Pizza/@47.185439,-122.462343,17z/data=!3m1!4b1!4m5!3m4!1s0x5491003675a3d599:0xc37d0d7eb229c439!8m2!3d47.185439!4d-122.462343",round_table_pizza,
Round Table Pizza,1852 S Norfolk St,SAN MATEO,CA,94402,6503410600.0,"https://www.google.com/maps/place/Round+Table+Pizza/@37.554397,-122.293996,17z/data=!3m1!4b1!4m5!3m4!1s0x808f9ee891b757e3:0xe958477b396e0343!8m2!3d37.554397!4d-122.293996",round_table_pizza,
Round Table Pizza,1901 Junipero Serra Blvd,DALY CITY,CA,94014-3896,6507577300.0,"https://www.google.com/maps/place/Round+Table+Pizza/@37.7023402,-122.4727547,17z/data=!3m1!5s0x808f7c4091dd211b:0x146160b0299ec675!4m5!3m4!1s0x808f7c408c6c3c6f:0x7e52f8ce2e2074e9!8m2!3d37.702336!4d-122.470566?hl=en",round_table_pizza,
Round Table Pizza,800 E Dimond Blvd,ANCHORAGE,AK,99518,9075221007.0,"https://www.google.com/maps/place/Round+Table+Pizza/@61.143083,-149.867501,17z/data=!3m1!4b1!4m5!3m4!1s0x56c899d058920487:0x286c55d157c00b0!8m2!3d61.143083!4d-149.867501",round_table_pizza,
Round Table Pizza,8010 Holman Rd,STOCKTON,CA,95210,2099513819.0,"https://www.google.com/maps/place/Round+Table+Pizza/@38.0236939,-121.271044,17z/data=!3m1!4b1!4m5!3m4!1s0x80900cb649c39049:0x240d86d56644faa7!8m2!3d38.0236939!4d-121.271044",round_table_pizza,
Round Table Pizza,8035 San Miguel Canyon Rd,PRUNEDALE,CA,93906,8316635500.0,"https://www.google.com/maps/place/Round+Table+Pizza/@36.80141,-121.665264,17z/data=!3m1!4b1!4m5!3m4!1s0x808e0053dbd74717:0x86dbea6bbaaa330e!8m2!3d36.80141!4d-121.665264",round_table_pizza,
Round Table Pizza,830 E Foothill Blvd,UPLAND,CA,91784,9099460741.0,"https://www.google.com/maps/place/Round+Table+Pizza/@34.106163,-117.640018,17z/data=!3m1!4b1!4m5!3m4!1s0x80c336b3acb6310f:0x2ba22cbeb357af68!8m2!3d34.106163!4d-117.640018",round_table_pizza,
Round Table Pizza,81637 US Highway 111,INDIO,CA,92201-5439,7603476966.0,"https://www.google.com/maps/place/Round+Table+Pizza/@33.7077454,-116.2430177,17z/data=!4m5!3m4!1s0x80daf8256159a64d:0x205c302d98bdf7c5!8m2!3d33.707741!4d-116.240829?hl=en",round_table_pizza,
Round Table Pizza,888 Alamo Dr,VACAVILLE,CA,95688-5313,7074468111.0,"https://www.google.com/maps/place/Round+Table+Pizza/@38.3471765,-121.9985556,17z/data=!3m1!4b1!4m5!3m4!1s0x808517e3560240e1:0x92b43212a3e4cb38!8m2!3d38.3471765!4d-121.9985556",round_table_pizza,
Round Table Pizza,1776 N Broadway,WALNUT CREEK,CA,94595,9259457878.0,"https://www.google.com/maps/place/Round+Table+Pizza/@37.9038,-122.060975,17z/data=!3m1!4b1!4m5!3m4!1s0x80856195882ab389:0x45953ffe42678a75!8m2!3d37.9038!4d-122.060975",round_table_pizza,
Round Table Pizza,821 11th St,LAKEPORT,CA,95453-4101,7072638110.0,"https://www.google.com/maps/place/Round+Table+Pizza/@39.048868,-122.922737,17z/data=!3m1!4b1!4m5!3m4!1s0x8083e6756ac27de5:0x2519ed464ff3db22!8m2!3d39.048868!4d-122.922737",round_table_pizza,
Round Table Pizza,1930 Howard Rd,MADERA,CA,93638,5596737043.0,"https://www.google.com/maps/place/Round+Table+Pizza/@36.952537,-120.082143,17z/data=!3m1!4b1!4m5!3m4!1s0x80940b9c3b47da49:0x150535adc2a56fa5!8m2!3d36.952537!4d-120.082143",round_table_pizza,
Round Table Pizza,1938 Oak Park Blvd,PLEASANT HILL,CA,94595,9259309004.0,"https://www.google.com/maps/place/Round+Table+Pizza/@37.934082,-122.075598,17z/data=!3m1!4b1!4m5!3m4!1s0x80856167656b4f71:0x92c50ea30f0ebe4b!8m2!3d37.934082!4d-122.075598",round_table_pizza,
Round Table Pizza,716 Contra Costa Blvd,PLEASANT HILL,CA,94519,9257983355.0,"https://www.google.com/maps/place/Round+Table+Pizza/@37.970987,-122.063938,17z/data=!3m1!4b1!4m5!3m4!1s0x808566bc3353e353:0x4922d7e8c09d90a!8m2!3d37.970987!4d-122.063938",round_table_pizza,
Round Table Pizza,878 Southampton Rd,BENICIA,CA,94510-1907,7077467000.0,"https://www.google.com/maps/place/Round+Table+Pizza/@38.065994,-122.167466,17z/data=!3m1!4b1!4m5!3m4!1s0x80856e1b71a891c3:0x19952627fedf0121!8m2!3d38.065994!4d-122.167466",round_table_pizza,
Round Table Pizza,19750 Beach Blvd,HUNTINGTON BEACH,CA,92648-2988,7149639877.0,"https://www.google.com/maps/place/Round+Table+Pizza/@33.675285,-117.987242,17z/data=!3m1!4b1!4m5!3m4!1s0x80dd21339b10e253:0x2b3b342f28b04b0d!8m2!3d33.675285!4d-117.987242",round_table_pizza,
Round Table Pizza,2005 Kalia Rd,HONOLULU,HI,96814,8089550137.0,"https://www.google.com/maps/place/Round+Table+Pizza/@21.283029,-157.837489,17z/data=!3m1!4b1!4m5!3m4!1s0x7c006df50e752837:0xb9d46c2425d42689!8m2!3d21.283029!4d-157.837489",round_table_pizza,
Round Table Pizza,900 Dana Dr,REDDING,CA,96001,5302231975.0,"https://www.google.com/maps/place/Round+Table+Pizza/@40.5876608,-122.3561591,17z/data=!3m1!4b1!4m5!3m4!1s0x54d2932d6cbb5139:0x19e3b1a0ed58576d!8m2!3d40.5876608!4d-122.3561591",round_table_pizza,
Round Table Pizza,2027 Forest Ave,CHICO,CA,95926,5303427265.0,"https://www.google.com/maps/place/Round+Table+Pizza/@39.72519,-121.801265,17z/data=!3m1!4b1!4m5!3m4!1s0x80832885bcbbe167:0xd0dbfbdc49b1e1de!8m2!3d39.72519!4d-121.801265",round_table_pizza,
Round Table Pizza,2040 NW Stewart Pkwy,ROSEBURG,OR,97470,5416732047.0,"https://www.google.com/maps/place/Round+Table+Pizza/@43.23262,-123.372842,17z/data=!3m1!4b1!4m5!3m4!1s0x54c422b09b558e91:0xd6ac786c0ac80053!8m2!3d43.23262!4d-123.372842",round_table_pizza,
Round Table Pizza,2651 Blanding Ave,ALAMEDA,CA,94502,5107488600.0,"https://www.google.com/maps/place/Round+Table+Pizza/@37.768735,-122.232071,17z/data=!3m1!4b1!4m5!3m4!1s0x808f869215c0860f:0xb37cdec3ec30b68c!8m2!3d37.768735!4d-122.232071",round_table_pizza,
Round Table Pizza,20920 Redwood Rd,CASTRO VALLEY,CA,94546-5918,5107339500.0,"https://www.google.com/maps/place/Round+Table+Pizza/@37.694128,-122.0736053,17z/data=!3m1!4b1!4m5!3m4!1s0x808f922e2d523673:0xb53e2e0f3e7a3c77!8m2!3d37.694128!4d-122.0736053",round_table_pizza,
Round Table Pizza,961 Topsy Ln,CARSON CITY,NV,89701,7752679577.0,"https://www.google.com/maps/place/Round+Table+Pizza/@39.108932,-119.77599,17z/data=!3m1!4b1!4m5!3m4!1s0x8099a1c53d79d911:0x340d8b479c4d213!8m2!3d39.108932!4d-119.77599",round_table_pizza,
Round Table Pizza,196 E Grant Ave,WINTERS,CA,95694-1780,5307951500.0,"https://www.google.com/maps/place/Round+Table+Pizza/@38.52671,-121.964858,17z/data=!3m1!4b1!4m5!3m4!1s0x8084df8de809de19:0xc94d2423dfa7347e!8m2!3d38.52671!4d-121.964858",round_table_pizza,
Round Table Pizza,962 San Pablo Ave,ALBANY,CA,94710,5105243272.0,"https://www.google.com/maps/place/Round+Table+Pizza/@37.88832,-122.298586,17z/data=!3m1!4b1!4m5!3m4!1s0x808579326684cad5:0x859ed7ce518fe3c8!8m2!3d37.88832!4d-122.298586",round_table_pizza,
Round Table Pizza,2023 Central Ave,MCKINLEYVILLE,CA,95521,7078394342.0,"https://www.google.com/maps/place/Round+Table+Pizza/@40.942596,-124.1027027,17z/data=!4m5!3m4!1s0x54d15af278d7759f:0xf88e0dafa4a01c57!8m2!3d40.942592!4d-124.100514?hl=en",round_table_pizza,
Round Table Pizza,2065 Occidental Rd,SANTA ROSA,CA,95405,7075266565.0,"https://www.google.com/maps/place/Round+Table+Pizza/@38.431058,-122.744314,17z/data=!3m1!4b1!4m5!3m4!1s0x80843820ef763011:0xe6b63706513db83e!8m2!3d38.431058!4d-122.744314",round_table_pizza,
Round Table Pizza,207 Piikea Ave,KIHEI,HI,96753-5243,8088748485.0,"https://www.google.com/maps/place/Round+Table+Pizza/@20.751155,-156.449385,17z/data=!3m1!4b1!4m5!3m4!1s0x7954d03fa04ad09f:0x382c63e34ada6601!8m2!3d20.751155!4d-156.449385",round_table_pizza,
Round Table Pizza,2135 H Dela Rosa Sr St,SOLEDAD,CA,93960-3381,8316788700.0,"https://www.google.com/maps/place/Round+Table+Pizza/@36.417031,-121.32019,17z/data=!3m1!4b1!4m5!3m4!1s0x80926892730f4cf9:0x63f7442064aaca12!8m2!3d36.417031!4d-121.32019",round_table_pizza,
Round Table Pizza,2201 Pillsbury Rd,CHICO,CA,95926-1373,5308911200.0,"https://www.google.com/maps/place/Round+Table+Clubhouse/@39.7576828,-121.8503892,17z/data=!4m5!3m4!1s0x8082d8790156d331:0x8363eb3ac5ab46a2!8m2!3d39.7576787!4d-121.8482005?hl=en",round_table_pizza,
Round Table Pizza,2105 Town Center Plz,WEST SACRAMENTO,CA,95818,9163748595.0,"https://www.google.com/maps/place/Round+Table+Pizza/@38.550174,-121.538702,17z/data=!3m1!4b1!4m5!3m4!1s0x809ad161b7b01efb:0xc7785af0faf7a575!8m2!3d38.550174!4d-121.538702",round_table_pizza,
Round Table Pizza,2120 Daniels St,MANTECA,CA,95337-6704,2098247500.0,"https://www.google.com/maps/place/Round+Table+Pizza/@37.7860319,-121.2526327,17z/data=!3m1!4b1!4m5!3m4!1s0x8090407a69aaa1b7:0xf604ac4120cbcb40!8m2!3d37.7860319!4d-121.2526327",round_table_pizza,
Round Table Pizza,22457 Foothill Blvd,HAYWARD,CA,94546,5105817777.0,"https://www.google.com/maps/place/Round+Table+Pizza/@37.675871,-122.082634,17z/data=!3m1!4b1!4m5!3m4!1s0x808f93d7c0d57a7b:0xf804e7c3577e3dc2!8m2!3d37.675871!4d-122.082634",round_table_pizza,
Round Table Pizza,2234 Sunrise Blvd,GOLD RIVER,CA,95842,9166359564.0,"https://www.google.com/maps/place/Round+Table+Pizza/@38.620915,-121.268609,17z/data=!3m1!4b1!4m5!3m4!1s0x809add869049689b:0x5f9f429eab5bca6a!8m2!3d38.620915!4d-121.268609",round_table_pizza,
Round Table Pizza,227 Lewers St,HONOLULU,HI,96826,8089232100.0,"https://www.google.com/maps/place/Giovanni+Pastrami/@21.3289552,-157.8535402,12z/data=!4m8!1m2!2m1!1sRound+Table+Pizza+227+Lewers+St+HONOLULU+HI+96826!3m4!1s0x7c0072756d90f8f1:0xadd46e3cdf82e548!8m2!3d21.2791229!4d-157.8308867?hl=en",round_table_pizza,
Round Table Pizza,2345 Sunset Blvd,ROCKLIN,CA,95765-4337,9163159383.0,"https://www.google.com/maps/place/Round+Table+Pizza/@38.7971611,-121.2653656,17z/data=!3m1!4b1!4m5!3m4!1s0x809b21fdb4cbd0fd:0x14ad58ff5cc4151c!8m2!3d38.7971611!4d-121.2653656",round_table_pizza,
Round Table Pizza,2408 W Victory Blvd,BURBANK,CA,91501,8188457613.0,"https://www.google.com/maps/place/Round+Table+Pizza/@34.184309,-118.337483,17z/data=!3m1!4b1!4m5!3m4!1s0x80c29573b2b6b4fb:0xf99794ced324b87c!8m2!3d34.184309!4d-118.337483",round_table_pizza,
Round Table Pizza,245 Mount Hermon Rd,SCOTTS VALLEY,CA,95065,8314385446.0,"https://www.google.com/maps/place/Round+Table+Pizza/@37.045615,-122.029008,17z/data=!3m1!4b1!4m5!3m4!1s0x808e472cca7daa87:0xfaf9a02c9864e9e7!8m2!3d37.045615!4d-122.029008",round_table_pizza,
Round Table Pizza,2511 Naglee Rd,TRACY,CA,95377,2098320058.0,"https://www.google.com/maps/place/Round+Table+Pizza/@37.756264,-121.465567,17z/data=!3m1!4b1!4m5!3m4!1s0x8090180baade9135:0xb3b3dd8c6835e592!8m2!3d37.756264!4d-121.465567",round_table_pizza,
Round Table Pizza,2441 Claribel Rd,RIVERBANK,CA,95367-9475,2098639978.0,"https://www.google.com/maps/place/Round+Table+Pizza/@37.7118809,-120.9520445,17z/data=!3m1!4b1!4m5!3m4!1s0x809056fd5f5bc7a1:0x1e5d25b2b849964d!8m2!3d37.7118809!4d-120.9520445",round_table_pizza,
Round Table Pizza,1435 George Washington Way,RICHLAND,WA,99353,5099460667.0,"https://www.google.com/maps/place/Round+Table+Pizza/@46.291872,-119.27463,17z/data=!3m1!4b1!4m5!3m4!1s0x54987ad3c3a3f9e1:0xc4ff207dd972792e!8m2!3d46.291872!4d-119.27463",round_table_pizza,
Round Table Pizza,2065 NW 185th Ave,HILLSBORO,OR,97008,5036907712.0,"https://www.google.com/maps/place/Round+Table+Pizza/@45.535201,-122.868113,17z/data=!3m1!4b1!4m5!3m4!1s0x54950f4272c7bf73:0xb905b084f0a1d136!8m2!3d45.535201!4d-122.868113",round_table_pizza,
Round Table Pizza,25290 Marguerite Pkwy,MISSION VIEJO,CA,92610,9499513403.0,"https://www.google.com/maps/place/Round+Table+Pizza/@33.594232,-117.657741,17z/data=!3m1!4b1!4m5!3m4!1s0x80dceeb2d357f865:0xb9eef3d673570c5d!8m2!3d33.594232!4d-117.657741",round_table_pizza,
Round Table Pizza,253 Spreckels Ave,MANTECA,CA,95337,2092398100.0,"https://www.google.com/maps/place/Round+Table+Pizza/@37.795464,-121.198408,17z/data=!3m1!4b1!4m5!3m4!1s0x809041a09983404f:0xef3da849b1f1babe!8m2!3d37.795464!4d-121.198408",round_table_pizza,
Round Table Pizza,2650 Jamacha Rd,EL CAJON,CA,91942,6196701808.0,"https://www.google.com/maps/place/Round+Table+Pizza/@32.7451319,-116.9326624,17z/data=!3m1!4b1!4m5!3m4!1s0x80d95bb5d83c636b:0xfc1b0a9a7a91eaad!8m2!3d32.7451319!4d-116.9326624",round_table_pizza,
Round Table Pizza,2655 Main St,SUSANVILLE,CA,96130-4711,5302575353.0,"https://www.google.com/maps/place/Round+Table+Pizza/@40.4121854,-120.638108,17z/data=!3m1!4b1!4m5!3m4!1s0x809dbdf58a21514d:0x723a27ca970611e!8m2!3d40.4121854!4d-120.638108",round_table_pizza,
Round Table Pizza,2615 the Alameda,SANTA CLARA,CA,95126,4082489123.0,"https://www.google.com/maps/place/Round+Table+Pizza/@37.345291,-121.936915,17z/data=!3m1!4b1!4m5!3m4!1s0x808fcba813e9939f:0xc6361c90cb42e821!8m2!3d37.345291!4d-121.936915",round_table_pizza,
Round Table Pizza,2660 San Bruno Ave,SAN FRANCISCO,CA,94134-1500,4154687100.0,"https://www.google.com/maps/place/Round+Table+Pizza/@37.727987,-122.403938,17z/data=!3m1!4b1!4m5!3m4!1s0x808f7ee2e07eb18f:0x7378f47bbe2f543a!8m2!3d37.727987!4d-122.403938",round_table_pizza,
Round Table Pizza,2793 E Bidwell St,FOLSOM,CA,95762,9169839220.0,"https://www.google.com/maps/place/Round+Table+Pizza/@38.652931,-121.123562,17z/data=!3m1!4b1!4m5!3m4!1s0x809ae5011e88f827:0xb22499389c3d8c81!8m2!3d38.652931!4d-121.123562",round_table_pizza,
Round Table Pizza,2690 41st Ave,SOQUEL,CA,95065,8314758811.0,"https://www.google.com/maps/place/Round+Table+Pizza/@36.985486,-121.96463,17z/data=!3m1!4b1!4m5!3m4!1s0x808e15617baa1e99:0xdbed6abf52ee7e11!8m2!3d36.985486!4d-121.96463",round_table_pizza,
Round Table Pizza,2715 W Kettleman Ln,LODI,CA,95242-9289,2093688600.0,"https://www.google.com/maps/place/Round+Table+Pizza/@38.11592,-121.3093,17z/data=!3m1!4b1!4m5!3m4!1s0x809aa07d10da7a19:0xec8509269efd7877!8m2!3d38.11592!4d-121.3093",round_table_pizza,
Round Table Pizza,3005 Freeport Blvd,SACRAMENTO,CA,95816,9164432001.0,"https://www.google.com/maps/place/Round+Table+Pizza/@38.550205,-121.488628,17z/data=!3m1!4b1!4m5!3m4!1s0x809ad0ff0a690eb9:0x81371211a5d1ce75!8m2!3d38.550205!4d-121.488628",round_table_pizza,
Round Table Pizza,2190 Main St,OAKLEY,CA,94513,9256251700.0,"https://www.google.com/maps/place/Round+Table+Pizza/@38.002417,-121.731814,17z/data=!3m1!4b1!4m5!3m4!1s0x808555e2139ded07:0xb3e2a67ce6d7081e!8m2!3d38.002417!4d-121.731814",round_table_pizza,
Round Table Pizza,288 Sunset Ave,SUISUN CITY,CA,94585-1772,7074210155.0,"https://www.google.com/maps/place/Round+Table+Pizza/@38.244647,-122.021356,17z/data=!3m1!4b1!4m5!3m4!1s0x808515a361c15e67:0xbac714e40d86c259!8m2!3d38.244647!4d-122.021356",round_table_pizza,
Round Table Pizza,2915 K St,SACRAMENTO,CA,95816-5100,9164412662.0,"https://www.google.com/maps/place/Round+Table+Pizza/@38.5724066,-121.4678717,17z/data=!3m1!4b1!4m5!3m4!1s0x809ad0953affc195:0x1691bb8c3565f390!8m2!3d38.5724066!4d-121.4678717",round_table_pizza,
Round Table Pizza,3045 Alamo Dr,VACAVILLE,CA,95688,7074461900.0,"https://www.google.com/maps/place/Round+Table+Pizza/@38.3364782,-121.9572897,17z/data=!3m1!5s0x80853d0696ea3a39:0x89d65e13230a8994!4m5!3m4!1s0x80853d06ef6b0b6f:0x2879ee221c0c0b7a!8m2!3d38.336474!4d-121.955101?hl=en",round_table_pizza,
Round Table Pizza,3250 Governor Dr,SAN DIEGO,CA,92037,8584572334.0,"https://www.google.com/maps/place/Round+Table+Pizza/@32.852326,-117.215336,17z/data=!3m1!4b1!4m5!3m4!1s0x80dc00de8e439425:0xc5a831ef8ec36b4e!8m2!3d32.852326!4d-117.215336",round_table_pizza,
Round Table Pizza,3212 S White Rd,SAN JOSE,CA,95148-4050,4082749574.0,"https://www.google.com/maps/place/Round+Table+Pizza/@37.315382,-121.791627,17z/data=!3m1!4b1!4m5!3m4!1s0x808e2d73e8dc4c85:0xef37831f9bbeda3c!8m2!3d37.315382!4d-121.791627",round_table_pizza,
Round Table Pizza,32525 Golden Lantern St,DANA POINT,CA,92624,9494969800.0,"https://www.google.com/maps/place/Round+Table+Pizza/@33.490864,-117.698441,17z/data=!3m1!4b1!4m5!3m4!1s0x80dcf031bb72e479:0x1b4854ac8ddb6676!8m2!3d33.490864!4d-117.698441",round_table_pizza,
Round Table Pizza,3276 NW Plaza Rd,SILVERDALE,WA,98315,3606984040.0,"https://www.google.com/maps/place/Round+Table+Pizza/@47.656651,-122.6950059,17z/data=!3m1!4b1!4m5!3m4!1s0x54903abf1ee8b825:0xfbe14fb553d58428!8m2!3d47.656651!4d-122.6950059",round_table_pizza,
Round Table Pizza,3336 N Texas St,FAIRFIELD,CA,94585,7074266202.0,"https://www.google.com/maps/place/Round+Table+Pizza/@38.2898342,-122.0345237,17z/data=!3m1!5s0x80851660aecbbb7f:0xb7a0bbbab44afe40!4m5!3m4!1s0x80851667510cc9bb:0x60814804f5c3f41!8m2!3d38.28983!4d-122.032335?hl=en",round_table_pizza,
Round Table Pizza,3370 Coach Ln,CAMERON PARK,CA,95682-8454,5306770666.0,"https://www.google.com/maps/place/Round+Table+Clubhouse/@38.6576491,-120.970084,17z/data=!3m1!4b1!4m5!3m4!1s0x809af75c0ba48fab:0x808b38ebd5e55a9c!8m2!3d38.6576491!4d-120.970084",round_table_pizza,
Round Table Pizza,34410 16th Ave S,FEDERAL WAY,WA,98148,2539414000.0,"https://www.google.com/maps/place/Round+Table+Pizza/@47.293185,-122.312297,17z/data=!3m1!4b1!4m5!3m4!1s0x549057b8ae6a57e7:0xdf3e85b7b1e8256e!8m2!3d47.293185!4d-122.312297",round_table_pizza,
Round Table Pizza,361 Rheem Blvd,MORAGA,CA,94556-1502,9253761411.0,"https://www.google.com/maps/place/Round+Table+Pizza/@37.86136,-122.126105,17z/data=!3m1!4b1!4m5!3m4!1s0x808f89d5834f825d:0xf1448749162b62cc!8m2!3d37.86136!4d-122.126105",round_table_pizza,
Round Table Pizza,3633 Eureka Way,REDDING,CA,96002,5302441926.0,"https://www.google.com/maps/place/Round+Table+Pizza/@40.583651,-122.425175,17z/data=!3m1!4b1!4m5!3m4!1s0x54d2eda5efc4e007:0x300b83166fe16d42!8m2!3d40.583651!4d-122.425175",round_table_pizza,
Round Table Pizza,3637 Mt Diablo Blvd,LAFAYETTE,CA,94596,9252830404.0,"https://www.google.com/maps/place/Round+Table+Pizza/@37.89069,-122.125843,17z/data=!3m1!4b1!4m5!3m4!1s0x808562577a2d25a9:0xe2437c1d838f9b49!8m2!3d37.89069!4d-122.125843",round_table_pizza,
Round Table Pizza,3262 E Tulare St,FRESNO,CA,93701,5594857878.0,"https://www.google.com/maps/place/Round+Table+Pizza/@36.742441,-119.769812,17z/data=!3m1!4b1!4m5!3m4!1s0x80945e15c7910f7b:0x423040854e381c68!8m2!3d36.742441!4d-119.769812",round_table_pizza,
Round Table Pizza,3331 Solano Ave,NAPA,CA,94558-3203,7072527505.0,"https://www.google.com/maps/place/Round+Table+Pizza/@38.319334,-122.309846,17z/data=!3m1!4b1!4m5!3m4!1s0x808506df8a520579:0xaad2354540d49a73!8m2!3d38.319334!4d-122.309846",round_table_pizza,
Round Table Pizza,3848 McHenry Ave,MODESTO,CA,95351,2095269904.0,"https://www.google.com/maps/place/Round+Table+Clubhouse/@37.695121,-120.993151,17z/data=!3m1!4b1!4m5!3m4!1s0x8090512c17d2de33:0xff8af92f55cf6e5f!8m2!3d37.695121!4d-120.993151",round_table_pizza,
Round Table Pizza,399 1st St,LOS ALTOS,CA,94024,6509410237.0,"https://www.google.com/maps/place/Round+Table+Pizza/@37.375451,-122.11564,17z/data=!3m1!4b1!4m5!3m4!1s0x808fb0e5127473ed:0x840e5cd5cd5dc938!8m2!3d37.375451!4d-122.11564",round_table_pizza,
Round Table Pizza,4002 A St SE,AUBURN,WA,98001,2537354000.0,"https://www.google.com/maps/place/Round+Table+Pizza/@47.272964,-122.228428,17z/data=!3m1!4b1!4m5!3m4!1s0x5490f78c88922587:0xfc6d51c9eb2f9525!8m2!3d47.272964!4d-122.228428",round_table_pizza,
Round Table Pizza,4005 Manzanita Ave,CARMICHAEL,CA,95864,9164854209.0,"https://www.google.com/maps/place/Round+Table+Pizza/@38.638567,-121.329974,17z/data=!3m1!4b1!4m5!3m4!1s0x809ade9f3f4e80d3:0xeb05145cc5bf31c1!8m2!3d38.638567!4d-121.329974",round_table_pizza,
Round Table Pizza,4010 Foothills Blvd,ROSEVILLE,CA,95661,9167846363.0,"https://www.google.com/maps/place/Round+Table+Pizza/@38.754122,-121.310929,17z/data=!3m1!4b1!4m5!3m4!1s0x809b210030abfae3:0x98bc60a8b6833fb3!8m2!3d38.754122!4d-121.310929",round_table_pizza,
Round Table Pizza,375 Alvarado St,MONTEREY,CA,93943,8313731351.0,"https://www.google.com/maps/place/Round+Table+Pizza/@36.600348,-121.894101,17z/data=!3m1!4b1!4m5!3m4!1s0x808de423b1abe08d:0x45c9d8bde2758dc3!8m2!3d36.600348!4d-121.894101",round_table_pizza,
Round Table Pizza,40034 Highway 49,OAKHURST,CA,93644-8809,5596837472.0,"https://www.google.com/maps/place/Round+Table+Pizza/@37.330656,-119.657771,17z/data=!3m1!4b1!4m5!3m4!1s0x809427709ce34be5:0xa6b17f94b3d9f2e0!8m2!3d37.330656!4d-119.657771",round_table_pizza,
Round Table Pizza,4007 E Ocean Blvd,LONG BEACH,CA,90804,5624397799.0,"https://www.google.com/maps/place/Round+Table+Pizza/@33.759748,-118.145407,17z/data=!3m1!4b1!4m5!3m4!1s0x80dd304dc6884f35:0x33562816bc014daf!8m2!3d33.759748!4d-118.145407",round_table_pizza,
Round Table Pizza,408 Auto Center Dr,CLAREMONT,CA,91711-5458,9096253856.0,"https://www.google.com/maps/place/Round+Table+Pizza/@34.079838,-117.72012,17z/data=!3m1!4b1!4m5!3m4!1s0x80c331f3df64f00b:0xb1f9936cd476ae50!8m2!3d34.079838!4d-117.72012",round_table_pizza,
Round Table Pizza,408 Bailey Rd,PITTSBURG,CA,94565-4302,9254582244.0,"https://www.google.com/maps/place/Round+Table+Pizza/@38.017592,-121.942441,17z/data=!3m1!4b1!4m5!3m4!1s0x80855c4bf81b570d:0xa1d4b3957762f891!8m2!3d38.017592!4d-121.942441",round_table_pizza,
Round Table Pizza,4400 Stevens Creek Blvd,SAN JOSE,CA,95126,4089830900.0,"https://www.google.com/maps/place/Round+Table+Pizza/@37.322854,-121.979913,17z/data=!3m1!4b1!4m5!3m4!1s0x808fca8fc1e17025:0xfbc306a066177f74!8m2!3d37.322854!4d-121.979913",round_table_pizza,
Round Table Pizza,4504 Deer Valley Rd,ANTIOCH,CA,94509,9257767777.0,"https://www.google.com/maps/place/Round+Table+Pizza/@37.965053,-121.781364,17z/data=!3m1!4b1!4m5!3m4!1s0x808557d8a61774e5:0x71458eef3e7042de!8m2!3d37.965053!4d-121.781364",round_table_pizza,
Round Table Pizza,4510 Post St,EL DORADO HILLS,CA,95630,9169411577.0,"https://www.google.com/maps/place/Round+Table+Pizza/@38.652305,-121.067672,17z/data=!3m1!4b1!4m5!3m4!1s0x809afab77e1d40a1:0x92e656963422f36d!8m2!3d38.652305!4d-121.067672",round_table_pizza,
Round Table Pizza,4510 S Regal St,SPOKANE,WA,99203,5094482054.0,"https://www.google.com/maps/place/Round+Table+Pizza/@47.612257,-117.369315,17z/data=!3m1!4b1!4m5!3m4!1s0x549e22557a31c4e3:0x19f835642ced293c!8m2!3d47.612257!4d-117.369315",round_table_pizza,
Round Table Pizza,421 Pioneer Ave,WOODLAND,CA,95695,5306663701.0,"https://www.google.com/maps/place/Round+Table+Pizza/@38.676111,-121.745742,17z/data=!3m1!4b1!4m5!3m4!1s0x8084d13edd597d17:0x89bb112bc014cc3c!8m2!3d38.676111!4d-121.745742",round_table_pizza,
Round Table Pizza,4751 Galleria Pkwy,SPARKS,NV,89502,7756261350.0,"https://www.google.com/maps/place/Round+Table+Pizza/@39.5777333,-119.7404795,17z/data=!3m1!4b1!4m5!3m4!1s0x80993902f805945b:0xdf5c45bfbf646975!8m2!3d39.5777333!4d-119.7404795",round_table_pizza,
Round Table Pizza,4949 Marconi Ave,CARMICHAEL,CA,95864,9164853578.0,"https://www.google.com/maps/place/Round+Table+Pizza/@38.617908,-121.348106,17z/data=!3m1!4b1!4m5!3m4!1s0x809adc0895401d19:0x1de3a903acde878c!8m2!3d38.617908!4d-121.348106",round_table_pizza,
Round Table Pizza,496 Tres Pinos Rd,HOLLISTER,CA,95023-5566,8316377444.0,"https://www.google.com/maps/place/Round+Table+Pizza/@36.839897,-121.393441,17z/data=!3m1!4b1!4m5!3m4!1s0x80921d84a4a9e1ef:0x90e74f12d7d01e18!8m2!3d36.839897!4d-121.393441",round_table_pizza,
Round Table Pizza,50 Cabrillo Hwy N,HALF MOON BAY,CA,94019-6105,6507265208.0,"https://www.google.com/maps/place/Round+Table+Pizza/@37.469265,-122.434217,17z/data=!3m1!4b1!4m5!3m4!1s0x808f74b03627a003:0x91961d77a1048b8e!8m2!3d37.469265!4d-122.434217",round_table_pizza,
Round Table Pizza,44204 10th St W,LANCASTER,CA,93535,6619456677.0,"https://www.google.com/maps/place/Round+Table+Pizza/@34.686109,-118.147735,17z/data=!3m1!4b1!4m5!3m4!1s0x80c25ac2c91f5985:0x92619d6c5e78ede6!8m2!3d34.686109!4d-118.147735",round_table_pizza,
Round Table Pizza,5016 NE Thurston Way,VANCOUVER,WA,98664,3608920450.0,"https://www.google.com/maps/place/Round+Table+Clubhouse/@45.658799,-122.589079,17z/data=!3m1!4b1!4m5!3m4!1s0x5495af952bebb437:0xa600f8e2f1e49c22!8m2!3d45.658799!4d-122.589079",round_table_pizza,
Round Table Pizza,504 Center Ave,MARTINEZ,CA,94553-4600,9253700626.0,"https://www.google.com/maps/place/Round+Table+Pizza/@37.993075,-122.120998,17z/data=!3m1!4b1!4m5!3m4!1s0x808565a3147cdd9f:0x21495f641051c75e!8m2!3d37.993075!4d-122.120998",round_table_pizza,
Round Table Pizza,5040 N West Ave,FRESNO,CA,93711-2901,5594387676.0,"https://www.google.com/maps/place/Round+Table+Pizza/@36.808883,-119.826118,17z/data=!3m1!4b1!4m5!3m4!1s0x809467c8d6de4db9:0xc997fec994e93ab1!8m2!3d36.808883!4d-119.826118",round_table_pizza,
Round Table Pizza,5055 Main St,AMERICAN CANYON,CA,94592,7075542255.0,"https://www.google.com/maps/place/Round+Table+Pizza/@38.18046,-122.25385,17z/data=!3m1!4b1!4m5!3m4!1s0x80850c6df15bb9e1:0xe7544f31b9843f96!8m2!3d38.18046!4d-122.25385",round_table_pizza,
Round Table Pizza,5434 Ygnacio Valley Rd,CONCORD,CA,94519,9256733535.0,"https://www.google.com/maps/place/Round+Table+Pizza/@37.950476,-121.958477,17z/data=!3m1!4b1!4m5!3m4!1s0x80855e482f36ccb1:0xf8fcc8e15396735f!8m2!3d37.950476!4d-121.958477",round_table_pizza,
Round Table Pizza,5101 Folsom Blvd,SACRAMENTO,CA,95819-4534,9164575705.0,"https://www.google.com/maps/place/Round+Table+Pizza/@38.560877,-121.443431,17z/data=!3m1!4b1!4m5!3m4!1s0x809ada805c53428d:0x53503ed7a3148107!8m2!3d38.560877!4d-121.443431",round_table_pizza,
Round Table Pizza,5110 Laguna Blvd,ELK GROVE,CA,95624,9166846200.0,"https://www.google.com/maps/place/Round+Table+Pizza/@38.422187,-121.44496,17z/data=!3m1!4b1!4m5!3m4!1s0x809ac793f4eb4b27:0x35c489bc81fca44a!8m2!3d38.422187!4d-121.44496",round_table_pizza,
Round Table Pizza,450 Market Pl,SAN RAMON,CA,94526,9258671606.0,"https://www.google.com/maps/place/Round+Table+Pizza/@37.764016,-121.951189,17z/data=!3m1!4b1!4m5!3m4!1s0x808ff281a378afd3:0xa5a1fddfbbceb7bd!8m2!3d37.764016!4d-121.951189",round_table_pizza,
Round Table Pizza,5385 Camden Ave,SAN JOSE,CA,95124-5823,4082679600.0,"https://www.google.com/maps/place/Round+Table+Pizza/@37.240949,-121.905794,17z/data=!3m1!4b1!4m5!3m4!1s0x808e340101c28705:0x85505917591a5c5!8m2!3d37.240949!4d-121.905794",round_table_pizza,
Round Table Pizza,87 S Highway 26,VALLEY SPRINGS,CA,95249,2097721051.0,"https://www.google.com/maps/place/Round+Table+Pizza/@38.191104,-120.827343,17z/data=!3m1!4b1!4m5!3m4!1s0x8090811557a2c85f:0x42ada4be647f4199!8m2!3d38.191104!4d-120.827343",round_table_pizza,
Round Table Pizza,5000 Valley West Blvd,ARCATA,CA,95521-4646,7078225158.0,"https://www.google.com/maps/place/Round+Table+Pizza/@40.902541,-124.082442,17z/data=!3m1!4b1!4m5!3m4!1s0x54d15a00f6e94c29:0x5c42e6c2c36bdf9e!8m2!3d40.902541!4d-124.082442",round_table_pizza,
Round Table Pizza,512 Main St,PLACERVILLE,CA,95667-5610,5306222259.0,"https://www.google.com/maps/place/Round+Table+Pizza/@38.7295363,-120.7990276,17z/data=!3m1!4b1!4m5!3m4!1s0x809a50b43ca01407:0x277b1364205a5149!8m2!3d38.7295363!4d-120.7990276",round_table_pizza,
Round Table Pizza,5250 Faculty Ave,LAKEWOOD,CA,90220,5624081914.0,"https://www.google.com/maps/place/Round+Table+Pizza/@33.852924,-118.136245,17z/data=!3m1!4b1!4m5!3m4!1s0x80dd32f4a0e449ad:0x4602784980d156e6!8m2!3d33.852924!4d-118.136245",round_table_pizza,
Round Table Pizza,5440 Thornwood Dr,SAN JOSE,CA,95138,4085785200.0,"https://www.google.com/maps/place/Round+Table+Pizza/@37.253623,-121.860799,17z/data=!3m1!4b1!4m5!3m4!1s0x808e33d5ced21377:0x5c0af37530be36f5!8m2!3d37.253623!4d-121.860799",round_table_pizza,
Round Table Pizza,550 Montecito Ctr,SANTA ROSA,CA,95405,7075381777.0,"https://www.google.com/maps/place/Round+Table+Pizza/@38.474668,-122.673913,17z/data=!3m1!4b1!4m5!3m4!1s0x808447b4a06f0135:0xd6f4fed7309db597!8m2!3d38.474668!4d-122.673913",round_table_pizza,
Round Table Pizza,5544 Thornton Ave,NEWARK,CA,94555,5107964040.0,"https://www.google.com/maps/place/Round+Table+Pizza/@37.541311,-122.02593,17z/data=!3m1!4b1!4m5!3m4!1s0x808fbf0f6e16522b:0xe0c7a5be3a7b90cb!8m2!3d37.541311!4d-122.02593",round_table_pizza,
Round Table Pizza,6217 Santa Teresa Blvd,SAN JOSE,CA,95138,4082260756.0,"https://www.google.com/maps/place/Round+Table+Pizza/@37.235998,-121.802548,17z/data=!3m1!4b1!4m5!3m4!1s0x808e2e2ef475624d:0x366786ce99947c91!8m2!3d37.235998!4d-121.802548",round_table_pizza,
Round Table Pizza,57 N Santa Cruz Ave,LOS GATOS,CA,95032,4083547520.0,"https://www.google.com/maps/place/Round+Table+Pizza/@37.224157,-121.983336,17z/data=!3m1!4b1!4m5!3m4!1s0x808e35fa9b3a74ab:0xbc5b41717256ca7c!8m2!3d37.224157!4d-121.983336",round_table_pizza,
Round Table Pizza,5999 Severin Dr,LA MESA,CA,91942-3806,6195891510.0,"https://www.google.com/maps/place/Round+Table+Pizza/@32.786085,-116.998313,17z/data=!3m1!4b1!4m5!3m4!1s0x80d95770e7c04aa3:0xb0d02b06a3b91eb5!8m2!3d32.786085!4d-116.998313",round_table_pizza,
Round Table Pizza,6548 Westside Rd,REDDING,CA,96002,5302419461.0,"https://www.google.com/maps/place/Round+Table+Pizza/@40.52041,-122.382725,17z/data=!3m1!4b1!4m5!3m4!1s0x54d2ebce2cc0bc29:0x147ba5082946d03c!8m2!3d40.52041!4d-122.382725",round_table_pizza,
Round Table Pizza,6000 J St,SACRAMENTO,CA,95819-2605,9162782800.0,"https://www.google.com/maps/place/Round+Table+Pizza/@38.5709415,-121.5727394,11z/data=!4m8!1m2!2m1!1sRound+Table+Pizza+6000+J+St+SACRAMENTO+CA+95819-2605!3m4!1s0x809ada8a580b4a85:0xed1f6ab1035599d5!8m2!3d38.559407!4d-121.422654?hl=en",round_table_pizza,
Round Table Pizza,61 43rd Ave,SAN MATEO,CA,94402,6505770303.0,"https://www.google.com/maps/place/Round+Table+Pizza/@37.528775,-122.289544,17z/data=!3m1!4b1!4m5!3m4!1s0x808f9f15bf0903cf:0x8e4ec22b80b7490d!8m2!3d37.528775!4d-122.289544",round_table_pizza,
Round Table Pizza,6250 SE Foster Rd,PORTLAND,OR,97215,5037771461.0,"https://www.google.com/maps/place/Round+Table+Pizza/@45.49016,-122.598419,17z/data=!3m1!4b1!4m5!3m4!1s0x5495a06b47df873b:0x8989becd68056889!8m2!3d45.49016!4d-122.598419",round_table_pizza,
Round Table Pizza,626 W Huntington Dr,MONROVIA,CA,91016-3206,6263031855.0,"https://www.google.com/maps/place/Round+Table+Pizza/@34.138366,-118.013107,17z/data=!3m1!4b1!4m5!3m4!1s0x80c2d964066e8c0b:0xea59aa90ea0c1efb!8m2!3d34.138366!4d-118.013107",round_table_pizza,
Round Table Pizza,665 S Bernardo Ave,SUNNYVALE,CA,94085,4087326670.0,"https://www.google.com/maps/place/Round+Table+Pizza/@37.372048,-122.057777,17z/data=!3m1!4b1!4m5!3m4!1s0x808fb6e916404bb9:0xc0b6ae6b665117cf!8m2!3d37.372048!4d-122.057777",round_table_pizza,
Round Table Pizza,70 Lake Blvd,REDDING,CA,96002,5302440550.0,"https://www.google.com/maps/place/Round+Table+Pizza/@40.608893,-122.3800201,17z/data=!3m1!4b1!4m5!3m4!1s0x54d292b5d00954d9:0x5bb1ced3428fe3f0!8m2!3d40.608893!4d-122.3800201",round_table_pizza,
Round Table Pizza,7011 27th St W,UNIVERSITY PLACE,WA,98465,2535653000.0,"https://www.google.com/maps/place/Round+Table+Pizza/@47.235802,-122.53069,17z/data=!3m1!4b1!4m5!3m4!1s0x5491aae7f493eba3:0xe217b3880b8aef4d!8m2!3d47.235802!4d-122.53069",round_table_pizza,
Round Table Pizza,750 NE 181st Ave,PORTLAND,OR,97080,5036611011.0,"https://www.google.com/maps/place/Round+Table+Pizza/@45.52799,-122.476556,17z/data=!3m1!4b1!4m5!3m4!1s0x5495a25d55a2dfdf:0x27c66baedf4c0e0e!8m2!3d45.52799!4d-122.476556",round_table_pizza,
Round Table Pizza,686 Sutton Way,GRASS VALLEY,CA,95949,5302736155.0,"https://www.google.com/maps/place/Round+Table+Pizza/@39.233785,-121.036459,17z/data=!3m1!4b1!4m5!3m4!1s0x809b7061a8236fdd:0x5d91243bf0d2fbeb!8m2!3d39.233785!4d-121.036459",round_table_pizza,
Round Table Pizza,735 S Broadway St,YREKA,CA,96097-3310,5308421219.0,"https://www.google.com/maps/place/Round+Table+Pizza/@41.726315,-122.638873,17z/data=!3m1!4b1!4m5!3m4!1s0x54ce45da0d0c9531:0x25003859a8d06d28!8m2!3d41.726315!4d-122.638873",round_table_pizza,
Round Table Pizza,737 Portola Dr,SAN FRANCISCO,CA,94116,4156819595.0,"https://www.google.com/maps/place/Round+Table+Pizza/@37.743952,-122.453603,17z/data=!3m1!4b1!4m5!3m4!1s0x808f7de717ec2a41:0x7641e9ae8983048a!8m2!3d37.743952!4d-122.453603",round_table_pizza,
Round Table Pizza,7841 Amador Valley Blvd,DUBLIN,CA,94583,9258286680.0,"https://www.google.com/maps/place/Round+Table+Pizza/@37.707091,-121.93511,17z/data=!3m1!4b1!4m5!3m4!1s0x808fec68897f828d:0x5520da77737fb27a!8m2!3d37.707091!4d-121.93511",round_table_pizza,
Round Table Pizza,7909 Walerga Rd,ANTELOPE,CA,95678,9167238665.0,"https://www.google.com/maps/place/Round+Table+Pizza/@38.712971,-121.366102,17z/data=!3m1!4b1!4m5!3m4!1s0x809b274f44301015:0xd9e78b386be19abc!8m2!3d38.712971!4d-121.366102",round_table_pizza,
Round Table Pizza,775 W Herndon Ave,CLOVIS,CA,93611,5592978264.0,"https://www.google.com/maps/place/Round+Table+Pizza/@36.838033,-119.728719,17z/data=!3m1!4b1!4m5!3m4!1s0x80945c9f1634bbff:0xebfb70329d6a5f5a!8m2!3d36.838033!4d-119.728719",round_table_pizza,
Round Table Pizza,7943 Greenback Ln,CITRUS HEIGHTS,CA,95678,9167264455.0,"https://www.google.com/maps/place/Round+Table+Pizza/@38.679794,-121.269644,17z/data=!3m1!4b1!4m5!3m4!1s0x809ade25c6b52a27:0x57b9363498ca38a3!8m2!3d38.679794!4d-121.269644",round_table_pizza,
Round Table Pizza,801 Van Ness Ave,SAN FRANCISCO,CA,94123,4154742500.0,"https://www.google.com/maps/place/Round+Table+Pizza/@37.783037,-122.421121,17z/data=!3m1!4b1!4m5!3m4!1s0x8085809708b00e87:0x5ce0819c9edc0e36!8m2!3d37.783037!4d-122.421121",round_table_pizza,
Round Table Pizza,801 W 4th St,RENO,NV,89512,7753487373.0,"https://www.google.com/maps/place/Round+Table+Pizza/@39.2971305,-120.805455,8z/data=!4m8!1m2!2m1!1sRound+Table+Pizza+801+W+4th+St+RENO+NV+89512!3m4!1s0x8099472ddeccc543:0x834461a2e1edd082!8m2!3d39.528402!4d-119.825843?hl=en",round_table_pizza,
Round Table Pizza,8032 La Mesa Blvd,LA MESA,CA,91942-0335,6194621650.0,"https://www.google.com/maps/place/Round+Table+Pizza/@32.764594,-117.024039,17z/data=!3m1!4b1!4m5!3m4!1s0x80d95723bdbe3b8b:0x40ae68d551a7206!8m2!3d32.764594!4d-117.024039",round_table_pizza,
Round Table Pizza,815 1st St,GILROY,CA,95020-4815,4088420321.0,"https://www.google.com/maps/place/Round+Table+Pizza/@37.014365,-121.587323,17z/data=!3m1!4b1!4m5!3m4!1s0x8091e22df6747cf1:0x5d5764a585776b22!8m2!3d37.014365!4d-121.587323",round_table_pizza,
Round Table Pizza,825 N Adams St,DIXON,CA,95620-2406,7076784466.0,"https://www.google.com/maps/place/Round+Table+Pizza/@38.453819,-121.823747,17z/data=!3m1!4b1!4m5!3m4!1s0x8085259b662d06f7:0xf51145406eec0f77!8m2!3d38.453819!4d-121.823747",round_table_pizza,
Round Table Pizza,828 Gray Ave,YUBA CITY,CA,95993,5306713675.0,"https://www.google.com/maps/place/Round+Table+Pizza/@39.1385671,-121.6336721,17z/data=!4m5!3m4!1s0x8084acad6cf56f91:0x2f9b6e3b1314c056!8m2!3d39.138563!4d-121.6314834?hl=en",round_table_pizza,
Round Table Pizza,8345 Elk Grove Florin Rd,SACRAMENTO,CA,95758,9166824537.0,"https://www.google.com/maps/place/Round+Table+Pizza/@38.45466,-121.370828,17z/data=!3m1!4b1!4m5!3m4!1s0x809ac6beac0b3ec1:0xbb0b1406de464965!8m2!3d38.45466!4d-121.370828",round_table_pizza,
Round Table Pizza,8795 Elk Grove Blvd,ELK GROVE,CA,95758,9166852190.0,"https://www.google.com/maps/place/Round+Table+Pizza/@38.409982,-121.376455,17z/data=!3m1!4b1!4m5!3m4!1s0x809ac740286a926d:0xffa41c87a75b803e!8m2!3d38.409982!4d-121.376455",round_table_pizza,
Round Table Pizza,8499 Old Redwood Hwy,WINDSOR,CA,95492-8057,7078388558.0,"https://www.google.com/maps/place/Round+Table+Pizza/@38.5436402,-122.8039277,17z/data=!3m1!5s0x80843e0ca552fb91:0xdb2f961afcf61c81!4m5!3m4!1s0x80843e0cbd5dcf15:0x388023406094ffdb!8m2!3d38.543636!4d-122.801739?hl=en",round_table_pizza,
Round Table Pizza,860 Old San Francisco Rd,SUNNYVALE,CA,94085,4082459000.0,"https://www.google.com/maps/place/Round+Table+Pizza/@37.366266,-122.016644,17z/data=!3m1!4b1!4m5!3m4!1s0x808fb672d99fe7b3:0x4be667a5e6e425ea!8m2!3d37.366266!4d-122.016644",round_table_pizza,
Round Table Pizza,8755 Sierra College Blvd,ROSEVILLE,CA,95661-5993,9167917288.0,"https://www.google.com/maps/place/Round+Table+Pizza/@38.740842,-121.225522,17z/data=!3m1!4b1!4m5!3m4!1s0x809b1fd7d3a4b7a9:0x5f42f4f74209f7ff!8m2!3d38.740842!4d-121.225522",round_table_pizza,
Round Table Pizza,9055 Woodcreek Oaks Blvd,ROSEVILLE,CA,95661,9167888111.0,"https://www.google.com/maps/place/Round+Table+Pizza/@38.7947743,-121.3307558,17z/data=!3m1!4b1!4m5!3m4!1s0x809b23c2b286e993:0x7544f2aa094562e4!8m2!3d38.7947743!4d-121.3307558",round_table_pizza,
Round Table Pizza,9138 Kiefer Blvd,SACRAMENTO,CA,95826-5106,9163666376.0,"https://www.google.com/maps/place/Round+Table+Pizza/@38.546828,-121.360303,17z/data=!3m1!4b1!4m5!3m4!1s0x809ac4ac84ba9dd5:0xee009b79c385a6c0!8m2!3d38.546828!4d-121.360303",round_table_pizza,
Round Table Pizza,964 Mangrove Ave,CHICO,CA,95926-3950,5303434254.0,"https://www.google.com/maps/place/Round+Table+Pizza/@39.739407,-121.835837,17z/data=!3m1!4b1!4m5!3m4!1s0x808327bfb6c87047:0x898f2e431070431a!8m2!3d39.739407!4d-121.835837",round_table_pizza,
Round Table Pizza,9500 Greenback Ln,FOLSOM,CA,95762,9169891133.0,"https://www.google.com/maps/place/Round+Table+Pizza/@38.6754832,-121.2018707,17z/data=!4m5!3m4!1s0x809ae1346d8b72c3:0x2bae12b74d355de3!8m2!3d38.675479!4d-121.199682?hl=en",round_table_pizza,
Round Table Pizza,9676 Campo Rd,SPRING VALLEY,CA,91942,6195892424.0,"https://www.google.com/maps/place/Round+Table+Pizza/@32.748258,-116.987817,17z/data=!3m1!4b1!4m5!3m4!1s0x80d950a9a235b101:0xb30f14eceaa41a89!8m2!3d32.748258!4d-116.987817",round_table_pizza,
Round Table Pizza,9824 N Magnolia Ave,SANTEE,CA,92021,6194490521.0,"https://www.google.com/maps/place/Round+Table+Pizza/@32.855496,-116.972936,17z/data=!3m1!4b1!4m5!3m4!1s0x80dbe2ba50b4f02b:0xc515eadea20a8d4d!8m2!3d32.855496!4d-116.972936",round_table_pizza,
Round Table Pizza,414 Broadway,MILLBRAE,CA,94030-1906,6506975520.0,"https://www.google.com/maps/place/Round+Table+Pizza/@37.601888,-122.392813,17z/data=!3m1!4b1!4m5!3m4!1s0x808f77a4f9c4e299:0x12659eded71acf82!8m2!3d37.601888!4d-122.392813",round_table_pizza,
Round Table Pizza,14898 Dale Evans Pkwy,APPLE VALLEY,CA,92308,7609619867.0,"https://www.google.com/maps/place/Round+Table+Pizza/@34.5250162,-117.2162129,17z/data=!3m1!4b1!4m5!3m4!1s0x80c3622996051761:0x6d654d4b99f0007b!8m2!3d34.5250162!4d-117.2162129",round_table_pizza,
Round Table Pizza,12280 Industry Blvd,JACKSON,CA,95642-9381,2092231232.0,"https://www.google.com/maps/place/Round+Table+Pizza/@38.369602,-120.799601,17z/data=!3m1!4b1!4m5!3m4!1s0x809a7c79ab2dbbdd:0x841da0fbae4a00aa!8m2!3d38.369602!4d-120.799601",round_table_pizza,
Round Table Pizza,3801 W Temple Ave,POMONA,CA,91765,9098695411.0,"https://www.google.com/maps/place/Round+Table+Pizza/@34.056391,-117.821243,17z/data=!3m1!4b1!4m5!3m4!1s0x80c32ea287b73071:0xe041a58ca43d58d3!8m2!3d34.056391!4d-117.821243",round_table_pizza,
Round Table Pizza,2508 S Broadway,SANTA MARIA,CA,93454-7877,8056144466.0,"https://www.google.com/maps/place/Round+Table+Pizza/@34.914652,-120.434543,17z/data=!3m1!4b1!4m5!3m4!1s0x80ec6b558a65c27f:0xc45d0c3423550c4c!8m2!3d34.914652!4d-120.434543",round_table_pizza,
Round Table Pizza,721 W Central Ave,LOMPOC,CA,93437,8057353333.0,"https://www.google.com/maps/place/Round+Table+Pizza/@34.7881477,-120.5902202,11z/data=!4m8!1m2!2m1!1sRound+Table+Pizza+721+W+Central+Ave+LOMPOC+CA+93437!3m4!1s0x80ec1eccb84e48e5:0x32153071baafce4f!8m2!3d34.66124!4d-120.46573?hl=en",round_table_pizza,
Round Table Pizza,20519 Devonshire St,CHATSWORTH,CA,91325,8183499222.0,"https://www.google.com/maps/place/Round+Table+Pizza/@34.257853,-118.58033,17z/data=!3m1!4b1!4m5!3m4!1s0x80c29ca78576e05d:0x7559ac40e7a6cbac!8m2!3d34.257853!4d-118.58033",round_table_pizza,
Round Table Pizza,27472 Portola Pkwy,FOOTHILL RANCH,CA,92653,9497164222.0,"https://www.google.com/maps/place/Round+Table+Pizza/@33.6708458,-117.652377,17z/data=!3m1!4b1!4m5!3m4!1s0x80dce9fbaa9cb09f:0x827e6ee2b7f7758b!8m2!3d33.6708458!4d-117.652377",round_table_pizza,
Round Table Pizza,6055 Ulali Dr NE,KEIZER,OR,97305,5033932150.0,"https://www.google.com/maps/place/Round+Table+Pizza/@45.008749,-122.999334,17z/data=!3m1!4b1!4m5!3m4!1s0x5495561c7f8e7dc7:0xce388637c8e9c515!8m2!3d45.008749!4d-122.999334",round_table_pizza,
Round Table Pizza,22205 El Paseo,RANCHO SANTA MARGARITA,CA,92653,9495460500.0,"https://www.google.com/maps/place/Round+Table+Pizza/@33.640373,-117.594675,17z/data=!3m1!4b1!4m5!3m4!1s0x80dceb0867a0f815:0xc79be6f6c3419719!8m2!3d33.640373!4d-117.594675",round_table_pizza,
Round Table Pizza,2270 S Azusa Ave,WEST COVINA,CA,91744,6268392900.0,"https://www.google.com/maps/place/Round+Table+Pizza/@34.035973,-117.912398,17z/data=!3m1!4b1!4m5!3m4!1s0x80c329fa1ed5c2f1:0xa488bfaa53335f8a!8m2!3d34.035973!4d-117.912398",round_table_pizza,
Round Table Pizza,174 W Goldfield Ave,YERINGTON,NV,89447-3342,7754630033.0,"https://www.google.com/maps/place/Round+Table+Pizza/@38.995908,-119.164233,17z/data=!3m1!4b1!4m5!3m4!1s0x809838e862869fd3:0x512c619a3a2c41cc!8m2!3d38.995908!4d-119.164233",round_table_pizza,
Round Table Pizza,844 N Delaware St,SAN MATEO,CA,94402,6506857000.0,"https://www.google.com/maps/place/Round+Table+Pizza/@37.579862,-122.333266,17z/data=!3m1!4b1!4m5!3m4!1s0x808f9de818faad91:0x99430d6fce398b9a!8m2!3d37.579862!4d-122.333266",round_table_pizza,
Round Table Pizza,1180 El Camino Ave,CORONA,CA,92879-1786,9518982000.0,"https://www.google.com/maps/place/Round+Table+Pizza/@33.868563,-117.539575,17z/data=!3m1!4b1!4m5!3m4!1s0x80dcb802e646528f:0x9f1367dc771b5f90!8m2!3d33.868563!4d-117.539575",round_table_pizza,
Round Table Pizza,14870 Highway 4,DISCOVERY BAY,CA,94505-2239,9255133600.0,"https://www.google.com/maps/place/Round+Table+Pizza/@37.889946,-121.620403,17z/data=!3m1!4b1!4m5!3m4!1s0x809004b2b3924cc9:0x1c33141f2f474c4!8m2!3d37.889946!4d-121.620403",round_table_pizza,
Round Table Pizza,60 E Main St,QUINCY,CA,95971-9701,5302832320.0,"https://www.google.com/maps/place/Round+Table+Pizza/@39.9369472,-120.9357691,17z/data=!3m1!4b1!4m5!3m4!1s0x809cf8ddd3eccac5:0xf2f57f5fcb015713!8m2!3d39.9369472!4d-120.9357691",round_table_pizza,
Round Table Pizza,3971 S Higuera St,SAN LUIS OBISPO,CA,93401-1581,8055445551.0,"https://www.google.com/maps/place/Round+Table+Pizza+San+Luis+Obispo/@35.2455474,-120.6754677,17z/data=!4m5!3m4!1s0x80ecf0d31c728e6d:0xf571fd8a0dc0c8a0!8m2!3d35.245543!4d-120.673279?hl=en",round_table_pizza,
Round Table Pizza,2630 S Tracy Blvd,TRACY,CA,95376-9107,2098338300.0,"https://www.google.com/maps/place/Round+Table+Pizza/@37.711523,-121.432937,17z/data=!3m1!4b1!4m5!3m4!1s0x80903cc5e8cf5a75:0xc7392db0782d79e0!8m2!3d37.711523!4d-121.432937",round_table_pizza,
Round Table Pizza,24703 Amador St,HAYWARD,CA,94544-1832,5107835300.0,"https://www.google.com/maps/place/Round+Table+Pizza/@37.65383,-122.091191,17z/data=!3m1!4b1!4m5!3m4!1s0x808f93f8884813a1:0x3f52e3f3f2d617d6!8m2!3d37.65383!4d-122.091191",round_table_pizza,
Round Table Pizza,130 Shadow Ln,FERNLEY,NV,89408-8748,7755752676.0,"https://www.google.com/maps/place/Round+Table+Pizza/@39.59974,-119.252067,17z/data=!3m1!4b1!4m5!3m4!1s0x8098e7f257ad73bd:0xc081ad430b1ebaee!8m2!3d39.59974!4d-119.252067",round_table_pizza,
Round Table Pizza,6654 Koll Center Pkwy,PLEASANTON,CA,94566-3113,9254844440.0,"https://www.google.com/maps/place/Round+Table+Pizza/@37.658799,-121.897812,17z/data=!3m1!4b1!4m5!3m4!1s0x808fe9813a8de6f1:0x1a2f38d1f54c16ac!8m2!3d37.658799!4d-121.897812",round_table_pizza,
Round Table Pizza,40 Raleys Towne Ctr,ROHNERT PARK,CA,94928-2439,7075850555.0,"https://www.google.com/maps/place/Round+Table+Pizza/@38.347256,-122.707265,17z/data=!3m1!4b1!4m5!3m4!1s0x80844a12a9813ae3:0xe20de8a43e205470!8m2!3d38.347256!4d-122.707265",round_table_pizza,
Round Table Pizza,5885 Santa Teresa Blvd,SAN JOSE,CA,95123-4100,4082278669.0,"https://www.google.com/maps/place/Round+Table+Pizza/@37.236318,-121.831776,17z/data=!3m1!4b1!4m5!3m4!1s0x808e31c73516bd3d:0xb1a9dd8ff4286d63!8m2!3d37.236318!4d-121.831776",round_table_pizza,
Round Table Pizza,620 Woollomes Ave,DELANO,CA,93215-9385,6617212925.0,"https://www.google.com/maps/place/Round+Table+Pizza/@35.746068,-119.24696,17z/data=!3m1!4b1!4m5!3m4!1s0x80eae5712672030d:0x9edd4a60547c90b0!8m2!3d35.746068!4d-119.24696",round_table_pizza,
Round Table Pizza,27961 Highland Ave,HIGHLAND,CA,92346-2773,9093590055.0,"https://www.google.com/maps/place/Round+Table+Clubhouse/@34.134481,-117.194319,17z/data=!3m1!4b1!4m5!3m4!1s0x80c35540d7870615:0x2c2b123ae0b6e25f!8m2!3d34.134481!4d-117.194319",round_table_pizza,
Round Table Pizza,2512 Portland Rd,NEWBERG,OR,97132-1923,9712818900.0,"https://www.google.com/maps/place/Round+Table+Clubhouse/@45.303615,-122.954816,17z/data=!3m1!4b1!4m5!3m4!1s0x54956a7a5127f317:0x1d07db265a4f8b55!8m2!3d45.303615!4d-122.954816",round_table_pizza,
Round Table Pizza,3145 Sports Arena Blvd,SAN DIEGO,CA,92110-4570,6194833010.0,"https://www.google.com/maps/place/Round+Table+Pizza/@32.751673,-117.206295,17z/data=!3m1!4b1!4m5!3m4!1s0x80deaae48430e91f:0x616962e27c2bbfea!8m2!3d32.751673!4d-117.206295",round_table_pizza,
Round Table Pizza,3601 Pelandale Ave,MODESTO,CA,95356-9808,2097020855.0,"https://www.google.com/maps/place/Round+Table+Pizza-Wings-Brew/@37.700528,-121.063133,17z/data=!3m1!4b1!4m5!3m4!1s0x8090501677096d3f:0xeb1c8a96fb54c0dd!8m2!3d37.700528!4d-121.063133",round_table_pizza,
Round Table Pizza,1801 H St,MODESTO,CA,95354,2097020850.0,"https://www.google.com/maps/place/Round+Table+Pizza/@37.644637,-120.990546,17z/data=!3m1!4b1!4m5!3m4!1s0x809053f4e030039b:0x4597f3a1e2a8679b!8m2!3d37.644637!4d-120.990546",round_table_pizza,
ROUND TABLE PIZZA,629 SAN RAMON VALLEY BLVD,DANVILLE,CA,94506,9258204000.0,"https://www.google.com/maps/place/Round+Table+Pizza-Wings-Brew/@37.813812,-121.996397,17z/data=!3m1!4b1!4m5!3m4!1s0x808f8cb2419dcb29:0x47899fde7439746f!8m2!3d37.813812!4d-121.996397",round_table_pizza,
ROUND TABLE PIZZA,7525 SOUTH EAST TUALATIN VALLEY HWY,HILLSBORO,OR,97123,5036931067.0,"https://www.google.com/maps/place/Round+Table+Pizza/@45.49792,-122.90414,17z/data=!3m1!4b1!4m5!3m4!1s0x54950fc0a6bb9bdb:0xdccd401d143c8167!8m2!3d45.49792!4d-122.90414",round_table_pizza,
ROUND TABLE PIZZA,5702 NORTH FIRST ST,FRESNO,CA,93711,5594360100.0,"https://www.google.com/maps/place/Round+Table+Pizza/@36.8213436,-119.7717056,17z/data=!3m1!4b1!4m5!3m4!1s0x80945d43cfedf0cb:0xe2b3175e980189a2!8m2!3d36.8213436!4d-119.7717056",round_table_pizza,
Round Table Pizza,8248 Firestone Blvd,DOWNEY,CA,90241-4810,5629233036.0,"https://www.google.com/maps/place/Round+Table+Pizza/@33.9400824,-118.1362677,17z/data=!4m5!3m4!1s0x80c2cd98380e131b:0xa157d4c9e214821e!8m2!3d33.940078!4d-118.134079?hl=en",round_table_pizza,
Round Table Pizza,27 N Main St,ANGELS CAMP,CA,95222-9332,2097360030.0,"https://www.google.com/maps/place/Round+Table+Pizza/@38.082154,-120.560027,17z/data=!3m1!4b1!4m5!3m4!1s0x809095c5b1e88465:0xe10de0558e732a23!8m2!3d38.082154!4d-120.560027",round_table_pizza,
Round Table Pizza,208 N 12th Ave,HANFORD,CA,93230-5987,5595851406.0,"https://www.google.com/maps/place/Round+Table+Pizza/@36.325128,-119.673473,17z/data=!3m1!4b1!4m5!3m4!1s0x8094c3ed3622b401:0x44519005858989be!8m2!3d36.325128!4d-119.673473",round_table_pizza,
Round Table Pizza,27932 La Paz Rd,LAGUNA NIGUEL,CA,92677-3922,9496431636.0,"https://www.google.com/maps/place/Round+Table+Pizza/@33.557738,-117.708517,17z/data=!3m1!4b1!4m5!3m4!1s0x80dcef13f298ac8f:0xa7adbf72c901342d!8m2!3d33.557738!4d-117.708517",round_table_pizza,
Round Table Pizza,23254 Lyons Ave,NEWHALL,CA,91321-2633,6612221199.0,"https://www.google.com/maps/place/Round+Table+Pizza/@34.3796784,-118.5417857,17z/data=!4m5!3m4!1s0x80c2868c8408e4f5:0xe78bf8c1cd2bbe11!8m2!3d34.379674!4d-118.539597?hl=en",round_table_pizza,
Round Table Pizza,2585 Canyon Springs Pkwy,RIVERSIDE,CA,92507-0959,9516568184.0,"https://www.google.com/maps/place/Round+Table+Pizza/@33.940845,-117.286323,17z/data=!3m1!4b1!4m5!3m4!1s0x80dcaf5b38bc90e9:0x31ab1fe396666789!8m2!3d33.940845!4d-117.286323",round_table_pizza,
Round Table Pizza,2354 Poplar Dr,MEDFORD,OR,97504-5297,5417733435.0,"https://www.google.com/maps/place/Round+Table+Pizza/@42.352367,-122.868272,17z/data=!3m1!4b1!4m5!3m4!1s0x54cf7a37b8ce2e57:0x840db8427728ac63!8m2!3d42.352367!4d-122.868272",round_table_pizza,
Round Table Pizza,16108 Ash Way,LYNNWOOD,WA,98087-8780,4257454561.0,"https://www.google.com/maps/place/Round+Table+Pizza/@47.853328,-122.259235,17z/data=!3m1!4b1!4m5!3m4!1s0x549005b5ac4a712d:0xbe0ae8eab497724e!8m2!3d47.853328!4d-122.259235",round_table_pizza,
Round Table Pizza,6915 El Camino Real,ATASCADERO,CA,93422-4206,8054667111.0,"https://www.google.com/maps/place/Round+Table+Pizza/@35.487566,-120.664487,17z/data=!3m1!4b1!4m5!3m4!1s0x80ecc27fd65b6a79:0x2f873eea55c44b3b!8m2!3d35.487566!4d-120.664487",round_table_pizza,
Round Table Pizza,4200 Gosford Rd,BAKERSFIELD,CA,93313-4811,6613971111.0,"https://www.google.com/maps/place/Round+Table+Pizza/@35.3172222,-119.0916667,17z/data=!3m1!4b1!4m5!3m4!1s0x80ea41a9f707f1ef:0xe0ed459bbc245b8f!8m2!3d35.3172222!4d-119.0916667",round_table_pizza,
Round Table Pizza,5095 Telegraph Ave,OAKLAND,CA,94609-2067,5105477777.0,"https://www.google.com/maps/place/Round+Table+Pizza/@37.836876,-122.263584,17z/data=!3m1!4b1!4m5!3m4!1s0x80857de04dd87b23:0x5c3089bcba3ef8ce!8m2!3d37.836876!4d-122.263584",round_table_pizza,
Round Table Pizza,39202 10th St W,PALMDALE,CA,93551-3765,6612668570.0,"https://www.google.com/maps/place/Round+Table+Pizza/@34.6409961,-118.1825094,13z/data=!3m1!5s0x80c259bb2db4d6af:0x3333a570f0208d20!4m8!1m2!2m1!1sRound+Table+Pizza+39202+10th+St+W+PALMDALE+CA+93551-3765!3m4!1s0x80c259bb2cddbc13:0xabac9c38019d5c79!8m2!3d34.595752!4d-118.147245?hl=en",round_table_pizza,
Round Table Pizza,2200 4th St,SAN RAFAEL,CA,94901-2651,4154560400.0,"https://www.google.com/maps/place/Round+Table+Pizza/@37.976364,-122.549284,17z/data=!3m1!4b1!4m5!3m4!1s0x808597432ffe2a93:0x8fce2aafba1a7cc9!8m2!3d37.976364!4d-122.549284",round_table_pizza,
Round Table Pizza,6110 Friars Rd,SAN DIEGO,CA,92108-1004,6192960911.0,"https://www.google.com/maps/place/Round+Table+Pizza/@32.76643,-117.182942,17z/data=!3m1!4b1!4m5!3m4!1s0x80deaacf31f60a3d:0xf940066c359f3825!8m2!3d32.76643!4d-117.182942",round_table_pizza,
Round Table Pizza,227 S McDowell Blvd,PETALUMA,CA,94954-3505,7077733330.0,"https://www.google.com/maps/place/Round+Table+Pizza/@38.249674,-122.624136,17z/data=!3m1!4b1!4m5!3m4!1s0x8085b3f741fe1a15:0xe556694e845b8115!8m2!3d38.249674!4d-122.624136",round_table_pizza,
Round Table Pizza,775 Gravenstein Ave,SEBASTOPOL,CA,95472-4500,7078244400.0,"https://www.google.com/maps/place/Round+Table+Pizza/@38.39497,-122.818949,17z/data=!3m1!4b1!4m5!3m4!1s0x808430a6e0a7a5c3:0x558fe7f557449594!8m2!3d38.39497!4d-122.818949",round_table_pizza,
Round Table Pizza,810 SW 11th St,REDMOND,OR,97756-2651,5416994291.0,"https://www.google.com/maps/place/Round+Table+Pizza/@44.269413,-121.179268,17z/data=!3m1!4b1!4m5!3m4!1s0x54bf2b2819b561e3:0xd1dd5cee75e271fa!8m2!3d44.269413!4d-121.179268",round_table_pizza,
Round Table Pizza,3136 NE 3rd Ave,CAMAS,WA,98607-2407,3602104534.0,"https://www.google.com/maps/place/Round+Table+Clubhouse/@45.586673,-122.372324,17z/data=!3m1!4b1!4m5!3m4!1s0x5495bc521537c599:0x9677ecd9c1077995!8m2!3d45.586673!4d-122.372324",round_table_pizza,
Round Table Pizza,750 Admiral Callaghan Ln,VALLEJO,CA,94591-3650,7075523000.0,"https://www.google.com/maps/place/Round+Table+Pizza-Wings-Brew/@38.1244562,-122.2291607,17z/data=!4m5!3m4!1s0x80857325c7a0442d:0x1762e7dbc582cd7c!8m2!3d38.124452!4d-122.226972?hl=en",round_table_pizza,
Round Table Pizza,1831 Bellevue Rd,ATWATER,CA,95301-2660,2093572451.0,"https://www.google.com/maps/place/Round+Table+Clubhouse/@37.361632,-120.61356,17z/data=!3m1!4b1!4m5!3m4!1s0x80916b66c8a40bc7:0xbed4f838311b1d0c!8m2!3d37.361632!4d-120.61356",round_table_pizza,
ROUND TABLE PIZZA,1411 WEST COVELL BLVD,DAVIS,CA,95616,5307561000.0,"https://www.google.com/maps/place/Round+Table+Pizza/@38.4550073,-122.1467346,10z/data=!3m1!5s0x808529cacb2d1a1b:0x6240f16ecc03802c!4m8!1m2!2m1!1sROUND+TABLE+PIZZA+1411+WEST+COVELL+BLVD+DAVIS+CA+95616!3m4!1s0x808528352bbc881f:0xf2e3cfefc40ebad4!8m2!3d38.5624298!4d-121.7653611?hl=en",round_table_pizza,
ROUND TABLE PIZZA,21117 STATE ROUTE 410,BONNEY LAKE,WA,98390,2538625511.0,"https://www.google.com/maps/place/Round+Table+Pizza/@47.166872,-122.147844,17z/data=!3m1!4b1!4m5!3m4!1s0x5490fac104c8dda3:0xbe11c93e9a810b6a!8m2!3d47.166872!4d-122.147844",round_table_pizza,
Round Table Pizza,16122 101 Goldenwest St,HUNTINGTON BEACH,CA,92647,7148475517.0,"https://www.google.com/maps/place/Round+Table+Pizza/@33.728531,-118.006366,17z/data=!3m1!4b1!4m5!3m4!1s0x80dd2708a5914f0d:0x8c13ab99bbfdcb75!8m2!3d33.728531!4d-118.006366",round_table_pizza,
