Company Name,Address 1,City,State,Zip,Phone,Google Link,Status
Villa Fresh Italian Kitchen,455 S Bibb Ave,EAGLE PASS,TX,78852-5077,8307738866.0,"https://www.google.com/maps/place/Villa+Italian+Kitchen/@30.7526214,-101.0850129,7z/data=!3m1!5s0x865f8db4b2e70919:0x7edf0a3accedddb5!4m8!1m2!2m1!1sVilla+Fresh+Italian+Kitchen+455+S+Bibb+Ave+EAGLE+PASS+TX+78852-5077!3m4!1s0x865f8c4abc60bd8b:0x808468810e08bdd9!8m2!3d28.7041126!4d-100.4841605?hl=en",
Villa Fresh Italian Kitchen,3939 S Interstate 35,SAN MARCOS,TX,78666-5951,5123922279.0,"https://www.google.com/maps/place/Villa+Fresh+Italian+Kitchen/@29.8310969,-97.982599,17z/data=!3m1!5s0x865ca60ca75ffa49:0xe8c76fea5a7ff350!4m5!3m4!1s0x865ca673ddb43893:0x81bbb973a39313f7!8m2!3d29.8310923!4d-97.9804103?hl=en",
Villa Fresh Italian Kitchen,2000 Riverchase Galleria,HOOVER,AL,35244,2052905516.0,"https://www.google.com/maps/place/Villa+Italian+Kitchen/@33.3790316,-86.8083523,17z/data=!3m1!4b1!4m5!3m4!1s0x88892216e712679d:0x5020d873ea229ad7!8m2!3d33.3790316!4d-86.8083523",
Villa Fresh Italian Kitchen,2701 Bergen Town Ctr,PARAMUS,NJ,07652-5019,2018434453.0,"https://www.google.com/maps/place/Villa+Fresh+Italian+Kitchen/@40.9153665,-74.0595505,17z/data=!3m1!4b1!4m5!3m4!1s0x89c2fa686d75b797:0x53ea1e162226a83d!8m2!3d40.9153665!4d-74.0595505",
Villa Fresh Italian Kitchen,107 Fuel Farm Rd,BALTIMORE,MD,21240,4108504846.0,"https://www.google.com/maps/place/Villa+Fresh+Italian+Kitchen/@39.276517,-76.7091245,11z/data=!3m1!5s0x89b7e2e642e1695f:0x1e54ca829e1cc425!4m8!1m2!2m1!1sVilla+Fresh+Italian+Kitchen+BALTIMORE+MD!3m4!1s0x89b7e2f195b5c76f:0x3e2103b8526c33e8!8m2!3d39.1776054!4d-76.6701746?hl=en",
Villa Fresh Italian Kitchen,4211 Camino De La Plz,SAN DIEGO,CA,92173-3049,6196622111.0,"https://www.google.com/maps/place/Villa+Fresh+Italian+Kitchen/@32.5438151,-117.0433296,17z/data=!3m1!4b1!4m5!3m4!1s0x80d9491ab707fecd:0xb3ff2eabbf79298f!8m2!3d32.5438151!4d-117.0433296",
Villa Fresh Italian Kitchen,2901 S Capital of Texas Hwy,AUSTIN,TX,78746-8101,5123289927.0,"https://www.google.com/maps/place/Villa+Fresh+Italian+Kitchen/@30.2573622,-97.8072249,17z/data=!3m1!4b1!4m5!3m4!1s0x865b4ae6e73f67c7:0xfd660f6e6d878c01!8m2!3d30.2573622!4d-97.8072249",
Villa Fresh Italian Kitchen,1 Bellis Fair Pkwy,BELLINGHAM,WA,98226-5590,3607340502.0,"https://www.google.com/maps/place/Villa+Italian+Kitchen/@48.7854749,-122.4892018,17z/data=!3m1!4b1!4m5!3m4!1s0x5485a35dc0caa731:0x9ff6faacfcdb8c4e!8m2!3d48.7854749!4d-122.4892018",
Villa Fresh Italian Kitchen,4949 North Rancho Dr,LAS VEGAS,NV,89130,7023968517.0,"https://www.google.com/maps/place/Villa+Fresh+Italian+Kitchen/@36.2500647,-115.2444912,17z/data=!3m1!4b1!4m5!3m4!1s0x80c8eafdfaab85ef:0x159ed9717704e4e1!8m2!3d36.2500647!4d-115.2444912",
Villa Fresh Italian Kitchen,26300 Cedar Rd,BEACHWOOD,OH,44122-1196,2165911009.0,"https://www.google.com/maps/place/Villa+Fresh+Italian+Kitchen/@44.8548929,-93.2421124,17z/data=!3m1!4b1!4m5!3m4!1s0x87f62f6cc03a4105:0xf51c1cc9a2d8750f!8m2!3d44.8548929!4d-93.2421124",
Villa Fresh Italian Kitchen,3237 Dillon Dr,PUEBLO,CO,81008-1005,7195440999.0,"https://www.google.com/maps/place/Villa+Fresh+Italian+Kitchen/@38.3031517,-104.6066446,17z/data=!3m1!4b1!4m5!3m4!1s0x8713a3cbe30568bf:0x124f3ac5e0347b91!8m2!3d38.3031517!4d-104.6066446",
Villa Fresh Italian Kitchen,10000 Factory Shop Blvd,GULFPORT,MS,39503-4264,2288716020.0,"https://www.google.com/maps/place/Villa+Fresh+Italian+Kitchen/@30.429546,-89.100304,17z/data=!3m1!4b1!4m5!3m4!1s0x889c3dfc4a137df3:0x648e3d41fd66150b!8m2!3d30.429546!4d-89.100304",
Villa Fresh Italian Kitchen,2200 Tanger Blvd,WASHINGTON,PA,15301-7907,7242293343.0,"https://www.google.com/maps/place/Villa+Italian+Kitchen/@37.3252241,-121.8144788,17z/data=!3m1!4b1!4m5!3m4!1s0x808e32a1bbafe5d5:0x4d6ac2e4958ba8a1!8m2!3d37.3252241!4d-121.8144788",
Villa Fresh Italian Kitchen,11211 120th Ave,PLEASANT PRAIRIE,WI,53158-1703,2628573165.0,"https://www.google.com/maps/place/Villa+Italian+Kitchen/@42.5163748,-87.9485361,17z/data=!3m1!4b1!4m5!3m4!1s0x880f89eb8eba884d:0x596d69dbc229d510!8m2!3d42.5163748!4d-87.9485361",
Villa Fresh Italian Kitchen,3000 184th St SW,LYNNWOOD,WA,98037-4723,4256731999.0,"https://www.google.com/maps/place/Villa+Italian+Kitchen/@47.8287261,-122.2748163,17z/data=!3m1!4b1!4m5!3m4!1s0x549005735816f72b:0xa6cdbc80d6fef43d!8m2!3d47.8287261!4d-122.2748163",
Villa Fresh Italian Kitchen,4401 N Interstate 35,ROUND ROCK,TX,78664-2685,5128647174.0,"https://www.google.com/maps/place/Villa+Fresh+Italian+Kitchen/@30.5649902,-97.6925701,17z/data=!3m1!5s0x8644d150794a4425:0x7edf0a3ab044a7e5!4m5!3m4!1s0x8644d18491bbefd9:0x7ddedeef8a2a6c33!8m2!3d30.5649856!4d-97.6903814?hl=en",
Villa Fresh Italian Kitchen,2300 N Salisbury Blvd,SALISBURY,MD,21801-7869,4105489841.0,"https://www.google.com/maps/place/Villa+Fresh+Italian+Kitchen/@38.396965,-75.5663311,17z/data=!3m1!4b1!4m5!3m4!1s0x89b902f162c22f4b:0x4f5576631b3bf0db!8m2!3d38.396965!4d-75.5663311",
Villa Fresh Italian Kitchen,10300 Little Patuxent Pkwy,COLUMBIA,MD,21044-3341,4109970614.0,"https://www.google.com/maps/place/Villa+Italian+Kitchen/@39.2166769,-76.8629974,17z/data=!3m1!4b1!4m5!3m4!1s0x89b7df978b035ff7:0x2436233d1ea3758d!8m2!3d39.2166769!4d-76.8629974",
Villa Fresh Italian Kitchen,4200 Genesee St,CHEEKTOWAGA,NY,14225-1941,7166330382.0,"https://www.google.com/maps/place/Villa+Fresh+Italian+Kitchen/@42.9345467,-78.7336889,17z/data=!3m1!5s0x89d374b0dbee0943:0xc74ce2d095f951a5!4m5!3m4!1s0x89d374b122fe4919:0x21f1c6ffed680e7!8m2!3d42.9345428!4d-78.7315002?hl=en",
Villa Fresh Italian Kitchen,611 Great Mall Dr,MILPITAS,CA,95035-8030,4089468382.0,"https://www.google.com/maps/place/Villa+Fresh+Italian+Kitchen/@37.4158564,-121.8963959,17z/data=!3m1!4b1!4m5!3m4!1s0x808fceca26922395:0x11f9e4a84669296a!8m2!3d37.4158564!4d-121.8963959",
Villa Fresh Italian Kitchen,2760 N Germantown Pkwy,MEMPHIS,TN,38133-8156,9013729485.0,"https://www.google.com/maps/place/Villa+Fresh+Italian+Kitchen/@35.2007605,-89.7932638,17z/data=!3m1!4b1!4m5!3m4!1s0x887f9dedb2773423:0xbe7123fd463c9af4!8m2!3d35.2007605!4d-89.7932638",
Villa Fresh Italian Kitchen,1902 Green Oaks Rd,FORT WORTH,TX,76116-1703,8177318882.0,"https://www.google.com/maps/place/Villa+Italian+Kitchen/@32.740835,-97.436572,17z/data=!3m1!4b1!4m5!3m4!1s0x864e73337e677c85:0xb53a9e0c91e4b962!8m2!3d32.740835!4d-97.436572",
Villa Fresh Italian Kitchen,4500 N Oracle Rd,TUCSON,AZ,85705-1662,5208880388.0,"https://www.google.com/maps/place/Villa+Italian+Kitchen/@32.2893102,-110.9741936,17z/data=!3m1!4b1!4m5!3m4!1s0x86d673bfe638a829:0x5926370bf81fff63!8m2!3d32.2893102!4d-110.9741936",
Villa Fresh Italian Kitchen,755 S Grand Central Pkwy,LAS VEGAS,NV,89106-4503,7023660101.0,"https://www.google.com/maps/place/Villa+Italian+Kitchen/@36.1637898,-115.1599632,17z/data=!3m1!5s0x80c8c396f16b5bed:0x7edf0a3a4035a4dc!4m5!3m4!1s0x80c8c397a9ab2ec3:0x5bdf9fde99cab552!8m2!3d36.1637855!4d-115.1577745?hl=en",
Villa Fresh Italian Kitchen,94 Serramonte Ctr,DALY CITY,CA,94015-2345,6509928806.0,"https://www.google.com/maps/place/Villa+Fresh+Italian+Kitchen/@37.6718901,-122.4717574,17z/data=!3m1!4b1!4m5!3m4!1s0x808f7b8d3e537bc5:0x7addc5f5bd5fa719!8m2!3d37.6718901!4d-122.4717574",
Villa Fresh Italian Kitchen,7029 Aldridge Rd,VICTOR,NY,14564-9164,5859243636.0,"https://www.google.com/maps/place/Villa+Fresh+Italian+Kitchen/@42.9990177,-77.4154827,17z/data=!4m5!3m4!1s0x89d131a2aec43df5:0xc0dd7648042f1ba9!8m2!3d42.9990138!4d-77.413294?hl=en",
Villa Fresh Italian Kitchen,750 Sunland Park Dr,EL PASO,TX,79912-6830,9155814692.0,"https://www.google.com/maps/place/Villa+Fresh+Italian+Kitchen/@31.814047,-106.5436791,17z/data=!3m1!4b1!4m5!3m4!1s0x86ddf805132124d5:0x7e462da86f86de45!8m2!3d31.814047!4d-106.5436791",
Villa Fresh Italian Kitchen,655 State Route 318,WATERLOO,NY,13165-5568,3155399800.0,"https://www.google.com/maps/place/Villa+Italian+Kitchen/@42.955376,-76.9185519,17z/data=!3m1!4b1!4m5!3m4!1s0x89d0ceacd47f4a21:0xffa66190f67d020d!8m2!3d42.955376!4d-76.9185519",
Villa Fresh Italian Kitchen,2000 N Neil St,CHAMPAIGN,IL,61820-7808,2174192987.0,"https://www.google.com/maps/place/Villa+Italian+Kitchen/@40.1420974,-88.2441736,17z/data=!3m1!4b1!4m5!3m4!1s0x880cd9f82858e6db:0xde114d2a2af76d49!8m2!3d40.1420974!4d-88.2441736",
Villa Fresh Italian Kitchen,1201 12th St SE,ROCHESTER,MN,55904,5072823086.0,"https://www.google.com/maps/place/Villa+Italian+Kitchen/@44.0041944,-92.4818695,17z/data=!3m1!5s0x87f75f47960d921d:0x7edf0a3a450d989c!4m5!3m4!1s0x87f75f38774c21a3:0x6c6a03b033c51e0b!8m2!3d44.0041906!4d-92.4796808?hl=en",
Villa Fresh Italian Kitchen,18511 Outlet Blvd,CHESTERFIELD,MO,63005,6367671426.0,"https://www.google.com/maps/place/Villa+Italian+Kitchen/@38.6771165,-90.6611987,17z/data=!3m1!4b1!4m5!3m4!1s0x87ded49389c3b0c5:0x6d265019a992a29e!8m2!3d38.6771165!4d-90.6611987",
Villa Fresh Italian Kitchen,8200 Perry Hall Blvd,BALTIMORE,MD,21236-4901,4109317101.0,"https://www.google.com/maps/place/Villa+Italian+Kitchen/@39.3750648,-76.4679078,17z/data=!3m1!4b1!4m5!3m4!1s0x89c8083d2c4e6587:0xdcf2040d94f0d754!8m2!3d39.3750648!4d-76.4679078",
Villa Fresh Italian Kitchen,2655 Richmond Ave,STATEN ISLAND,NY,10314-5821,7186980580.0,"https://www.google.com/maps/place/Villa+Italian+Kitchen/@40.6693842,-74.2182573,11z/data=!3m1!5s0x89c24b80b4892eab:0x7edf0a3a89896480!4m8!1m2!2m1!1sVilla+Fresh+Italian+Kitchen+2655+Richmond+Ave+STATEN+ISLAND+NY+10314-5821!3m4!1s0x89c24b80c7edac85:0xa5ad8f0dec8d3fa0!8m2!3d40.5816603!4d-74.1659117?hl=en",
Villa Fresh Italian Kitchen,3250 Gateway Blvd,PRESCOTT,AZ,86303,9284433298.0,"https://www.google.com/maps/place/Villa+Pizza/@33.9237356,-112.7143965,9z/data=!3m1!5s0x872d2615ab6785db:0xf16df7f7e87927ab!4m8!1m2!2m1!1sVilla+Fresh+Italian+Kitchen+3250+Gateway+Blvd+PRESCOTT+AZ+86303!3m4!1s0x872d2614f9d2cead:0x96a082921347ad26!8m2!3d34.5469582!4d-112.4091439?hl=en",
Villa Fresh Italian Kitchen,7850 Mentor Ave,MENTOR,OH,44060-5586,4402050577.0,"https://www.google.com/maps/place/Villa+Fresh+Italian+Kitchen/@41.6575365,-81.360753,17z/data=!3m1!4b1!4m5!3m4!1s0x8831a8bf67c234bf:0xf74d2fa92530b3dd!8m2!3d41.6575365!4d-81.360753",
Villa Fresh Italian Kitchen,1451 Coral Ridge Ave,CORALVILLE,IA,52241-2800,3196256020.0,"https://www.google.com/maps/place/Villa+Fresh+Italian+Kitchen/@41.6909216,-91.6000802,17z/data=!3m1!4b1!4m5!3m4!1s0x87e4446d7f284ddb:0xfcc533b03049231d!8m2!3d41.6909216!4d-91.6000802",
Villa Fresh Italian Kitchen,100 Columbiana Cir,COLUMBIA,SC,29212-2231,8037812211.0,"https://www.google.com/maps/place/Villa+Italian+Kitchen/@34.0789043,-81.1570286,17z/data=!3m1!4b1!4m5!3m4!1s0x88f8a27348d0f731:0xa049ee706307b9f6!8m2!3d34.0789043!4d-81.1570286",
Villa Fresh Italian Kitchen,1151 Galleria Blvd,ROSEVILLE,CA,95678-1946,9167838008.0,"https://www.google.com/maps/place/Villa+Fresh+Italian+Kitchen/@38.773874,-121.270732,17z/data=!3m1!4b1!4m5!3m4!1s0x809b21d0c0d0dc07:0x3c9106bc9571da29!8m2!3d38.773874!4d-121.270732",
Villa Fresh Italian Kitchen,9409 US Highway 19,PORT RICHEY,FL,34668-4643,7278150716.0,"https://www.google.com/maps/place/Villa+Fresh+Italian+Kitchen/@27.954305,-83.8300405,7z/data=!3m1!5s0x88c29a9feeae8585:0xfe6faaec027c4ceb!4m8!1m2!2m1!1sVilla+Fresh+Italian+Kitchen+9409+US+Highway+19+PORT+RICHEY+FL+34668-4643!3m4!1s0x88c29a9ff3fff775:0xb735d9aa2b7a1d5!8m2!3d28.2931229!4d-82.7127957?hl=en",
Villa Fresh Italian Kitchen,588 W Prien Lake Rd,LAKE CHARLES,LA,70601-8488,3374741958.0,"https://www.google.com/maps/place/Villa+Fresh+Italian+Kitchen/@30.200128,-93.227457,17z/data=!3m1!4b1!4m5!3m4!1s0x863b866563b65fd3:0x43663425ae03a0d0!8m2!3d30.200128!4d-93.227457",
Villa Fresh Italian Kitchen,40820 Winchester Rd,TEMECULA,CA,92591-5525,9512251210.0,"https://www.google.com/maps/place/Villa+Italian+Kitchen/@33.5259276,-117.1534872,17z/data=!3m1!4b1!4m5!3m4!1s0x80db7e3dec73fea5:0x5afb5f0e18d2f8d5!8m2!3d33.5259276!4d-117.1534872",
Villa Fresh Italian Kitchen,1 Borgata Way,ATLANTIC CITY,NJ,08401-1946,6093178207.0,"https://www.google.com/maps/place/Villa+Pizza/@40.1313877,-75.7943072,8z/data=!4m8!1m2!2m1!1sVilla+Fresh+Italian+Kitchen+ATLANTIC+CITY+NJ!3m4!1s0x89c0efb350d38419:0x46c93c9c8f760656!8m2!3d39.3783892!4d-74.4353557?hl=en",
Villa Fresh Italian Kitchen,1101 Supermall Way SW,AUBURN,WA,98001-6529,2538339753.0,"https://www.google.com/maps/place/Villa+Fresh+Italian+Kitchen/@47.299623,-122.245047,17z/data=!3m1!4b1!4m5!3m4!1s0x5490580f5c9b6b8f:0xb864d7c4fa8f94b!8m2!3d47.299623!4d-122.245047",
Villa Fresh Italian Kitchen,4300 Meadows Ln,LAS VEGAS,NV,89107-3008,7022595031.0,"https://www.google.com/maps/place/Villa+Fresh+Italian+Kitchen/@36.1723009,-115.1957461,17z/data=!3m1!4b1!4m5!3m4!1s0x80c8c17b91906e37:0x5a4795be8eb467a8!8m2!3d36.1723009!4d-115.1957461",
Villa Fresh Italian Kitchen,4001 W 41st St,SIOUX FALLS,SD,57106-0702,6053625989.0,"https://www.google.com/maps/place/Villa+Fresh+Italian+Kitchen/@43.5115864,-96.7768589,17z/data=!3m1!4b1!4m5!3m4!1s0x878eca209382e825:0xd92233cfe88d51be!8m2!3d43.5115864!4d-96.7768589",
Villa Fresh Italian Kitchen,7400 Las Vegas Blvd,LAS VEGAS,NV,89130,7023968517.0,"https://www.google.com/maps/place/Villa+Fresh+Italian+Kitchen/@36.0524447,-115.1685108,17z/data=!3m1!4b1!4m5!3m4!1s0x80c8cf5cc2ab1297:0x15ef47ce0f9b85eb!8m2!3d36.0524447!4d-115.1685108",
Villa Fresh Italian Kitchen,8319 Indian Falls Rd,CORFU,NY,14036-9645,5853340475.0,"https://www.google.com/maps/place/Villa+Fresh+Italian+Kitchen/@43.0117513,-78.3290112,17z/data=!3m1!4b1!4m5!3m4!1s0x89d392f0724a64d7:0xf0926d19e960cc21!8m2!3d43.0117513!4d-78.3290112",
Villa Fresh Italian Kitchen,8000 W Broward Blvd,PLANTATION,FL,33388-0005,9544723206.0,"https://www.google.com/maps/place/Villa+Fresh+Italian+Kitchen/@26.1171766,-80.2550889,17z/data=!3m1!4b1!4m5!3m4!1s0x88d907c0a35c566f:0x639ca18329f29f16!8m2!3d26.1171766!4d-80.2550889",
Villa Fresh Italian Kitchen,11200 Lakeline Mall Dr,CEDAR PARK,TX,78613-1508,5122199928.0,"https://www.google.com/maps/place/Villa+Fresh+Italian+Kitchen/@30.4707891,-97.8068822,17z/data=!3m1!4b1!4m5!3m4!1s0x865b32a2772c52b9:0xc09c85507150103c!8m2!3d30.4707891!4d-97.8068822",
Villa Fresh Italian Kitchen,11500 Midlothian Tpke,NORTH CHESTERFIELD,VA,23235-4780,8048972333.0,"https://www.google.com/maps/place/Villa/@38.1856964,-77.8952103,9z/data=!3m1!5s0x89b16d9dc02599a5:0xf16df7f7a244cabb!4m8!1m2!2m1!1sVilla+Fresh+Italian+Kitchen+11500+Midlothian+Tpke+NORTH+CHESTERFIELD+VA+23235-4780!3m4!1s0x89b16d9de971fab7:0xbe8fd5f951bb9ef4!8m2!3d37.5084846!4d-77.6089507?hl=en",
Villa Fresh Italian Kitchen,142 Park City Ctr,LANCASTER,PA,17601-2706,7173932003.0,"https://www.google.com/maps/place/Villa+Italian+Kitchen/@40.0672424,-76.3391662,17z/data=!3m1!4b1!4m5!3m4!1s0x89c623f534de6ec3:0xd4c41b00bdfbf234!8m2!3d40.0672424!4d-76.3391662",
Villa Fresh Italian Kitchen,1 W Flatiron Crossing Dr,BROOMFIELD,CO,80021-8881,3034101290.0,"https://www.google.com/maps/place/Villa+Fresh+Italian+Kitchen/@39.9330327,-105.1333427,17z/data=!3m1!4b1!4m5!3m4!1s0x876b8c9ad0a298bd:0x9abf2c53ed03d696!8m2!3d39.9330327!4d-105.1333427",
Villa Fresh Italian Kitchen,5488 S Padre Island Dr,CORPUS CHRISTI,TX,78411-4109,3619061140.0,"https://www.google.com/maps/place/Villa+Fresh+Italian+Kitchen/@27.7114767,-97.3743714,17z/data=!3m1!4b1!4m5!3m4!1s0x8668f5935ca2bfcb:0x3c8edd56868f3a1f!8m2!3d27.7114767!4d-97.3743714",
Villa Fresh Italian Kitchen,1000 Turtle Creek Dr,HATTIESBURG,MS,39402-1145,6012688798.0,"https://www.google.com/maps/place/Villa+Fresh+Italian+Kitchen/@31.3269156,-89.3782887,17z/data=!3m1!5s0x889cdf144ba6f923:0xf07d58fbc0c7af3b!4m5!3m4!1s0x889cdf14f78ebc97:0x20ba0a30c3ea43e5!8m2!3d31.326911!4d-89.3761?hl=en",
Villa Fresh Italian Kitchen,1850 Adams St,MANKATO,MN,56001-4864,5073888394.0,"https://www.google.com/maps/place/Villa+Italian+Kitchen/@44.1729089,-93.9536726,17z/data=!3m1!4b1!4m5!3m4!1s0x87f43a7a4e647ce7:0xccfe8f14a251a5d1!8m2!3d44.1729089!4d-93.9536726",
Villa Fresh Italian Kitchen,490 Premium Outlets Blvd,HAGERSTOWN,MD,21740-9524,3017979572.0,"https://www.google.com/maps/place/Villa+Fresh+Italian+Kitchen/@39.592877,-77.9192232,9z/data=!3m1!5s0x89c9ed854ece3bb1:0x7edf0a3ae2b75d45!4m8!1m2!2m1!1sVilla+Fresh+Italian+Kitchen+490+Premium+Outlets+Blvd+HAGERSTOWN+MD+21740-9524!3m4!1s0x89c9ed38dcf8719f:0xeb91a6847e347854!8m2!3d39.6068815!4d-77.7346007?hl=en",
Villa Fresh Italian Kitchen,6810 Metro Plex Dr,ROMULUS,MI,48174-2059,7342471237.0,"https://www.google.com/maps/place/Villa+Fresh+Italian+Kitchen/@42.2573508,-83.3348977,17z/data=!4m5!3m4!1s0x883b4935c84a02fb:0x5898b90ed9ff9c05!8m2!3d42.2573469!4d-83.332709?hl=en",
Villa Fresh Italian Kitchen,100 Robinson Center Dr,PITTSBURGH,PA,15205-4831,4124949794.0,"https://www.google.com/maps/place/Villa+Fresh+Italian+Kitchen/@40.4537924,-80.1572995,17z/data=!3m1!4b1!4m5!3m4!1s0x88345937bb7befe1:0x6f649f0697cfa69b!8m2!3d40.4537924!4d-80.1572995",
Villa Fresh Italian Kitchen,80 Premium Outlets Blvd,MERRIMACK,NH,03054-4778,9789730294.0,"https://www.google.com/maps/place/Villa+Fresh+Italian+Kitchen/@42.8252323,-71.5004311,17z/data=!3m1!4b1!4m5!3m4!1s0x89e3b46ab59a12a9:0xab743e0fe911b5ec!8m2!3d42.8252323!4d-71.5004311",
Villa Fresh Italian Kitchen,5000 S Arizona Mills Cir,TEMPE,AZ,85282-6402,6026353774.0,"https://www.google.com/maps/place/Villa+Italian+Kitchen/@33.3849887,-111.9654071,17z/data=!3m1!4b1!4m5!3m4!1s0x872b0f5a169f173b:0x2905fb45a0fa3e47!8m2!3d33.3849887!4d-111.9654071",
Villa Fresh Italian Kitchen,12801 W Sunrise Blvd,SUNRISE,FL,33323-4020,3058760630.0,"https://www.google.com/maps/place/Villa+Fresh+Italian+Kitchen/@26.1499236,-80.3245316,17z/data=!3m1!4b1!4m5!3m4!1s0x88d9090304dba1b5:0xdc76c846b633fb99!8m2!3d26.1499236!4d-80.3245316",
Villa Fresh Italian Kitchen,3200 Las Vegas Blvd S,LAS VEGAS,NV,89109-0750,7026999005.0,"https://www.google.com/maps/place/Villa+Fresh+Italian+Kitchen/@36.1518417,-115.380994,11z/data=!3m1!5s0x80c8c416a20f4f2b:0x7edf0a3a70e71394!4m8!1m2!2m1!1sVilla+Fresh+Italian+Kitchen+LAS+VEGAS+NV!3m4!1s0x80c8c41443d7f98f:0xb15518f35b4df4d4!8m2!3d36.1274938!4d-115.1692848?hl=en",
Villa Fresh Italian Kitchen,1100 S Hayes St,ARLINGTON,VA,22202-4907,7034139867.0,"https://www.google.com/maps/place/Villa+Fresh+Italian+Kitchen/@38.8634126,-77.0606198,17z/data=!3m1!4b1!4m5!3m4!1s0x89b7b6dec87afb7f:0xa89e751c3cbc3ac4!8m2!3d38.8634126!4d-77.0606198",
Villa Fresh Italian Kitchen,2950 W Interstate 20,GRAND PRAIRIE,TX,75052-8079,9726064510.0,"https://www.google.com/maps/place/Villa+Fresh+Italian+Kitchen/@32.6795432,-97.0536463,17z/data=!3m1!4b1!4m5!3m4!1s0x864e8860c69749ef:0xa0ecb2dddae217d4!8m2!3d32.6795432!4d-97.0536463",
Villa Fresh Italian Kitchen,380 Prime Outlets Blvd,LEE,MA,01238-8511,4133949940.0,"https://www.google.com/maps/place/Villa+Fresh+Italian+Kitchen/@42.2939832,-73.2334055,17z/data=!3m1!4b1!4m5!3m4!1s0x89e7430c0e190d8b:0x8720445b4237affe!8m2!3d42.2939832!4d-73.2334055",
Villa Fresh Italian Kitchen,9301 Tampa Ave,NORTHRIDGE,CA,91324-2503,6618036812.0,"https://www.google.com/maps/place/Villa+Italian+Kitchen/@34.2381615,-118.5555001,17z/data=!3m1!4b1!4m5!3m4!1s0x80c29b0b361495f1:0xfdcd8113293cfb98!8m2!3d34.2381615!4d-118.5555001",
Villa Fresh Italian Kitchen,1 Providence Pl,PROVIDENCE,RI,02903-1739,4012283435.0,"https://www.google.com/maps/place/Villa+Italian+Kitchen/@41.8272675,-71.41669,17z/data=!3m1!4b1!4m5!3m4!1s0x89e44511caab1113:0xdae2caf8fa3e55d4!8m2!3d41.8272675!4d-71.41669",
Villa Fresh Italian Kitchen,6170 Grand Ave,GURNEE,IL,60031-4592,8478550460.0,"https://www.google.com/maps/place/Villa+Fresh+Italian+Kitchen/@42.3907367,-87.960863,17z/data=!4m5!3m4!1s0x880f8e233c7b1d25:0x9fd66677dc86fbdb!8m2!3d42.3907328!4d-87.9586743?hl=en",
Villa Fresh Italian Kitchen,2600 Beach Blvd,BILOXI,MS,39531-4606,2285940580.0,"https://www.google.com/maps/place/Villa+Pizza/@30.4109057,-89.1150673,12z/data=!4m8!1m2!2m1!1sVilla+Fresh+Italian+Kitchen+2600+Beach+Blvd+BILOXI+MS+39531-4606!3m4!1s0x889c111b5bcd253d:0x4080b00e8b4a70f5!8m2!3d30.3920066!4d-88.9897508?hl=en",
Villa Fresh Italian Kitchen,241 Fort Evans Rd NE,LEESBURG,VA,20176-4094,7037377959.0,"https://www.google.com/maps/place/Villa+Italian+Kitchen/@39.1060209,-77.5391694,17z/data=!3m1!4b1!4m5!3m4!1s0x89b63d7552db8b81:0x974f4285d0ab7f88!8m2!3d39.1060209!4d-77.5391694",
Villa Fresh Italian Kitchen,1911 Leesburg-Grove City Rd,GROVE CITY,PA,16127-3356,7247484322.0,"https://www.google.com/maps/place/Villa+Fresh+Italian+Kitchen/@41.1398082,-80.1590325,17z/data=!3m1!5s0x88339ee278f89309:0x7edf0a3af4492d35!4m5!3m4!1s0x88339f1cf261852f:0x585ab9cecde549e2!8m2!3d41.1398042!4d-80.1568438?hl=en",
Villa Fresh Italian Kitchen,5050 Factory Shops Blvd,CASTLE ROCK,CO,80108-3310,3036608100.0,"https://www.google.com/maps/place/Villa+Fresh+Italian+Kitchen/@39.4154569,-104.8723143,17z/data=!3m1!4b1!4m5!3m4!1s0x876c99946f5be18d:0x88d524061d7d913f!8m2!3d39.4154569!4d-104.8723143",
Villa Fresh Italian Kitchen,14600 Lakeside Cir,STERLING HEIGHTS,MI,48313-1320,5869915779.0,"https://www.google.com/maps/place/Villa+Italian+Kitchen/@42.732821,-86.6141282,7z/data=!3m1!5s0x8824de70e18d2025:0x7edf0a3aa26f3610!4m8!1m2!2m1!1sVilla+Fresh+Italian+Kitchen+14600+Lakeside+Cir+STERLING+HEIGHTS+MI+48313-1320!3m4!1s0x8824de70da1aa99b:0x10f85f8e961ad6b8!8m2!3d42.6221818!4d-82.9870702?hl=en",
Villa Fresh Italian Kitchen,12700 Spine Rd,ATLANTA,GA,30320,4047625237.0,"https://www.google.com/maps/place/Villa+Fresh+Italian+Kitchen/@33.6407784,-84.4252506,17z/data=!3m1!4b1!4m5!3m4!1s0x88f4e2cd05ca7aff:0x4b578f81306aea15!8m2!3d33.6407784!4d-84.4252506",
Villa Fresh Italian Kitchen,410 Four Seasons Blvd,GREENSBORO,NC,27407,3362974899.0,"https://www.google.com/maps/place/Villa+Italian+Kitchen/@36.0393546,-79.8375827,17z/data=!3m1!4b1!4m5!3m4!1s0x88531a2f00384691:0x4615ea1dd7d0e3e3!8m2!3d36.0393546!4d-79.8375827",
Villa Fresh Italian Kitchen,2800 Southcenter Mall,SEATTLE,WA,98188,2062461567.0,"https://www.google.com/maps/place/Villa+Italian+Kitchen/@47.4588849,-122.257964,17z/data=!3m1!4b1!4m5!3m4!1s0x54905cd399613113:0x27a985d91f43f3a2!8m2!3d47.4588849!4d-122.257964",
Villa Fresh Italian Kitchen,3111 W Chandler Blvd,CHANDLER,AZ,85226-5071,4808211672.0,"https://www.google.com/maps/place/Villa+Fresh+Italian+Kitchen/@33.3007721,-111.898784,17z/data=!3m1!4b1!4m5!3m4!1s0x872b00d32ddfb0bd:0x9fa3ad31e878fa45!8m2!3d33.3007721!4d-111.898784",
Villa Fresh Italian Kitchen,216 E Broadway,BLOOMINGTON,MN,55425-5512,9528544361.0,"https://www.google.com/maps/place/Villa+Fresh+Italian+Kitchen/@44.8548929,-93.2421124,17z/data=!3m1!4b1!4m5!3m4!1s0x87f62f6cc03a4105:0xf51c1cc9a2d8750f!8m2!3d44.8548929!4d-93.2421124",
Villa Fresh Italian Kitchen,3700 Rivertown Pkwy SW,GRANDVILLE,MI,49418-3091,6165386506.0,"https://www.google.com/maps/place/Villa+Fresh+Italian+Kitchen/@42.8791573,-85.7554574,17z/data=!3m1!4b1!4m5!3m4!1s0x8819b0bcd310ad73:0x346fcf0d15856b09!8m2!3d42.8791573!4d-85.7554574",
Villa Fresh Italian Kitchen,2901 S Capital of Texas Hwy,AUSTIN,TX,78746-8101,5123289927.0,"https://www.google.com/maps/place/Villa+Fresh+Italian+Kitchen/@30.2573622,-97.8072249,17z/data=!3m1!4b1!4m5!3m4!1s0x865b4ae6e73f67c7:0xfd660f6e6d878c01!8m2!3d30.2573622!4d-97.8072249",
Villa Fresh Italian Kitchen,2200 Eastridge Loop,SAN JOSE,CA,95122-1410,4085319605.0,"https://www.google.com/maps/place/Villa+Italian+Kitchen/@37.3252241,-121.8144788,17z/data=!3m1!4b1!4m5!3m4!1s0x808e32a1bbafe5d5:0x4d6ac2e4958ba8a1!8m2!3d37.3252241!4d-121.8144788",
Villa Fresh Italian Kitchen,6910 Fayetteville Rd,DURHAM,NC,27713-9714,9193610434.0,"https://www.google.com/maps/place/Villa+Italian+Kitchen/@35.9052172,-78.9439388,17z/data=!3m1!4b1!4m5!3m4!1s0x89ace8b7068df3b5:0x2b6e244b42f193f1!8m2!3d35.9052172!4d-78.9439388",
Villa Fresh Italian Kitchen,451 E Altamonte Dr,ALTAMONTE SPRINGS,FL,32701-4613,4078340874.0,"https://www.google.com/maps/place/Villa+Italian+Kitchen/@28.6667171,-81.3773096,17z/data=!3m1!4b1!4m5!3m4!1s0x88e77184ab57f6ed:0xfa392f124e2f6b7b!8m2!3d28.6667171!4d-81.3773096",
Villa Fresh Italian Kitchen,3410 Livermore Outlets Dr,LIVERMORE,CA,94550,9252927226.0,"https://www.google.com/maps/place/Villa+Italian+Kitchen/@37.6987157,-121.8452465,17z/data=!3m1!4b1!4m5!3m4!1s0x808fe8dd5393413f:0x81ccb9315faa87d5!8m2!3d37.6987157!4d-121.8452465",
Villa Fresh Italian Kitchen,625 8th Ave,NEW YORK,NY,10018-1415,2129719242.0,"https://www.google.com/maps/place/Villa+Fresh+Italian+Kitchen/@40.7567565,-73.9904366,17z/data=!3m1!4b1!4m5!3m4!1s0x89c2585368733ff9:0x398c8875129981ad!8m2!3d40.7567565!4d-73.9904366",
Villa Fresh Italian Kitchen,7501 South West 88Th St,MIAMI,FL,33156,3056659170.0,"https://www.google.com/maps/place/Villa+Fresh+Italian+Kitchen/@25.691264,-80.313746,17z/data=!3m1!4b1!4m5!3m4!1s0x88d9c7a3b072e36b:0x9c0745738932dee!8m2!3d25.691264!4d-80.313746",
Villa Fresh Italian Kitchen,1 Garden State Plz,PARAMUS,NJ,07652-2417,2018439400.0,"https://www.google.com/maps/place/Villa+Fresh+Italian+Kitchen/@40.916054,-74.0764884,17z/data=!3m1!4b1!4m5!3m4!1s0x89c2fbacd1260a8d:0xf3e7857e62959154!8m2!3d40.916054!4d-74.0764884",
Villa Fresh Italian Kitchen,165 Mulberry St,NEWARK,NJ,07102-3607,9737576210.0,"https://www.google.com/maps/place/Villa+Fresh+Italian+Kitchen/@40.687481,-74.18236,17z/data=!3m1!4b1!4m5!3m4!1s0x89c252f1406ce953:0x79c38ff526681dc8!8m2!3d40.687481!4d-74.18236",
Villa Fresh Italian Kitchen,Turkey Lake Travel Plaza,OCOEE,FL,34761,4077807896.0,"https://www.google.com/maps/place/Villa+Italian+Kitchen/@28.5157916,-81.5007699,17z/data=!3m1!4b1!4m5!3m4!1s0x88e778bbd3603a83:0xa7912224f0639cc7!8m2!3d28.5157916!4d-81.5007699",
Villa Fresh Italian Kitchen,8010 Spotsylvania Town Ctr,FREDERICKSBURG,VA,22407,5405489021.0,"https://www.google.com/maps/place/Villa+Italian+Kitchen/@38.291804,-77.511523,17z/data=!3m1!4b1!4m5!3m4!1s0x89b6c1b40738bac7:0x5313778946ea74ae!8m2!3d38.291804!4d-77.511523",
Villa Fresh Italian Kitchen,750 Citadel Dr E,COLORADO SPRINGS,CO,80909-5327,7196372984.0,"https://www.google.com/maps/place/Villa+Pizza/@38.843616,-104.76373,17z/data=!3m1!4b1!4m5!3m4!1s0x871345da1115c657:0x278ae0f776bfa599!8m2!3d38.843616!4d-104.76373",
Villa Fresh Italian Kitchen,1650 Premium Outlet Blvd,AURORA,IL,60502-2901,6306921295.0,"https://www.google.com/maps/place/Villa+Fresh+Italian+Kitchen/@41.8005977,-88.2735943,17z/data=!3m1!4b1!4m5!3m4!1s0x880efbbb107368e7:0x7b1434380a9a3434!8m2!3d41.8005977!4d-88.2735943",
Villa Fresh Italian Kitchen,1500 Apalachee Pkwy,TALLAHASSEE,FL,32301-3055,8506294605.0,"https://www.google.com/maps/place/Villa+Italian+Kitchen/@30.4369724,-84.2533554,17z/data=!3m1!4b1!4m5!3m4!1s0x88ec5f99f964e5c7:0x19bd29c2be042903!8m2!3d30.4369724!4d-84.2533554",
Villa Fresh Italian Kitchen,1 Premium Outlet Blvd,TINTON FALLS,NJ,07753-7487,7324930501.0,"https://www.google.com/maps/place/Villa+Fresh+Italian+Kitchen/@40.2243165,-74.0942854,17z/data=!3m1!4b1!4m5!3m4!1s0x89c2290e014e78dd:0x3dc05dbc64dc2162!8m2!3d40.2243165!4d-74.0942854",
Villa Fresh Italian Kitchen,2000 Willowbrook Mall,HOUSTON,TX,77070,2818073510.0,"https://www.google.com/maps/place/Villa+Italian+Kitchen/@29.9588198,-95.538485,17z/data=!3m1!4b1!4m5!3m4!1s0x8640cddd044dc27f:0x87b2bcf882fa89c3!8m2!3d29.9588198!4d-95.538485",
Villa Fresh Italian Kitchen,Laguardia Airport,FLUSHING,NY,11371,7187794477.0,"https://www.google.com/maps/place/Villa+Italian+Kitchen/@40.7746195,-73.8721974,17z/data=!3m1!4b1!4m5!3m4!1s0x89c25f821fed758d:0x8e96175ae22ca41a!8m2!3d40.7746195!4d-73.8721974",
Villa Fresh Italian Kitchen,101 N Grant St,WEST LAFAYETTE,IN,47906-3574,7654948878.0,"https://www.google.com/maps/place/Villa+Italian+Kitchen/@40.4250343,-86.9112319,17z/data=!3m1!4b1!4m5!3m4!1s0x8812e2ae1258396b:0x1d756e03ac760ac5!8m2!3d40.4250343!4d-86.9112319",
Villa Fresh Italian Kitchen,3811 S Cooper St,ARLINGTON,TX,76015-4120,8178775288.0,"https://www.google.com/maps/place/Villa+Italian+Kitchen/@32.680856,-97.1298581,17z/data=!3m1!4b1!4m5!3m4!1s0x864e62dbf477ea31:0x827164b475372bee!8m2!3d32.680856!4d-97.1298581",
Villa Fresh Italian Kitchen,400 N Center St,WESTMINSTER,MD,21157-5057,4108489535.0,"https://www.google.com/maps/place/Villa+Fresh+Italian+Kitchen/@39.5794477,-76.9830008,17z/data=!3m1!4b1!4m5!3m4!1s0x89c8478a4d7a613b:0x6e8d31c65aa3b044!8m2!3d39.5794477!4d-76.9830008",
Villa Fresh Italian Kitchen,7400 Las Vegas Blvd S,LAS VEGAS,NV,89123-1000,7024318225.0,"https://www.google.com/maps/place/Villa+Fresh+Italian+Kitchen/@36.052449,-115.1706995,17z/data=!3m1!5s0x80c8cf5cc390f9bf:0x7edf0a3a0f05487c!4m5!3m4!1s0x80c8cf5cc2ab1297:0x15ef47ce0f9b85eb!8m2!3d36.0524447!4d-115.1685108?hl=en",
Villa Fresh Italian Kitchen,48650 Seminole Dr,CABAZON,CA,92230-2157,9518495058.0,"https://www.google.com/maps/place/Blaze+Pizza/@33.4826079,-118.4467356,8z/data=!3m1!5s0x80db408ef5e46eb5:0x7edf0a3a350b4db5!4m8!1m2!2m1!1sBlaze+Pizza+HEMET+CA!3m4!1s0x80db408e5cf28a6f:0x864d7a9d3a14539c!8m2!3d33.92754!4d-116.812779?hl=en",
Villa Fresh Italian Kitchen,6401 Bluebonnet Blvd,BATON ROUGE,LA,70836-6401,2257678459.0,"https://www.google.com/maps/place/Villa+Fresh+Italian+Kitchen/@30.3882809,-91.0865791,17z/data=!3m1!4b1!4m5!3m4!1s0x8626a4fcc8e2c2bd:0xe53caf7c1c5f3579!8m2!3d30.3882809!4d-91.0865791",
Villa Fresh Italian Kitchen,2501 W Memorial Rd,OKLAHOMA CITY,OK,73134-8021,4057511444.0,"https://www.google.com/maps/place/Villa+Italian+Kitchen/@36.6451312,-98.5238493,8z/data=!4m8!1m2!2m1!1sVilla+Fresh+Italian+Kitchen+2501+W+Memorial+Rd+OKLAHOMA+CITY+OK+73134-8021!3m4!1s0x87b21c5d5c28467d:0xff5495409effc4ae!8m2!3d35.6131271!4d-97.5583733?hl=en",
Villa Fresh Italian Kitchen,12300 Jefferson Ave,NEWPORT NEWS,VA,23602-6900,7578849325.0,"https://www.google.com/maps/place/Villa+Fresh+Italian+Kitchen/@44.8548929,-93.2421124,17z/data=!3m1!4b1!4m5!3m4!1s0x87f62f6cc03a4105:0xf51c1cc9a2d8750f!8m2!3d44.8548929!4d-93.2421124",
Villa Fresh Italian Kitchen,2259 Galleria at Tyler,RIVERSIDE,CA,92503-4145,9512997109.0,"https://www.google.com/maps/place/Villa+Italian+Kitchen/@33.9098552,-117.4590419,17z/data=!3m1!5s0x80dcb74a8ae6ed13:0x663c92ccaf866da6!4m5!3m4!1s0x80dcb74a94176bf5:0xd1677666f21d167d!8m2!3d33.9098508!4d-117.4568532?hl=en",
Villa Fresh Italian Kitchen,5870 E. Broadway Blvd,TUCSON,AZ,85711,5207900392.0,"https://www.google.com/maps/place/Villa+Fresh+Italian+Kitchen/@32.2182934,-110.8651834,17z/data=!3m1!4b1!4m5!3m4!1s0x86d66f9869ca076f:0x61b3a9aa40f8ea21!8m2!3d32.2182934!4d-110.8651834",
Villa Fresh Italian Kitchen,8 Lakewood Center Mall,LAKEWOOD,CA,90712-2418,5622724510.0,"https://www.google.com/maps/place/Villa+Fresh+Italian+Kitchen/@33.8518594,-118.1424577,17z/data=!3m1!5s0x80dd32f5ad4838c1:0xf16df7f710f483fb!4m5!3m4!1s0x80dd32f45557c7e5:0x8398c7bcd3079aae!8m2!3d33.851855!4d-118.140269?hl=en",
Villa Fresh Italian Kitchen,307 Menlo Park,EDISON,NJ,8837,7323210083.0,"https://www.google.com/maps/place/Villa+Fresh+Italian+Kitchen/@40.5707348,-74.4458091,10z/data=!3m1!5s0x89c3b64034c56051:0x663c92cc86785886!4m8!1m2!2m1!1sVilla+Fresh+Italian+Kitchen+307+Menlo+Park+EDISON+NJ+8837!3m4!1s0x89c3b66a985a3ebf:0xf15bc3e77e081ca6!8m2!3d40.548308!4d-74.334697?hl=en",
Villa Fresh Italian Kitchen,3251 20th Ave,SAN FRANCISCO,CA,94132-1900,4157391625.0,"https://www.google.com/maps/place/Villa+Italian+Kitchen/@37.7278819,-122.4768754,17z/data=!3m1!4b1!4m5!3m4!1s0x808f7dba4bb49829:0x7938c234bbdf7d8e!8m2!3d37.7278819!4d-122.4768754",
Villa Fresh Italian Kitchen,1123 129th Ave,WAYLAND,MI,49348-9476,2697927621.0,"https://www.google.com/maps/place/Villa+Fresh+Italian+Kitchen/@42.7555802,-85.8455764,11z/data=!4m8!1m2!2m1!1sVilla+Fresh+Italian+Kitchen+1123+129th+Ave+WAYLAND+MI+49348-9476!3m4!1s0x8819cd8f17b2b243:0x52f52d2f9ee0078d!8m2!3d42.6316697!4d-85.6555295?hl=en",
Villa Fresh Italian Kitchen,2860 Cumberland Mall Se,ATLANTA,GA,30339-3159,7704324357.0,"https://www.google.com/maps/place/Villa+Italian+Kitchen/@33.8799947,-84.4680649,17z/data=!3m1!4b1!4m5!3m4!1s0x88f51044bf07f6eb:0xe3db095ba8f365d2!8m2!3d33.8799947!4d-84.4680649",
Villa Fresh Italian Kitchen,5000 Katy Mills Cir,KATY,TX,77494-4402,2816444826.0,"https://www.google.com/maps/place/Villa+Fresh+Italian+Kitchen/@29.7744154,-95.8092067,17z/data=!3m1!4b1!4m5!3m4!1s0x864126a17f5b0587:0xa0b90ae0366d5eea!8m2!3d29.7744154!4d-95.8092067",
Villa Fresh Italian Kitchen,263 W 42nd St,NEW YORK,NY,10036,2123022941.0,"https://www.google.com/maps/place/Villa+Fresh+Italian+Kitchen/@40.757291,-73.989259,17z/data=!3m1!4b1!4m5!3m4!1s0x89c2585368733ff9:0x5d873bde4467f5d7!8m2!3d40.757291!4d-73.989259",
Villa Fresh Italian Kitchen,14700 E Indiana Ave,SPOKANE VALLEY,WV,99207,5094847159.0,"https://www.google.com/maps/place/Villa+Italian+Kitchen/@47.7022103,-117.4090196,17z/data=!3m1!4b1!4m5!3m4!1s0x549e19376ebe6f3d:0x6c039bab6ae65ef7!8m2!3d47.7022103!4d-117.4090196",
Villa Fresh Italian Kitchen,2020 S Expressway 83,HARLINGEN,TX,78552-5902,9564129512.0,"https://www.google.com/maps/place/Villa+Fresh+Italian+Kitchen/@26.1842033,-97.7212424,17z/data=!4m8!1m2!2m1!1sVilla+Fresh+Italian+Kitchen+2020+S+Expressway+83+HARLINGEN+TX+78552-5902!3m4!1s0x866f81958f22414d:0xa8cf303d75061386!8m2!3d26.1844621!4d-97.7189681?hl=en",
Villa Fresh Italian Kitchen,1600 N Riverside Ave,MEDFORD,OR,97501-4652,5417728634.0,"https://www.google.com/maps/place/Villa+Fresh+Italian+Kitchen/@42.3449681,-122.8780947,17z/data=!3m1!4b1!4m5!3m4!1s0x54cf7bb61910db7b:0x1d61783d56ec956f!8m2!3d42.3449681!4d-122.8780947",
Villa Fresh Italian Kitchen,6600 Topanga Canyon Blvd,CANOGA PARK,CA,91303-2666,8186102640.0,"https://www.google.com/maps/place/Villa+Fresh+Italian+Kitchen/@34.190439,-118.6024115,17z/data=!3m1!4b1!4m5!3m4!1s0x80c29c22ebd4a073:0x3aba5b2472483a01!8m2!3d34.190439!4d-118.6024115",
Villa Fresh Italian Kitchen,100 Premium Outlet Dr,BLACKWOOD,NJ,08012-3863,8562218135.0,"https://www.google.com/maps/place/Villa+Italian+Kitchen/@40.0047164,-75.1333714,9z/data=!4m8!1m2!2m1!1sVilla+Fresh+Italian+Kitchen+100+Premium+Outlet+Dr+BLACKWOOD+NJ+08012-3863!3m4!1s0x89c6d22d74fa6d0b:0x1f6f8b370301d75a!8m2!3d39.7857113!4d-75.0516142?hl=en",
Villa Fresh Italian Kitchen,2501 Wabash Ave,SPRINGFIELD,IL,62704-0614,2177266377.0,"https://www.google.com/maps/place/Villa+Fresh+Italian+Kitchen/@41.8005977,-88.2735943,17z/data=!3m1!4b1!4m5!3m4!1s0x880efbbb107368e7:0x7b1434380a9a3434!8m2!3d41.8005977!4d-88.2735943",
Villa Fresh Italian Kitchen,6200 20th St,VERO BEACH,FL,32966-1012,7725679780.0,"https://www.google.com/maps/place/Villa+Fresh+Italian+Kitchen/@27.6421642,-80.4601167,17z/data=!3m1!4b1!4m5!3m4!1s0x88de6080991bd27d:0x506f021a299dcd1e!8m2!3d27.6421642!4d-80.4601167",
Villa Fresh Italian Kitchen,3333 W Touhy Ave,LINCOLNWOOD,IL,60712-2721,8477631556.0,"https://www.google.com/maps/place/Villa+Fresh+Italian+Kitchen/@42.0102608,-87.7141059,17z/data=!3m1!4b1!4m5!3m4!1s0x880fce33efd3ae21:0x66e9ecfadd391c1c!8m2!3d42.0102608!4d-87.7141059",
Villa Fresh Italian Kitchen,Florida Turnpike Mile Marker 184,OKEECHOBEE,FL,34972,8637634302.0,"https://www.google.com/maps/place/Villa+Italian+Kitchen/@27.6022959,-80.8253953,17z/data=!4m8!1m2!2m1!1sVilla+Fresh+Italian+Kitchen+Florida+Turnpike+Mile+Marker+184+OKEECHOBEE+FL+34972!3m4!1s0x88dc2abc8fe6630b:0x319527453eeda1ca!8m2!3d27.6024287!4d-80.8233047?hl=en",
Villa Fresh Italian Kitchen,5757 Wayne Newton Blvd,LAS VEGAS,NV,89111-8037,7022613131.0,"https://www.google.com/maps/place/Villa+Fresh+Italian+Kitchen/@36.0825224,-115.1481856,17z/data=!3m1!4b1!4m5!3m4!1s0x80c8c599589ab5ad:0x90c7a35750bb245b!8m2!3d36.0825224!4d-115.1481856",
Villa Fresh Italian Kitchen,2100 NW 42nd Ave,MIAMI,FL,33122,3058694616.0,"https://www.google.com/maps/place/Villa+Fresh+Italian+Kitchen/@25.797163,-80.274733,17z/data=!3m1!4b1!4m5!3m4!1s0x88d9b7ce44622bfb:0x4678a355aa24149b!8m2!3d25.797163!4d-80.274733",
Villa Fresh Italian Kitchen,9617 N Metro Pkwy W,PHOENIX,AZ,85051-1400,6029435012.0,"https://www.google.com/maps/place/Villa+Fresh+Italian+Kitchen/@33.5756703,-112.1217839,17z/data=!3m1!4b1!4m5!3m4!1s0x872b6c68b0c9dcf9:0xe5a1085802679cbb!8m2!3d33.5756703!4d-112.1217839",
Villa Fresh Italian Kitchen,29300 Highway 290,CYPRESS,TX,77433-4253,2817582851.0,"https://www.google.com/maps/place/Villa+Fresh+Italian+Kitchen/@29.9969158,-95.7592382,17z/data=!3m1!5s0x86412af1957a345f:0x7edf0a3a4568b345!4m5!3m4!1s0x86412af19219b14b:0xdc10255c3933d35e!8m2!3d29.9969112!4d-95.7570495?hl=en",
Villa Fresh Italian Kitchen,459 Opry Mills Dr.,NASHVILLE,TN,37214-2440,6156490431.0,"https://www.google.com/maps/place/Villa+Fresh+Italian+Kitchen/@36.2053669,-86.6962636,17z/data=!3m1!4b1!4m5!3m4!1s0x886469cf138e0b3b:0xf1672ffc702d4cd9!8m2!3d36.2053669!4d-86.6962636",
Villa Fresh Italian Kitchen,8200 Vineland Ave,ORLANDO,FL,32821-6827,4074651777.0,"https://www.google.com/maps/place/Villa+Italian+Kitchen/@28.387225,-81.492688,17z/data=!3m1!4b1!4m5!3m4!1s0x88dd8014b52629c5:0x975b9f0281da35ee!8m2!3d28.387225!4d-81.492688",
Villa Fresh Italian Kitchen,701 Lynnhaven Pkwy,VIRGINIA BEACH,VA,23452-7299,7572757490.0,"https://www.google.com/maps/place/Villa+Italian+Kitchen/@36.8161911,-76.0720382,17z/data=!3m1!4b1!4m5!3m4!1s0x89baeaa799696e55:0xeb183d4db5d836e8!8m2!3d36.8161911!4d-76.0720382",
Villa Fresh Italian Kitchen,8401 Park Meadows Center Dr,LONE TREE,CO,80124-5128,3038589984.0,"https://www.google.com/maps/place/Villa+Italian+Kitchen/@39.5632579,-104.8758387,17z/data=!3m1!4b1!4m5!3m4!1s0x876c85bb1a72d07b:0x408e52ac37d09d26!8m2!3d39.5632579!4d-104.8758387",
Villa Fresh Italian Kitchen,5001 E Expressway 83,MERCEDES,TX,78570-4571,9568259000.0,"https://www.google.com/maps/place/Villa+Fresh+Italian+Kitchen/@26.1617153,-97.888264,17z/data=!3m1!4b1!4m5!3m4!1s0x866578dbf4a7688b:0x497e928e76fe1a4c!8m2!3d26.1617153!4d-97.888264",
Villa Fresh Italian Kitchen,320 W 5th Ave,ANCHORAGE,AK,99501-2353,9072790456.0,"https://www.google.com/maps/place/Villa+Fresh+Italian+Kitchen/@61.2170823,-149.8885817,17z/data=!3m1!4b1!4m5!3m4!1s0x56c89629bde7481f:0x51cec4385b9fdd28!8m2!3d61.2170823!4d-149.8885817",
Villa Fresh Italian Kitchen,4954 Great Northern Mall,OLMSTED,OH,44070,4407770330.0,"https://www.google.com/maps/place/Villa+Italian+Kitchen/@41.4176024,-81.9067945,17z/data=!3m1!4b1!4m5!3m4!1s0x8830930b1f2ec9d3:0xcee726b70024ee89!8m2!3d41.4176024!4d-81.9067945",
Villa Fresh Italian Kitchen,8201 S Tamiami Trl,SARASOTA,FL,34238-2966,9419210703.0,"https://www.google.com/maps/place/Villa+Italian+Kitchen/@27.2550058,-83.6763213,7z/data=!3m1!5s0x88c343eba896d21d:0x7edf0a3a3faf086c!4m8!1m2!2m1!1sVilla+Fresh+Italian+Kitchen+8201+S+Tamiami+Trl+SARASOTA+FL+34238-2966!3m4!1s0x88c343eb7688d437:0x44edc42434a8be1a!8m2!3d27.2336682!4d-82.4924783?hl=en",
Villa Fresh Italian Kitchen,Newark Liberty International Airport,NEWARK,NJ,7114,9736232717.0,"https://www.google.com/maps/place/Villa+Fresh+Italian+Kitchen/@40.687481,-74.18236,17z/data=!3m1!4b1!4m5!3m4!1s0x89c252f1406ce953:0x79c38ff526681dc8!8m2!3d40.687481!4d-74.18236",
Villa Fresh Italian Kitchen,11401 Pines Blvd,PEMBROKE PINES,FL,33026-4117,9546021450.0,"https://www.google.com/maps/place/Villa+Italian+Kitchen/@26.0112171,-80.3044283,17z/data=!3m1!4b1!4m5!3m4!1s0x88d9a6721b2c58a9:0xb22dd340a6ac4931!8m2!3d26.0112171!4d-80.3044283",
Villa Fresh Italian Kitchen,5043 Tuttle Crossing Blvd,DUBLIN,OH,43016-1511,6147932398.0,"https://www.google.com/maps/place/Villa+Italian+Kitchen/@40.074149,-83.138368,17z/data=!3m1!4b1!4m5!3m4!1s0x88389305050b6673:0x712b849256e89664!8m2!3d40.074149!4d-83.138368",
Villa Fresh Italian Kitchen,4976 Premium Outlets Way,CHANDLER,AZ,85226-5507,4806391900.0,"https://www.google.com/maps/place/Villa+Italian+Kitchen/@33.2876688,-111.9735149,17z/data=!3m1!4b1!4m5!3m4!1s0x872b03f45f8d55a3:0x8ca8006e54c95d2b!8m2!3d33.2876688!4d-111.9735149",
Villa Fresh Italian Kitchen,364 Maine Mall Rd,SOUTH PORTLAND,ME,04106-3206,2078790491.0,"https://www.google.com/maps/place/Villa+Italian+Kitchen/@43.6323591,-70.3336379,17z/data=!3m1!4b1!4m5!3m4!1s0x4cb299137969172d:0x2e43483a860735a4!8m2!3d43.6323591!4d-70.3336379",
Villa Fresh Italian Kitchen,2235 S. Mooney Blvd.,VISALIA,CA,93277-6241,5596271140.0,"https://www.google.com/maps/place/Villa+Italian+Kitchen/@36.3105391,-119.3153976,17z/data=!3m1!4b1!4m5!3m4!1s0x80952f37d962c4a7:0x10de646ca1291d3!8m2!3d36.3105391!4d-119.3153976",
Villa Fresh Italian Kitchen,11011 W Charleston Blvd,LAS VEGAS,NV,89135-1402,7028383156.0,"https://www.google.com/maps/place/Villa+Fresh+Italian+Kitchen/@36.1563646,-115.3336347,17z/data=!3m1!4b1!4m5!3m4!1s0x80c8be53adedb5db:0xf005d2ba0cdb5a4!8m2!3d36.1563646!4d-115.3336347",
Villa Fresh Italian Kitchen,1201 Lake Woodlands Dr,THE WOODLANDS,TX,77380-5000,2814195060.0,"https://www.google.com/maps/place/Villa+Fresh+Italian+Kitchen/@30.164101,-95.455793,17z/data=!3m1!4b1!4m5!3m4!1s0x864736ea61fce389:0x6bfad8e4d0995cae!8m2!3d30.164101!4d-95.455793",
Villa Fresh Italian Kitchen,500 Port of New Orleans Pl,NEW ORLEANS,LA,70130-1662,5048720045.0,"https://www.google.com/maps/place/Villa+Fresh+Italian+Kitchen/@29.944427,-90.0621716,17z/data=!3m1!4b1!4m5!3m4!1s0x8620a66cfd902f09:0xaea1a6cc7b7e649d!8m2!3d29.944427!4d-90.0621716",
Villa Fresh Italian Kitchen,6909 N Loop 1604 E,SAN ANTONIO,TX,78247-5311,2106510793.0,"https://www.google.com/maps/place/Villa+Fresh+Italian+Kitchen/@29.5972553,-98.3501312,17z/data=!3m1!4b1!4m5!3m4!1s0x865c8dcae50877ff:0x803377c056a0c421!8m2!3d29.5972553!4d-98.3501312",
Villa Fresh Italian Kitchen,686 Baltimore Pike,BEL AIR,MD,21014-4223,4104207135.0,"https://www.google.com/maps/place/Villa+Fresh+Italian+Kitchen/@39.526234,-76.357455,17z/data=!3m1!4b1!4m5!3m4!1s0x89c7ddddc8c90b0b:0x53ad90e61bd5b8f1!8m2!3d39.526234!4d-76.357455",
Villa Fresh Italian Kitchen,333 Burnadette Rd,COLUMBIA,MO,65203,5734452332.0,"https://www.google.com/maps/place/Villa+Italian+Kitchen/@40.1665736,-94.4333369,7z/data=!3m1!5s0x87dcc9fdf4f3aa7f:0x7edf0a3a2197a83c!4m8!1m2!2m1!1sVilla+Fresh+Italian+Kitchen+333+Burnadette+Rd+COLUMBIA+MO+65203!3m4!1s0x87dcc9fdf3cfd73b:0x36554a197446591b!8m2!3d38.9640513!4d-92.3754305?hl=en",
Villa Fresh Italian Kitchen,7700 E Kellogg Dr,WICHITA,KS,67207-1719,3166849050.0,"https://www.google.com/maps/place/Villa+Fresh+Italian+Kitchen/@37.6832317,-97.2471178,17z/data=!3m1!4b1!4m5!3m4!1s0x87bafcbce881329f:0xd66b2db4f745fa62!8m2!3d37.6832317!4d-97.2471178",
Villa Fresh Italian Kitchen,40 Factory Shops Blvd,GAFFNEY,SC,29341-3321,8644879484.0,"https://www.google.com/maps/place/Villa+Fresh+Italian+Kitchen/@39.4154569,-104.8723143,17z/data=!3m1!4b1!4m5!3m4!1s0x876c99946f5be18d:0x88d524061d7d913f!8m2!3d39.4154569!4d-104.8723143",
Villa Fresh Italian Kitchen,1900 Tamiami Trail N,NAPLES,FL,34102,2392637230.0,"https://www.google.com/maps/place/Villa+Italian+Kitchen/@26.1695582,-81.79394,17z/data=!3m1!4b1!4m5!3m4!1s0x88dae1e91aa045ef:0x48edbdf0ae53bd08!8m2!3d26.1695582!4d-81.79394",
Villa Fresh Italian Kitchen,14500 W Colfax Ave,LAKEWOOD,CO,80401-3203,3035901546.0,"https://www.google.com/maps/place/Villa+Italian+Kitchen/@39.7316965,-105.160049,17z/data=!3m1!4b1!4m5!3m4!1s0x876b8468c3210f51:0x8065c74775b659b4!8m2!3d39.7316965!4d-105.160049",
Villa Fresh Italian Kitchen,320 W Kimberly Rd,DAVENPORT,IA,52806-5920,6533886044.0,"https://www.google.com/maps/place/Villa+Fresh+Italian+Kitchen/@41.5626685,-90.576272,17z/data=!3m1!4b1!4m5!3m4!1s0x87e2351cff5986bf:0x68e8c7a5311fea70!8m2!3d41.5626685!4d-90.576272",
Villa Fresh Italian Kitchen,32100 Las Vegas Blvd S,PRIMM,NV,89019-7013,7022613131.0,"https://www.google.com/maps/place/Villa+Fresh+Italian+Kitchen/@36.1518417,-115.380994,11z/data=!3m1!5s0x80c8c59c756e4961:0xbf4c4fe33774db5f!4m8!1m2!2m1!1sVilla+Fresh+Italian+Kitchen+LAS+VEGAS+NV!3m4!1s0x80c8c599589ab5ad:0x90c7a35750bb245b!8m2!3d36.0825224!4d-115.1481856?hl=en",
Villa Fresh Italian Kitchen,101 Jordan Creek Pkwy,WEST DES MOINES,IA,50266-8118,5152237725.0,"https://www.google.com/maps/place/Villa+Fresh+Italian+Kitchen/@41.5693989,-93.8043948,17z/data=!3m1!4b1!4m5!3m4!1s0x87ec21a2a0e605a7:0xfe88a6a594116d82!8m2!3d41.5693989!4d-93.8043948",
Villa Fresh Italian Kitchen,3131 Manchester Expy,COLUMBUS,GA,31909-6400,7062577779.0,"https://www.google.com/maps/place/Villa+Italian+Kitchen/@32.5083706,-84.943652,17z/data=!3m1!4b1!4m5!3m4!1s0x888cccb4694f21c3:0x2d5ad58ec78d564b!8m2!3d32.5083706!4d-84.943652",
Villa Fresh Italian Kitchen,1000 Ross Park Mall Dr,PITTSBURGH,PA,15237-3875,4123589921.0,"https://www.google.com/maps/place/Villa+Fresh+Italian+Kitchen/@40.5434381,-80.0085581,17z/data=!3m1!4b1!4m5!3m4!1s0x88348ca06aae511f:0xf338458da588cf3a!8m2!3d40.5434381!4d-80.0085581",
Villa Fresh Italian Kitchen,10600 Quil Ceda Blvd,QUIL CEDA VILLAGE,WA,98271-8092,3607163001.0,"https://www.google.com/maps/place/Villa+Fresh+Italian+Kitchen/@48.0927799,-122.1890946,17z/data=!3m1!4b1!4m5!3m4!1s0x548553e2e853e283:0x44f160bfeb7b2d7b!8m2!3d48.0927799!4d-122.1890946",
Villa Fresh Italian Kitchen,3965 Eagan Outlets Pkwy,EAGAN,MN,55122-4417,6516886999.0,"https://www.google.com/maps/place/Twin+Cities+Premium+Outlets/@44.8157017,-93.2168269,17z/data=!3m1!4b1!4m5!3m4!1s0x87f62e320be295d1:0xc7eace24f31e2369!8m2!3d44.8156979!4d-93.2146382?hl=en",
Villa Fresh Italian Kitchen,691 Richmond Rd,CLEVELAND,OH,44143-2954,4404613887.0,"https://www.google.com/maps/place/Villa+Fresh+Italian+Kitchen/@44.8548929,-93.2421124,17z/data=!3m1!4b1!4m5!3m4!1s0x87f62f6cc03a4105:0xf51c1cc9a2d8750f!8m2!3d44.8548929!4d-93.2421124",
